[
    {
        "lat": 41.059317,
        "lon": 28.895181,
        "tags": {
            "addr:city": "İstanbul",
            "addr:district": "Bayrampaşa",
            "description": "",
            "opening_hours": null,
            "phone": null,
            "branch": null,
            "amenity": "fitness_centre",
            "mobile": null,
            "addr:street": null,
            "cuisine": null,
            "name": "Fitness World GYM",
            "name:en": null,
            "name:uk": null,
            "name:de": null,
            "name:tr": null,
            "name:ru": null,
            "name:ar": null
        }
    },
    {
        "lat": 40.9006884,
        "lon": 29.1680089,
        "tags": {
            "addr:city": "İstanbul",
            "addr:district": null,
            "description": "",
            "opening_hours": null,
            "phone": null,
            "branch": null,
            "amenity": "fitness_centre",
            "mobile": null,
            "addr:street": null,
            "cuisine": null,
            "name": "Caroline fitness center",
            "name:en": null,
            "name:uk": null,
            "name:de": null,
            "name:tr": null,
            "name:ru": null,
            "name:ar": null
        }
    },
    {
        "lat": 41.0347954,
        "lon": 28.9215006,
        "tags": {
            "addr:city": "İstanbul",
            "addr:district": "Eyüpsultan",
            "description": "",
            "opening_hours": "Mo-Fr 06:30-23:00; Sa,Su 09:00-20:00",
            "phone": "+90 850 241 30 00",
            "branch": "Axis İstanbul",
            "amenity": "fitness_centre",
            "mobile": null,
            "addr:street": "Osmangazi Caddesi",
            "cuisine": null,
            "name": "MACFit",
            "name:en": null,
            "name:uk": null,
            "name:de": null,
            "name:tr": null,
            "name:ru": null,
            "name:ar": null
        }
    },
    {
        "lat": 41.0315366,
        "lon": 28.9826437,
        "tags": {
            "addr:city": "İstanbul",
            "addr:district": null,
            "description": "",
            "opening_hours": null,
            "phone": null,
            "branch": null,
            "amenity": "fitness_centre",
            "mobile": null,
            "addr:street": null,
            "cuisine": null,
            "name": "CS-Club",
            "name:en": null,
            "name:uk": null,
            "name:de": null,
            "name:tr": null,
            "name:ru": null,
            "name:ar": null
        }
    },
    {
        "lat": 40.9823221,
        "lon": 29.0378589,
        "tags": {
            "addr:city": "İstanbul",
            "addr:district": null,
            "description": "",
            "opening_hours": null,
            "phone": null,
            "branch": null,
            "amenity": "fitness_centre",
            "mobile": null,
            "addr:street": null,
            "cuisine": null,
            "name": "Hariom Yoga",
            "name:en": null,
            "name:uk": null,
            "name:de": null,
            "name:tr": "Hariom Yoga",
            "name:ru": null,
            "name:ar": null
        }
    },
    {
        "lat": 40.9886311,
        "lon": 29.0247494,
        "tags": {
            "addr:city": "İstanbul",
            "addr:district": null,
            "description": "",
            "opening_hours": null,
            "phone": null,
            "branch": null,
            "amenity": "fitness_centre",
            "mobile": null,
            "addr:street": null,
            "cuisine": null,
            "name": "Sport Universe Gym",
            "name:en": null,
            "name:uk": null,
            "name:de": null,
            "name:tr": null,
            "name:ru": null,
            "name:ar": null
        }
    },
    {
        "lat": 41.07284,
        "lon": 28.8888062,
        "tags": {
            "addr:city": "İstanbul",
            "addr:district": null,
            "description": "",
            "opening_hours": null,
            "phone": null,
            "branch": null,
            "amenity": "fitness_centre",
            "mobile": null,
            "addr:street": null,
            "cuisine": null,
            "name": "Dark Fitnes",
            "name:en": null,
            "name:uk": null,
            "name:de": null,
            "name:tr": null,
            "name:ru": null,
            "name:ar": null
        }
    },
    {
        "lat": 40.9596958,
        "lon": 29.0919308,
        "tags": {
            "addr:city": "İstanbul",
            "addr:district": null,
            "description": "",
            "opening_hours": null,
            "phone": null,
            "branch": null,
            "amenity": "fitness_centre",
            "mobile": null,
            "addr:street": null,
            "cuisine": null,
            "name": "Champion Gym",
            "name:en": null,
            "name:uk": null,
            "name:de": null,
            "name:tr": null,
            "name:ru": null,
            "name:ar": null
        }
    },
    {
        "lat": 40.9987414,
        "lon": 28.8590379,
        "tags": {
            "addr:city": "İstanbul",
            "addr:district": null,
            "description": "",
            "opening_hours": null,
            "phone": null,
            "branch": null,
            "amenity": "fitness_centre",
            "mobile": null,
            "addr:street": null,
            "cuisine": null,
            "name": "Fitnesspark Bahçelievler",
            "name:en": null,
            "name:uk": null,
            "name:de": null,
            "name:tr": null,
            "name:ru": null,
            "name:ar": null
        }
    },
    {
        "lat": 40.8895515,
        "lon": 29.1800866,
        "tags": {
            "addr:city": "İstanbul",
            "addr:district": null,
            "description": "",
            "opening_hours": null,
            "phone": null,
            "branch": null,
            "amenity": "fitness_centre",
            "mobile": null,
            "addr:street": null,
            "cuisine": null,
            "name": "MACFit",
            "name:en": null,
            "name:uk": null,
            "name:de": null,
            "name:tr": "Macfit",
            "name:ru": null,
            "name:ar": null
        }
    },
    {
        "lat": 40.9744731,
        "lon": 29.0680747,
        "tags": {
            "addr:city": "İstanbul",
            "addr:district": "Kadıköy",
            "description": "",
            "opening_hours": null,
            "phone": "+90 541 6557017",
            "branch": null,
            "amenity": "fitness_centre",
            "mobile": null,
            "addr:street": "Akış Sokağı",
            "cuisine": null,
            "name": "Luff Functional Fitness",
            "name:en": null,
            "name:uk": null,
            "name:de": null,
            "name:tr": null,
            "name:ru": null,
            "name:ar": null
        }
    },
    {
        "lat": 40.9666777,
        "lon": 29.2632209,
        "tags": {
            "addr:city": "İstanbul",
            "addr:district": null,
            "description": "",
            "opening_hours": null,
            "phone": null,
            "branch": null,
            "amenity": "fitness_centre",
            "mobile": null,
            "addr:street": null,
            "cuisine": null,
            "name": "Fitness",
            "name:en": null,
            "name:uk": null,
            "name:de": null,
            "name:tr": null,
            "name:ru": null,
            "name:ar": null
        }
    },
    {
        "lat": 41.0612661,
        "lon": 28.6442083,
        "tags": {
            "addr:city": "İstanbul",
            "addr:district": null,
            "description": "",
            "opening_hours": null,
            "phone": null,
            "branch": null,
            "amenity": "fitness_centre",
            "mobile": null,
            "addr:street": null,
            "cuisine": null,
            "name": "Basi Systems Pilates",
            "name:en": "Basi Systems Pilates",
            "name:uk": null,
            "name:de": null,
            "name:tr": "Basi Systems Pilates",
            "name:ru": null,
            "name:ar": null
        }
    },
    {
        "lat": 41.0109758,
        "lon": 28.9399615,
        "tags": {
            "addr:city": "İstanbul",
            "addr:district": null,
            "description": "",
            "opening_hours": null,
            "phone": "(0212) 586 01 09",
            "branch": null,
            "amenity": "fitness_centre",
            "mobile": null,
            "addr:street": null,
            "cuisine": null,
            "name": "Fit Slim",
            "name:en": null,
            "name:uk": null,
            "name:de": null,
            "name:tr": null,
            "name:ru": null,
            "name:ar": null
        }
    },
    {
        "lat": 41.0588754,
        "lon": 29.0244368,
        "tags": {
            "addr:city": "İstanbul",
            "addr:district": null,
            "description": "",
            "opening_hours": null,
            "phone": null,
            "branch": null,
            "amenity": "fitness_centre",
            "mobile": null,
            "addr:street": null,
            "cuisine": null,
            "name": "MACFit",
            "name:en": null,
            "name:uk": null,
            "name:de": null,
            "name:tr": null,
            "name:ru": null,
            "name:ar": null
        }
    },
    {
        "lat": 41.0121429,
        "lon": 28.9452624,
        "tags": {
            "addr:city": "Istanbul",
            "addr:district": "Fatih",
            "description": "",
            "opening_hours": null,
            "phone": null,
            "branch": null,
            "amenity": "fitness_centre",
            "mobile": null,
            "addr:street": "Tomrukçu Sokak",
            "cuisine": null,
            "name": "Xpower GYM",
            "name:en": null,
            "name:uk": null,
            "name:de": null,
            "name:tr": null,
            "name:ru": null,
            "name:ar": "نادي امس بور الرياضي"
        }
    },
    {
        "lat": 40.9953724,
        "lon": 28.9259827,
        "tags": {
            "addr:city": "Istanbul",
            "addr:district": "Fatih",
            "description": "",
            "opening_hours": null,
            "phone": null,
            "branch": null,
            "amenity": "fitness_centre",
            "mobile": null,
            "addr:street": "İmrahor ilyasbey caddesi",
            "cuisine": null,
            "name": "Asta la vista",
            "name:en": null,
            "name:uk": null,
            "name:de": null,
            "name:tr": null,
            "name:ru": null,
            "name:ar": "نادي أستا لا فيستا الرياضي"
        }
    },
    {
        "lat": 40.9800985,
        "lon": 29.0228621,
        "tags": {
            "addr:city": "İstanbul",
            "addr:district": null,
            "description": "",
            "opening_hours": null,
            "phone": null,
            "branch": null,
            "amenity": "fitness_centre",
            "mobile": null,
            "addr:street": null,
            "cuisine": null,
            "name": "Nefess Yoga",
            "name:en": null,
            "name:uk": null,
            "name:de": null,
            "name:tr": "Nefess yoga",
            "name:ru": null,
            "name:ar": null
        }
    },
    {
        "lat": 41.0165978,
        "lon": 28.9552928,
        "tags": {
            "addr:city": "Istanbul",
            "addr:district": "Fatih",
            "description": "",
            "opening_hours": null,
            "phone": null,
            "branch": null,
            "amenity": "fitness_centre",
            "mobile": null,
            "addr:street": "Kovacılar Sokak",
            "cuisine": null,
            "name": "King Fitness Center",
            "name:en": null,
            "name:uk": null,
            "name:de": null,
            "name:tr": null,
            "name:ru": null,
            "name:ar": "مركز الملك لكمال الأجسام"
        }
    },
    {
        "lat": 41.0111309,
        "lon": 28.9344692,
        "tags": {
            "addr:city": "Istanbul",
            "addr:district": "Turkey",
            "description": "",
            "opening_hours": null,
            "phone": null,
            "branch": null,
            "amenity": "fitness_centre",
            "mobile": null,
            "addr:street": "Ziya Gökalp Sokağı",
            "cuisine": null,
            "name": "Power Gym",
            "name:en": null,
            "name:uk": null,
            "name:de": null,
            "name:tr": null,
            "name:ru": null,
            "name:ar": "بور جيم"
        }
    },
    {
        "lat": 41.0054022,
        "lon": 28.9295494,
        "tags": {
            "addr:city": "Istanbul",
            "addr:district": "Fatih",
            "description": "",
            "opening_hours": null,
            "phone": null,
            "branch": null,
            "amenity": "fitness_centre",
            "mobile": null,
            "addr:street": "Vidin Caddesi",
            "cuisine": null,
            "name": "Extreme Body Fitness",
            "name:en": null,
            "name:uk": null,
            "name:de": null,
            "name:tr": null,
            "name:ru": null,
            "name:ar": "اكستريمي بودي فيتنس"
        }
    },
    {
        "lat": 41.0067288,
        "lon": 28.9300412,
        "tags": {
            "addr:city": "Istanbul",
            "addr:district": "Fatih",
            "description": "",
            "opening_hours": null,
            "phone": null,
            "branch": null,
            "amenity": "fitness_centre",
            "mobile": null,
            "addr:street": "Çevre Tiyatrosu Sokak",
            "cuisine": null,
            "name": "R-Form",
            "name:en": null,
            "name:uk": null,
            "name:de": null,
            "name:tr": null,
            "name:ru": null,
            "name:ar": "آر فورم"
        }
    },
    {
        "lat": 41.013165,
        "lon": 28.9348555,
        "tags": {
            "addr:city": "Istanbul",
            "addr:district": "Turkey",
            "description": "",
            "opening_hours": null,
            "phone": null,
            "branch": null,
            "amenity": "fitness_centre",
            "mobile": null,
            "addr:street": "Derviş Paşa Sokağı",
            "cuisine": null,
            "name": "Fit Life",
            "name:en": null,
            "name:uk": null,
            "name:de": null,
            "name:tr": null,
            "name:ru": null,
            "name:ar": "فيت لايف"
        }
    },
    {
        "lat": 41.0151994,
        "lon": 28.9595184,
        "tags": {
            "addr:city": "Istanbul",
            "addr:district": "Turkey",
            "description": "",
            "opening_hours": null,
            "phone": "(0212) 440 00 00",
            "branch": null,
            "amenity": "fitness_centre",
            "mobile": null,
            "addr:street": "Manav sokak",
            "cuisine": null,
            "name": "İÜ Coğrafya Stüdyo Kapalı Spor Salonu",
            "name:en": null,
            "name:uk": null,
            "name:de": null,
            "name:tr": null,
            "name:ru": null,
            "name:ar": "اسطنبول يونيفيرسيتي ستوديو كابالي سبور سالونو"
        }
    },
    {
        "lat": 41.0046175,
        "lon": 28.9339864,
        "tags": {
            "addr:city": "Istanbul",
            "addr:district": "Fatih",
            "description": "",
            "opening_hours": null,
            "phone": null,
            "branch": null,
            "amenity": "fitness_centre",
            "mobile": null,
            "addr:street": "koca mustafapasa caddesi",
            "cuisine": null,
            "name": "Champion",
            "name:en": null,
            "name:uk": null,
            "name:de": null,
            "name:tr": null,
            "name:ru": null,
            "name:ar": "شامبيون"
        }
    },
    {
        "lat": 41.0052519,
        "lon": 28.9314296,
        "tags": {
            "addr:city": "Istanbul",
            "addr:district": "Fatih",
            "description": "",
            "opening_hours": null,
            "phone": null,
            "branch": null,
            "amenity": "fitness_centre",
            "mobile": null,
            "addr:street": "Ramazan Efendi Cami Arkası",
            "cuisine": null,
            "name": "Club Sporıuum",
            "name:en": null,
            "name:uk": null,
            "name:de": null,
            "name:tr": null,
            "name:ru": null,
            "name:ar": "كلوب سبوريوم"
        }
    },
    {
        "lat": 41.0170332,
        "lon": 28.9510711,
        "tags": {
            "addr:city": "Istanbul",
            "addr:district": "Turkey",
            "description": "",
            "opening_hours": null,
            "phone": "5348840",
            "branch": null,
            "amenity": "fitness_centre",
            "mobile": null,
            "addr:street": "Nalbant demir sokak",
            "cuisine": null,
            "name": "Olympic spor salonu",
            "name:en": null,
            "name:uk": null,
            "name:de": null,
            "name:tr": null,
            "name:ru": null,
            "name:ar": "اوليمبك سبور سالونو"
        }
    },
    {
        "lat": 41.0154981,
        "lon": 28.9246339,
        "tags": {
            "addr:city": "Istanbul",
            "addr:district": "Fatih",
            "description": "",
            "opening_hours": null,
            "phone": null,
            "branch": null,
            "amenity": "fitness_centre",
            "mobile": null,
            "addr:street": "Lalezade Sokak",
            "cuisine": null,
            "name": "Türktaş Sitesi",
            "name:en": null,
            "name:uk": null,
            "name:de": null,
            "name:tr": null,
            "name:ru": null,
            "name:ar": "نادي(جيم) توركتاش سيتيسي"
        }
    },
    {
        "lat": 41.021879,
        "lon": 28.9463104,
        "tags": {
            "addr:city": "Istanbul",
            "addr:district": "Fatih",
            "description": "",
            "opening_hours": null,
            "phone": null,
            "branch": null,
            "amenity": "fitness_centre",
            "mobile": null,
            "addr:street": "Yedi emirler sokak",
            "cuisine": null,
            "name": "B fit",
            "name:en": null,
            "name:uk": null,
            "name:de": null,
            "name:tr": null,
            "name:ru": null,
            "name:ar": "ب فيت"
        }
    },
    {
        "lat": 41.0220654,
        "lon": 28.9461164,
        "tags": {
            "addr:city": "Istanbul",
            "addr:district": "Fatih",
            "description": "",
            "opening_hours": null,
            "phone": null,
            "branch": null,
            "amenity": "fitness_centre",
            "mobile": null,
            "addr:street": "Yedi emirler sokak",
            "cuisine": null,
            "name": "Troy Gym",
            "name:en": null,
            "name:uk": null,
            "name:de": null,
            "name:tr": null,
            "name:ru": null,
            "name:ar": "تروي جيم"
        }
    },
    {
        "lat": 41.0107006,
        "lon": 28.9432447,
        "tags": {
            "addr:city": "Istanbul",
            "addr:district": "Fatih",
            "description": "",
            "opening_hours": null,
            "phone": null,
            "branch": null,
            "amenity": "fitness_centre",
            "mobile": null,
            "addr:street": "Turgut özal millet Caddesi",
            "cuisine": null,
            "name": "Flamingo",
            "name:en": null,
            "name:uk": null,
            "name:de": null,
            "name:tr": null,
            "name:ru": null,
            "name:ar": "فلامينغو"
        }
    },
    {
        "lat": 41.0107895,
        "lon": 28.9413741,
        "tags": {
            "addr:city": "Istanbul",
            "addr:district": "Fatih",
            "description": "",
            "opening_hours": null,
            "phone": null,
            "branch": null,
            "amenity": "fitness_centre",
            "mobile": null,
            "addr:street": "Mollacami Sokak",
            "cuisine": null,
            "name": "Flamingo GYM",
            "name:en": null,
            "name:uk": null,
            "name:de": null,
            "name:tr": null,
            "name:ru": null,
            "name:ar": "فلامينغو"
        }
    },
    {
        "lat": 41.0104704,
        "lon": 28.9422074,
        "tags": {
            "addr:city": "Istanbul",
            "addr:district": "Fatih",
            "description": "",
            "opening_hours": null,
            "phone": null,
            "branch": null,
            "amenity": "fitness_centre",
            "mobile": null,
            "addr:street": "Münifpaşa Sokak",
            "cuisine": null,
            "name": "Fitness World",
            "name:en": null,
            "name:uk": null,
            "name:de": null,
            "name:tr": null,
            "name:ru": null,
            "name:ar": "فيتنيس ورد"
        }
    },
    {
        "lat": 41.0116376,
        "lon": 28.9397285,
        "tags": {
            "addr:city": "Istanbul",
            "addr:district": "Turkey",
            "description": "",
            "opening_hours": null,
            "phone": null,
            "branch": null,
            "amenity": "fitness_centre",
            "mobile": null,
            "addr:street": null,
            "cuisine": null,
            "name": "Hakkay Yağlı",
            "name:en": null,
            "name:uk": null,
            "name:de": null,
            "name:tr": null,
            "name:ru": null,
            "name:ar": "حاكاي ياغلي"
        }
    },
    {
        "lat": 41.0110995,
        "lon": 28.940002,
        "tags": {
            "addr:city": "Istanbul",
            "addr:district": "Fatih",
            "description": "",
            "opening_hours": null,
            "phone": "02125860109",
            "branch": null,
            "amenity": "fitness_centre",
            "mobile": null,
            "addr:street": "Tevfik fikret Sokak",
            "cuisine": null,
            "name": "Fitslim",
            "name:en": null,
            "name:uk": null,
            "name:de": null,
            "name:tr": null,
            "name:ru": null,
            "name:ar": "فيت سليم"
        }
    },
    {
        "lat": 41.0185139,
        "lon": 28.943873,
        "tags": {
            "addr:city": "Istanbul",
            "addr:district": "Turkey",
            "description": "",
            "opening_hours": null,
            "phone": null,
            "branch": null,
            "amenity": "fitness_centre",
            "mobile": null,
            "addr:street": "PALIPASA caddesi",
            "cuisine": null,
            "name": "Sportwani",
            "name:en": null,
            "name:uk": null,
            "name:de": null,
            "name:tr": null,
            "name:ru": null,
            "name:ar": "سبورتواني"
        }
    },
    {
        "lat": 41.0165387,
        "lon": 28.9462535,
        "tags": {
            "addr:city": "Istanbul",
            "addr:district": "Turkey",
            "description": "",
            "opening_hours": null,
            "phone": null,
            "branch": null,
            "amenity": "fitness_centre",
            "mobile": null,
            "addr:street": "PALIPASA caddesi",
            "cuisine": null,
            "name": "Atlas spor salonu",
            "name:en": null,
            "name:uk": null,
            "name:de": null,
            "name:tr": null,
            "name:ru": null,
            "name:ar": "صالون أطلس الرياضي"
        }
    },
    {
        "lat": 41.0192505,
        "lon": 28.9417219,
        "tags": {
            "addr:city": "Istanbul",
            "addr:district": "Turkey",
            "description": "",
            "opening_hours": null,
            "phone": null,
            "branch": null,
            "amenity": "fitness_centre",
            "mobile": null,
            "addr:street": "KORKUTATA sokak",
            "cuisine": null,
            "name": "Fatih Pilates gym",
            "name:en": null,
            "name:uk": null,
            "name:de": null,
            "name:tr": null,
            "name:ru": null,
            "name:ar": "فاتح جيم"
        }
    },
    {
        "lat": 41.0272708,
        "lon": 29.0316385,
        "tags": {
            "addr:city": "İstanbul",
            "addr:district": "Üsküdar",
            "description": "",
            "opening_hours": null,
            "phone": null,
            "branch": null,
            "amenity": "fitness_centre",
            "mobile": null,
            "addr:street": null,
            "cuisine": null,
            "name": "City Sport Center",
            "name:en": null,
            "name:uk": null,
            "name:de": null,
            "name:tr": null,
            "name:ru": null,
            "name:ar": null
        }
    },
    {
        "lat": 40.875801,
        "lon": 29.2533311,
        "tags": {
            "addr:city": "İstanbul",
            "addr:district": null,
            "description": "",
            "opening_hours": null,
            "phone": null,
            "branch": null,
            "amenity": "fitness_centre",
            "mobile": null,
            "addr:street": null,
            "cuisine": null,
            "name": "Mavi Club Fitness",
            "name:en": null,
            "name:uk": null,
            "name:de": null,
            "name:tr": null,
            "name:ru": null,
            "name:ar": null
        }
    },
    {
        "lat": 41.0704673,
        "lon": 28.9994091,
        "tags": {
            "addr:city": "İstanbul",
            "addr:district": null,
            "description": "",
            "opening_hours": null,
            "phone": null,
            "branch": null,
            "amenity": "fitness_centre",
            "mobile": null,
            "addr:street": null,
            "cuisine": null,
            "name": null,
            "name:en": null,
            "name:uk": null,
            "name:de": null,
            "name:tr": null,
            "name:ru": null,
            "name:ar": null
        }
    },
    {
        "lat": 40.8976504,
        "lon": 29.1695091,
        "tags": {
            "addr:city": "İstanbul",
            "addr:district": null,
            "description": "",
            "opening_hours": null,
            "phone": null,
            "branch": null,
            "amenity": "fitness_centre",
            "mobile": null,
            "addr:street": null,
            "cuisine": null,
            "name": "Dragos FitnessCity",
            "name:en": null,
            "name:uk": null,
            "name:de": null,
            "name:tr": null,
            "name:ru": null,
            "name:ar": null
        }
    },
    {
        "lat": 40.8974003,
        "lon": 29.1674757,
        "tags": {
            "addr:city": "İstanbul",
            "addr:district": null,
            "description": "",
            "opening_hours": null,
            "phone": null,
            "branch": null,
            "amenity": "fitness_centre",
            "mobile": null,
            "addr:street": null,
            "cuisine": null,
            "name": "Lifetime Fitness Center",
            "name:en": null,
            "name:uk": null,
            "name:de": null,
            "name:tr": null,
            "name:ru": null,
            "name:ar": null
        }
    },
    {
        "lat": 40.8977506,
        "lon": 29.1679014,
        "tags": {
            "addr:city": "İstanbul",
            "addr:district": null,
            "description": "",
            "opening_hours": null,
            "phone": null,
            "branch": null,
            "amenity": "fitness_centre",
            "mobile": null,
            "addr:street": null,
            "cuisine": null,
            "name": "Salon Alican Öncel",
            "name:en": null,
            "name:uk": null,
            "name:de": null,
            "name:tr": null,
            "name:ru": null,
            "name:ar": null
        }
    },
    {
        "lat": 40.9572988,
        "lon": 29.0866322,
        "tags": {
            "addr:city": "İstanbul",
            "addr:district": "Kadıköy",
            "description": "",
            "opening_hours": null,
            "phone": null,
            "branch": null,
            "amenity": "fitness_centre",
            "mobile": null,
            "addr:street": "Bağdat Caddesi",
            "cuisine": null,
            "name": "Lets Pilates",
            "name:en": null,
            "name:uk": null,
            "name:de": null,
            "name:tr": null,
            "name:ru": null,
            "name:ar": null
        }
    },
    {
        "lat": 41.0312812,
        "lon": 29.183048,
        "tags": {
            "addr:city": "İstanbul",
            "addr:district": null,
            "description": "",
            "opening_hours": null,
            "phone": null,
            "branch": null,
            "amenity": "fitness_centre",
            "mobile": null,
            "addr:street": null,
            "cuisine": null,
            "name": "Yoga Academy",
            "name:en": null,
            "name:uk": null,
            "name:de": null,
            "name:tr": null,
            "name:ru": null,
            "name:ar": null
        }
    },
    {
        "lat": 41.1049043,
        "lon": 28.8644349,
        "tags": {
            "addr:city": "İstanbul",
            "addr:district": null,
            "description": "",
            "opening_hours": null,
            "phone": null,
            "branch": null,
            "amenity": "fitness_centre",
            "mobile": null,
            "addr:street": null,
            "cuisine": null,
            "name": "Free Life Fitness Spor Salonu",
            "name:en": null,
            "name:uk": null,
            "name:de": null,
            "name:tr": null,
            "name:ru": null,
            "name:ar": null
        }
    },
    {
        "lat": 41.0318468,
        "lon": 29.1858413,
        "tags": {
            "addr:city": "İstanbul",
            "addr:district": null,
            "description": "",
            "opening_hours": null,
            "phone": null,
            "branch": null,
            "amenity": "fitness_centre",
            "mobile": null,
            "addr:street": null,
            "cuisine": null,
            "name": "Easy Fit",
            "name:en": null,
            "name:uk": null,
            "name:de": null,
            "name:tr": null,
            "name:ru": null,
            "name:ar": null
        }
    },
    {
        "lat": 41.099851,
        "lon": 28.8627508,
        "tags": {
            "addr:city": "İstanbul",
            "addr:district": null,
            "description": "",
            "opening_hours": null,
            "phone": null,
            "branch": null,
            "amenity": "fitness_centre",
            "mobile": null,
            "addr:street": null,
            "cuisine": null,
            "name": "Relax Fitness Spor",
            "name:en": null,
            "name:uk": null,
            "name:de": null,
            "name:tr": null,
            "name:ru": null,
            "name:ar": null
        }
    },
    {
        "lat": 40.9653059,
        "lon": 29.086817,
        "tags": {
            "addr:city": "İstanbul",
            "addr:district": "Kadıköy",
            "description": "",
            "opening_hours": null,
            "phone": null,
            "branch": null,
            "amenity": "fitness_centre",
            "mobile": null,
            "addr:street": "Ayşe Çavuş Caddesi",
            "cuisine": null,
            "name": "Pilates Stüdio",
            "name:en": null,
            "name:uk": null,
            "name:de": null,
            "name:tr": null,
            "name:ru": null,
            "name:ar": null
        }
    },
    {
        "lat": 40.9879686,
        "lon": 29.1038308,
        "tags": {
            "addr:city": "İstanbul",
            "addr:district": "Ataşehir",
            "description": "",
            "opening_hours": null,
            "phone": "+90 216 266 06 13",
            "branch": null,
            "amenity": "fitness_centre",
            "mobile": null,
            "addr:street": "Halk Caddesi",
            "cuisine": null,
            "name": "Shape Club",
            "name:en": null,
            "name:uk": null,
            "name:de": null,
            "name:tr": null,
            "name:ru": null,
            "name:ar": null
        }
    },
    {
        "lat": 40.9789508,
        "lon": 29.2652612,
        "tags": {
            "addr:city": "Istanbul",
            "addr:district": "Sultanbeyli",
            "description": "",
            "opening_hours": null,
            "phone": null,
            "branch": null,
            "amenity": "fitness_centre",
            "mobile": null,
            "addr:street": "Yedikule Sokağı",
            "cuisine": null,
            "name": "Ulusal Spor Klübü",
            "name:en": null,
            "name:uk": null,
            "name:de": null,
            "name:tr": null,
            "name:ru": null,
            "name:ar": "يلوسال نادي رياضي"
        }
    },
    {
        "lat": 40.9382213,
        "lon": 29.1350339,
        "tags": {
            "addr:city": "İstanbul",
            "addr:district": null,
            "description": "",
            "opening_hours": null,
            "phone": null,
            "branch": null,
            "amenity": "fitness_centre",
            "mobile": null,
            "addr:street": null,
            "cuisine": null,
            "name": "MACFit",
            "name:en": null,
            "name:uk": null,
            "name:de": null,
            "name:tr": null,
            "name:ru": null,
            "name:ar": null
        }
    },
    {
        "lat": 40.9368993,
        "lon": 29.1361583,
        "tags": {
            "addr:city": "İstanbul",
            "addr:district": null,
            "description": "",
            "opening_hours": null,
            "phone": null,
            "branch": null,
            "amenity": "fitness_centre",
            "mobile": null,
            "addr:street": null,
            "cuisine": null,
            "name": "Burgu Arjaan By Rotana Bodylines Pool and Fitness Center",
            "name:en": null,
            "name:uk": null,
            "name:de": null,
            "name:tr": null,
            "name:ru": null,
            "name:ar": null
        }
    },
    {
        "lat": 40.9167408,
        "lon": 29.1382015,
        "tags": {
            "addr:city": "İstanbul",
            "addr:district": null,
            "description": "",
            "opening_hours": null,
            "phone": null,
            "branch": null,
            "amenity": "fitness_centre",
            "mobile": null,
            "addr:street": null,
            "cuisine": null,
            "name": null,
            "name:en": null,
            "name:uk": null,
            "name:de": null,
            "name:tr": null,
            "name:ru": null,
            "name:ar": null
        }
    },
    {
        "lat": 41.0154778,
        "lon": 28.9019813,
        "tags": {
            "addr:city": "Istanbul",
            "addr:district": "Zeytinburnu",
            "description": "",
            "opening_hours": "24/7",
            "phone": null,
            "branch": null,
            "amenity": "fitness_centre",
            "mobile": null,
            "addr:street": "Metro Sokağı",
            "cuisine": null,
            "name": "Stadyum",
            "name:en": null,
            "name:uk": null,
            "name:de": null,
            "name:tr": null,
            "name:ru": null,
            "name:ar": "ملعب"
        }
    },
    {
        "lat": 40.9874435,
        "lon": 28.8958338,
        "tags": {
            "addr:city": "Istanbul",
            "addr:district": "Zeytinburnu",
            "description": "",
            "opening_hours": null,
            "phone": "5101954",
            "branch": null,
            "amenity": "fitness_centre",
            "mobile": null,
            "addr:street": "Merv Caddesi",
            "cuisine": null,
            "name": "Body Line",
            "name:en": null,
            "name:uk": null,
            "name:de": null,
            "name:tr": null,
            "name:ru": null,
            "name:ar": "بودي لاين"
        }
    },
    {
        "lat": 40.9962783,
        "lon": 28.9104595,
        "tags": {
            "addr:city": "Istanbul",
            "addr:district": "Zeytinburnu",
            "description": "",
            "opening_hours": null,
            "phone": null,
            "branch": null,
            "amenity": "fitness_centre",
            "mobile": null,
            "addr:street": null,
            "cuisine": null,
            "name": "Spor yaşam merkezi",
            "name:en": null,
            "name:uk": null,
            "name:de": null,
            "name:tr": null,
            "name:ru": null,
            "name:ar": "مركز يشام الرياضي"
        }
    },
    {
        "lat": 41.0375177,
        "lon": 28.8241166,
        "tags": {
            "addr:city": "Istanbul",
            "addr:district": "Bağcılar",
            "description": "",
            "opening_hours": null,
            "phone": "6560501",
            "branch": null,
            "amenity": "fitness_centre",
            "mobile": null,
            "addr:street": "Favziçakmak Caddesi",
            "cuisine": null,
            "name": "Eser Spor Kulübü",
            "name:en": null,
            "name:uk": null,
            "name:de": null,
            "name:tr": null,
            "name:ru": null,
            "name:ar": "أسر سبور كولوبو"
        }
    },
    {
        "lat": 40.9975392,
        "lon": 29.1066566,
        "tags": {
            "addr:city": "İstanbul",
            "addr:district": null,
            "description": "",
            "opening_hours": null,
            "phone": null,
            "branch": null,
            "amenity": "fitness_centre",
            "mobile": null,
            "addr:street": null,
            "cuisine": null,
            "name": "Pleon",
            "name:en": null,
            "name:uk": null,
            "name:de": null,
            "name:tr": null,
            "name:ru": null,
            "name:ar": null
        }
    },
    {
        "lat": 41.0931454,
        "lon": 28.8057859,
        "tags": {
            "addr:city": "İstanbul",
            "addr:district": null,
            "description": "",
            "opening_hours": null,
            "phone": "+90 (212) 488 23 00",
            "branch": null,
            "amenity": "fitness_centre",
            "mobile": null,
            "addr:street": "K12 Başakşehir Kavşağı",
            "cuisine": null,
            "name": "Proness CLUB Fitness Center",
            "name:en": null,
            "name:uk": null,
            "name:de": null,
            "name:tr": null,
            "name:ru": null,
            "name:ar": null
        }
    },
    {
        "lat": 41.0469941,
        "lon": 29.009313,
        "tags": {
            "addr:city": "Istanbul",
            "addr:district": null,
            "description": "",
            "opening_hours": "09:00-22:00",
            "phone": "+90 212 310 26 29",
            "branch": null,
            "amenity": "fitness_centre",
            "mobile": null,
            "addr:street": "Saray Caddesi",
            "cuisine": null,
            "name": "Health Club & Spa Soul",
            "name:en": null,
            "name:uk": null,
            "name:de": null,
            "name:tr": null,
            "name:ru": null,
            "name:ar": null
        }
    },
    {
        "lat": 40.8625038,
        "lon": 29.3350968,
        "tags": {
            "addr:city": "İstanbul",
            "addr:district": null,
            "description": "",
            "opening_hours": null,
            "phone": null,
            "branch": null,
            "amenity": "fitness_centre",
            "mobile": null,
            "addr:street": null,
            "cuisine": null,
            "name": null,
            "name:en": null,
            "name:uk": null,
            "name:de": null,
            "name:tr": null,
            "name:ru": null,
            "name:ar": null
        }
    },
    {
        "lat": 40.9838268,
        "lon": 29.0977647,
        "tags": {
            "addr:city": "İstanbul",
            "addr:district": "Ataşehir",
            "description": "",
            "opening_hours": null,
            "phone": null,
            "branch": null,
            "amenity": "fitness_centre",
            "mobile": null,
            "addr:street": "Halk Caddesi",
            "cuisine": null,
            "name": "Ebru Karaduman Beden Atölyesi",
            "name:en": null,
            "name:uk": null,
            "name:de": null,
            "name:tr": null,
            "name:ru": null,
            "name:ar": null
        }
    },
    {
        "lat": 40.9133381,
        "lon": 29.2097608,
        "tags": {
            "addr:city": "İstanbul",
            "addr:district": "Kartal",
            "description": "",
            "opening_hours": null,
            "phone": null,
            "branch": null,
            "amenity": "fitness_centre",
            "mobile": null,
            "addr:street": "Yalniz Selvi Caddesi",
            "cuisine": null,
            "name": "UpLife",
            "name:en": null,
            "name:uk": null,
            "name:de": null,
            "name:tr": null,
            "name:ru": null,
            "name:ar": null
        }
    },
    {
        "lat": 40.9501618,
        "lon": 29.1048661,
        "tags": {
            "addr:city": "İstanbul",
            "addr:district": null,
            "description": "",
            "opening_hours": null,
            "phone": null,
            "branch": null,
            "amenity": "fitness_centre",
            "mobile": null,
            "addr:street": null,
            "cuisine": null,
            "name": "Fit Life Sports",
            "name:en": null,
            "name:uk": null,
            "name:de": null,
            "name:tr": null,
            "name:ru": null,
            "name:ar": null
        }
    },
    {
        "lat": 40.9830845,
        "lon": 29.0955482,
        "tags": {
            "addr:city": "İstanbul",
            "addr:district": null,
            "description": "",
            "opening_hours": null,
            "phone": null,
            "branch": null,
            "amenity": "fitness_centre",
            "mobile": null,
            "addr:street": "Zaloğlu Sokak",
            "cuisine": null,
            "name": "Crross Fit Skylıght",
            "name:en": null,
            "name:uk": null,
            "name:de": null,
            "name:tr": null,
            "name:ru": null,
            "name:ar": null
        }
    },
    {
        "lat": 41.0203988,
        "lon": 29.03042,
        "tags": {
            "addr:city": "istanbul",
            "addr:district": "üsküdar",
            "description": "",
            "opening_hours": null,
            "phone": null,
            "branch": null,
            "amenity": "fitness_centre",
            "mobile": null,
            "addr:street": "Allame Caddesi",
            "cuisine": null,
            "name": "Atletik Fİtness",
            "name:en": null,
            "name:uk": null,
            "name:de": null,
            "name:tr": null,
            "name:ru": null,
            "name:ar": null
        }
    },
    {
        "lat": 41.0218156,
        "lon": 29.0388846,
        "tags": {
            "addr:city": "İstanbul",
            "addr:district": "Üsküdar",
            "description": "",
            "opening_hours": "Mo-Fr 07:00 - 23:00; Sa-Su 09:00 - 20:00",
            "phone": null,
            "branch": "altunizade",
            "amenity": "fitness_centre",
            "mobile": null,
            "addr:street": "Mahir İz Caddesi",
            "cuisine": null,
            "name": "MACFit",
            "name:en": null,
            "name:uk": null,
            "name:de": null,
            "name:tr": null,
            "name:ru": null,
            "name:ar": null
        }
    },
    {
        "lat": 41.0234046,
        "lon": 29.0276714,
        "tags": {
            "addr:city": "istanbul",
            "addr:district": "üsküdar",
            "description": "",
            "opening_hours": null,
            "phone": null,
            "branch": null,
            "amenity": "fitness_centre",
            "mobile": null,
            "addr:street": "Gazi Caddesi",
            "cuisine": null,
            "name": "Metin aydın spor salonu",
            "name:en": null,
            "name:uk": null,
            "name:de": null,
            "name:tr": null,
            "name:ru": null,
            "name:ar": null
        }
    },
    {
        "lat": 41.0522541,
        "lon": 28.9959004,
        "tags": {
            "addr:city": "İstanbul",
            "addr:district": null,
            "description": "",
            "opening_hours": null,
            "phone": null,
            "branch": null,
            "amenity": "fitness_centre",
            "mobile": null,
            "addr:street": "Poyracık Sokak",
            "cuisine": null,
            "name": "Yoga8",
            "name:en": null,
            "name:uk": null,
            "name:de": null,
            "name:tr": "Yoga8",
            "name:ru": null,
            "name:ar": null
        }
    },
    {
        "lat": 40.9153256,
        "lon": 29.2852458,
        "tags": {
            "addr:city": "İstanbul",
            "addr:district": null,
            "description": "",
            "opening_hours": null,
            "phone": null,
            "branch": null,
            "amenity": "fitness_centre",
            "mobile": null,
            "addr:street": null,
            "cuisine": null,
            "name": "Naim Fitness",
            "name:en": null,
            "name:uk": null,
            "name:de": null,
            "name:tr": null,
            "name:ru": null,
            "name:ar": null
        }
    },
    {
        "lat": 40.9185701,
        "lon": 29.3036393,
        "tags": {
            "addr:city": "İstanbul",
            "addr:district": null,
            "description": "",
            "opening_hours": null,
            "phone": null,
            "branch": null,
            "amenity": "fitness_centre",
            "mobile": null,
            "addr:street": null,
            "cuisine": null,
            "name": "İK Baborry Life Club",
            "name:en": null,
            "name:uk": null,
            "name:de": null,
            "name:tr": null,
            "name:ru": null,
            "name:ar": null
        }
    },
    {
        "lat": 40.9930958,
        "lon": 28.7927656,
        "tags": {
            "addr:city": "İstanbul",
            "addr:district": null,
            "description": "",
            "opening_hours": "Mo-Su 09:00-02:00",
            "phone": null,
            "branch": null,
            "amenity": "fitness_centre",
            "mobile": null,
            "addr:street": null,
            "cuisine": null,
            "name": "Fit Box Fitness",
            "name:en": null,
            "name:uk": null,
            "name:de": null,
            "name:tr": null,
            "name:ru": null,
            "name:ar": null
        }
    },
    {
        "lat": 40.8151273,
        "lon": 29.3054448,
        "tags": {
            "addr:city": "İstanbul",
            "addr:district": null,
            "description": "",
            "opening_hours": null,
            "phone": null,
            "branch": null,
            "amenity": "fitness_centre",
            "mobile": null,
            "addr:street": null,
            "cuisine": null,
            "name": "Atılım Fitness",
            "name:en": null,
            "name:uk": null,
            "name:de": null,
            "name:tr": null,
            "name:ru": null,
            "name:ar": null
        }
    },
    {
        "lat": 40.9870605,
        "lon": 29.0282253,
        "tags": {
            "addr:city": "İstanbul",
            "addr:district": null,
            "description": "",
            "opening_hours": null,
            "phone": null,
            "branch": null,
            "amenity": "fitness_centre",
            "mobile": null,
            "addr:street": null,
            "cuisine": null,
            "name": "Centro",
            "name:en": null,
            "name:uk": null,
            "name:de": null,
            "name:tr": null,
            "name:ru": null,
            "name:ar": null
        }
    },
    {
        "lat": 40.9830082,
        "lon": 29.0273517,
        "tags": {
            "addr:city": "İstanbul",
            "addr:district": null,
            "description": "",
            "opening_hours": null,
            "phone": null,
            "branch": null,
            "amenity": "fitness_centre",
            "mobile": null,
            "addr:street": null,
            "cuisine": null,
            "name": "Just Fit",
            "name:en": null,
            "name:uk": null,
            "name:de": null,
            "name:tr": null,
            "name:ru": null,
            "name:ar": null
        }
    },
    {
        "lat": 41.0401803,
        "lon": 28.8121068,
        "tags": {
            "addr:city": "İstanbul",
            "addr:district": null,
            "description": "",
            "opening_hours": null,
            "phone": null,
            "branch": null,
            "amenity": "fitness_centre",
            "mobile": null,
            "addr:street": null,
            "cuisine": null,
            "name": "Gymfit",
            "name:en": null,
            "name:uk": null,
            "name:de": null,
            "name:tr": null,
            "name:ru": null,
            "name:ar": null
        }
    },
    {
        "lat": 41.0129305,
        "lon": 28.8949953,
        "tags": {
            "addr:city": "İstanbul",
            "addr:district": null,
            "description": "",
            "opening_hours": null,
            "phone": null,
            "branch": null,
            "amenity": "fitness_centre",
            "mobile": null,
            "addr:street": null,
            "cuisine": null,
            "name": "Tozkoparan Spor Salonu",
            "name:en": null,
            "name:uk": null,
            "name:de": null,
            "name:tr": null,
            "name:ru": null,
            "name:ar": null
        }
    },
    {
        "lat": 41.0063901,
        "lon": 28.9734431,
        "tags": {
            "addr:city": "İstanbul",
            "addr:district": null,
            "description": "",
            "opening_hours": null,
            "phone": "905333105155",
            "branch": null,
            "amenity": "fitness_centre",
            "mobile": null,
            "addr:street": "Terzihane Sokak",
            "cuisine": null,
            "name": "Sultan Osman Hamami",
            "name:en": null,
            "name:uk": null,
            "name:de": null,
            "name:tr": null,
            "name:ru": null,
            "name:ar": null
        }
    },
    {
        "lat": 41.0462072,
        "lon": 28.8045571,
        "tags": {
            "addr:city": "İstanbul",
            "addr:district": null,
            "description": "",
            "opening_hours": null,
            "phone": null,
            "branch": null,
            "amenity": "fitness_centre",
            "mobile": null,
            "addr:street": null,
            "cuisine": null,
            "name": "Pro Gold Gym",
            "name:en": null,
            "name:uk": null,
            "name:de": null,
            "name:tr": null,
            "name:ru": null,
            "name:ar": null
        }
    },
    {
        "lat": 40.9837843,
        "lon": 29.0283499,
        "tags": {
            "addr:city": "İstanbul",
            "addr:district": null,
            "description": "",
            "opening_hours": "07:00 - 22:00",
            "phone": "+90 532 713 85 84",
            "branch": null,
            "amenity": "fitness_centre",
            "mobile": null,
            "addr:street": null,
            "cuisine": null,
            "name": "Pilates Demet Topa",
            "name:en": null,
            "name:uk": null,
            "name:de": null,
            "name:tr": null,
            "name:ru": null,
            "name:ar": null
        }
    },
    {
        "lat": 40.9928975,
        "lon": 28.8934438,
        "tags": {
            "addr:city": "İstanbul",
            "addr:district": null,
            "description": "",
            "opening_hours": null,
            "phone": null,
            "branch": null,
            "amenity": "fitness_centre",
            "mobile": null,
            "addr:street": null,
            "cuisine": null,
            "name": "Ness Qwert",
            "name:en": null,
            "name:uk": null,
            "name:de": null,
            "name:tr": null,
            "name:ru": null,
            "name:ar": null
        }
    },
    {
        "lat": 41.0261338,
        "lon": 28.9761697,
        "tags": {
            "addr:city": "İstanbul",
            "addr:district": null,
            "description": "",
            "opening_hours": null,
            "phone": "+902122936969",
            "branch": null,
            "amenity": "fitness_centre",
            "mobile": null,
            "addr:street": null,
            "cuisine": null,
            "name": "NOA Gym",
            "name:en": null,
            "name:uk": null,
            "name:de": null,
            "name:tr": null,
            "name:ru": null,
            "name:ar": null
        }
    },
    {
        "lat": 40.9841084,
        "lon": 29.1146563,
        "tags": {
            "addr:city": "İstanbul",
            "addr:district": null,
            "description": "",
            "opening_hours": null,
            "phone": null,
            "branch": null,
            "amenity": "fitness_centre",
            "mobile": null,
            "addr:street": null,
            "cuisine": null,
            "name": "HB Fitness",
            "name:en": null,
            "name:uk": null,
            "name:de": null,
            "name:tr": null,
            "name:ru": null,
            "name:ar": null
        }
    },
    {
        "lat": 41.0316335,
        "lon": 28.6751195,
        "tags": {
            "addr:city": "Fatih Mahallesi",
            "addr:district": "Esenyurt",
            "description": "Ahmet Koç Gym & Fitness",
            "opening_hours": "09:30-24:00",
            "phone": null,
            "branch": null,
            "amenity": "fitness_centre",
            "mobile": null,
            "addr:street": "Urfalılar Cad. No:2 Kat:2",
            "cuisine": null,
            "name": "Ahmet Koç Gym & Fitness",
            "name:en": null,
            "name:uk": null,
            "name:de": null,
            "name:tr": null,
            "name:ru": null,
            "name:ar": null
        }
    },
    {
        "lat": 41.0795491,
        "lon": 29.0318289,
        "tags": {
            "addr:city": "İstanbul",
            "addr:district": null,
            "description": "",
            "opening_hours": null,
            "phone": null,
            "branch": null,
            "amenity": "fitness_centre",
            "mobile": null,
            "addr:street": null,
            "cuisine": null,
            "name": null,
            "name:en": "9round",
            "name:uk": null,
            "name:de": null,
            "name:tr": null,
            "name:ru": null,
            "name:ar": null
        }
    },
    {
        "lat": 41.0498865,
        "lon": 29.0020448,
        "tags": {
            "addr:city": "İstanbul",
            "addr:district": null,
            "description": "",
            "opening_hours": null,
            "phone": null,
            "branch": null,
            "amenity": "fitness_centre",
            "mobile": null,
            "addr:street": null,
            "cuisine": null,
            "name": null,
            "name:en": "Oldschool FT",
            "name:uk": null,
            "name:de": null,
            "name:tr": null,
            "name:ru": null,
            "name:ar": null
        }
    },
    {
        "lat": 41.0333031,
        "lon": 28.9766848,
        "tags": {
            "addr:city": "İstanbul",
            "addr:district": null,
            "description": "",
            "opening_hours": "Mo-Fr 10:00-22:00; Sa 10:00-21:00",
            "phone": "+90 212 249 53 47",
            "branch": null,
            "amenity": "fitness_centre",
            "mobile": null,
            "addr:street": null,
            "cuisine": null,
            "name": "Flash Gym",
            "name:en": null,
            "name:uk": null,
            "name:de": null,
            "name:tr": null,
            "name:ru": null,
            "name:ar": null
        }
    },
    {
        "lat": 40.9674907,
        "lon": 29.0648178,
        "tags": {
            "addr:city": "İstanbul",
            "addr:district": "Kadıköy",
            "description": "",
            "opening_hours": "Mo-Fr 07:00 - 23:00; Sa-Su 09:00 - 20:00",
            "phone": null,
            "branch": null,
            "amenity": "fitness_centre",
            "mobile": null,
            "addr:street": "Haldun Taner Sokağı",
            "cuisine": null,
            "name": "MACFit CKM",
            "name:en": null,
            "name:uk": null,
            "name:de": null,
            "name:tr": null,
            "name:ru": null,
            "name:ar": null
        }
    },
    {
        "lat": 40.8760114,
        "lon": 29.2328565,
        "tags": {
            "addr:city": "İstanbul",
            "addr:district": "Pendik",
            "description": "",
            "opening_hours": null,
            "phone": null,
            "branch": null,
            "amenity": "fitness_centre",
            "mobile": null,
            "addr:street": "19 Mayıs Caddesi",
            "cuisine": null,
            "name": "Pro Studio Pilates",
            "name:en": null,
            "name:uk": null,
            "name:de": null,
            "name:tr": null,
            "name:ru": null,
            "name:ar": null
        }
    },
    {
        "lat": 41.0310467,
        "lon": 29.2237689,
        "tags": {
            "addr:city": "İstanbul",
            "addr:district": null,
            "description": "",
            "opening_hours": null,
            "phone": null,
            "branch": null,
            "amenity": "fitness_centre",
            "mobile": null,
            "addr:street": null,
            "cuisine": null,
            "name": "performance gym clup",
            "name:en": null,
            "name:uk": null,
            "name:de": null,
            "name:tr": null,
            "name:ru": null,
            "name:ar": null
        }
    },
    {
        "lat": 40.9646375,
        "lon": 29.0734038,
        "tags": {
            "addr:city": "İstanbul",
            "addr:district": "Kadıköy",
            "description": "",
            "opening_hours": null,
            "phone": "02163636292",
            "branch": null,
            "amenity": "fitness_centre",
            "mobile": null,
            "addr:street": "Bağdat Caddesi",
            "cuisine": null,
            "name": "Level UP Pilates&Personal Training Studio",
            "name:en": null,
            "name:uk": null,
            "name:de": null,
            "name:tr": null,
            "name:ru": null,
            "name:ar": null
        }
    },
    {
        "lat": 40.953328,
        "lon": 29.1007791,
        "tags": {
            "addr:city": "İstanbul",
            "addr:district": null,
            "description": "",
            "opening_hours": null,
            "phone": null,
            "branch": null,
            "amenity": "fitness_centre",
            "mobile": null,
            "addr:street": null,
            "cuisine": null,
            "name": "Bfit",
            "name:en": null,
            "name:uk": null,
            "name:de": null,
            "name:tr": null,
            "name:ru": null,
            "name:ar": null
        }
    },
    {
        "lat": 41.0532202,
        "lon": 28.910075,
        "tags": {
            "addr:city": "İstanbul",
            "addr:district": "Bayrampaşa",
            "description": "",
            "opening_hours": "Mo-Fr 07:00-23:00; Sa,Su 08:00-21:00",
            "phone": "+90 850 241 3000",
            "branch": "Pashador Cadde",
            "amenity": "fitness_centre",
            "mobile": null,
            "addr:street": "Eski Edirne Asfaltı",
            "cuisine": null,
            "name": "MACFit",
            "name:en": null,
            "name:uk": null,
            "name:de": null,
            "name:tr": null,
            "name:ru": null,
            "name:ar": null
        }
    },
    {
        "lat": 40.8264642,
        "lon": 29.3191406,
        "tags": {
            "addr:city": "İstanbul",
            "addr:district": null,
            "description": "",
            "opening_hours": null,
            "phone": null,
            "branch": null,
            "amenity": "fitness_centre",
            "mobile": null,
            "addr:street": null,
            "cuisine": null,
            "name": null,
            "name:en": null,
            "name:uk": null,
            "name:de": null,
            "name:tr": null,
            "name:ru": null,
            "name:ar": null
        }
    },
    {
        "lat": 40.8263925,
        "lon": 29.3243853,
        "tags": {
            "addr:city": "İstanbul",
            "addr:district": null,
            "description": "",
            "opening_hours": null,
            "phone": null,
            "branch": null,
            "amenity": "fitness_centre",
            "mobile": null,
            "addr:street": null,
            "cuisine": null,
            "name": null,
            "name:en": null,
            "name:uk": null,
            "name:de": null,
            "name:tr": null,
            "name:ru": null,
            "name:ar": null
        }
    },
    {
        "lat": 40.9993675,
        "lon": 29.1412821,
        "tags": {
            "addr:city": "İstanbul",
            "addr:district": null,
            "description": "former name: Central Point Fitnes",
            "opening_hours": null,
            "phone": null,
            "branch": null,
            "amenity": "fitness_centre",
            "mobile": null,
            "addr:street": null,
            "cuisine": null,
            "name": "Oxygen Fitness",
            "name:en": null,
            "name:uk": null,
            "name:de": null,
            "name:tr": null,
            "name:ru": null,
            "name:ar": null
        }
    },
    {
        "lat": 40.9793656,
        "lon": 29.1093084,
        "tags": {
            "addr:city": "İstanbul",
            "addr:district": null,
            "description": "",
            "opening_hours": null,
            "phone": null,
            "branch": null,
            "amenity": "fitness_centre",
            "mobile": null,
            "addr:street": null,
            "cuisine": null,
            "name": "Fitamine",
            "name:en": null,
            "name:uk": null,
            "name:de": null,
            "name:tr": null,
            "name:ru": null,
            "name:ar": null
        }
    },
    {
        "lat": 40.9794444,
        "lon": 29.1140552,
        "tags": {
            "addr:city": "İstanbul",
            "addr:district": null,
            "description": "female-only",
            "opening_hours": null,
            "phone": null,
            "branch": null,
            "amenity": "fitness_centre",
            "mobile": null,
            "addr:street": "Hasan Paşa Sokağı",
            "cuisine": null,
            "name": "Luna Pilates Studio",
            "name:en": null,
            "name:uk": null,
            "name:de": null,
            "name:tr": null,
            "name:ru": null,
            "name:ar": null
        }
    },
    {
        "lat": 41.0207141,
        "lon": 29.0441104,
        "tags": {
            "addr:city": "İstanbul",
            "addr:district": null,
            "description": "",
            "opening_hours": null,
            "phone": null,
            "branch": null,
            "amenity": "fitness_centre",
            "mobile": null,
            "addr:street": null,
            "cuisine": null,
            "name": "Eureko Sigorta",
            "name:en": null,
            "name:uk": null,
            "name:de": null,
            "name:tr": null,
            "name:ru": null,
            "name:ar": null
        }
    },
    {
        "lat": 40.9790745,
        "lon": 29.1180116,
        "tags": {
            "addr:city": "İstanbul",
            "addr:district": null,
            "description": "",
            "opening_hours": null,
            "phone": null,
            "branch": null,
            "amenity": "fitness_centre",
            "mobile": null,
            "addr:street": null,
            "cuisine": null,
            "name": "Fit Club",
            "name:en": null,
            "name:uk": null,
            "name:de": null,
            "name:tr": null,
            "name:ru": null,
            "name:ar": null
        }
    },
    {
        "lat": 40.9021813,
        "lon": 29.2268651,
        "tags": {
            "addr:city": "İstanbul",
            "addr:district": "Kartal",
            "description": "",
            "opening_hours": "10:00-23:00",
            "phone": "0506 924 84 37",
            "branch": null,
            "amenity": "fitness_centre",
            "mobile": null,
            "addr:street": "Adnan Kahveci Caddesi",
            "cuisine": null,
            "name": "Eagle Fitness Center",
            "name:en": null,
            "name:uk": null,
            "name:de": null,
            "name:tr": null,
            "name:ru": null,
            "name:ar": null
        }
    },
    {
        "lat": 40.9090998,
        "lon": 29.2251345,
        "tags": {
            "addr:city": "İstanbul",
            "addr:district": null,
            "description": "",
            "opening_hours": null,
            "phone": null,
            "branch": null,
            "amenity": "fitness_centre",
            "mobile": null,
            "addr:street": null,
            "cuisine": null,
            "name": "Golden Life Sports & Fitness",
            "name:en": null,
            "name:uk": null,
            "name:de": null,
            "name:tr": null,
            "name:ru": null,
            "name:ar": null
        }
    },
    {
        "lat": 41.0211987,
        "lon": 28.8873612,
        "tags": {
            "addr:city": "İstanbul",
            "addr:district": null,
            "description": "",
            "opening_hours": null,
            "phone": null,
            "branch": null,
            "amenity": "fitness_centre",
            "mobile": null,
            "addr:street": null,
            "cuisine": null,
            "name": "FLAMINGO",
            "name:en": null,
            "name:uk": null,
            "name:de": null,
            "name:tr": null,
            "name:ru": null,
            "name:ar": null
        }
    },
    {
        "lat": 40.9342303,
        "lon": 29.141828,
        "tags": {
            "addr:city": "İstanbul",
            "addr:district": null,
            "description": "",
            "opening_hours": null,
            "phone": null,
            "branch": null,
            "amenity": "fitness_centre",
            "mobile": null,
            "addr:street": null,
            "cuisine": null,
            "name": null,
            "name:en": "climbing club",
            "name:uk": null,
            "name:de": null,
            "name:tr": null,
            "name:ru": null,
            "name:ar": null
        }
    },
    {
        "lat": 40.9853272,
        "lon": 29.0213026,
        "tags": {
            "addr:city": "İstanbul",
            "addr:district": null,
            "description": "",
            "opening_hours": null,
            "phone": null,
            "branch": null,
            "amenity": "fitness_centre",
            "mobile": null,
            "addr:street": null,
            "cuisine": null,
            "name": null,
            "name:en": null,
            "name:uk": null,
            "name:de": null,
            "name:tr": null,
            "name:ru": null,
            "name:ar": null
        }
    },
    {
        "lat": 40.9840767,
        "lon": 29.1101672,
        "tags": {
            "addr:city": "İstanbul",
            "addr:district": null,
            "description": "",
            "opening_hours": null,
            "phone": null,
            "branch": null,
            "amenity": "fitness_centre",
            "mobile": null,
            "addr:street": null,
            "cuisine": null,
            "name": "Pilates in Paradise",
            "name:en": null,
            "name:uk": null,
            "name:de": null,
            "name:tr": null,
            "name:ru": null,
            "name:ar": null
        }
    },
    {
        "lat": 40.9722487,
        "lon": 29.0837158,
        "tags": {
            "addr:city": "İstanbul",
            "addr:district": "Kadıköy",
            "description": "",
            "opening_hours": null,
            "phone": null,
            "branch": "Kazasker",
            "amenity": "fitness_centre",
            "mobile": null,
            "addr:street": "Şemsettin Günaltay Caddesi",
            "cuisine": null,
            "name": "MACFit",
            "name:en": null,
            "name:uk": null,
            "name:de": null,
            "name:tr": null,
            "name:ru": null,
            "name:ar": null
        }
    },
    {
        "lat": 40.9823608,
        "lon": 29.1198085,
        "tags": {
            "addr:city": "İstanbul",
            "addr:district": null,
            "description": "",
            "opening_hours": null,
            "phone": null,
            "branch": null,
            "amenity": "fitness_centre",
            "mobile": null,
            "addr:street": null,
            "cuisine": null,
            "name": "My Studio Pilates",
            "name:en": null,
            "name:uk": null,
            "name:de": null,
            "name:tr": null,
            "name:ru": null,
            "name:ar": null
        }
    },
    {
        "lat": 40.998955,
        "lon": 28.6509984,
        "tags": {
            "addr:city": "İstanbul",
            "addr:district": null,
            "description": "",
            "opening_hours": null,
            "phone": null,
            "branch": null,
            "amenity": "fitness_centre",
            "mobile": null,
            "addr:street": null,
            "cuisine": null,
            "name": "She Club",
            "name:en": null,
            "name:uk": null,
            "name:de": null,
            "name:tr": null,
            "name:ru": null,
            "name:ar": null
        }
    },
    {
        "lat": 40.983541,
        "lon": 29.0260303,
        "tags": {
            "addr:city": "İstanbul",
            "addr:district": null,
            "description": "",
            "opening_hours": null,
            "phone": null,
            "branch": null,
            "amenity": "fitness_centre",
            "mobile": null,
            "addr:street": null,
            "cuisine": null,
            "name": "Maestro",
            "name:en": null,
            "name:uk": null,
            "name:de": null,
            "name:tr": null,
            "name:ru": null,
            "name:ar": null
        }
    },
    {
        "lat": 40.9866392,
        "lon": 29.0312625,
        "tags": {
            "addr:city": "İstanbul",
            "addr:district": null,
            "description": "",
            "opening_hours": null,
            "phone": null,
            "branch": null,
            "amenity": "fitness_centre",
            "mobile": null,
            "addr:street": null,
            "cuisine": null,
            "name": "The Moon",
            "name:en": null,
            "name:uk": null,
            "name:de": null,
            "name:tr": null,
            "name:ru": null,
            "name:ar": null
        }
    },
    {
        "lat": 41.1020069,
        "lon": 28.8629343,
        "tags": {
            "addr:city": "İstanbul",
            "addr:district": null,
            "description": "",
            "opening_hours": null,
            "phone": null,
            "branch": null,
            "amenity": "fitness_centre",
            "mobile": null,
            "addr:street": null,
            "cuisine": null,
            "name": "Red&Black Fitness",
            "name:en": null,
            "name:uk": null,
            "name:de": null,
            "name:tr": null,
            "name:ru": null,
            "name:ar": null
        }
    },
    {
        "lat": 41.1037229,
        "lon": 28.8620427,
        "tags": {
            "addr:city": "İstanbul",
            "addr:district": null,
            "description": "",
            "opening_hours": null,
            "phone": null,
            "branch": null,
            "amenity": "fitness_centre",
            "mobile": null,
            "addr:street": null,
            "cuisine": null,
            "name": null,
            "name:en": null,
            "name:uk": null,
            "name:de": null,
            "name:tr": null,
            "name:ru": null,
            "name:ar": null
        }
    },
    {
        "lat": 40.9602362,
        "lon": 29.0839988,
        "tags": {
            "addr:city": "İstanbul",
            "addr:district": "Kadıköy",
            "description": "",
            "opening_hours": null,
            "phone": "+90 553 171 72 32",
            "branch": null,
            "amenity": "fitness_centre",
            "mobile": null,
            "addr:street": null,
            "cuisine": null,
            "name": "En Fit Body",
            "name:en": null,
            "name:uk": null,
            "name:de": null,
            "name:tr": null,
            "name:ru": null,
            "name:ar": null
        }
    },
    {
        "lat": 40.985388,
        "lon": 29.0322439,
        "tags": {
            "addr:city": "İstanbul",
            "addr:district": null,
            "description": "",
            "opening_hours": null,
            "phone": null,
            "branch": null,
            "amenity": "fitness_centre",
            "mobile": null,
            "addr:street": null,
            "cuisine": null,
            "name": null,
            "name:en": null,
            "name:uk": null,
            "name:de": null,
            "name:tr": null,
            "name:ru": null,
            "name:ar": null
        }
    },
    {
        "lat": 41.0744575,
        "lon": 28.9343173,
        "tags": {
            "addr:city": "İstanbul",
            "addr:district": null,
            "description": "",
            "opening_hours": null,
            "phone": null,
            "branch": null,
            "amenity": "fitness_centre",
            "mobile": null,
            "addr:street": null,
            "cuisine": null,
            "name": "Akın Fit Club",
            "name:en": null,
            "name:uk": null,
            "name:de": null,
            "name:tr": null,
            "name:ru": null,
            "name:ar": null
        }
    },
    {
        "lat": 41.0331967,
        "lon": 29.1741811,
        "tags": {
            "addr:city": "İstanbul",
            "addr:district": "Çekmeköy",
            "description": "",
            "opening_hours": "Mo-Su 07:00-22:00",
            "phone": "+905441184862",
            "branch": null,
            "amenity": "fitness_centre",
            "mobile": null,
            "addr:street": "Gündoğdu Sokağı",
            "cuisine": null,
            "name": "FitnessMax PT Studio",
            "name:en": null,
            "name:uk": null,
            "name:de": null,
            "name:tr": null,
            "name:ru": null,
            "name:ar": null
        }
    },
    {
        "lat": 40.9768606,
        "lon": 28.87264,
        "tags": {
            "addr:city": "İstanbul",
            "addr:district": null,
            "description": "",
            "opening_hours": null,
            "phone": null,
            "branch": null,
            "amenity": "fitness_centre",
            "mobile": null,
            "addr:street": null,
            "cuisine": null,
            "name": null,
            "name:en": "Gym Fitness",
            "name:uk": null,
            "name:de": null,
            "name:tr": null,
            "name:ru": null,
            "name:ar": null
        }
    },
    {
        "lat": 40.9731311,
        "lon": 29.0559135,
        "tags": {
            "addr:city": "İstanbul",
            "addr:district": "Kadıköy",
            "description": "",
            "opening_hours": "Mo-Fr 07:00-23:00; Sa-Su 09:00-20:00",
            "phone": null,
            "branch": "Cadde",
            "amenity": "fitness_centre",
            "mobile": null,
            "addr:street": "Bağdat Caddesi",
            "cuisine": null,
            "name": "MACFit Cadde",
            "name:en": null,
            "name:uk": null,
            "name:de": null,
            "name:tr": null,
            "name:ru": null,
            "name:ar": null
        }
    },
    {
        "lat": 40.9785318,
        "lon": 29.1240568,
        "tags": {
            "addr:city": "İstanbul",
            "addr:district": null,
            "description": "",
            "opening_hours": null,
            "phone": null,
            "branch": null,
            "amenity": "fitness_centre",
            "mobile": null,
            "addr:street": null,
            "cuisine": null,
            "name": "90216 Gym",
            "name:en": null,
            "name:uk": null,
            "name:de": null,
            "name:tr": null,
            "name:ru": null,
            "name:ar": null
        }
    },
    {
        "lat": 40.9816337,
        "lon": 29.1150941,
        "tags": {
            "addr:city": "İstanbul",
            "addr:district": null,
            "description": "",
            "opening_hours": null,
            "phone": null,
            "branch": null,
            "amenity": "fitness_centre",
            "mobile": null,
            "addr:street": "Zorlu Sokağı",
            "cuisine": null,
            "name": "Room",
            "name:en": null,
            "name:uk": null,
            "name:de": null,
            "name:tr": null,
            "name:ru": null,
            "name:ar": null
        }
    },
    {
        "lat": 41.1011997,
        "lon": 28.8637101,
        "tags": {
            "addr:city": "İstanbul",
            "addr:district": null,
            "description": "",
            "opening_hours": null,
            "phone": null,
            "branch": null,
            "amenity": "fitness_centre",
            "mobile": null,
            "addr:street": null,
            "cuisine": null,
            "name": "Relax Gym",
            "name:en": null,
            "name:uk": null,
            "name:de": null,
            "name:tr": null,
            "name:ru": null,
            "name:ar": null
        }
    },
    {
        "lat": 40.8724743,
        "lon": 29.1224453,
        "tags": {
            "addr:city": "İstanbul",
            "addr:district": null,
            "description": "",
            "opening_hours": null,
            "phone": null,
            "branch": null,
            "amenity": "fitness_centre",
            "mobile": null,
            "addr:street": null,
            "cuisine": null,
            "name": null,
            "name:en": "Blue beach Büyükada",
            "name:uk": null,
            "name:de": null,
            "name:tr": null,
            "name:ru": null,
            "name:ar": null
        }
    },
    {
        "lat": 40.9918736,
        "lon": 29.0270269,
        "tags": {
            "addr:city": "İstanbul",
            "addr:district": null,
            "description": "",
            "opening_hours": "Mo-Fr 07:45-22:50; Sa 09:00-21:50",
            "phone": "+905537378138",
            "branch": null,
            "amenity": "fitness_centre",
            "mobile": null,
            "addr:street": null,
            "cuisine": null,
            "name": "USA Team Fitness & Fight Club",
            "name:en": null,
            "name:uk": null,
            "name:de": null,
            "name:tr": null,
            "name:ru": null,
            "name:ar": null
        }
    },
    {
        "lat": 41.0289853,
        "lon": 29.0588582,
        "tags": {
            "addr:city": "İstanbul",
            "addr:district": null,
            "description": "",
            "opening_hours": null,
            "phone": null,
            "branch": null,
            "amenity": "fitness_centre",
            "mobile": null,
            "addr:street": null,
            "cuisine": null,
            "name": null,
            "name:en": null,
            "name:uk": null,
            "name:de": null,
            "name:tr": null,
            "name:ru": null,
            "name:ar": null
        }
    },
    {
        "lat": 40.9712847,
        "lon": 29.088559,
        "tags": {
            "addr:city": "İstanbul",
            "addr:district": "Kadıköy",
            "description": "",
            "opening_hours": null,
            "phone": null,
            "branch": null,
            "amenity": "fitness_centre",
            "mobile": null,
            "addr:street": "Uzay Sokağı",
            "cuisine": null,
            "name": "Sports Factory",
            "name:en": null,
            "name:uk": null,
            "name:de": null,
            "name:tr": null,
            "name:ru": null,
            "name:ar": null
        }
    },
    {
        "lat": 40.8297207,
        "lon": 29.307862,
        "tags": {
            "addr:city": "İstanbul",
            "addr:district": null,
            "description": "",
            "opening_hours": null,
            "phone": null,
            "branch": null,
            "amenity": "fitness_centre",
            "mobile": null,
            "addr:street": null,
            "cuisine": null,
            "name": null,
            "name:en": null,
            "name:uk": null,
            "name:de": null,
            "name:tr": null,
            "name:ru": null,
            "name:ar": null
        }
    },
    {
        "lat": 40.8261808,
        "lon": 29.3119497,
        "tags": {
            "addr:city": "İstanbul",
            "addr:district": null,
            "description": "",
            "opening_hours": null,
            "phone": null,
            "branch": null,
            "amenity": "fitness_centre",
            "mobile": null,
            "addr:street": null,
            "cuisine": null,
            "name": null,
            "name:en": null,
            "name:uk": null,
            "name:de": null,
            "name:tr": null,
            "name:ru": null,
            "name:ar": null
        }
    },
    {
        "lat": 40.9661342,
        "lon": 29.0866842,
        "tags": {
            "addr:city": "İstanbul",
            "addr:district": null,
            "description": "",
            "opening_hours": null,
            "phone": null,
            "branch": null,
            "amenity": "fitness_centre",
            "mobile": null,
            "addr:street": null,
            "cuisine": null,
            "name": "Gym Beam",
            "name:en": null,
            "name:uk": null,
            "name:de": null,
            "name:tr": null,
            "name:ru": null,
            "name:ar": null
        }
    },
    {
        "lat": 40.9123601,
        "lon": 29.306262,
        "tags": {
            "addr:city": "İstanbul",
            "addr:district": "Pendik",
            "description": "",
            "opening_hours": null,
            "phone": null,
            "branch": null,
            "amenity": "fitness_centre",
            "mobile": null,
            "addr:street": "Yıldırım Bayezit Caddesi",
            "cuisine": null,
            "name": "Hercules Fitness Center",
            "name:en": null,
            "name:uk": null,
            "name:de": null,
            "name:tr": null,
            "name:ru": null,
            "name:ar": null
        }
    },
    {
        "lat": 41.0238385,
        "lon": 28.8256282,
        "tags": {
            "addr:city": "İstanbul",
            "addr:district": null,
            "description": "",
            "opening_hours": null,
            "phone": null,
            "branch": null,
            "amenity": "fitness_centre",
            "mobile": null,
            "addr:street": null,
            "cuisine": null,
            "name": "Galanthus Pilates",
            "name:en": null,
            "name:uk": null,
            "name:de": null,
            "name:tr": null,
            "name:ru": null,
            "name:ar": null
        }
    },
    {
        "lat": 41.023461,
        "lon": 28.825437,
        "tags": {
            "addr:city": "İstanbul",
            "addr:district": null,
            "description": "",
            "opening_hours": null,
            "phone": null,
            "branch": null,
            "amenity": "fitness_centre",
            "mobile": null,
            "addr:street": null,
            "cuisine": null,
            "name": "Galanthus Pilates",
            "name:en": null,
            "name:uk": null,
            "name:de": null,
            "name:tr": null,
            "name:ru": null,
            "name:ar": null
        }
    },
    {
        "lat": 40.9678928,
        "lon": 29.0658111,
        "tags": {
            "addr:city": "İstanbul",
            "addr:district": "Kadıköy",
            "description": "",
            "opening_hours": null,
            "phone": null,
            "branch": null,
            "amenity": "fitness_centre",
            "mobile": null,
            "addr:street": "Bağdat Caddesi",
            "cuisine": null,
            "name": "City's Pilates",
            "name:en": null,
            "name:uk": null,
            "name:de": null,
            "name:tr": null,
            "name:ru": null,
            "name:ar": null
        }
    },
    {
        "lat": 40.9654611,
        "lon": 29.0907019,
        "tags": {
            "addr:city": "İstanbul",
            "addr:district": null,
            "description": "",
            "opening_hours": null,
            "phone": null,
            "branch": null,
            "amenity": "fitness_centre",
            "mobile": null,
            "addr:street": null,
            "cuisine": null,
            "name": "Garduf",
            "name:en": null,
            "name:uk": null,
            "name:de": null,
            "name:tr": null,
            "name:ru": null,
            "name:ar": null
        }
    },
    {
        "lat": 40.9747277,
        "lon": 29.0957431,
        "tags": {
            "addr:city": "İstanbul",
            "addr:district": null,
            "description": "",
            "opening_hours": null,
            "phone": null,
            "branch": null,
            "amenity": "fitness_centre",
            "mobile": null,
            "addr:street": null,
            "cuisine": null,
            "name": "Songül Kara Pilates Stüdyo",
            "name:en": null,
            "name:uk": null,
            "name:de": null,
            "name:tr": null,
            "name:ru": null,
            "name:ar": null
        }
    },
    {
        "lat": 40.9362726,
        "lon": 29.3674162,
        "tags": {
            "addr:city": "İstanbul",
            "addr:district": "Tuzla",
            "description": "",
            "opening_hours": null,
            "phone": "+90 538 5886566",
            "branch": null,
            "amenity": "fitness_centre",
            "mobile": null,
            "addr:street": "Karadağ Caddesi",
            "cuisine": null,
            "name": "Jump&Fly Studio",
            "name:en": null,
            "name:uk": null,
            "name:de": null,
            "name:tr": null,
            "name:ru": null,
            "name:ar": null
        }
    },
    {
        "lat": 40.9281228,
        "lon": 29.3101426,
        "tags": {
            "addr:city": "İstanbul",
            "addr:district": null,
            "description": "",
            "opening_hours": null,
            "phone": null,
            "branch": null,
            "amenity": "fitness_centre",
            "mobile": null,
            "addr:street": "Osmanlı Bulvarı",
            "cuisine": null,
            "name": "Atlantis Sport Club",
            "name:en": null,
            "name:uk": null,
            "name:de": null,
            "name:tr": null,
            "name:ru": null,
            "name:ar": null
        }
    },
    {
        "lat": 40.9774928,
        "lon": 28.8709555,
        "tags": {
            "addr:city": "İstanbul",
            "addr:district": "Bakırköy",
            "description": "",
            "opening_hours": "Mo-Su 07:00-22:00",
            "phone": "+90 (0212) 561 27 27",
            "branch": null,
            "amenity": "fitness_centre",
            "mobile": null,
            "addr:street": "Fişekhane Caddesi",
            "cuisine": null,
            "name": "FITCITY",
            "name:en": null,
            "name:uk": null,
            "name:de": null,
            "name:tr": null,
            "name:ru": null,
            "name:ar": null
        }
    },
    {
        "lat": 41.0479608,
        "lon": 29.2355088,
        "tags": {
            "addr:city": "İstanbul",
            "addr:district": null,
            "description": "",
            "opening_hours": "Sa-Th 09:00-22:00",
            "phone": null,
            "branch": null,
            "amenity": "fitness_centre",
            "mobile": null,
            "addr:street": null,
            "cuisine": null,
            "name": "Dr. Mimar Kadir Topbaş Spor Kompleksi - Fitness Salonu",
            "name:en": null,
            "name:uk": null,
            "name:de": null,
            "name:tr": null,
            "name:ru": null,
            "name:ar": null
        }
    },
    {
        "lat": 41.0271188,
        "lon": 29.1250671,
        "tags": {
            "addr:city": "İstanbul",
            "addr:district": "Ümraniye",
            "description": "",
            "opening_hours": null,
            "phone": null,
            "branch": "Buyaka",
            "amenity": "fitness_centre",
            "mobile": null,
            "addr:street": "Balkan Caddesi",
            "cuisine": null,
            "name": "MACFit",
            "name:en": null,
            "name:uk": null,
            "name:de": null,
            "name:tr": null,
            "name:ru": null,
            "name:ar": null
        }
    },
    {
        "lat": 41.0022085,
        "lon": 29.1410265,
        "tags": {
            "addr:city": "İstanbul",
            "addr:district": null,
            "description": "",
            "opening_hours": null,
            "phone": null,
            "branch": null,
            "amenity": "fitness_centre",
            "mobile": null,
            "addr:street": null,
            "cuisine": null,
            "name": null,
            "name:en": null,
            "name:uk": null,
            "name:de": null,
            "name:tr": null,
            "name:ru": null,
            "name:ar": null
        }
    },
    {
        "lat": 40.9164234,
        "lon": 29.30405,
        "tags": {
            "addr:city": "İstanbul",
            "addr:district": "Pendik",
            "description": "",
            "opening_hours": null,
            "phone": null,
            "branch": null,
            "amenity": "fitness_centre",
            "mobile": null,
            "addr:street": "Ankara Caddesi",
            "cuisine": null,
            "name": "Tevetoğlu Fitness",
            "name:en": null,
            "name:uk": null,
            "name:de": null,
            "name:tr": null,
            "name:ru": null,
            "name:ar": null
        }
    },
    {
        "lat": 40.9790294,
        "lon": 28.7207649,
        "tags": {
            "addr:city": "İstanbul",
            "addr:district": null,
            "description": "",
            "opening_hours": null,
            "phone": null,
            "branch": null,
            "amenity": "fitness_centre",
            "mobile": null,
            "addr:street": null,
            "cuisine": null,
            "name": null,
            "name:en": null,
            "name:uk": null,
            "name:de": null,
            "name:tr": null,
            "name:ru": null,
            "name:ar": null
        }
    },
    {
        "lat": 41.0447941,
        "lon": 28.9436323,
        "tags": {
            "addr:city": "İstanbul",
            "addr:district": null,
            "description": "",
            "opening_hours": null,
            "phone": null,
            "branch": null,
            "amenity": "fitness_centre",
            "mobile": null,
            "addr:street": null,
            "cuisine": null,
            "name": null,
            "name:en": null,
            "name:uk": null,
            "name:de": null,
            "name:tr": null,
            "name:ru": null,
            "name:ar": null
        }
    }
]