[
    {
        "lat": 41.033162,
        "lon": 28.9818585,
        "tags": {
            "addr:city": "İstanbul",
            "addr:district": null,
            "description": "",
            "opening_hours": null,
            "phone": null,
            "branch": null,
            "amenity": "sauna",
            "mobile": null,
            "addr:street": "Turnacıbaşı Sokak",
            "cuisine": null,
            "name": "Ağa Hamamı",
            "name:en": null,
            "name:uk": null,
            "name:de": null,
            "name:tr": null,
            "name:ru": null,
            "name:ar": "حمام الاغا"
        }
    },
    {
        "lat": 41.0194143,
        "lon": 28.9604523,
        "tags": {
            "addr:city": "İstanbul",
            "addr:district": null,
            "description": "",
            "opening_hours": null,
            "phone": null,
            "branch": null,
            "amenity": "sauna",
            "mobile": null,
            "addr:street": null,
            "cuisine": null,
            "name": "Hacı Kadın Hamami",
            "name:en": null,
            "name:uk": null,
            "name:de": null,
            "name:tr": "Hacı Kadın Hamami",
            "name:ru": null,
            "name:ar": null
        }
    },
    {
        "lat": 41.0324084,
        "lon": 28.981367,
        "tags": {
            "addr:city": "İstanbul",
            "addr:district": null,
            "description": "",
            "opening_hours": null,
            "phone": null,
            "branch": null,
            "amenity": "sauna",
            "mobile": null,
            "addr:street": "Altıpatlar Sk.",
            "cuisine": null,
            "name": "Cihangir Sauna",
            "name:en": null,
            "name:uk": null,
            "name:de": null,
            "name:tr": "Cihangir Sauna",
            "name:ru": null,
            "name:ar": null
        }
    },
    {
        "lat": 41.0083203,
        "lon": 28.9754745,
        "tags": {
            "addr:city": "İstanbul",
            "addr:district": null,
            "description": "",
            "opening_hours": null,
            "phone": null,
            "branch": null,
            "amenity": "sauna",
            "mobile": null,
            "addr:street": null,
            "cuisine": null,
            "name": null,
            "name:en": "Sultanahmet hamami",
            "name:uk": null,
            "name:de": null,
            "name:tr": null,
            "name:ru": null,
            "name:ar": null
        }
    },
    {
        "lat": 41.0255132,
        "lon": 28.9691698,
        "tags": {
            "addr:city": "İstanbul",
            "addr:district": null,
            "description": "",
            "opening_hours": null,
            "phone": null,
            "branch": null,
            "amenity": "sauna",
            "mobile": null,
            "addr:street": null,
            "cuisine": null,
            "name": "Şıfa Hamamı",
            "name:en": "Shifa bath",
            "name:uk": null,
            "name:de": null,
            "name:tr": "Şıfa Hamamı",
            "name:ru": "Шифа хамам",
            "name:ar": null
        }
    },
    {
        "lat": 41.0798988,
        "lon": 28.2312612,
        "tags": {
            "addr:city": "İstanbul",
            "addr:district": null,
            "description": "",
            "opening_hours": null,
            "phone": null,
            "branch": null,
            "amenity": "sauna",
            "mobile": null,
            "addr:street": null,
            "cuisine": null,
            "name": null,
            "name:en": null,
            "name:uk": null,
            "name:de": null,
            "name:tr": null,
            "name:ru": null,
            "name:ar": null
        }
    },
    {
        "lat": 41.0124428,
        "lon": 28.9674257,
        "tags": {
            "addr:city": "Istanbul",
            "addr:district": "Fatih",
            "description": "",
            "opening_hours": null,
            "phone": null,
            "branch": null,
            "amenity": "sauna",
            "mobile": null,
            "addr:street": "Örücüler Kapısı Sokağı",
            "cuisine": null,
            "name": "Örücüler Hamamı Turkish Bath and Sauna",
            "name:en": null,
            "name:uk": null,
            "name:de": null,
            "name:tr": null,
            "name:ru": null,
            "name:ar": "أوروجولار هامامي توركيش باث حمام تركي"
        }
    },
    {
        "lat": 41.0587896,
        "lon": 28.9840784,
        "tags": {
            "addr:city": "İstanbul",
            "addr:district": null,
            "description": "",
            "opening_hours": null,
            "phone": null,
            "branch": null,
            "amenity": "sauna",
            "mobile": null,
            "addr:street": null,
            "cuisine": null,
            "name": "Sankurt Sauna&Spa",
            "name:en": null,
            "name:uk": null,
            "name:de": null,
            "name:tr": null,
            "name:ru": null,
            "name:ar": null
        }
    },
    {
        "lat": 41.0334805,
        "lon": 28.968406,
        "tags": {
            "addr:city": "İstanbul",
            "addr:district": null,
            "description": "",
            "opening_hours": "Mo-Su 09:00-22:00",
            "phone": null,
            "branch": null,
            "amenity": "sauna",
            "mobile": null,
            "addr:street": null,
            "cuisine": null,
            "name": "Buyuk Hamam",
            "name:en": null,
            "name:uk": null,
            "name:de": null,
            "name:tr": null,
            "name:ru": null,
            "name:ar": null
        }
    },
    {
        "lat": 41.0114351,
        "lon": 28.9507691,
        "tags": {
            "addr:city": "İstanbul",
            "addr:district": null,
            "description": "",
            "opening_hours": null,
            "phone": null,
            "branch": null,
            "amenity": "sauna",
            "mobile": null,
            "addr:street": null,
            "cuisine": null,
            "name": null,
            "name:en": "Horhor Hamam",
            "name:uk": null,
            "name:de": null,
            "name:tr": null,
            "name:ru": null,
            "name:ar": null
        }
    },
    {
        "lat": 41.0159031,
        "lon": 28.9656606,
        "tags": {
            "addr:city": "İstanbul",
            "addr:district": null,
            "description": "",
            "opening_hours": "10:00-21:00",
            "phone": "+90 212 519 55 69",
            "branch": null,
            "amenity": "sauna",
            "mobile": null,
            "addr:street": null,
            "cuisine": null,
            "name": "Süleymaniye Hamamı",
            "name:en": null,
            "name:uk": null,
            "name:de": null,
            "name:tr": null,
            "name:ru": null,
            "name:ar": null
        }
    },
    {
        "lat": 40.9984376,
        "lon": 28.9074438,
        "tags": {
            "addr:city": "Istanbul",
            "addr:district": "Zeytinburnu",
            "description": "",
            "opening_hours": "Mo-Fr 09:00-17:00",
            "phone": null,
            "branch": null,
            "amenity": "sauna",
            "mobile": null,
            "addr:street": null,
            "cuisine": null,
            "name": "Beştelsiz Hamamı Havuz Sauna",
            "name:en": null,
            "name:uk": null,
            "name:de": null,
            "name:tr": null,
            "name:ru": null,
            "name:ar": "حمام وساونا بيشتلسيز"
        }
    },
    {
        "lat": 40.9940338,
        "lon": 28.9015429,
        "tags": {
            "addr:city": "Istanbul",
            "addr:district": "Zeytinburnu",
            "description": "",
            "opening_hours": "Mo-Su 07:00-23:00",
            "phone": null,
            "branch": null,
            "amenity": "sauna",
            "mobile": null,
            "addr:street": null,
            "cuisine": null,
            "name": "Yeşiltepe Hamamı Havuz Duş Sauna",
            "name:en": null,
            "name:uk": null,
            "name:de": null,
            "name:tr": null,
            "name:ru": null,
            "name:ar": "حمام وساونا يشيل تبة"
        }
    },
    {
        "lat": 41.024425,
        "lon": 29.0123693,
        "tags": {
            "addr:city": "İstanbul",
            "addr:district": null,
            "description": "",
            "opening_hours": null,
            "phone": null,
            "branch": null,
            "amenity": "sauna",
            "mobile": null,
            "addr:street": "mimar sinan mahallesi",
            "cuisine": null,
            "name": "Şifa Hamamı Üsküdar",
            "name:en": null,
            "name:uk": null,
            "name:de": null,
            "name:tr": null,
            "name:ru": "Хамам Шифа Юскюдар",
            "name:ar": null
        }
    },
    {
        "lat": 41.0239644,
        "lon": 29.0354383,
        "tags": {
            "addr:city": "istanbul",
            "addr:district": "üsküdar",
            "description": "",
            "opening_hours": null,
            "phone": null,
            "branch": null,
            "amenity": "sauna",
            "mobile": null,
            "addr:street": "anıt sokak",
            "cuisine": null,
            "name": "Kral sauna",
            "name:en": null,
            "name:uk": null,
            "name:de": null,
            "name:tr": null,
            "name:ru": null,
            "name:ar": null
        }
    },
    {
        "lat": 41.0042273,
        "lon": 28.9755264,
        "tags": {
            "addr:city": "İstanbul",
            "addr:district": null,
            "description": "",
            "opening_hours": null,
            "phone": null,
            "branch": null,
            "amenity": "sauna",
            "mobile": null,
            "addr:street": null,
            "cuisine": null,
            "name": "Sifa hamami",
            "name:en": null,
            "name:uk": null,
            "name:de": null,
            "name:tr": null,
            "name:ru": null,
            "name:ar": null
        }
    },
    {
        "lat": 40.890075,
        "lon": 29.2627252,
        "tags": {
            "addr:city": "İstanbul",
            "addr:district": null,
            "description": "",
            "opening_hours": "Mo-Su 09:00-00:00",
            "phone": "+902163969590",
            "branch": null,
            "amenity": "sauna",
            "mobile": null,
            "addr:street": "Mimar Sinan Caddesi",
            "cuisine": null,
            "name": "Hamam",
            "name:en": null,
            "name:uk": null,
            "name:de": null,
            "name:tr": null,
            "name:ru": "Хаммом",
            "name:ar": null
        }
    },
    {
        "lat": 41.0317647,
        "lon": 28.980562,
        "tags": {
            "addr:city": "İstanbul",
            "addr:district": null,
            "description": "",
            "opening_hours": "Mo-Su 08:30-22:00",
            "phone": "+905309330513",
            "branch": null,
            "amenity": "sauna",
            "mobile": null,
            "addr:street": "Çukurcuma Caddesi",
            "cuisine": null,
            "name": "Çukurcuma Hamami",
            "name:en": null,
            "name:uk": null,
            "name:de": null,
            "name:tr": null,
            "name:ru": null,
            "name:ar": null
        }
    },
    {
        "lat": 41.0317481,
        "lon": 28.9805987,
        "tags": {
            "addr:city": "İstanbul",
            "addr:district": null,
            "description": "",
            "opening_hours": null,
            "phone": null,
            "branch": null,
            "amenity": "sauna",
            "mobile": null,
            "addr:street": null,
            "cuisine": null,
            "name": null,
            "name:en": null,
            "name:uk": null,
            "name:de": null,
            "name:tr": null,
            "name:ru": null,
            "name:ar": null
        }
    },
    {
        "lat": 41.0112305,
        "lon": 28.9613329,
        "tags": {
            "addr:city": "İstanbul",
            "addr:district": null,
            "description": "",
            "opening_hours": null,
            "phone": null,
            "branch": null,
            "amenity": "sauna",
            "mobile": null,
            "addr:street": null,
            "cuisine": null,
            "name": null,
            "name:en": "vezneciler hamami",
            "name:uk": null,
            "name:de": null,
            "name:tr": null,
            "name:ru": null,
            "name:ar": null
        }
    },
    {
        "lat": 41.0487924,
        "lon": 28.9614955,
        "tags": {
            "addr:city": "İstanbul",
            "addr:district": null,
            "description": "",
            "opening_hours": null,
            "phone": null,
            "branch": null,
            "amenity": "sauna",
            "mobile": null,
            "addr:street": null,
            "cuisine": null,
            "name": null,
            "name:en": null,
            "name:uk": null,
            "name:de": null,
            "name:tr": null,
            "name:ru": null,
            "name:ar": null
        }
    },
    {
        "lat": 41.0636345,
        "lon": 28.6678979,
        "tags": {
            "addr:city": "İstanbul",
            "addr:district": null,
            "description": "",
            "opening_hours": null,
            "phone": null,
            "branch": null,
            "amenity": "sauna",
            "mobile": null,
            "addr:street": null,
            "cuisine": null,
            "name": "Altınkese Spa & Hamam",
            "name:en": null,
            "name:uk": null,
            "name:de": null,
            "name:tr": null,
            "name:ru": null,
            "name:ar": null
        }
    },
    {
        "lat": 40.9800339,
        "lon": 29.1124775,
        "tags": {
            "addr:city": "İstanbul",
            "addr:district": null,
            "description": "",
            "opening_hours": null,
            "phone": null,
            "branch": null,
            "amenity": "sauna",
            "mobile": null,
            "addr:street": null,
            "cuisine": null,
            "name": "Güneş Sauna & Hamam",
            "name:en": null,
            "name:uk": null,
            "name:de": null,
            "name:tr": null,
            "name:ru": null,
            "name:ar": null
        }
    },
    {
        "lat": 41.0056119,
        "lon": 28.9614958,
        "tags": {
            "addr:city": "İstanbul",
            "addr:district": null,
            "description": "",
            "opening_hours": null,
            "phone": null,
            "branch": null,
            "amenity": "sauna",
            "mobile": null,
            "addr:street": null,
            "cuisine": null,
            "name": "Tarihi Nişanca Hamamı",
            "name:en": null,
            "name:uk": null,
            "name:de": null,
            "name:tr": null,
            "name:ru": null,
            "name:ar": null
        }
    },
    {
        "lat": 41.0313277,
        "lon": 28.9698449,
        "tags": {
            "addr:city": "İstanbul",
            "addr:district": null,
            "description": "",
            "opening_hours": null,
            "phone": null,
            "branch": null,
            "amenity": "sauna",
            "mobile": null,
            "addr:street": null,
            "cuisine": null,
            "name": "Catma Mescit Istanbul Hamam",
            "name:en": null,
            "name:uk": null,
            "name:de": null,
            "name:tr": null,
            "name:ru": null,
            "name:ar": null
        }
    },
    {
        "lat": 41.0241512,
        "lon": 28.9726838,
        "tags": {
            "addr:city": "İstanbul",
            "addr:district": null,
            "description": "",
            "opening_hours": null,
            "phone": null,
            "branch": null,
            "amenity": "sauna",
            "mobile": null,
            "addr:street": null,
            "cuisine": null,
            "name": "Tarihi Çeşme Hamamı",
            "name:en": null,
            "name:uk": null,
            "name:de": null,
            "name:tr": null,
            "name:ru": null,
            "name:ar": null
        }
    }
]