[
    {
        "lat": 41.0085416,
        "lon": 28.9716244,
        "tags": {
            "addr:city": "İstanbul",
            "addr:district": null,
            "description": "",
            "opening_hours": "Mo-Su 06:00-23:30",
            "phone": null,
            "branch": null,
            "amenity": "public_bath",
            "mobile": null,
            "addr:street": "Vezirhanı Caddesi",
            "cuisine": null,
            "name": "Çemberlitaş Hamamı",
            "name:en": "Çemberlitaş Hammam",
            "name:uk": "Хамам Чемберлиташ",
            "name:de": null,
            "name:tr": null,
            "name:ru": "Хамам Чемберлиташ",
            "name:ar": null
        }
    },
    {
        "lat": 41.0281076,
        "lon": 28.9555035,
        "tags": {
            "addr:city": "Istanbul",
            "addr:district": "Fatih",
            "description": "",
            "opening_hours": null,
            "phone": null,
            "branch": null,
            "amenity": "public_bath",
            "mobile": null,
            "addr:street": "Abdülezelpaşa Caddesi",
            "cuisine": null,
            "name": "Cibali Ayakapı Hamamı",
            "name:en": null,
            "name:uk": null,
            "name:de": null,
            "name:tr": null,
            "name:ru": null,
            "name:ar": "جيبالي اياكابو حمام"
        }
    },
    {
        "lat": 40.9972243,
        "lon": 28.9240886,
        "tags": {
            "addr:city": "Istanbul",
            "addr:district": "Fatih",
            "description": "",
            "opening_hours": null,
            "phone": null,
            "branch": null,
            "amenity": "turkish_bath",
            "mobile": null,
            "addr:street": "Hacı evhaddin caddesi",
            "cuisine": null,
            "name": "HACI EVHADDİN HAMAMI",
            "name:en": null,
            "name:uk": null,
            "name:de": null,
            "name:tr": null,
            "name:ru": null,
            "name:ar": "حمام حجي أوحدين"
        }
    },
    {
        "lat": 41.0084062,
        "lon": 28.9755675,
        "tags": {
            "addr:city": "Istanbul",
            "addr:district": "Fatih",
            "description": "",
            "opening_hours": null,
            "phone": null,
            "branch": null,
            "amenity": "public_bath",
            "mobile": null,
            "addr:street": "Dr. Eminpaşa Sokak",
            "cuisine": null,
            "name": "Sultan Ahmet Hamami",
            "name:en": null,
            "name:uk": null,
            "name:de": null,
            "name:tr": null,
            "name:ru": null,
            "name:ar": null
        }
    },
    {
        "lat": 41.0083615,
        "lon": 28.9755675,
        "tags": {
            "addr:city": "Istanbul",
            "addr:district": "Fatih",
            "description": "",
            "opening_hours": null,
            "phone": null,
            "branch": null,
            "amenity": "public_bath",
            "mobile": null,
            "addr:street": "Dr. Eminpaşa Sokak",
            "cuisine": null,
            "name": "Blue Bath",
            "name:en": null,
            "name:uk": null,
            "name:de": null,
            "name:tr": null,
            "name:ru": null,
            "name:ar": null
        }
    },
    {
        "lat": 41.0112362,
        "lon": 28.9611626,
        "tags": {
            "addr:city": "Istanbul",
            "addr:district": "Turkey",
            "description": "",
            "opening_hours": null,
            "phone": null,
            "branch": null,
            "amenity": "turkish_bath",
            "mobile": null,
            "addr:street": "Bozdoğan kemeri caddesi",
            "cuisine": null,
            "name": "Tarihi vezneciler hamamı",
            "name:en": null,
            "name:uk": null,
            "name:de": null,
            "name:tr": null,
            "name:ru": null,
            "name:ar": "حمام فيزنجلر التاريخي"
        }
    },
    {
        "lat": 41.0158272,
        "lon": 28.9655953,
        "tags": {
            "addr:city": "Istanbul",
            "addr:district": "Fatih",
            "description": "",
            "opening_hours": null,
            "phone": null,
            "branch": null,
            "amenity": "turkish_bath",
            "mobile": null,
            "addr:street": "Mimar sinan caddesi",
            "cuisine": null,
            "name": "Süleymaniye hamami",
            "name:en": null,
            "name:uk": null,
            "name:de": null,
            "name:tr": null,
            "name:ru": null,
            "name:ar": "حمام السليمانية"
        }
    },
    {
        "lat": 41.0079681,
        "lon": 28.9397705,
        "tags": {
            "addr:city": "Istanbul",
            "addr:district": "Fatih",
            "description": "",
            "opening_hours": null,
            "phone": null,
            "branch": null,
            "amenity": "turkish_bath",
            "mobile": null,
            "addr:street": "Hekimoğlu ali paşa Caddesi",
            "cuisine": null,
            "name": "Tarihi alipaşa Hamami",
            "name:en": null,
            "name:uk": null,
            "name:de": null,
            "name:tr": null,
            "name:ru": null,
            "name:ar": "حمام علي باشا التاريخي"
        }
    },
    {
        "lat": 41.0071946,
        "lon": 28.9791452,
        "tags": {
            "addr:city": "Istanbul",
            "addr:district": "Turkey",
            "description": "",
            "opening_hours": null,
            "phone": null,
            "branch": null,
            "amenity": "public_bath",
            "mobile": null,
            "addr:street": "Ayasofya meydanı",
            "cuisine": null,
            "name": "Ayasofya Hürrem Sultan Hamamı",
            "name:en": null,
            "name:uk": null,
            "name:de": null,
            "name:tr": null,
            "name:ru": null,
            "name:ar": null
        }
    }
]