[
    {
        "lat": 41.0096315,
        "lon": 29.0193488,
        "tags": {
            "addr:city": "İstanbul",
            "addr:district": "Üsküdar",
            "description": "",
            "opening_hours": null,
            "phone": "+90 \t216 391 2119",
            "branch": null,
            "amenity": "football",
            "mobile": null,
            "addr:street": "Kavak İskele Caddesi",
            "cuisine": null,
            "name": "Selimiye Stadı",
            "name:en": null,
            "name:uk": null,
            "name:de": null,
            "name:tr": null,
            "name:ru": null,
            "name:ar": null
        }
    },
    {
        "lat": 41.0036272,
        "lon": 28.7873334,
        "tags": {
            "addr:city": "İstanbul",
            "addr:district": null,
            "description": "",
            "opening_hours": null,
            "phone": null,
            "branch": null,
            "amenity": "football",
            "mobile": null,
            "addr:street": null,
            "cuisine": null,
            "name": "Haydar Aslan Spor Kompleksi",
            "name:en": null,
            "name:uk": null,
            "name:de": null,
            "name:tr": null,
            "name:ru": null,
            "name:ar": null
        }
    }
]