[
    {
        "lat": 40.9022175,
        "lon": 29.1466798,
        "tags": {
            "addr:city": "İstanbul",
            "addr:district": null,
            "description": "",
            "opening_hours": "Mo-Su 09:00-00:00",
            "phone": null,
            "branch": null,
            "amenity": "karting",
            "mobile": null,
            "addr:street": null,
            "cuisine": null,
            "name": "Fevpark Dragos Karting",
            "name:en": null,
            "name:uk": null,
            "name:de": null,
            "name:tr": null,
            "name:ru": null,
            "name:ar": null
        }
    },
    {
        "lat": 40.9952601,
        "lon": 28.9089565,
        "tags": {
            "addr:city": "Istanbul",
            "addr:district": "Zeytinburnu",
            "description": "",
            "opening_hours": null,
            "phone": null,
            "branch": null,
            "amenity": "karting",
            "mobile": null,
            "addr:street": null,
            "cuisine": null,
            "name": "Go Kart",
            "name:en": null,
            "name:uk": null,
            "name:de": null,
            "name:tr": null,
            "name:ru": null,
            "name:ar": "جو كارت سيارات السباق الصغيرة"
        }
    }
]