[
    {
        "lat": 41.01105,
        "lon": 28.9461422,
        "tags": {
            "addr:city": "Istanbul",
            "addr:district": "Fatih",
            "description": "",
            "opening_hours": null,
            "phone": "02125211315",
            "branch": null,
            "amenity": "events_venue",
            "mobile": null,
            "addr:street": "Yekta Efendi Sokak",
            "cuisine": null,
            "name": "19 Mayıs Düğün Salonu",
            "name:en": null,
            "name:uk": null,
            "name:de": null,
            "name:tr": null,
            "name:ru": null,
            "name:ar": "صالة 19 مايس للأفراح"
        }
    },
    {
        "lat": 41.011985,
        "lon": 28.9420813,
        "tags": {
            "addr:city": "Istanbul",
            "addr:district": "Fatih",
            "description": "",
            "opening_hours": null,
            "phone": "02125217193",
            "branch": null,
            "amenity": "events_venue",
            "mobile": null,
            "addr:street": "Dedepaşa sokak",
            "cuisine": null,
            "name": "Tarçıncı davet salonu",
            "name:en": null,
            "name:uk": null,
            "name:de": null,
            "name:tr": null,
            "name:ru": null,
            "name:ar": "صالون تارجيني للافراح"
        }
    },
    {
        "lat": 41.0269217,
        "lon": 28.9565909,
        "tags": {
            "addr:city": "Istanbul",
            "addr:district": "Fatih",
            "description": "",
            "opening_hours": null,
            "phone": null,
            "branch": null,
            "amenity": "events_venue",
            "mobile": null,
            "addr:street": "Gül Cami Sokak",
            "cuisine": null,
            "name": "Külliye kına evi",
            "name:en": null,
            "name:uk": null,
            "name:de": null,
            "name:tr": null,
            "name:ru": null,
            "name:ar": "كوللي كينا ايفي"
        }
    },
    {
        "lat": 40.9964729,
        "lon": 28.9283193,
        "tags": {
            "addr:city": "Istanbul",
            "addr:district": "Fatih",
            "description": "",
            "opening_hours": null,
            "phone": null,
            "branch": null,
            "amenity": "events_venue",
            "mobile": null,
            "addr:street": "İmam Aşir Sokak",
            "cuisine": null,
            "name": "Yedikule Çok Amaçlı Salonu",
            "name:en": null,
            "name:uk": null,
            "name:de": null,
            "name:tr": null,
            "name:ru": null,
            "name:ar": "صالة يديكولي للمناسبات"
        }
    },
    {
        "lat": 41.0089542,
        "lon": 28.9482233,
        "tags": {
            "addr:city": "Istanbul",
            "addr:district": "Fatih",
            "description": "",
            "opening_hours": null,
            "phone": "(0212) 589 61 39",
            "branch": null,
            "amenity": "events_venue",
            "mobile": null,
            "addr:street": "Cerrahpaşa caddesi",
            "cuisine": null,
            "name": "Yıldız Düğün Salonları",
            "name:en": null,
            "name:uk": null,
            "name:de": null,
            "name:tr": null,
            "name:ru": null,
            "name:ar": "صالات أعراس يلدز"
        }
    },
    {
        "lat": 41.0219983,
        "lon": 28.9306525,
        "tags": {
            "addr:city": "Istanbul",
            "addr:district": "Fatih",
            "description": "",
            "opening_hours": null,
            "phone": "05332164517",
            "branch": null,
            "amenity": "events_venue",
            "mobile": null,
            "addr:street": "Kahalbaşı Sokağı",
            "cuisine": null,
            "name": "Hat davet salonu",
            "name:en": null,
            "name:uk": null,
            "name:de": null,
            "name:tr": null,
            "name:ru": null,
            "name:ar": "صالة أعراس هات"
        }
    },
    {
        "lat": 41.0196641,
        "lon": 28.9398225,
        "tags": {
            "addr:city": "Istanbul",
            "addr:district": "Turkey",
            "description": "",
            "opening_hours": null,
            "phone": null,
            "branch": null,
            "amenity": "events_venue",
            "mobile": null,
            "addr:street": "Kocasinan Caddesi",
            "cuisine": null,
            "name": "Ali Emiri Efendi Nikah Salonu",
            "name:en": null,
            "name:uk": null,
            "name:de": null,
            "name:tr": null,
            "name:ru": null,
            "name:ar": "صالة علي امري افندي للأعراس"
        }
    },
    {
        "lat": 41.016567,
        "lon": 28.9299819,
        "tags": {
            "addr:city": "Istanbul",
            "addr:district": "Turkey",
            "description": "",
            "opening_hours": null,
            "phone": null,
            "branch": null,
            "amenity": "events_venue",
            "mobile": null,
            "addr:street": "Ereğli Camii Sokağı",
            "cuisine": null,
            "name": "Şan Düğün Salonu",
            "name:en": null,
            "name:uk": null,
            "name:de": null,
            "name:tr": null,
            "name:ru": null,
            "name:ar": "صالة شان للاعراس"
        }
    },
    {
        "lat": 41.0088624,
        "lon": 28.9485256,
        "tags": {
            "addr:city": "Istanbul",
            "addr:district": "Fatih",
            "description": "",
            "opening_hours": null,
            "phone": null,
            "branch": null,
            "amenity": "events_venue",
            "mobile": null,
            "addr:street": "Recep Yazıcıoğlu Sokağı",
            "cuisine": null,
            "name": "Yıldız Düğün davet",
            "name:en": null,
            "name:uk": null,
            "name:de": null,
            "name:tr": null,
            "name:ru": null,
            "name:ar": "صالة أعراس يلدز"
        }
    },
    {
        "lat": 41.0085045,
        "lon": 28.9485655,
        "tags": {
            "addr:city": "Istanbul",
            "addr:district": "Fatih",
            "description": "",
            "opening_hours": null,
            "phone": null,
            "branch": null,
            "amenity": "events_venue",
            "mobile": null,
            "addr:street": "Recep Yazıcıoğlu Sokağı",
            "cuisine": null,
            "name": "Has Köşk Düğün salonu ALIXAN",
            "name:en": null,
            "name:uk": null,
            "name:de": null,
            "name:tr": null,
            "name:ru": null,
            "name:ar": "صالة أعراس هاس كوشك"
        }
    },
    {
        "lat": 41.0152596,
        "lon": 28.9320177,
        "tags": {
            "addr:city": "Istanbul",
            "addr:district": "Turkey",
            "description": "",
            "opening_hours": null,
            "phone": null,
            "branch": null,
            "amenity": "events_venue",
            "mobile": null,
            "addr:street": "Börekçe veli Sokağı",
            "cuisine": null,
            "name": "Çapa Düğün Salonu",
            "name:en": null,
            "name:uk": null,
            "name:de": null,
            "name:tr": null,
            "name:ru": null,
            "name:ar": "صالة تشابا للاعراس"
        }
    },
    {
        "lat": 41.0085847,
        "lon": 28.946694,
        "tags": {
            "addr:city": "Istanbul",
            "addr:district": "Fatih",
            "description": "",
            "opening_hours": null,
            "phone": null,
            "branch": null,
            "amenity": "events_venue",
            "mobile": null,
            "addr:street": "Cerrah Paşa Caddesi",
            "cuisine": null,
            "name": "Kristal Salonları",
            "name:en": null,
            "name:uk": null,
            "name:de": null,
            "name:tr": null,
            "name:ru": null,
            "name:ar": "كريستال صالون"
        }
    },
    {
        "lat": 41.0091859,
        "lon": 28.9450078,
        "tags": {
            "addr:city": "Istanbul",
            "addr:district": "Fatih",
            "description": "",
            "opening_hours": null,
            "phone": null,
            "branch": null,
            "amenity": "events_venue",
            "mobile": null,
            "addr:street": "Doktor Adnan Adıvar Caddesi",
            "cuisine": null,
            "name": "Taç Düğün Salonu",
            "name:en": null,
            "name:uk": null,
            "name:de": null,
            "name:tr": null,
            "name:ru": null,
            "name:ar": "تاج دوغون صالونو"
        }
    },
    {
        "lat": 41.0256597,
        "lon": 28.940498,
        "tags": {
            "addr:city": "Istanbul",
            "addr:district": "Fatih",
            "description": "",
            "opening_hours": null,
            "phone": null,
            "branch": null,
            "amenity": "events_venue",
            "mobile": null,
            "addr:street": "Fevzi paşa Caddesi",
            "cuisine": null,
            "name": "Oben Düğün salonu",
            "name:en": null,
            "name:uk": null,
            "name:de": null,
            "name:tr": null,
            "name:ru": null,
            "name:ar": "او بين صالة"
        }
    },
    {
        "lat": 40.94877,
        "lon": 29.2730877,
        "tags": {
            "addr:city": "Istanbul",
            "addr:district": "Sultanbeyli",
            "description": "",
            "opening_hours": null,
            "phone": null,
            "branch": null,
            "amenity": "events_venue",
            "mobile": null,
            "addr:street": "Nar Sokağı",
            "cuisine": null,
            "name": "Pir Sultan Abdal Kültür Derneği",
            "name:en": null,
            "name:uk": null,
            "name:de": null,
            "name:tr": null,
            "name:ru": null,
            "name:ar": "جمعية ثقافية بير سلطان عبدال"
        }
    },
    {
        "lat": 40.9680073,
        "lon": 29.2751225,
        "tags": {
            "addr:city": "Istanbul",
            "addr:district": "Sultanbeyli",
            "description": "",
            "opening_hours": null,
            "phone": null,
            "branch": null,
            "amenity": "events_venue",
            "mobile": null,
            "addr:street": "Şan Sokağı",
            "cuisine": null,
            "name": "Aktaş Playstation",
            "name:en": null,
            "name:uk": null,
            "name:de": null,
            "name:tr": null,
            "name:ru": null,
            "name:ar": "ألعاب اكتاش (صالة للألعاب)"
        }
    },
    {
        "lat": 40.9479535,
        "lon": 29.2689157,
        "tags": {
            "addr:city": "Istanbul",
            "addr:district": "Sultanbeyli",
            "description": "",
            "opening_hours": null,
            "phone": null,
            "branch": null,
            "amenity": "events_venue",
            "mobile": null,
            "addr:street": "Ali Rıza Sokağı",
            "cuisine": null,
            "name": "Güneşli Köyü",
            "name:en": null,
            "name:uk": null,
            "name:de": null,
            "name:tr": null,
            "name:ru": null,
            "name:ar": "غونيشلي كويو"
        }
    },
    {
        "lat": 40.9729152,
        "lon": 29.2617657,
        "tags": {
            "addr:city": "Istanbul",
            "addr:district": "Sultanbeyli",
            "description": "",
            "opening_hours": null,
            "phone": null,
            "branch": null,
            "amenity": "events_venue",
            "mobile": null,
            "addr:street": "Osmanbey Gaddesi",
            "cuisine": null,
            "name": "Cihan",
            "name:en": null,
            "name:uk": null,
            "name:de": null,
            "name:tr": null,
            "name:ru": null,
            "name:ar": "شيهان للمباراة"
        }
    },
    {
        "lat": 40.9733158,
        "lon": 29.2616234,
        "tags": {
            "addr:city": "Istanbul",
            "addr:district": "Sultanbeyli",
            "description": "",
            "opening_hours": null,
            "phone": null,
            "branch": null,
            "amenity": "events_venue",
            "mobile": null,
            "addr:street": "Taşkesen Sokağı",
            "cuisine": null,
            "name": null,
            "name:en": null,
            "name:uk": null,
            "name:de": null,
            "name:tr": null,
            "name:ru": null,
            "name:ar": "ملعب كرة قدم"
        }
    },
    {
        "lat": 40.9665086,
        "lon": 29.2671441,
        "tags": {
            "addr:city": "Istanbul",
            "addr:district": "Sultanbeyli",
            "description": "",
            "opening_hours": null,
            "phone": "05327026504",
            "branch": null,
            "amenity": "events_venue",
            "mobile": null,
            "addr:street": "Kuran kursu caddesi",
            "cuisine": null,
            "name": "White pavilion hall",
            "name:en": null,
            "name:uk": null,
            "name:de": null,
            "name:tr": null,
            "name:ru": null,
            "name:ar": "قاعة زفاف وايت بافيليون"
        }
    },
    {
        "lat": 40.9674646,
        "lon": 29.2702769,
        "tags": {
            "addr:city": "Istanbul",
            "addr:district": "Sultanbeyli",
            "description": "",
            "opening_hours": null,
            "phone": "02163985295",
            "branch": null,
            "amenity": "events_venue",
            "mobile": null,
            "addr:street": "Özel sokak",
            "cuisine": null,
            "name": "Zeray düğün ve kongre sarayı",
            "name:en": null,
            "name:uk": null,
            "name:de": null,
            "name:tr": null,
            "name:ru": null,
            "name:ar": "صالة اعراس زراي دوغون"
        }
    },
    {
        "lat": 40.9685984,
        "lon": 29.2666817,
        "tags": {
            "addr:city": "Istanbul",
            "addr:district": "Sultanbeyli",
            "description": "",
            "opening_hours": null,
            "phone": null,
            "branch": null,
            "amenity": "events_venue",
            "mobile": null,
            "addr:street": "Kadıköy sokağı",
            "cuisine": null,
            "name": "Öz yılmaz düğün salon",
            "name:en": null,
            "name:uk": null,
            "name:de": null,
            "name:tr": null,
            "name:ru": null,
            "name:ar": "قاعة زفاف اوز ييلماز"
        }
    },
    {
        "lat": 40.9797577,
        "lon": 29.0244381,
        "tags": {
            "addr:city": "İstanbul",
            "addr:district": "Kadıköy",
            "description": "",
            "opening_hours": null,
            "phone": null,
            "branch": null,
            "amenity": "events_venue",
            "mobile": null,
            "addr:street": "Moda Caddesi",
            "cuisine": null,
            "name": "Kayıkhane",
            "name:en": "Gardens of Garbo",
            "name:uk": null,
            "name:de": null,
            "name:tr": null,
            "name:ru": null,
            "name:ar": null
        }
    },
    {
        "lat": 40.9761559,
        "lon": 29.2677069,
        "tags": {
            "addr:city": "Istanbul",
            "addr:district": "Sultanbeyli",
            "description": "",
            "opening_hours": null,
            "phone": null,
            "branch": null,
            "amenity": "events_venue",
            "mobile": null,
            "addr:street": "yildirim Caddesi",
            "cuisine": null,
            "name": "Atmacalar",
            "name:en": null,
            "name:uk": null,
            "name:de": null,
            "name:tr": null,
            "name:ru": null,
            "name:ar": "صالة افراح اتماجالار"
        }
    },
    {
        "lat": 40.9709995,
        "lon": 29.2487111,
        "tags": {
            "addr:city": "Istanbul",
            "addr:district": "Sultanbeyli",
            "description": "",
            "opening_hours": null,
            "phone": "05363188840",
            "branch": null,
            "amenity": "events_venue",
            "mobile": null,
            "addr:street": "Esenli sokak شارع ايسينلي",
            "cuisine": null,
            "name": "Öz uzunlar düğün salonu",
            "name:en": null,
            "name:uk": null,
            "name:de": null,
            "name:tr": null,
            "name:ru": null,
            "name:ar": "اوز اوزونلار للاعراس"
        }
    },
    {
        "lat": 40.9685635,
        "lon": 29.2540274,
        "tags": {
            "addr:city": "Istanbul",
            "addr:district": "Sultanbeyli",
            "description": "",
            "opening_hours": null,
            "phone": "02163132728",
            "branch": null,
            "amenity": "events_venue",
            "mobile": null,
            "addr:street": "faith bulvarı Caddesi",
            "cuisine": null,
            "name": "Salon semazen",
            "name:en": null,
            "name:uk": null,
            "name:de": null,
            "name:tr": null,
            "name:ru": null,
            "name:ar": "صالة افراح سيمازن"
        }
    },
    {
        "lat": 40.9649837,
        "lon": 29.276163,
        "tags": {
            "addr:city": "Istanbul",
            "addr:district": "Sultanbeyli",
            "description": "",
            "opening_hours": null,
            "phone": null,
            "branch": null,
            "amenity": "events_venue",
            "mobile": null,
            "addr:street": "özdemlr sokğı",
            "cuisine": null,
            "name": "Salon Hanedan",
            "name:en": null,
            "name:uk": null,
            "name:de": null,
            "name:tr": null,
            "name:ru": null,
            "name:ar": "صالة افراح الأمراء"
        }
    },
    {
        "lat": 40.968505,
        "lon": 29.2550683,
        "tags": {
            "addr:city": "Istanbul",
            "addr:district": "Sultanbeyli",
            "description": "",
            "opening_hours": "Mo-Fr 07:00-13:30; Mo-Fr 17:00-20:00",
            "phone": "05378297024",
            "branch": null,
            "amenity": "events_venue",
            "mobile": null,
            "addr:street": "Şanlıurfa Caddesi",
            "cuisine": null,
            "name": "Salon Anadolu",
            "name:en": null,
            "name:uk": null,
            "name:de": null,
            "name:tr": null,
            "name:ru": null,
            "name:ar": "بيع سيارات انادول"
        }
    },
    {
        "lat": 40.9685018,
        "lon": 29.2536587,
        "tags": {
            "addr:city": "Istanbul",
            "addr:district": "Sultanbeyli",
            "description": "",
            "opening_hours": null,
            "phone": null,
            "branch": null,
            "amenity": "events_venue",
            "mobile": null,
            "addr:street": "faith bulvarı Caddesi",
            "cuisine": null,
            "name": "Salon esra yıldız",
            "name:en": null,
            "name:uk": null,
            "name:de": null,
            "name:tr": null,
            "name:ru": null,
            "name:ar": "صالة منظمة اجتماعية اسرا يلدز"
        }
    },
    {
        "lat": 40.9524184,
        "lon": 29.2967391,
        "tags": {
            "addr:city": "Istanbul",
            "addr:district": "Sultanbeyli",
            "description": "",
            "opening_hours": null,
            "phone": "05444084717",
            "branch": null,
            "amenity": "events_venue",
            "mobile": null,
            "addr:street": "Mürşit caddsi",
            "cuisine": null,
            "name": "çınar düğün.davet.organizasyon",
            "name:en": null,
            "name:uk": null,
            "name:de": null,
            "name:tr": null,
            "name:ru": null,
            "name:ar": "شينار دوين .دافيت.اوركانواسيون"
        }
    },
    {
        "lat": 40.9470135,
        "lon": 29.2995286,
        "tags": {
            "addr:city": "Istanbul",
            "addr:district": "Sultanbeyli",
            "description": "",
            "opening_hours": null,
            "phone": "05353562476",
            "branch": null,
            "amenity": "events_venue",
            "mobile": null,
            "addr:street": "Fatih bulvarı",
            "cuisine": null,
            "name": "Düğün sarayı",
            "name:en": null,
            "name:uk": null,
            "name:de": null,
            "name:tr": null,
            "name:ru": null,
            "name:ar": "دوين صالونو"
        }
    },
    {
        "lat": 40.9507249,
        "lon": 29.2982411,
        "tags": {
            "addr:city": "Istanbul",
            "addr:district": "Sultanbeyli",
            "description": "",
            "opening_hours": null,
            "phone": "05326326047",
            "branch": null,
            "amenity": "events_venue",
            "mobile": null,
            "addr:street": "Nadide",
            "cuisine": null,
            "name": "Mutluluğa açılankapı",
            "name:en": null,
            "name:uk": null,
            "name:de": null,
            "name:tr": null,
            "name:ru": null,
            "name:ar": "موتلولوغا"
        }
    },
    {
        "lat": 40.9725798,
        "lon": 29.2510545,
        "tags": {
            "addr:city": "Istanbul",
            "addr:district": "Sultanbeyli",
            "description": "",
            "opening_hours": null,
            "phone": "4960354",
            "branch": null,
            "amenity": "events_venue",
            "mobile": null,
            "addr:street": "yeni sokak ييني سوكاك( الشارع الجديد)",
            "cuisine": null,
            "name": "Seven",
            "name:en": null,
            "name:uk": null,
            "name:de": null,
            "name:tr": null,
            "name:ru": null,
            "name:ar": "سيفين للافراح"
        }
    },
    {
        "lat": 40.9784349,
        "lon": 29.2657546,
        "tags": {
            "addr:city": "Istanbul",
            "addr:district": "Sultanbeyli",
            "description": "",
            "opening_hours": null,
            "phone": null,
            "branch": null,
            "amenity": "events_venue",
            "mobile": null,
            "addr:street": "kubbe Caddesi",
            "cuisine": null,
            "name": "Salon Altın Köşk",
            "name:en": null,
            "name:uk": null,
            "name:de": null,
            "name:tr": null,
            "name:ru": null,
            "name:ar": "صالة التين كوشك"
        }
    },
    {
        "lat": 40.971085,
        "lon": 29.248614,
        "tags": {
            "addr:city": "Istanbul",
            "addr:district": "Sultanbeyli",
            "description": "",
            "opening_hours": null,
            "phone": "05363188840",
            "branch": null,
            "amenity": "events_venue",
            "mobile": null,
            "addr:street": "Esenli sokak شارع ايسينلي",
            "cuisine": null,
            "name": "Kübra düğün salonu",
            "name:en": null,
            "name:uk": null,
            "name:de": null,
            "name:tr": null,
            "name:ru": null,
            "name:ar": "صالة كوبرا للافراح"
        }
    },
    {
        "lat": 40.998769,
        "lon": 28.915809,
        "tags": {
            "addr:city": "Istanbul",
            "addr:district": "Zeytinburnu",
            "description": "",
            "opening_hours": null,
            "phone": null,
            "branch": null,
            "amenity": "events_venue",
            "mobile": null,
            "addr:street": null,
            "cuisine": null,
            "name": "Çağteks Gelinlik & Abiye",
            "name:en": null,
            "name:uk": null,
            "name:de": null,
            "name:tr": null,
            "name:ru": null,
            "name:ar": "جاغتكس لأليسة الأعراس"
        }
    },
    {
        "lat": 40.99885,
        "lon": 28.9158304,
        "tags": {
            "addr:city": "Istanbul",
            "addr:district": "Zeytinburnu",
            "description": "",
            "opening_hours": null,
            "phone": null,
            "branch": null,
            "amenity": "events_venue",
            "mobile": null,
            "addr:street": null,
            "cuisine": null,
            "name": "Parc marriage",
            "name:en": null,
            "name:uk": null,
            "name:de": null,
            "name:tr": null,
            "name:ru": null,
            "name:ar": "بارك للأفراح"
        }
    },
    {
        "lat": 40.9869191,
        "lon": 28.9045564,
        "tags": {
            "addr:city": "Istanbul",
            "addr:district": "Zeytinburnu",
            "description": "",
            "opening_hours": null,
            "phone": null,
            "branch": null,
            "amenity": "events_venue",
            "mobile": null,
            "addr:street": "58.Blv caddesi",
            "cuisine": null,
            "name": "Elif düğün Salonu",
            "name:en": null,
            "name:uk": null,
            "name:de": null,
            "name:tr": null,
            "name:ru": null,
            "name:ar": "اليف دوون صالونو"
        }
    },
    {
        "lat": 40.990586,
        "lon": 28.8989412,
        "tags": {
            "addr:city": "Istanbul",
            "addr:district": "Zeytinburnu",
            "description": "",
            "opening_hours": null,
            "phone": "02124151325",
            "branch": null,
            "amenity": "events_venue",
            "mobile": null,
            "addr:street": "56. sokak",
            "cuisine": null,
            "name": "yiğiz oğlu düğün salonu",
            "name:en": null,
            "name:uk": null,
            "name:de": null,
            "name:tr": null,
            "name:ru": null,
            "name:ar": "يغيز أوغلو"
        }
    },
    {
        "lat": 40.9860834,
        "lon": 28.9045059,
        "tags": {
            "addr:city": "Istanbul",
            "addr:district": "Zeytinburnu",
            "description": "",
            "opening_hours": null,
            "phone": null,
            "branch": null,
            "amenity": "events_venue",
            "mobile": null,
            "addr:street": "58 Blv caddesi",
            "cuisine": null,
            "name": "Saray Düğün Salonu",
            "name:en": null,
            "name:uk": null,
            "name:de": null,
            "name:tr": null,
            "name:ru": null,
            "name:ar": "ساراي دوون صالونو"
        }
    },
    {
        "lat": 41.0446398,
        "lon": 28.8594935,
        "tags": {
            "addr:city": "Istanbul",
            "addr:district": "Bağcılar",
            "description": "",
            "opening_hours": null,
            "phone": null,
            "branch": null,
            "amenity": "events_venue",
            "mobile": null,
            "addr:street": "Osmangazi Caddesi",
            "cuisine": null,
            "name": "Prenses",
            "name:en": null,
            "name:uk": null,
            "name:de": null,
            "name:tr": null,
            "name:ru": null,
            "name:ar": "برانسيس"
        }
    },
    {
        "lat": 41.0441922,
        "lon": 28.8505709,
        "tags": {
            "addr:city": "Istanbul",
            "addr:district": null,
            "description": "",
            "opening_hours": null,
            "phone": "4361143",
            "branch": null,
            "amenity": "events_venue",
            "mobile": null,
            "addr:street": "Namık Kemal Caddesi",
            "cuisine": null,
            "name": "EBRU DÜĞÜN SARAYI",
            "name:en": null,
            "name:uk": null,
            "name:de": null,
            "name:tr": null,
            "name:ru": null,
            "name:ar": "ايبرو دوغون ساراي"
        }
    },
    {
        "lat": 40.9769294,
        "lon": 29.2652442,
        "tags": {
            "addr:city": "İstanbul",
            "addr:district": null,
            "description": "",
            "opening_hours": null,
            "phone": null,
            "branch": null,
            "amenity": "events_venue",
            "mobile": null,
            "addr:street": null,
            "cuisine": null,
            "name": "Kristal Düğün Salonu",
            "name:en": null,
            "name:uk": null,
            "name:de": null,
            "name:tr": null,
            "name:ru": null,
            "name:ar": null
        }
    },
    {
        "lat": 40.8806421,
        "lon": 29.3392203,
        "tags": {
            "addr:city": "İstanbul",
            "addr:district": null,
            "description": "",
            "opening_hours": null,
            "phone": null,
            "branch": null,
            "amenity": "events_venue",
            "mobile": null,
            "addr:street": null,
            "cuisine": null,
            "name": "Salon Öz Peri",
            "name:en": null,
            "name:uk": null,
            "name:de": null,
            "name:tr": null,
            "name:ru": null,
            "name:ar": null
        }
    },
    {
        "lat": 40.8995658,
        "lon": 29.1701518,
        "tags": {
            "addr:city": "İstanbul",
            "addr:district": "Kartal",
            "description": "",
            "opening_hours": null,
            "phone": null,
            "branch": null,
            "amenity": "events_venue",
            "mobile": null,
            "addr:street": "Büklü Sk.",
            "cuisine": null,
            "name": "Royal Düğün Salonu",
            "name:en": null,
            "name:uk": null,
            "name:de": null,
            "name:tr": null,
            "name:ru": null,
            "name:ar": null
        }
    },
    {
        "lat": 40.8996462,
        "lon": 29.1704552,
        "tags": {
            "addr:city": "İstanbul",
            "addr:district": "Kartal",
            "description": "",
            "opening_hours": null,
            "phone": null,
            "branch": null,
            "amenity": "events_venue",
            "mobile": null,
            "addr:street": "Büklü Sk.",
            "cuisine": null,
            "name": "Salon Büklü",
            "name:en": null,
            "name:uk": null,
            "name:de": null,
            "name:tr": null,
            "name:ru": null,
            "name:ar": null
        }
    },
    {
        "lat": 41.0603575,
        "lon": 28.6748055,
        "tags": {
            "addr:city": "İstanbul",
            "addr:district": null,
            "description": "",
            "opening_hours": null,
            "phone": null,
            "branch": null,
            "amenity": "events_venue",
            "mobile": null,
            "addr:street": null,
            "cuisine": null,
            "name": "Boy Davet Palace",
            "name:en": null,
            "name:uk": null,
            "name:de": null,
            "name:tr": null,
            "name:ru": null,
            "name:ar": null
        }
    },
    {
        "lat": 41.0647263,
        "lon": 28.7000512,
        "tags": {
            "addr:city": "İstanbul",
            "addr:district": null,
            "description": "",
            "opening_hours": null,
            "phone": null,
            "branch": null,
            "amenity": "events_venue",
            "mobile": null,
            "addr:street": null,
            "cuisine": null,
            "name": "Banquet Deluxe",
            "name:en": null,
            "name:uk": null,
            "name:de": null,
            "name:tr": null,
            "name:ru": null,
            "name:ar": null
        }
    },
    {
        "lat": 40.8495884,
        "lon": 29.3055899,
        "tags": {
            "addr:city": "İstanbul",
            "addr:district": null,
            "description": "",
            "opening_hours": null,
            "phone": null,
            "branch": null,
            "amenity": "events_venue",
            "mobile": null,
            "addr:street": null,
            "cuisine": null,
            "name": "Gökkuşağı Düğün Salonu",
            "name:en": null,
            "name:uk": null,
            "name:de": null,
            "name:tr": null,
            "name:ru": null,
            "name:ar": null
        }
    },
    {
        "lat": 40.924731,
        "lon": 29.1255857,
        "tags": {
            "addr:city": "İstanbul",
            "addr:district": null,
            "description": "",
            "opening_hours": null,
            "phone": null,
            "branch": null,
            "amenity": "events_venue",
            "mobile": null,
            "addr:street": null,
            "cuisine": null,
            "name": "Boda Davet",
            "name:en": null,
            "name:uk": null,
            "name:de": null,
            "name:tr": null,
            "name:ru": null,
            "name:ar": null
        }
    },
    {
        "lat": 40.986011,
        "lon": 29.0714674,
        "tags": {
            "addr:city": "İstanbul",
            "addr:district": null,
            "description": "",
            "opening_hours": null,
            "phone": null,
            "branch": null,
            "amenity": "events_venue",
            "mobile": null,
            "addr:street": null,
            "cuisine": null,
            "name": "Kadıköy Belediyesi Halis Kurtça Çocuk Kültür Merkezi",
            "name:en": null,
            "name:uk": null,
            "name:de": null,
            "name:tr": null,
            "name:ru": null,
            "name:ar": null
        }
    },
    {
        "lat": 40.980309,
        "lon": 29.1124738,
        "tags": {
            "addr:city": "İstanbul",
            "addr:district": null,
            "description": "",
            "opening_hours": null,
            "phone": null,
            "branch": null,
            "amenity": "events_venue",
            "mobile": null,
            "addr:street": null,
            "cuisine": null,
            "name": "Salon Yeditepe",
            "name:en": null,
            "name:uk": null,
            "name:de": null,
            "name:tr": null,
            "name:ru": null,
            "name:ar": null
        }
    },
    {
        "lat": 40.9822657,
        "lon": 29.1067188,
        "tags": {
            "addr:city": "İstanbul",
            "addr:district": null,
            "description": "",
            "opening_hours": null,
            "phone": null,
            "branch": null,
            "amenity": "events_venue",
            "mobile": null,
            "addr:street": null,
            "cuisine": null,
            "name": "Glory Wedding Venue",
            "name:en": null,
            "name:uk": null,
            "name:de": null,
            "name:tr": null,
            "name:ru": null,
            "name:ar": null
        }
    },
    {
        "lat": 41.0812221,
        "lon": 28.9734309,
        "tags": {
            "addr:city": "İstanbul",
            "addr:district": null,
            "description": "",
            "opening_hours": null,
            "phone": null,
            "branch": null,
            "amenity": "events_venue",
            "mobile": null,
            "addr:street": null,
            "cuisine": null,
            "name": "Pembe Köşk Düğün Salonu",
            "name:en": null,
            "name:uk": null,
            "name:de": null,
            "name:tr": null,
            "name:ru": null,
            "name:ar": null
        }
    },
    {
        "lat": 41.1466045,
        "lon": 29.0168266,
        "tags": {
            "addr:city": "İstanbul",
            "addr:district": null,
            "description": "",
            "opening_hours": null,
            "phone": null,
            "branch": null,
            "amenity": "events_venue",
            "mobile": null,
            "addr:street": null,
            "cuisine": null,
            "name": "Fatih Ormanı Orman Bahçe Etkinlik Merkezi",
            "name:en": null,
            "name:uk": null,
            "name:de": null,
            "name:tr": null,
            "name:ru": null,
            "name:ar": null
        }
    },
    {
        "lat": 40.9635969,
        "lon": 29.0806289,
        "tags": {
            "addr:city": "İstanbul",
            "addr:district": "Kadıköy",
            "description": "",
            "opening_hours": null,
            "phone": null,
            "branch": null,
            "amenity": "events_venue",
            "mobile": null,
            "addr:street": "Mediha Turhan Tansel Sokağı",
            "cuisine": null,
            "name": "Mutlu Villa",
            "name:en": null,
            "name:uk": null,
            "name:de": null,
            "name:tr": null,
            "name:ru": null,
            "name:ar": null
        }
    },
    {
        "lat": 41.1575613,
        "lon": 28.8842912,
        "tags": {
            "addr:city": "İstanbul",
            "addr:district": null,
            "description": "",
            "opening_hours": null,
            "phone": null,
            "branch": null,
            "amenity": "events_venue",
            "mobile": null,
            "addr:street": null,
            "cuisine": null,
            "name": "Dereboyu Meydanı",
            "name:en": null,
            "name:uk": null,
            "name:de": null,
            "name:tr": null,
            "name:ru": null,
            "name:ar": null
        }
    },
    {
        "lat": 40.9234181,
        "lon": 29.1338654,
        "tags": {
            "addr:city": "İstanbul",
            "addr:district": null,
            "description": "",
            "opening_hours": null,
            "phone": null,
            "branch": null,
            "amenity": "events_venue",
            "mobile": null,
            "addr:street": null,
            "cuisine": null,
            "name": "Maltepe Düğün Salonu",
            "name:en": null,
            "name:uk": null,
            "name:de": null,
            "name:tr": null,
            "name:ru": null,
            "name:ar": null
        }
    },
    {
        "lat": 41.0652591,
        "lon": 28.8873287,
        "tags": {
            "addr:city": "İstanbul",
            "addr:district": null,
            "description": "",
            "opening_hours": null,
            "phone": null,
            "branch": null,
            "amenity": "events_venue",
            "mobile": null,
            "addr:street": null,
            "cuisine": null,
            "name": "Evopita Organizasyon & Davet",
            "name:en": null,
            "name:uk": null,
            "name:de": null,
            "name:tr": null,
            "name:ru": null,
            "name:ar": null
        }
    },
    {
        "lat": 41.1610175,
        "lon": 28.8866883,
        "tags": {
            "addr:city": "İstanbul",
            "addr:district": null,
            "description": "",
            "opening_hours": null,
            "phone": null,
            "branch": null,
            "amenity": "events_venue",
            "mobile": null,
            "addr:street": null,
            "cuisine": null,
            "name": "Adventure Land",
            "name:en": null,
            "name:uk": null,
            "name:de": null,
            "name:tr": null,
            "name:ru": null,
            "name:ar": null
        }
    },
    {
        "lat": 41.1620039,
        "lon": 28.8827133,
        "tags": {
            "addr:city": "İstanbul",
            "addr:district": null,
            "description": "",
            "opening_hours": null,
            "phone": null,
            "branch": null,
            "amenity": "events_venue",
            "mobile": null,
            "addr:street": null,
            "cuisine": null,
            "name": "SPX Park",
            "name:en": null,
            "name:uk": null,
            "name:de": null,
            "name:tr": null,
            "name:ru": null,
            "name:ar": null
        }
    },
    {
        "lat": 40.9276572,
        "lon": 29.308168,
        "tags": {
            "addr:city": "İstanbul",
            "addr:district": "Pendik",
            "description": "",
            "opening_hours": null,
            "phone": null,
            "branch": null,
            "amenity": "events_venue",
            "mobile": null,
            "addr:street": "Mustafa Akyol Sokağı",
            "cuisine": null,
            "name": "Salon Vizyon Davet Salonu",
            "name:en": null,
            "name:uk": null,
            "name:de": null,
            "name:tr": null,
            "name:ru": null,
            "name:ar": null
        }
    },
    {
        "lat": 40.9253184,
        "lon": 29.1321429,
        "tags": {
            "addr:city": "İstanbul",
            "addr:district": null,
            "description": "",
            "opening_hours": null,
            "phone": null,
            "branch": null,
            "amenity": "events_venue",
            "mobile": null,
            "addr:street": null,
            "cuisine": null,
            "name": "Bucak Düğün Salonu",
            "name:en": null,
            "name:uk": null,
            "name:de": null,
            "name:tr": null,
            "name:ru": null,
            "name:ar": null
        }
    }
]