[
    {
        "lat": 41.0314232,
        "lon": 28.9889122,
        "tags": {
            "addr:city": "İstanbul",
            "addr:district": null,
            "description": "",
            "opening_hours": null,
            "phone": null,
            "branch": null,
            "amenity": "hookah_lounge",
            "mobile": null,
            "addr:street": null,
            "cuisine": null,
            "name": "Lulu",
            "name:en": null,
            "name:uk": null,
            "name:de": null,
            "name:tr": null,
            "name:ru": null,
            "name:ar": null
        }
    },
    {
        "lat": 41.0674318,
        "lon": 28.9951426,
        "tags": {
            "addr:city": "İstanbul",
            "addr:district": "Şişli",
            "description": "",
            "opening_hours": "09:00-02:00",
            "phone": null,
            "branch": null,
            "amenity": "hookah_lounge",
            "mobile": "+90 538 017 09 08",
            "addr:street": "Eski Osmanlı Sokağı",
            "cuisine": null,
            "name": "Orange Cafe",
            "name:en": null,
            "name:uk": null,
            "name:de": null,
            "name:tr": null,
            "name:ru": null,
            "name:ar": null
        }
    },
    {
        "lat": 41.0343573,
        "lon": 28.9800453,
        "tags": {
            "addr:city": "İstanbul",
            "addr:district": "Beyoğlu",
            "description": "",
            "opening_hours": null,
            "phone": null,
            "branch": null,
            "amenity": "hookah_lounge",
            "mobile": null,
            "addr:street": "Ayhan Işık Sokağı",
            "cuisine": null,
            "name": "Asterya Nargile Cafe",
            "name:en": null,
            "name:uk": null,
            "name:de": null,
            "name:tr": null,
            "name:ru": null,
            "name:ar": null
        }
    }
]