[
    {
        "lat": 41.0643299,
        "lon": 28.7515568,
        "tags": {
            "addr:city": "İstanbul",
            "addr:district": null,
            "description": "",
            "opening_hours": null,
            "phone": null,
            "branch": null,
            "amenity": "internet_cafe",
            "mobile": null,
            "addr:street": null,
            "cuisine": null,
            "name": "HEPSİPAZARYERİNDE.COM",
            "name:en": null,
            "name:uk": null,
            "name:de": null,
            "name:tr": null,
            "name:ru": null,
            "name:ar": null
        }
    },
    {
        "lat": 40.9944935,
        "lon": 28.9247382,
        "tags": {
            "addr:city": "Istanbul",
            "addr:district": "Fatih",
            "description": "",
            "opening_hours": null,
            "phone": null,
            "branch": null,
            "amenity": "internet_cafe",
            "mobile": null,
            "addr:street": "Yedikule caddesi",
            "cuisine": null,
            "name": "Z internet cafe",
            "name:en": null,
            "name:uk": null,
            "name:de": null,
            "name:tr": null,
            "name:ru": null,
            "name:ar": "كافي نت ز"
        }
    },
    {
        "lat": 41.0095522,
        "lon": 28.9393598,
        "tags": {
            "addr:city": "Istanbul",
            "addr:district": "Fatih",
            "description": "",
            "opening_hours": null,
            "phone": null,
            "branch": null,
            "amenity": "internet_cafe",
            "mobile": null,
            "addr:street": "Cevdet Paşa Caddesi",
            "cuisine": null,
            "name": "İnternet cafe",
            "name:en": null,
            "name:uk": null,
            "name:de": null,
            "name:tr": null,
            "name:ru": null,
            "name:ar": "كافي نت"
        }
    },
    {
        "lat": 41.0101635,
        "lon": 28.9699245,
        "tags": {
            "addr:city": "İstanbul",
            "addr:district": null,
            "description": "",
            "opening_hours": null,
            "phone": null,
            "branch": null,
            "amenity": "internet_cafe",
            "mobile": null,
            "addr:street": null,
            "cuisine": null,
            "name": null,
            "name:en": "Joker büfe",
            "name:uk": null,
            "name:de": null,
            "name:tr": null,
            "name:ru": null,
            "name:ar": null
        }
    },
    {
        "lat": 41.0209018,
        "lon": 28.942709,
        "tags": {
            "addr:city": "Istanbul",
            "addr:district": "Turkey",
            "description": "",
            "opening_hours": null,
            "phone": null,
            "branch": null,
            "amenity": "internet_cafe",
            "mobile": null,
            "addr:street": "MÜTERCIM ASIM cadde",
            "cuisine": null,
            "name": "Asrin",
            "name:en": null,
            "name:uk": null,
            "name:de": null,
            "name:tr": null,
            "name:ru": null,
            "name:ar": "أسرن"
        }
    },
    {
        "lat": 41.0207412,
        "lon": 28.9441357,
        "tags": {
            "addr:city": "Istanbul",
            "addr:district": "Turkey",
            "description": "",
            "opening_hours": null,
            "phone": null,
            "branch": null,
            "amenity": "internet_cafe",
            "mobile": null,
            "addr:street": "SARIGUZEL cadde",
            "cuisine": null,
            "name": "Call shop",
            "name:en": null,
            "name:uk": null,
            "name:de": null,
            "name:tr": null,
            "name:ru": null,
            "name:ar": "مركز استصالات"
        }
    },
    {
        "lat": 40.9805134,
        "lon": 29.2659259,
        "tags": {
            "addr:city": "Istanbul",
            "addr:district": "Sultanbeyli",
            "description": "",
            "opening_hours": null,
            "phone": null,
            "branch": null,
            "amenity": "internet_cafe",
            "mobile": null,
            "addr:street": "kubbe Caddesi",
            "cuisine": null,
            "name": "Alperen İnternet Cafe",
            "name:en": null,
            "name:uk": null,
            "name:de": null,
            "name:tr": null,
            "name:ru": null,
            "name:ar": "مقهى وانترنت البيرين"
        }
    },
    {
        "lat": 41.0112812,
        "lon": 28.9104721,
        "tags": {
            "addr:city": "Istanbul",
            "addr:district": "Zeytinburnu",
            "description": "",
            "opening_hours": null,
            "phone": null,
            "branch": null,
            "amenity": "internet_cafe",
            "mobile": null,
            "addr:street": "G-48. Sokak",
            "cuisine": null,
            "name": null,
            "name:en": null,
            "name:uk": null,
            "name:de": null,
            "name:tr": null,
            "name:ru": null,
            "name:ar": null
        }
    },
    {
        "lat": 41.0026823,
        "lon": 28.9046181,
        "tags": {
            "addr:city": "Istanbul",
            "addr:district": "Zeytinburnu",
            "description": "",
            "opening_hours": "Mo-Sa 09:00-22:00",
            "phone": null,
            "branch": null,
            "amenity": "internet_cafe",
            "mobile": null,
            "addr:street": null,
            "cuisine": null,
            "name": "Tribün Internet Cafe",
            "name:en": null,
            "name:uk": null,
            "name:de": null,
            "name:tr": null,
            "name:ru": null,
            "name:ar": "تريبون انترنت كافيه"
        }
    },
    {
        "lat": 41.0030655,
        "lon": 28.9026836,
        "tags": {
            "addr:city": "Istanbul",
            "addr:district": "Zeytinburnu",
            "description": "",
            "opening_hours": "Mo-Sa 09:00-22:00",
            "phone": null,
            "branch": null,
            "amenity": "internet_cafe",
            "mobile": null,
            "addr:street": null,
            "cuisine": null,
            "name": "Dost Internet Cafe",
            "name:en": null,
            "name:uk": null,
            "name:de": null,
            "name:tr": null,
            "name:ru": null,
            "name:ar": "دوصت انترنت كافيه"
        }
    },
    {
        "lat": 40.9966131,
        "lon": 28.9138161,
        "tags": {
            "addr:city": "Istanbul",
            "addr:district": "Zeytinburnu",
            "description": "",
            "opening_hours": null,
            "phone": null,
            "branch": null,
            "amenity": "internet_cafe",
            "mobile": null,
            "addr:street": null,
            "cuisine": null,
            "name": "YENİYOL PLAYSTATION",
            "name:en": null,
            "name:uk": null,
            "name:de": null,
            "name:tr": null,
            "name:ru": null,
            "name:ar": "مقهى"
        }
    },
    {
        "lat": 40.9941892,
        "lon": 28.9025328,
        "tags": {
            "addr:city": "Istanbul",
            "addr:district": "Zeytinburnu",
            "description": "",
            "opening_hours": "Mo-Sa 09:00-22:00",
            "phone": null,
            "branch": null,
            "amenity": "internet_cafe",
            "mobile": null,
            "addr:street": null,
            "cuisine": null,
            "name": "Elegant Internet Cafe",
            "name:en": null,
            "name:uk": null,
            "name:de": null,
            "name:tr": null,
            "name:ru": null,
            "name:ar": "اليجانت انترنت كافيه"
        }
    },
    {
        "lat": 40.9849943,
        "lon": 28.8955112,
        "tags": {
            "addr:city": "Istanbul",
            "addr:district": "Zeytinburnu",
            "description": "",
            "opening_hours": null,
            "phone": null,
            "branch": null,
            "amenity": "internet_cafe",
            "mobile": null,
            "addr:street": "8/3. sokak",
            "cuisine": null,
            "name": "Internet Cafe",
            "name:en": null,
            "name:uk": null,
            "name:de": null,
            "name:tr": null,
            "name:ru": null,
            "name:ar": "انترنت كافي"
        }
    },
    {
        "lat": 40.9912577,
        "lon": 28.9031772,
        "tags": {
            "addr:city": "Istanbul",
            "addr:district": "Zeytinburnu",
            "description": "",
            "opening_hours": "Mo-Sa 09:00-22:00",
            "phone": null,
            "branch": null,
            "amenity": "internet_cafe",
            "mobile": null,
            "addr:street": null,
            "cuisine": null,
            "name": "Paris İnternet Cafe",
            "name:en": null,
            "name:uk": null,
            "name:de": null,
            "name:tr": null,
            "name:ru": null,
            "name:ar": "باريس انترنت كافيه"
        }
    },
    {
        "lat": 40.9912213,
        "lon": 28.9018266,
        "tags": {
            "addr:city": "Istanbul",
            "addr:district": "Zeytinburnu",
            "description": "",
            "opening_hours": "Mo-Sa 09:00-22:00",
            "phone": null,
            "branch": null,
            "amenity": "internet_cafe",
            "mobile": null,
            "addr:street": null,
            "cuisine": null,
            "name": "Karizma İnternet Cafe",
            "name:en": null,
            "name:uk": null,
            "name:de": null,
            "name:tr": null,
            "name:ru": null,
            "name:ar": "كاريزما انترنت كافيه"
        }
    },
    {
        "lat": 41.0289426,
        "lon": 28.8398828,
        "tags": {
            "addr:city": "Istanbul",
            "addr:district": "Bağcılar",
            "description": "",
            "opening_hours": null,
            "phone": null,
            "branch": null,
            "amenity": "internet_cafe",
            "mobile": null,
            "addr:street": "Pazaryolu 1. sokak",
            "cuisine": null,
            "name": "internet cafe",
            "name:en": null,
            "name:uk": null,
            "name:de": null,
            "name:tr": null,
            "name:ru": null,
            "name:ar": "مقهى انترنت"
        }
    },
    {
        "lat": 41.0436945,
        "lon": 28.8591912,
        "tags": {
            "addr:city": "Istanbul",
            "addr:district": null,
            "description": "",
            "opening_hours": null,
            "phone": null,
            "branch": null,
            "amenity": "internet_cafe",
            "mobile": null,
            "addr:street": "2002 Sokak",
            "cuisine": null,
            "name": "Kardelen İnternet Cafe",
            "name:en": null,
            "name:uk": null,
            "name:de": null,
            "name:tr": null,
            "name:ru": null,
            "name:ar": "كارديلان انترنت كافي"
        }
    },
    {
        "lat": 41.040878,
        "lon": 28.8577849,
        "tags": {
            "addr:city": "Istanbul",
            "addr:district": null,
            "description": "",
            "opening_hours": null,
            "phone": null,
            "branch": null,
            "amenity": "internet_cafe",
            "mobile": null,
            "addr:street": "1994 Sokak",
            "cuisine": null,
            "name": "Gezegen 3 İnternet cafe",
            "name:en": null,
            "name:uk": null,
            "name:de": null,
            "name:tr": null,
            "name:ru": null,
            "name:ar": "كيزكين ٣ انترنت كافي"
        }
    },
    {
        "lat": 41.0219928,
        "lon": 28.8582915,
        "tags": {
            "addr:city": "Istanbul",
            "addr:district": "Zeytinburnu",
            "description": "",
            "opening_hours": null,
            "phone": null,
            "branch": null,
            "amenity": "internet_cafe",
            "mobile": null,
            "addr:street": null,
            "cuisine": null,
            "name": "Yavuz internet",
            "name:en": null,
            "name:uk": null,
            "name:de": null,
            "name:tr": null,
            "name:ru": null,
            "name:ar": "مقهى يافوز للانترنت"
        }
    },
    {
        "lat": 40.8821104,
        "lon": 29.3348674,
        "tags": {
            "addr:city": "İstanbul",
            "addr:district": null,
            "description": "",
            "opening_hours": null,
            "phone": null,
            "branch": null,
            "amenity": "internet_cafe",
            "mobile": null,
            "addr:street": null,
            "cuisine": null,
            "name": null,
            "name:en": null,
            "name:uk": null,
            "name:de": null,
            "name:tr": null,
            "name:ru": null,
            "name:ar": null
        }
    },
    {
        "lat": 41.000714,
        "lon": 28.7942722,
        "tags": {
            "addr:city": "İstanbul",
            "addr:district": null,
            "description": "",
            "opening_hours": null,
            "phone": null,
            "branch": null,
            "amenity": "internet_cafe",
            "mobile": null,
            "addr:street": null,
            "cuisine": null,
            "name": "Club İnternet",
            "name:en": null,
            "name:uk": null,
            "name:de": null,
            "name:tr": null,
            "name:ru": null,
            "name:ar": null
        }
    },
    {
        "lat": 40.9973341,
        "lon": 29.0821872,
        "tags": {
            "addr:city": "İstanbul",
            "addr:district": null,
            "description": "",
            "opening_hours": null,
            "phone": null,
            "branch": null,
            "amenity": "internet_cafe",
            "mobile": null,
            "addr:street": null,
            "cuisine": null,
            "name": "Cadde PS Cafe",
            "name:en": null,
            "name:uk": null,
            "name:de": null,
            "name:tr": null,
            "name:ru": null,
            "name:ar": null
        }
    },
    {
        "lat": 41.0173581,
        "lon": 28.9647249,
        "tags": {
            "addr:city": "İstanbul",
            "addr:district": null,
            "description": "",
            "opening_hours": null,
            "phone": null,
            "branch": null,
            "amenity": "internet_cafe",
            "mobile": null,
            "addr:street": null,
            "cuisine": null,
            "name": "caffe me pamje nga bonstilli",
            "name:en": null,
            "name:uk": null,
            "name:de": null,
            "name:tr": null,
            "name:ru": null,
            "name:ar": null
        }
    },
    {
        "lat": 41.0471129,
        "lon": 28.9328809,
        "tags": {
            "addr:city": "İstanbul",
            "addr:district": null,
            "description": "",
            "opening_hours": null,
            "phone": null,
            "branch": null,
            "amenity": "internet_cafe",
            "mobile": null,
            "addr:street": null,
            "cuisine": null,
            "name": "Truva İnternet Cafe",
            "name:en": null,
            "name:uk": null,
            "name:de": null,
            "name:tr": null,
            "name:ru": null,
            "name:ar": null
        }
    },
    {
        "lat": 40.8779603,
        "lon": 29.2303614,
        "tags": {
            "addr:city": "İstanbul",
            "addr:district": "Pendik",
            "description": "",
            "opening_hours": null,
            "phone": null,
            "branch": null,
            "amenity": "internet_cafe",
            "mobile": null,
            "addr:street": "Vişne Sokağı",
            "cuisine": null,
            "name": "Net cafe",
            "name:en": null,
            "name:uk": null,
            "name:de": null,
            "name:tr": null,
            "name:ru": null,
            "name:ar": null
        }
    },
    {
        "lat": 41.0105634,
        "lon": 28.6513114,
        "tags": {
            "addr:city": "İstanbul",
            "addr:district": null,
            "description": "",
            "opening_hours": null,
            "phone": null,
            "branch": null,
            "amenity": "internet_cafe",
            "mobile": null,
            "addr:street": null,
            "cuisine": null,
            "name": "PlayStation Cafe",
            "name:en": null,
            "name:uk": null,
            "name:de": null,
            "name:tr": null,
            "name:ru": null,
            "name:ar": null
        }
    },
    {
        "lat": 40.8991923,
        "lon": 29.1690422,
        "tags": {
            "addr:city": "İstanbul",
            "addr:district": null,
            "description": "",
            "opening_hours": null,
            "phone": null,
            "branch": null,
            "amenity": "internet_cafe",
            "mobile": null,
            "addr:street": null,
            "cuisine": null,
            "name": "Limon İnternet Cafe",
            "name:en": null,
            "name:uk": null,
            "name:de": null,
            "name:tr": null,
            "name:ru": null,
            "name:ar": null
        }
    },
    {
        "lat": 40.9883107,
        "lon": 29.0588881,
        "tags": {
            "addr:city": "İstanbul",
            "addr:district": "Kadıköy",
            "description": "",
            "opening_hours": null,
            "phone": null,
            "branch": null,
            "amenity": "internet_cafe",
            "mobile": null,
            "addr:street": "Akçakoca Sokağı",
            "cuisine": null,
            "name": "Virüs İnternet Kafe",
            "name:en": null,
            "name:uk": null,
            "name:de": null,
            "name:tr": null,
            "name:ru": null,
            "name:ar": null
        }
    },
    {
        "lat": 41.10057,
        "lon": 28.8099399,
        "tags": {
            "addr:city": "İstanbul",
            "addr:district": null,
            "description": "",
            "opening_hours": null,
            "phone": null,
            "branch": null,
            "amenity": "internet_cafe",
            "mobile": null,
            "addr:street": null,
            "cuisine": null,
            "name": "istanbul çarşı internet kafe",
            "name:en": null,
            "name:uk": null,
            "name:de": null,
            "name:tr": null,
            "name:ru": null,
            "name:ar": null
        }
    },
    {
        "lat": 40.9794764,
        "lon": 29.1138352,
        "tags": {
            "addr:city": "İstanbul",
            "addr:district": null,
            "description": "",
            "opening_hours": null,
            "phone": null,
            "branch": null,
            "amenity": "internet_cafe",
            "mobile": null,
            "addr:street": null,
            "cuisine": null,
            "name": "LOL Cafe",
            "name:en": null,
            "name:uk": null,
            "name:de": null,
            "name:tr": null,
            "name:ru": null,
            "name:ar": null
        }
    },
    {
        "lat": 40.9794489,
        "lon": 29.1135757,
        "tags": {
            "addr:city": "İstanbul",
            "addr:district": null,
            "description": "",
            "opening_hours": null,
            "phone": null,
            "branch": null,
            "amenity": "internet_cafe",
            "mobile": null,
            "addr:street": null,
            "cuisine": null,
            "name": "Hollywood PlayStation Game Center & Bilardo",
            "name:en": null,
            "name:uk": null,
            "name:de": null,
            "name:tr": null,
            "name:ru": null,
            "name:ar": null
        }
    },
    {
        "lat": 41.1153291,
        "lon": 28.9983645,
        "tags": {
            "addr:city": "İstanbul",
            "addr:district": null,
            "description": "",
            "opening_hours": null,
            "phone": null,
            "branch": null,
            "amenity": "internet_cafe",
            "mobile": null,
            "addr:street": null,
            "cuisine": null,
            "name": "İnternet Cafe",
            "name:en": null,
            "name:uk": null,
            "name:de": null,
            "name:tr": null,
            "name:ru": null,
            "name:ar": null
        }
    },
    {
        "lat": 41.0471479,
        "lon": 28.9329738,
        "tags": {
            "addr:city": "İstanbul",
            "addr:district": null,
            "description": "",
            "opening_hours": null,
            "phone": null,
            "branch": null,
            "amenity": "internet_cafe",
            "mobile": null,
            "addr:street": null,
            "cuisine": null,
            "name": "First Class İnternet Cafe",
            "name:en": null,
            "name:uk": null,
            "name:de": null,
            "name:tr": null,
            "name:ru": null,
            "name:ar": null
        }
    },
    {
        "lat": 41.0816072,
        "lon": 28.9715722,
        "tags": {
            "addr:city": "İstanbul",
            "addr:district": null,
            "description": "",
            "opening_hours": null,
            "phone": null,
            "branch": null,
            "amenity": "internet_cafe",
            "mobile": null,
            "addr:street": null,
            "cuisine": null,
            "name": "Star İnternet Cafe",
            "name:en": null,
            "name:uk": null,
            "name:de": null,
            "name:tr": null,
            "name:ru": null,
            "name:ar": null
        }
    },
    {
        "lat": 41.1025978,
        "lon": 28.867058,
        "tags": {
            "addr:city": "İstanbul",
            "addr:district": null,
            "description": "",
            "opening_hours": null,
            "phone": null,
            "branch": null,
            "amenity": "internet_cafe",
            "mobile": null,
            "addr:street": null,
            "cuisine": null,
            "name": "Maxi İnternet cafe",
            "name:en": null,
            "name:uk": null,
            "name:de": null,
            "name:tr": null,
            "name:ru": null,
            "name:ar": null
        }
    },
    {
        "lat": 41.0228722,
        "lon": 29.1126916,
        "tags": {
            "addr:city": "İstanbul",
            "addr:district": null,
            "description": "",
            "opening_hours": null,
            "phone": null,
            "branch": null,
            "amenity": "internet_cafe",
            "mobile": null,
            "addr:street": null,
            "cuisine": null,
            "name": "Ejutsu",
            "name:en": null,
            "name:uk": null,
            "name:de": null,
            "name:tr": null,
            "name:ru": null,
            "name:ar": null
        }
    },
    {
        "lat": 40.8891872,
        "lon": 29.1882377,
        "tags": {
            "addr:city": "İstanbul",
            "addr:district": null,
            "description": "",
            "opening_hours": null,
            "phone": null,
            "branch": null,
            "amenity": "internet_cafe",
            "mobile": null,
            "addr:street": null,
            "cuisine": null,
            "name": "Merkez İnternet",
            "name:en": "Merkez Internet",
            "name:uk": null,
            "name:de": null,
            "name:tr": null,
            "name:ru": null,
            "name:ar": null
        }
    },
    {
        "lat": 40.8888822,
        "lon": 29.18826,
        "tags": {
            "addr:city": "İstanbul",
            "addr:district": null,
            "description": "",
            "opening_hours": null,
            "phone": null,
            "branch": null,
            "amenity": "internet_cafe",
            "mobile": null,
            "addr:street": null,
            "cuisine": null,
            "name": null,
            "name:en": "Merkez Internet",
            "name:uk": null,
            "name:de": null,
            "name:tr": null,
            "name:ru": null,
            "name:ar": null
        }
    },
    {
        "lat": 41.036867,
        "lon": 28.8195004,
        "tags": {
            "addr:city": "İstanbul",
            "addr:district": null,
            "description": "",
            "opening_hours": null,
            "phone": null,
            "branch": null,
            "amenity": "internet_cafe",
            "mobile": null,
            "addr:street": null,
            "cuisine": null,
            "name": "Blue Internet Cafe",
            "name:en": null,
            "name:uk": null,
            "name:de": null,
            "name:tr": null,
            "name:ru": null,
            "name:ar": null
        }
    },
    {
        "lat": 40.9889002,
        "lon": 29.026879,
        "tags": {
            "addr:city": "İstanbul",
            "addr:district": null,
            "description": "",
            "opening_hours": null,
            "phone": null,
            "branch": null,
            "amenity": "internet_cafe",
            "mobile": null,
            "addr:street": null,
            "cuisine": null,
            "name": "Moda Game",
            "name:en": null,
            "name:uk": null,
            "name:de": null,
            "name:tr": null,
            "name:ru": null,
            "name:ar": null
        }
    },
    {
        "lat": 40.9889194,
        "lon": 29.0266811,
        "tags": {
            "addr:city": "İstanbul",
            "addr:district": null,
            "description": "",
            "opening_hours": null,
            "phone": null,
            "branch": null,
            "amenity": "internet_cafe",
            "mobile": null,
            "addr:street": null,
            "cuisine": null,
            "name": "Zocco's E-spor Merkezi",
            "name:en": null,
            "name:uk": null,
            "name:de": null,
            "name:tr": null,
            "name:ru": null,
            "name:ar": null
        }
    },
    {
        "lat": 41.0148,
        "lon": 28.9753188,
        "tags": {
            "addr:city": "İstanbul",
            "addr:district": null,
            "description": "",
            "opening_hours": null,
            "phone": null,
            "branch": null,
            "amenity": "internet_cafe",
            "mobile": null,
            "addr:street": null,
            "cuisine": null,
            "name": null,
            "name:en": null,
            "name:uk": null,
            "name:de": null,
            "name:tr": null,
            "name:ru": null,
            "name:ar": null
        }
    },
    {
        "lat": 40.9987961,
        "lon": 28.6261569,
        "tags": {
            "addr:city": "İstanbul",
            "addr:district": null,
            "description": "",
            "opening_hours": null,
            "phone": null,
            "branch": null,
            "amenity": "internet_cafe",
            "mobile": null,
            "addr:street": null,
            "cuisine": null,
            "name": "Yeny E-Spor",
            "name:en": null,
            "name:uk": null,
            "name:de": null,
            "name:tr": null,
            "name:ru": null,
            "name:ar": null
        }
    },
    {
        "lat": 40.9251426,
        "lon": 29.1327989,
        "tags": {
            "addr:city": "İstanbul",
            "addr:district": null,
            "description": "",
            "opening_hours": null,
            "phone": "+90 530 676 12 86",
            "branch": null,
            "amenity": "internet_cafe",
            "mobile": null,
            "addr:street": null,
            "cuisine": null,
            "name": "Gezegen İnternet Cafe",
            "name:en": null,
            "name:uk": null,
            "name:de": null,
            "name:tr": null,
            "name:ru": null,
            "name:ar": null
        }
    }
]