[
    {
        "lat": 41.0323043,
        "lon": 28.9779323,
        "tags": {
            "addr:city": "İstanbul",
            "addr:district": null,
            "description": "",
            "opening_hours": "Mo-Fr 09:00-17:00",
            "phone": null,
            "branch": null,
            "amenity": "library",
            "mobile": null,
            "addr:street": null,
            "cuisine": null,
            "name": "Goethe Institut İstanbul",
            "name:en": "Goethe Institut Istanbul",
            "name:uk": null,
            "name:de": "Goethe Institut Istanbul",
            "name:tr": null,
            "name:ru": null,
            "name:ar": "معهد غوث اسطنبول"
        }
    },
    {
        "lat": 40.9999385,
        "lon": 29.0724053,
        "tags": {
            "addr:city": "İstanbul",
            "addr:district": null,
            "description": "",
            "opening_hours": null,
            "phone": null,
            "branch": null,
            "amenity": "library",
            "mobile": null,
            "addr:street": null,
            "cuisine": null,
            "name": "Göztepe Soyak Kütüphanesi",
            "name:en": null,
            "name:uk": null,
            "name:de": null,
            "name:tr": null,
            "name:ru": null,
            "name:ar": "مكتبة غوز تيبه وفي سوياك"
        }
    },
    {
        "lat": 41.042292,
        "lon": 29.0086896,
        "tags": {
            "addr:city": "İstanbul",
            "addr:district": null,
            "description": "",
            "opening_hours": null,
            "phone": null,
            "branch": null,
            "amenity": "library",
            "mobile": null,
            "addr:street": null,
            "cuisine": null,
            "name": "BAU Library",
            "name:en": "Library of Bahcesehir University",
            "name:uk": null,
            "name:de": null,
            "name:tr": "Bahçeşehir Üniversitesi Kütüphanesi",
            "name:ru": null,
            "name:ar": null
        }
    },
    {
        "lat": 41.0362358,
        "lon": 28.9839866,
        "tags": {
            "addr:city": "İstanbul",
            "addr:district": null,
            "description": "",
            "opening_hours": null,
            "phone": null,
            "branch": null,
            "amenity": "library",
            "mobile": null,
            "addr:street": null,
            "cuisine": null,
            "name": "Fransız Kültür Merkezi",
            "name:en": "French Institute",
            "name:uk": null,
            "name:de": null,
            "name:tr": "Fransız Kültür Merkezi",
            "name:ru": null,
            "name:ar": null
        }
    },
    {
        "lat": 41.0346996,
        "lon": 28.9887452,
        "tags": {
            "addr:city": "İstanbul",
            "addr:district": null,
            "description": "",
            "opening_hours": "Mo-Fr 09:00-13:00",
            "phone": null,
            "branch": null,
            "amenity": "library",
            "mobile": null,
            "addr:street": "Inonü Caddesi",
            "cuisine": null,
            "name": "Deutsches Archäologisches Institut",
            "name:en": "German Archaeological Institute",
            "name:uk": null,
            "name:de": null,
            "name:tr": "Alman Arkeoloji Enstitüsü",
            "name:ru": null,
            "name:ar": null
        }
    },
    {
        "lat": 41.0482431,
        "lon": 28.9354595,
        "tags": {
            "addr:city": "İstanbul",
            "addr:district": "Eyüpsultan",
            "description": "",
            "opening_hours": "Mo-Fr 09:00-17:30 Sa 09:30-18:00",
            "phone": "+90 212 417 2546",
            "branch": null,
            "amenity": "library",
            "mobile": null,
            "addr:street": "Sultan Reşad Caddesi",
            "cuisine": null,
            "name": "İBB Sesli Kütüphane",
            "name:en": null,
            "name:uk": null,
            "name:de": null,
            "name:tr": null,
            "name:ru": null,
            "name:ar": null
        }
    },
    {
        "lat": 41.03278,
        "lon": 28.975166,
        "tags": {
            "addr:city": "İstanbul",
            "addr:district": null,
            "description": "",
            "opening_hours": null,
            "phone": null,
            "branch": null,
            "amenity": "library",
            "mobile": null,
            "addr:street": null,
            "cuisine": null,
            "name": null,
            "name:en": null,
            "name:uk": null,
            "name:de": null,
            "name:tr": null,
            "name:ru": null,
            "name:ar": null
        }
    },
    {
        "lat": 41.0152961,
        "lon": 28.9577554,
        "tags": {
            "addr:city": "İstanbul",
            "addr:district": null,
            "description": "",
            "opening_hours": null,
            "phone": null,
            "branch": null,
            "amenity": "library",
            "mobile": null,
            "addr:street": null,
            "cuisine": null,
            "name": "Recai Efendi Kütüphanesi",
            "name:en": null,
            "name:uk": null,
            "name:de": null,
            "name:tr": null,
            "name:ru": null,
            "name:ar": null
        }
    },
    {
        "lat": 41.0196351,
        "lon": 28.9579322,
        "tags": {
            "addr:city": "Istanbul",
            "addr:district": "Fatih",
            "description": "",
            "opening_hours": null,
            "phone": null,
            "branch": null,
            "amenity": "library",
            "mobile": null,
            "addr:street": "Zeyrek Mehmet Paşa Sokak",
            "cuisine": null,
            "name": "İstanbul Kitapçısı",
            "name:en": null,
            "name:uk": null,
            "name:de": null,
            "name:tr": null,
            "name:ru": null,
            "name:ar": "كتب اسطنبول"
        }
    },
    {
        "lat": 41.0240875,
        "lon": 28.9546073,
        "tags": {
            "addr:city": "Istanbul",
            "addr:district": "Fatih",
            "description": "",
            "opening_hours": null,
            "phone": null,
            "branch": null,
            "amenity": "library",
            "mobile": null,
            "addr:street": "Karadeniz Caddesi",
            "cuisine": null,
            "name": "Birgül Kirtasiye ve Oyuncak",
            "name:en": null,
            "name:uk": null,
            "name:de": null,
            "name:tr": null,
            "name:ru": null,
            "name:ar": "العاب وقرطاسية بيرغول"
        }
    },
    {
        "lat": 41.0253816,
        "lon": 28.9543627,
        "tags": {
            "addr:city": "Istanbul",
            "addr:district": "Fatih",
            "description": "",
            "opening_hours": null,
            "phone": null,
            "branch": null,
            "amenity": "library",
            "mobile": null,
            "addr:street": "Kara Sarıklı Sokak",
            "cuisine": null,
            "name": "Göksu Kirtasiye",
            "name:en": null,
            "name:uk": null,
            "name:de": null,
            "name:tr": null,
            "name:ru": null,
            "name:ar": "غوكسو قرطاسية"
        }
    },
    {
        "lat": 41.024741,
        "lon": 28.9539601,
        "tags": {
            "addr:city": "Istanbul",
            "addr:district": "Fatih",
            "description": "",
            "opening_hours": null,
            "phone": null,
            "branch": null,
            "amenity": "library",
            "mobile": null,
            "addr:street": "Kopça Sokak",
            "cuisine": null,
            "name": "Kelif Kırtasiye",
            "name:en": null,
            "name:uk": null,
            "name:de": null,
            "name:tr": null,
            "name:ru": null,
            "name:ar": "كيليف كورتاسية"
        }
    },
    {
        "lat": 41.0034665,
        "lon": 28.9364613,
        "tags": {
            "addr:city": "Istanbul",
            "addr:district": "Fatih",
            "description": "",
            "opening_hours": null,
            "phone": "02125882994",
            "branch": null,
            "amenity": "library",
            "mobile": null,
            "addr:street": "Etyemez Tekkesi Sokak",
            "cuisine": null,
            "name": "Merih Matbaacılık",
            "name:en": null,
            "name:uk": null,
            "name:de": null,
            "name:tr": null,
            "name:ru": null,
            "name:ar": "مطعبة ميريح"
        }
    },
    {
        "lat": 41.0083632,
        "lon": 28.947423,
        "tags": {
            "addr:city": "Istanbul",
            "addr:district": "Fatih",
            "description": "",
            "opening_hours": null,
            "phone": "0535 495 34 91",
            "branch": null,
            "amenity": "library",
            "mobile": null,
            "addr:street": "Müezzin Sokağı",
            "cuisine": null,
            "name": "Karacan Açıköğretim Yayınlar",
            "name:en": null,
            "name:uk": null,
            "name:de": null,
            "name:tr": null,
            "name:ru": null,
            "name:ar": "كاراجان للمطبوعات التعليمية"
        }
    },
    {
        "lat": 41.0085542,
        "lon": 28.947378,
        "tags": {
            "addr:city": "Istanbul",
            "addr:district": "Fatih",
            "description": "",
            "opening_hours": null,
            "phone": "0544 525 34 36",
            "branch": null,
            "amenity": "library",
            "mobile": null,
            "addr:street": "Müezzin Sokağı",
            "cuisine": null,
            "name": "Egem Eğitim Yayınları",
            "name:en": null,
            "name:uk": null,
            "name:de": null,
            "name:tr": null,
            "name:ru": null,
            "name:ar": "أيجيم للمطبوعات التعليمية"
        }
    },
    {
        "lat": 41.0265384,
        "lon": 28.947376,
        "tags": {
            "addr:city": "Istanbul",
            "addr:district": "Turkey",
            "description": "",
            "opening_hours": null,
            "phone": null,
            "branch": null,
            "amenity": "library",
            "mobile": null,
            "addr:street": "Manyasizade Caddesi",
            "cuisine": null,
            "name": "Kubbe Yayınevi",
            "name:en": null,
            "name:uk": null,
            "name:de": null,
            "name:tr": null,
            "name:ru": null,
            "name:ar": "مكتبة القبة"
        }
    },
    {
        "lat": 41.0265597,
        "lon": 28.9473251,
        "tags": {
            "addr:city": "Istanbul",
            "addr:district": "Turkey",
            "description": "",
            "opening_hours": null,
            "phone": null,
            "branch": null,
            "amenity": "library",
            "mobile": null,
            "addr:street": "Manyasizade Caddesi",
            "cuisine": null,
            "name": "Yasin yayın evi",
            "name:en": null,
            "name:uk": null,
            "name:de": null,
            "name:tr": null,
            "name:ru": null,
            "name:ar": "مكتبة ياسين"
        }
    },
    {
        "lat": 41.0266325,
        "lon": 28.9472392,
        "tags": {
            "addr:city": "Istanbul",
            "addr:district": "Turkey",
            "description": "",
            "opening_hours": null,
            "phone": null,
            "branch": null,
            "amenity": "library",
            "mobile": null,
            "addr:street": "Manyasizade Caddesi",
            "cuisine": null,
            "name": "Muallim neşriyat",
            "name:en": null,
            "name:uk": null,
            "name:de": null,
            "name:tr": null,
            "name:ru": null,
            "name:ar": "مكتبة المعلم"
        }
    },
    {
        "lat": 41.0145179,
        "lon": 28.9342828,
        "tags": {
            "addr:city": "Istanbul",
            "addr:district": "Turkey",
            "description": "",
            "opening_hours": null,
            "phone": null,
            "branch": null,
            "amenity": "library",
            "mobile": null,
            "addr:street": "Turgut Özal Millet Caddesi",
            "cuisine": null,
            "name": "Nobel Tıp Kitabevleri",
            "name:en": null,
            "name:uk": null,
            "name:de": null,
            "name:tr": null,
            "name:ru": null,
            "name:ar": "مكتبة نوبل للكتب الطبية"
        }
    },
    {
        "lat": 41.0155612,
        "lon": 28.9271656,
        "tags": {
            "addr:city": "Istanbul",
            "addr:district": "Turkey",
            "description": "",
            "opening_hours": null,
            "phone": null,
            "branch": null,
            "amenity": "library",
            "mobile": null,
            "addr:street": "Onbaşı Sokağı",
            "cuisine": null,
            "name": "Gezgin Kırtasiye",
            "name:en": null,
            "name:uk": null,
            "name:de": null,
            "name:tr": null,
            "name:ru": null,
            "name:ar": "مكتبة جزجين"
        }
    },
    {
        "lat": 41.0052202,
        "lon": 28.9264128,
        "tags": {
            "addr:city": "Istanbul",
            "addr:district": "Fatih",
            "description": "",
            "opening_hours": null,
            "phone": null,
            "branch": null,
            "amenity": "library",
            "mobile": null,
            "addr:street": "Meşeli Mescit Sokak",
            "cuisine": null,
            "name": "Kalin Kırtasiye",
            "name:en": null,
            "name:uk": null,
            "name:de": null,
            "name:tr": null,
            "name:ru": null,
            "name:ar": "كالن قرطاسية"
        }
    },
    {
        "lat": 41.0202777,
        "lon": 28.9560212,
        "tags": {
            "addr:city": "Istanbul",
            "addr:district": "Fatih",
            "description": "",
            "opening_hours": null,
            "phone": "02126358009",
            "branch": null,
            "amenity": "library",
            "mobile": null,
            "addr:street": "Fazilet Sokak",
            "cuisine": null,
            "name": "Zeyrek Kitabevi Demir Sahaf",
            "name:en": null,
            "name:uk": null,
            "name:de": null,
            "name:tr": null,
            "name:ru": null,
            "name:ar": "مكتبة زيريك"
        }
    },
    {
        "lat": 41.0132572,
        "lon": 28.9749176,
        "tags": {
            "addr:city": "Istanbul",
            "addr:district": "Fatih",
            "description": "",
            "opening_hours": null,
            "phone": null,
            "branch": null,
            "amenity": "library",
            "mobile": null,
            "addr:street": "Ankara Caddesi",
            "cuisine": null,
            "name": "Oma Ofis",
            "name:en": null,
            "name:uk": null,
            "name:de": null,
            "name:tr": null,
            "name:ru": null,
            "name:ar": "أوما أوفيس"
        }
    },
    {
        "lat": 41.0128288,
        "lon": 28.9751447,
        "tags": {
            "addr:city": "Istanbul",
            "addr:district": "Fatih",
            "description": "",
            "opening_hours": null,
            "phone": null,
            "branch": null,
            "amenity": "library",
            "mobile": null,
            "addr:street": "Ankara Caddesi",
            "cuisine": null,
            "name": "Morpa Kültür Yayınları",
            "name:en": null,
            "name:uk": null,
            "name:de": null,
            "name:tr": null,
            "name:ru": null,
            "name:ar": "موبا كولتور ياينلار"
        }
    },
    {
        "lat": 41.0127766,
        "lon": 28.9752034,
        "tags": {
            "addr:city": "Istanbul",
            "addr:district": "Fatih",
            "description": "",
            "opening_hours": null,
            "phone": null,
            "branch": null,
            "amenity": "library",
            "mobile": null,
            "addr:street": "Ankara Caddesi",
            "cuisine": null,
            "name": "T.C. Kültür Ve Turizm Bakanlığı Kitap Satış Mağazası",
            "name:en": null,
            "name:uk": null,
            "name:de": null,
            "name:tr": null,
            "name:ru": null,
            "name:ar": "باكانلي كتاب ساتش ماغازا"
        }
    },
    {
        "lat": 41.0082495,
        "lon": 28.976102,
        "tags": {
            "addr:city": "Istanbul",
            "addr:district": "Fatih",
            "description": "",
            "opening_hours": null,
            "phone": "0212 511 10 85",
            "branch": null,
            "amenity": "library",
            "mobile": null,
            "addr:street": "Ticarethane Sokak",
            "cuisine": null,
            "name": "Cantas Yayinlari",
            "name:en": null,
            "name:uk": null,
            "name:de": null,
            "name:tr": null,
            "name:ru": null,
            "name:ar": null
        }
    },
    {
        "lat": 41.0084683,
        "lon": 28.9763645,
        "tags": {
            "addr:city": "Istanbul",
            "addr:district": "Fatih",
            "description": "",
            "opening_hours": null,
            "phone": null,
            "branch": null,
            "amenity": "library",
            "mobile": null,
            "addr:street": "Ticarethane Sokak",
            "cuisine": null,
            "name": "Buyulu Fener Yayinlari",
            "name:en": null,
            "name:uk": null,
            "name:de": null,
            "name:tr": null,
            "name:ru": null,
            "name:ar": null
        }
    },
    {
        "lat": 41.0082916,
        "lon": 28.9767362,
        "tags": {
            "addr:city": "Istanbul",
            "addr:district": "Fatih",
            "description": "",
            "opening_hours": null,
            "phone": null,
            "branch": null,
            "amenity": "library",
            "mobile": null,
            "addr:street": "İncili Çavuş Sokak",
            "cuisine": null,
            "name": "Fazilet Nesriyat",
            "name:en": null,
            "name:uk": null,
            "name:de": null,
            "name:tr": null,
            "name:ru": null,
            "name:ar": null
        }
    },
    {
        "lat": 41.0080271,
        "lon": 28.9765876,
        "tags": {
            "addr:city": "Istanbul",
            "addr:district": "Fatih",
            "description": "",
            "opening_hours": null,
            "phone": null,
            "branch": null,
            "amenity": "library",
            "mobile": null,
            "addr:street": "Divan Yolu Caddesi",
            "cuisine": null,
            "name": "Cevri Hatun Sıbyan Mektebi",
            "name:en": null,
            "name:uk": null,
            "name:de": null,
            "name:tr": null,
            "name:ru": null,
            "name:ar": null
        }
    },
    {
        "lat": 41.010659,
        "lon": 28.9747761,
        "tags": {
            "addr:city": "Istanbul",
            "addr:district": "Fatih",
            "description": "",
            "opening_hours": null,
            "phone": null,
            "branch": null,
            "amenity": "library",
            "mobile": null,
            "addr:street": "Molla Feneri Sokak",
            "cuisine": null,
            "name": "BİLGEOĞUZ YAYINLARI",
            "name:en": null,
            "name:uk": null,
            "name:de": null,
            "name:tr": null,
            "name:ru": null,
            "name:ar": "بيلغيووز للنشر"
        }
    },
    {
        "lat": 41.010067,
        "lon": 28.97619,
        "tags": {
            "addr:city": "Istanbul",
            "addr:district": "Fatih",
            "description": "",
            "opening_hours": null,
            "phone": null,
            "branch": null,
            "amenity": "library",
            "mobile": null,
            "addr:street": "Prof. Kazım İsmail Gürkan Caddesi",
            "cuisine": null,
            "name": "Damla Yayınevi",
            "name:en": null,
            "name:uk": null,
            "name:de": null,
            "name:tr": null,
            "name:ru": null,
            "name:ar": "داملا للنشر"
        }
    },
    {
        "lat": 41.0099848,
        "lon": 28.9763286,
        "tags": {
            "addr:city": "Istanbul",
            "addr:district": "Fatih",
            "description": "",
            "opening_hours": null,
            "phone": null,
            "branch": null,
            "amenity": "library",
            "mobile": null,
            "addr:street": "Prof. Kazım İsmail Gürkan Caddesi",
            "cuisine": null,
            "name": "Otağ Kırtasiye",
            "name:en": null,
            "name:uk": null,
            "name:de": null,
            "name:tr": null,
            "name:ru": null,
            "name:ar": "مكتبة أوتا كرتاسية"
        }
    },
    {
        "lat": 41.0099326,
        "lon": 28.9764355,
        "tags": {
            "addr:city": "Istanbul",
            "addr:district": "Fatih",
            "description": "",
            "opening_hours": null,
            "phone": null,
            "branch": null,
            "amenity": "library",
            "mobile": null,
            "addr:street": "Alayköşkü Caddesi",
            "cuisine": null,
            "name": "Kitap Nehri",
            "name:en": null,
            "name:uk": null,
            "name:de": null,
            "name:tr": null,
            "name:ru": null,
            "name:ar": "مكتبة كتاب نهري"
        }
    },
    {
        "lat": 41.0115303,
        "lon": 28.9753629,
        "tags": {
            "addr:city": "Istanbul",
            "addr:district": "Fatih",
            "description": "",
            "opening_hours": null,
            "phone": null,
            "branch": null,
            "amenity": "library",
            "mobile": null,
            "addr:street": "Ankara Caddesi",
            "cuisine": null,
            "name": "Tekin Yayinevi",
            "name:en": null,
            "name:uk": null,
            "name:de": null,
            "name:tr": null,
            "name:ru": null,
            "name:ar": "تيكين للنشر"
        }
    },
    {
        "lat": 41.0100237,
        "lon": 28.9767826,
        "tags": {
            "addr:city": "Istanbul",
            "addr:district": "Fatih",
            "description": "",
            "opening_hours": null,
            "phone": null,
            "branch": null,
            "amenity": "library",
            "mobile": null,
            "addr:street": "Alayköşkü Caddesi",
            "cuisine": null,
            "name": "TİMAŞ yayınları",
            "name:en": null,
            "name:uk": null,
            "name:de": null,
            "name:tr": null,
            "name:ru": null,
            "name:ar": "تيماش للنشر"
        }
    },
    {
        "lat": 41.0098083,
        "lon": 28.976533,
        "tags": {
            "addr:city": "Istanbul",
            "addr:district": "Fatih",
            "description": "",
            "opening_hours": null,
            "phone": "HOTEL 528 11 46",
            "branch": null,
            "amenity": "library",
            "mobile": null,
            "addr:street": "Alayköşkü Caddesi",
            "cuisine": null,
            "name": "Sule Yayinlari",
            "name:en": null,
            "name:uk": null,
            "name:de": null,
            "name:tr": null,
            "name:ru": null,
            "name:ar": "سولي للنشر"
        }
    },
    {
        "lat": 41.0103405,
        "lon": 28.977377,
        "tags": {
            "addr:city": "Istanbul",
            "addr:district": "Fatih",
            "description": "",
            "opening_hours": null,
            "phone": "0212 526 23 99",
            "branch": null,
            "amenity": "library",
            "mobile": null,
            "addr:street": "Küçük Sokak",
            "cuisine": null,
            "name": "Cağaloğlu",
            "name:en": null,
            "name:uk": null,
            "name:de": null,
            "name:tr": null,
            "name:ru": null,
            "name:ar": "مكتبة جاغال أوغلو"
        }
    },
    {
        "lat": 41.0104439,
        "lon": 28.977343,
        "tags": {
            "addr:city": "Istanbul",
            "addr:district": "Fatih",
            "description": "",
            "opening_hours": null,
            "phone": "0212 512 45 43",
            "branch": null,
            "amenity": "library",
            "mobile": null,
            "addr:street": "Alayköşkü Caddesi",
            "cuisine": null,
            "name": "Beka Yayincilik",
            "name:en": null,
            "name:uk": null,
            "name:de": null,
            "name:tr": null,
            "name:ru": null,
            "name:ar": "بيكا للنشر"
        }
    },
    {
        "lat": 41.0106312,
        "lon": 28.9775649,
        "tags": {
            "addr:city": "Istanbul",
            "addr:district": "Fatih",
            "description": "",
            "opening_hours": null,
            "phone": "0212 511 64 73",
            "branch": null,
            "amenity": "library",
            "mobile": null,
            "addr:street": "Alayköşkü Caddesi",
            "cuisine": null,
            "name": "Zumrut Basim Yayin",
            "name:en": null,
            "name:uk": null,
            "name:de": null,
            "name:tr": null,
            "name:ru": null,
            "name:ar": null
        }
    },
    {
        "lat": 41.0087977,
        "lon": 28.974944,
        "tags": {
            "addr:city": "Istanbul",
            "addr:district": "Fatih",
            "description": "",
            "opening_hours": null,
            "phone": null,
            "branch": null,
            "amenity": "library",
            "mobile": null,
            "addr:street": "Çatalçeşme Sokak",
            "cuisine": null,
            "name": "Mvt Yayıncılık Kitabevi",
            "name:en": null,
            "name:uk": null,
            "name:de": null,
            "name:tr": null,
            "name:ru": null,
            "name:ar": null
        }
    },
    {
        "lat": 41.0085364,
        "lon": 28.9750768,
        "tags": {
            "addr:city": "Istanbul",
            "addr:district": "Fatih",
            "description": "",
            "opening_hours": null,
            "phone": null,
            "branch": null,
            "amenity": "library",
            "mobile": null,
            "addr:street": "Biçki Yudru Sokak",
            "cuisine": null,
            "name": "KitapStore.com",
            "name:en": null,
            "name:uk": null,
            "name:de": null,
            "name:tr": null,
            "name:ru": null,
            "name:ar": null
        }
    },
    {
        "lat": 41.0093946,
        "lon": 28.9751849,
        "tags": {
            "addr:city": "Istanbul",
            "addr:district": "Fatih",
            "description": "",
            "opening_hours": null,
            "phone": null,
            "branch": null,
            "amenity": "library",
            "mobile": null,
            "addr:street": "Molla Feneri Sokak",
            "cuisine": null,
            "name": "Can Yayinlari",
            "name:en": null,
            "name:uk": null,
            "name:de": null,
            "name:tr": null,
            "name:ru": null,
            "name:ar": "جان للنشر"
        }
    },
    {
        "lat": 41.0096664,
        "lon": 28.9751754,
        "tags": {
            "addr:city": "Istanbul",
            "addr:district": "Fatih",
            "description": "",
            "opening_hours": null,
            "phone": null,
            "branch": null,
            "amenity": "library",
            "mobile": null,
            "addr:street": "Molla Feneri Sokak",
            "cuisine": null,
            "name": "Ana Kitabevi",
            "name:en": null,
            "name:uk": null,
            "name:de": null,
            "name:tr": null,
            "name:ru": null,
            "name:ar": "مكتبة أنا كتاب إفي"
        }
    },
    {
        "lat": 41.0101288,
        "lon": 28.9751067,
        "tags": {
            "addr:city": "Istanbul",
            "addr:district": "Fatih",
            "description": "",
            "opening_hours": null,
            "phone": "0212 527 01 65",
            "branch": null,
            "amenity": "library",
            "mobile": null,
            "addr:street": "Molla Feneri Sokak",
            "cuisine": null,
            "name": "Der Kitabevi Yayin Dagitim",
            "name:en": null,
            "name:uk": null,
            "name:de": null,
            "name:tr": null,
            "name:ru": null,
            "name:ar": "دير كتاب إفي ياين داغيتيم للنشر"
        }
    },
    {
        "lat": 41.0097149,
        "lon": 28.9746234,
        "tags": {
            "addr:city": "Istanbul",
            "addr:district": "Fatih",
            "description": "",
            "opening_hours": null,
            "phone": null,
            "branch": null,
            "amenity": "library",
            "mobile": null,
            "addr:street": "Himaye-İ Eftal Sokak",
            "cuisine": null,
            "name": "Kastaş Yayınevi",
            "name:en": null,
            "name:uk": null,
            "name:de": null,
            "name:tr": null,
            "name:ru": null,
            "name:ar": "كاتاش ياين إفي للنشر"
        }
    },
    {
        "lat": 41.0102749,
        "lon": 28.9746058,
        "tags": {
            "addr:city": "Istanbul",
            "addr:district": "Fatih",
            "description": "",
            "opening_hours": null,
            "phone": null,
            "branch": null,
            "amenity": "library",
            "mobile": null,
            "addr:street": "Nuru Osmaniye Caddesi",
            "cuisine": null,
            "name": "Bilge Kültür Sanat",
            "name:en": null,
            "name:uk": null,
            "name:de": null,
            "name:tr": null,
            "name:ru": null,
            "name:ar": "بيلغي كولتور سانات"
        }
    },
    {
        "lat": 41.0096027,
        "lon": 28.9760115,
        "tags": {
            "addr:city": "Istanbul",
            "addr:district": "Fatih",
            "description": "",
            "opening_hours": null,
            "phone": null,
            "branch": null,
            "amenity": "library",
            "mobile": null,
            "addr:street": "Çatalçeşme Sokak",
            "cuisine": null,
            "name": "Caprichos Hediyelik Eşya",
            "name:en": null,
            "name:uk": null,
            "name:de": null,
            "name:tr": null,
            "name:ru": null,
            "name:ar": "كابريكوس هديالك إشيا للهدايا"
        }
    },
    {
        "lat": 41.0095132,
        "lon": 28.9758694,
        "tags": {
            "addr:city": "Istanbul",
            "addr:district": "Fatih",
            "description": "",
            "opening_hours": null,
            "phone": "0212 520 98 90",
            "branch": null,
            "amenity": "library",
            "mobile": null,
            "addr:street": "Çatalçeşme Sokak",
            "cuisine": null,
            "name": "Pinar Yayinlari",
            "name:en": null,
            "name:uk": null,
            "name:de": null,
            "name:tr": null,
            "name:ru": null,
            "name:ar": "بينار ياينلاري للنشر"
        }
    },
    {
        "lat": 41.009467,
        "lon": 28.9758077,
        "tags": {
            "addr:city": "Istanbul",
            "addr:district": "Fatih",
            "description": "",
            "opening_hours": null,
            "phone": "0212 511 27 02",
            "branch": null,
            "amenity": "library",
            "mobile": null,
            "addr:street": "Çatalçeşme Sokak",
            "cuisine": null,
            "name": "Uysal Yayınevi",
            "name:en": null,
            "name:uk": null,
            "name:de": null,
            "name:tr": null,
            "name:ru": null,
            "name:ar": "أويسل يين إفي للنشر"
        }
    },
    {
        "lat": 41.0094912,
        "lon": 28.9758492,
        "tags": {
            "addr:city": "Istanbul",
            "addr:district": "Fatih",
            "description": "",
            "opening_hours": null,
            "phone": "0212 526 06 05",
            "branch": null,
            "amenity": "library",
            "mobile": null,
            "addr:street": "Çatalçeşme Sokak",
            "cuisine": null,
            "name": "Guraba Yayinevi",
            "name:en": null,
            "name:uk": null,
            "name:de": null,
            "name:tr": null,
            "name:ru": null,
            "name:ar": "غرباء ياين إفي للنشر"
        }
    },
    {
        "lat": 41.0156462,
        "lon": 28.9316395,
        "tags": {
            "addr:city": "Istanbul",
            "addr:district": "Turkey",
            "description": "",
            "opening_hours": null,
            "phone": null,
            "branch": null,
            "amenity": "library",
            "mobile": null,
            "addr:street": "Börekçi Veli Sokağı",
            "cuisine": null,
            "name": "Istanbul Tıp Kitabevi",
            "name:en": null,
            "name:uk": null,
            "name:de": null,
            "name:tr": null,
            "name:ru": null,
            "name:ar": "مكتبة اسطنبول طب"
        }
    },
    {
        "lat": 41.0155916,
        "lon": 28.9612484,
        "tags": {
            "addr:city": "Istanbul",
            "addr:district": "Fatih",
            "description": "",
            "opening_hours": null,
            "phone": null,
            "branch": null,
            "amenity": "library",
            "mobile": null,
            "addr:street": "Sifahane caddesi",
            "cuisine": null,
            "name": "Kurkcu dukkani",
            "name:en": null,
            "name:uk": null,
            "name:de": null,
            "name:tr": null,
            "name:ru": null,
            "name:ar": "كوركجو دكان"
        }
    },
    {
        "lat": 41.0092608,
        "lon": 28.9626002,
        "tags": {
            "addr:city": "Istanbul",
            "addr:district": "Fatih",
            "description": "",
            "opening_hours": null,
            "phone": null,
            "branch": null,
            "amenity": "library",
            "mobile": null,
            "addr:street": "Ordu caddesi",
            "cuisine": null,
            "name": "Orhan Kemal İl Halk Kütüphanesi",
            "name:en": null,
            "name:uk": null,
            "name:de": null,
            "name:tr": null,
            "name:ru": null,
            "name:ar": "الهان كمال كوتوبانسي"
        }
    },
    {
        "lat": 41.0014844,
        "lon": 28.9297263,
        "tags": {
            "addr:city": "Istanbul",
            "addr:district": "Fatih",
            "description": "",
            "opening_hours": null,
            "phone": null,
            "branch": null,
            "amenity": "library",
            "mobile": null,
            "addr:street": "Hacı Kadın Caddesi",
            "cuisine": null,
            "name": "Can Kırtasiye",
            "name:en": null,
            "name:uk": null,
            "name:de": null,
            "name:tr": null,
            "name:ru": null,
            "name:ar": "قرطاسية جان"
        }
    },
    {
        "lat": 41.0016615,
        "lon": 28.929808,
        "tags": {
            "addr:city": "Istanbul",
            "addr:district": "Fatih",
            "description": "",
            "opening_hours": null,
            "phone": null,
            "branch": null,
            "amenity": "library",
            "mobile": null,
            "addr:street": "Hacı Kadın Caddesi",
            "cuisine": null,
            "name": "Kerimoğlu Kurtasiye",
            "name:en": null,
            "name:uk": null,
            "name:de": null,
            "name:tr": null,
            "name:ru": null,
            "name:ar": "قرطاسية كريم أوغلو"
        }
    },
    {
        "lat": 41.0113804,
        "lon": 28.9592342,
        "tags": {
            "addr:city": "Istanbul",
            "addr:district": "Fatih",
            "description": "",
            "opening_hours": null,
            "phone": null,
            "branch": null,
            "amenity": "library",
            "mobile": null,
            "addr:street": "Büyük Reşitpaşa Caddesi",
            "cuisine": null,
            "name": "Kitapçılar Çarşısı",
            "name:en": null,
            "name:uk": null,
            "name:de": null,
            "name:tr": null,
            "name:ru": null,
            "name:ar": "سوق كتب كيتابجيلار تشارشيسي"
        }
    },
    {
        "lat": 41.0127516,
        "lon": 28.966308,
        "tags": {
            "addr:city": "Istanbul",
            "addr:district": "Fatih",
            "description": "",
            "opening_hours": null,
            "phone": null,
            "branch": null,
            "amenity": "library",
            "mobile": null,
            "addr:street": "Mercan Caddesi",
            "cuisine": null,
            "name": "Mercan Kırtasiye",
            "name:en": null,
            "name:uk": null,
            "name:de": null,
            "name:tr": null,
            "name:ru": null,
            "name:ar": "قرطاسية ميرجان"
        }
    },
    {
        "lat": 41.0036775,
        "lon": 28.9276832,
        "tags": {
            "addr:city": "Istanbul",
            "addr:district": "Fatih",
            "description": "",
            "opening_hours": null,
            "phone": null,
            "branch": null,
            "amenity": "library",
            "mobile": null,
            "addr:street": "Koca Mustafapaşa Caddesi",
            "cuisine": null,
            "name": "Kurtasiye",
            "name:en": null,
            "name:uk": null,
            "name:de": null,
            "name:tr": null,
            "name:ru": null,
            "name:ar": "كورتاسية"
        }
    },
    {
        "lat": 41.0177014,
        "lon": 28.9513168,
        "tags": {
            "addr:city": "Istanbul",
            "addr:district": "Fatih",
            "description": "",
            "opening_hours": null,
            "phone": null,
            "branch": null,
            "amenity": "library",
            "mobile": null,
            "addr:street": "Büyük Karaman Caddesi",
            "cuisine": null,
            "name": "Gölge Kitabevi",
            "name:en": null,
            "name:uk": null,
            "name:de": null,
            "name:tr": null,
            "name:ru": null,
            "name:ar": "جولجى كتاب ايفي"
        }
    },
    {
        "lat": 41.0169035,
        "lon": 28.9511539,
        "tags": {
            "addr:city": "Istanbul",
            "addr:district": "Fatih",
            "description": "",
            "opening_hours": null,
            "phone": null,
            "branch": null,
            "amenity": "library",
            "mobile": null,
            "addr:street": "Nalbant demir sokak",
            "cuisine": null,
            "name": "Kökler kitabevi",
            "name:en": null,
            "name:uk": null,
            "name:de": null,
            "name:tr": null,
            "name:ru": null,
            "name:ar": "كوكلر كتاب ايفي"
        }
    },
    {
        "lat": 41.0213617,
        "lon": 28.9493787,
        "tags": {
            "addr:city": "Istanbul",
            "addr:district": "Fatih",
            "description": "",
            "opening_hours": null,
            "phone": null,
            "branch": null,
            "amenity": "library",
            "mobile": null,
            "addr:street": "Aksarıklı sokak",
            "cuisine": null,
            "name": "Vekitap",
            "name:en": null,
            "name:uk": null,
            "name:de": null,
            "name:tr": null,
            "name:ru": null,
            "name:ar": "في كتاب"
        }
    },
    {
        "lat": 41.0217419,
        "lon": 28.9488364,
        "tags": {
            "addr:city": "Istanbul",
            "addr:district": "Fatih",
            "description": "",
            "opening_hours": null,
            "phone": null,
            "branch": null,
            "amenity": "library",
            "mobile": null,
            "addr:street": "Darüşşafaka caddesi",
            "cuisine": null,
            "name": "Seda",
            "name:en": null,
            "name:uk": null,
            "name:de": null,
            "name:tr": null,
            "name:ru": null,
            "name:ar": "صدى"
        }
    },
    {
        "lat": 41.0235539,
        "lon": 28.9473198,
        "tags": {
            "addr:city": "Istanbul",
            "addr:district": "Fatih",
            "description": "",
            "opening_hours": null,
            "phone": null,
            "branch": null,
            "amenity": "library",
            "mobile": null,
            "addr:street": "Yavuz Selim Caddesi",
            "cuisine": null,
            "name": "zaman kırtasiye",
            "name:en": "Zaman Stationery",
            "name:uk": null,
            "name:de": null,
            "name:tr": null,
            "name:ru": null,
            "name:ar": "قرطاسية زمان"
        }
    },
    {
        "lat": 41.0237108,
        "lon": 28.9476177,
        "tags": {
            "addr:city": "Istanbul",
            "addr:district": "Fatih",
            "description": "",
            "opening_hours": null,
            "phone": null,
            "branch": null,
            "amenity": "library",
            "mobile": null,
            "addr:street": "Yavuz selim caddesi",
            "cuisine": null,
            "name": "Darul hayr",
            "name:en": null,
            "name:uk": null,
            "name:de": null,
            "name:tr": null,
            "name:ru": null,
            "name:ar": "دار الخير"
        }
    },
    {
        "lat": 41.0240833,
        "lon": 28.948196,
        "tags": {
            "addr:city": "Istanbul",
            "addr:district": "Fatih",
            "description": "",
            "opening_hours": null,
            "phone": null,
            "branch": null,
            "amenity": "library",
            "mobile": null,
            "addr:street": "Yavuz selim caddesi",
            "cuisine": null,
            "name": "Alfa gül kırtasiye",
            "name:en": null,
            "name:uk": null,
            "name:de": null,
            "name:tr": null,
            "name:ru": null,
            "name:ar": "قرطاسية الفا كول"
        }
    },
    {
        "lat": 41.0205881,
        "lon": 28.9477527,
        "tags": {
            "addr:city": "Istanbul",
            "addr:district": "Fatih",
            "description": "",
            "opening_hours": null,
            "phone": null,
            "branch": null,
            "amenity": "library",
            "mobile": null,
            "addr:street": "Başimam sokak",
            "cuisine": null,
            "name": "Kitap sever",
            "name:en": null,
            "name:uk": null,
            "name:de": null,
            "name:tr": null,
            "name:ru": null,
            "name:ar": "كتاب سيفير"
        }
    },
    {
        "lat": 41.0136428,
        "lon": 28.9615015,
        "tags": {
            "addr:city": "Istanbul",
            "addr:district": "Fatih",
            "description": "",
            "opening_hours": null,
            "phone": null,
            "branch": null,
            "amenity": "library",
            "mobile": null,
            "addr:street": "Süleymaniye caddesi",
            "cuisine": null,
            "name": "Özen",
            "name:en": null,
            "name:uk": null,
            "name:de": null,
            "name:tr": null,
            "name:ru": null,
            "name:ar": "اوزين"
        }
    },
    {
        "lat": 41.0135897,
        "lon": 28.9614135,
        "tags": {
            "addr:city": "Istanbul",
            "addr:district": "Fatih",
            "description": "",
            "opening_hours": null,
            "phone": null,
            "branch": null,
            "amenity": "library",
            "mobile": null,
            "addr:street": "Süleymaniye caddesi",
            "cuisine": null,
            "name": "Ahmet kitap evi",
            "name:en": null,
            "name:uk": null,
            "name:de": null,
            "name:tr": null,
            "name:ru": null,
            "name:ar": "احمد كتاب ايفي"
        }
    },
    {
        "lat": 41.0156705,
        "lon": 28.9614524,
        "tags": {
            "addr:city": "Istanbul",
            "addr:district": "Fatih",
            "description": "",
            "opening_hours": null,
            "phone": null,
            "branch": null,
            "amenity": "library",
            "mobile": null,
            "addr:street": "Şifahane caddesi",
            "cuisine": null,
            "name": "Kürküçü dükkanı",
            "name:en": null,
            "name:uk": null,
            "name:de": null,
            "name:tr": null,
            "name:ru": null,
            "name:ar": "كوركوجو دكانى"
        }
    },
    {
        "lat": 41.0132673,
        "lon": 28.9612448,
        "tags": {
            "addr:city": "Istanbul",
            "addr:district": "Fatih",
            "description": "",
            "opening_hours": null,
            "phone": "02125284074",
            "branch": null,
            "amenity": "library",
            "mobile": null,
            "addr:street": "Bozdoğan kemeri caddesi",
            "cuisine": null,
            "name": "Esma yayınları mustafa hoca kitabevi",
            "name:en": null,
            "name:uk": null,
            "name:de": null,
            "name:tr": null,
            "name:ru": null,
            "name:ar": "اسما ياينلارى"
        }
    },
    {
        "lat": 41.0131914,
        "lon": 28.9612287,
        "tags": {
            "addr:city": "Istanbul",
            "addr:district": "Fatih",
            "description": "",
            "opening_hours": null,
            "phone": null,
            "branch": null,
            "amenity": "library",
            "mobile": null,
            "addr:street": "Bozdoğan kemeri caddesi",
            "cuisine": null,
            "name": "İstanbul kitapçısı",
            "name:en": null,
            "name:uk": null,
            "name:de": null,
            "name:tr": null,
            "name:ru": null,
            "name:ar": "اسطنبول كتابجيسى"
        }
    },
    {
        "lat": 41.0131376,
        "lon": 28.9612287,
        "tags": {
            "addr:city": "Istanbul",
            "addr:district": "Fatih",
            "description": "",
            "opening_hours": null,
            "phone": null,
            "branch": null,
            "amenity": "library",
            "mobile": null,
            "addr:street": "Bozdoğan kemeri caddesi",
            "cuisine": null,
            "name": "Not copy",
            "name:en": null,
            "name:uk": null,
            "name:de": null,
            "name:tr": null,
            "name:ru": null,
            "name:ar": "نوت كوبى"
        }
    },
    {
        "lat": 41.0130837,
        "lon": 28.9612287,
        "tags": {
            "addr:city": "Istanbul",
            "addr:district": "Fatih",
            "description": "",
            "opening_hours": null,
            "phone": null,
            "branch": null,
            "amenity": "library",
            "mobile": null,
            "addr:street": "Bozdoğan kemeri caddesi",
            "cuisine": null,
            "name": "Rağmen sahaf",
            "name:en": null,
            "name:uk": null,
            "name:de": null,
            "name:tr": null,
            "name:ru": null,
            "name:ar": "صحاف رغمن"
        }
    },
    {
        "lat": 41.0095939,
        "lon": 28.9799715,
        "tags": {
            "addr:city": "Istanbul",
            "addr:district": null,
            "description": "",
            "opening_hours": null,
            "phone": null,
            "branch": null,
            "amenity": "library",
            "mobile": null,
            "addr:street": "Soğuk çeşme sokak",
            "cuisine": null,
            "name": "İstanbul kitaplığı",
            "name:en": null,
            "name:uk": null,
            "name:de": null,
            "name:tr": null,
            "name:ru": null,
            "name:ar": null
        }
    },
    {
        "lat": 41.0108705,
        "lon": 28.9658253,
        "tags": {
            "addr:city": "Istanbul",
            "addr:district": "Fatih",
            "description": "",
            "opening_hours": "Mo-Su 09:00-23:00",
            "phone": "02125223167",
            "branch": null,
            "amenity": "library",
            "mobile": null,
            "addr:street": "Çadırcılar Caddesi",
            "cuisine": null,
            "name": "Beyazıt Devlet Kütüphanesi",
            "name:en": null,
            "name:uk": null,
            "name:de": null,
            "name:tr": null,
            "name:ru": null,
            "name:ar": "مكتبة بيازيد الحكومية"
        }
    },
    {
        "lat": 41.017037,
        "lon": 28.9431735,
        "tags": {
            "addr:city": "Istanbul",
            "addr:district": "Turkey",
            "description": "",
            "opening_hours": null,
            "phone": null,
            "branch": null,
            "amenity": "library",
            "mobile": null,
            "addr:street": "Akdeniz Caddesi",
            "cuisine": null,
            "name": "TDV",
            "name:en": null,
            "name:uk": null,
            "name:de": null,
            "name:tr": null,
            "name:ru": null,
            "name:ar": "تي دي في"
        }
    },
    {
        "lat": 41.0167411,
        "lon": 28.9483953,
        "tags": {
            "addr:city": "Istanbul",
            "addr:district": "Turkey",
            "description": "",
            "opening_hours": null,
            "phone": null,
            "branch": null,
            "amenity": "library",
            "mobile": null,
            "addr:street": "SANGUZEL caddesi",
            "cuisine": null,
            "name": "SANAT & HOBBY",
            "name:en": null,
            "name:uk": null,
            "name:de": null,
            "name:tr": null,
            "name:ru": null,
            "name:ar": "سانات و هوبي"
        }
    },
    {
        "lat": 41.0174241,
        "lon": 28.9449821,
        "tags": {
            "addr:city": "Istanbul",
            "addr:district": "Turkey",
            "description": "",
            "opening_hours": null,
            "phone": null,
            "branch": null,
            "amenity": "library",
            "mobile": null,
            "addr:street": "PALIPASA caddesi",
            "cuisine": null,
            "name": "Asema",
            "name:en": null,
            "name:uk": null,
            "name:de": null,
            "name:tr": null,
            "name:ru": null,
            "name:ar": "أسيما"
        }
    },
    {
        "lat": 41.0264442,
        "lon": 28.9479726,
        "tags": {
            "addr:city": "Istanbul",
            "addr:district": "Turkey",
            "description": "",
            "opening_hours": null,
            "phone": null,
            "branch": null,
            "amenity": "library",
            "mobile": null,
            "addr:street": null,
            "cuisine": null,
            "name": "Murat",
            "name:en": null,
            "name:uk": null,
            "name:de": null,
            "name:tr": null,
            "name:ru": null,
            "name:ar": "مراد"
        }
    },
    {
        "lat": 41.0266697,
        "lon": 28.9475244,
        "tags": {
            "addr:city": "Istanbul",
            "addr:district": "Turkey",
            "description": "",
            "opening_hours": null,
            "phone": null,
            "branch": null,
            "amenity": "library",
            "mobile": null,
            "addr:street": "Manyasizade Caddesi",
            "cuisine": null,
            "name": "Siraç yayın evi",
            "name:en": null,
            "name:uk": null,
            "name:de": null,
            "name:tr": null,
            "name:ru": null,
            "name:ar": "سراج دار الطباعة"
        }
    },
    {
        "lat": 41.0107987,
        "lon": 28.9731199,
        "tags": {
            "addr:city": "Istanbul",
            "addr:district": "Fatih",
            "description": "",
            "opening_hours": null,
            "phone": null,
            "branch": null,
            "amenity": "library",
            "mobile": null,
            "addr:street": "Selvili Mescit sokak",
            "cuisine": null,
            "name": "Remzi Kitabevi",
            "name:en": null,
            "name:uk": null,
            "name:de": null,
            "name:tr": null,
            "name:ru": null,
            "name:ar": "مكتبة رمزي كيتاب إيفي"
        }
    },
    {
        "lat": 41.0078362,
        "lon": 28.9690963,
        "tags": {
            "addr:city": "Istanbul",
            "addr:district": "Fatih",
            "description": "",
            "opening_hours": null,
            "phone": null,
            "branch": null,
            "amenity": "library",
            "mobile": null,
            "addr:street": "Karababa Türbesi Sokak",
            "cuisine": null,
            "name": "Aklar Kavafiye",
            "name:en": null,
            "name:uk": null,
            "name:de": null,
            "name:tr": null,
            "name:ru": null,
            "name:ar": "اكلار كاويفيي"
        }
    },
    {
        "lat": 41.0105893,
        "lon": 28.9710102,
        "tags": {
            "addr:city": "Istanbul",
            "addr:district": "Fatih",
            "description": "",
            "opening_hours": null,
            "phone": null,
            "branch": null,
            "amenity": "library",
            "mobile": null,
            "addr:street": "Vezirhan Caddesi",
            "cuisine": null,
            "name": "Nuruosmaniye Kutuphanesi",
            "name:en": null,
            "name:uk": null,
            "name:de": null,
            "name:tr": null,
            "name:ru": null,
            "name:ar": "نوروسمانية كوتوبهاني"
        }
    },
    {
        "lat": 41.0084752,
        "lon": 28.9673737,
        "tags": {
            "addr:city": "Istanbul",
            "addr:district": "Fatih",
            "description": "",
            "opening_hours": null,
            "phone": null,
            "branch": null,
            "amenity": "library",
            "mobile": null,
            "addr:street": "Gedik Paşa Caddesi",
            "cuisine": null,
            "name": "İstanbul Fetih Cemiyeti",
            "name:en": null,
            "name:uk": null,
            "name:de": null,
            "name:tr": null,
            "name:ru": null,
            "name:ar": null
        }
    },
    {
        "lat": 40.9857232,
        "lon": 29.0512266,
        "tags": {
            "addr:city": "İstanbul",
            "addr:district": null,
            "description": "",
            "opening_hours": null,
            "phone": null,
            "branch": null,
            "amenity": "library",
            "mobile": null,
            "addr:street": null,
            "cuisine": null,
            "name": "Marmara Üniversitesi Merkez Kütüphane",
            "name:en": null,
            "name:uk": null,
            "name:de": null,
            "name:tr": null,
            "name:ru": null,
            "name:ar": null
        }
    },
    {
        "lat": 40.8881862,
        "lon": 29.2320302,
        "tags": {
            "addr:city": "İstanbul",
            "addr:district": null,
            "description": "",
            "opening_hours": "Mo-Su 08:00-22:00",
            "phone": null,
            "branch": null,
            "amenity": "library",
            "mobile": null,
            "addr:street": null,
            "cuisine": null,
            "name": "huzur",
            "name:en": null,
            "name:uk": null,
            "name:de": null,
            "name:tr": null,
            "name:ru": null,
            "name:ar": null
        }
    },
    {
        "lat": 40.9055933,
        "lon": 29.1759272,
        "tags": {
            "addr:city": "İstanbul",
            "addr:district": null,
            "description": "",
            "opening_hours": null,
            "phone": null,
            "branch": null,
            "amenity": "library",
            "mobile": null,
            "addr:street": null,
            "cuisine": null,
            "name": "Halk Kütüphanesi",
            "name:en": null,
            "name:uk": null,
            "name:de": null,
            "name:tr": null,
            "name:ru": null,
            "name:ar": null
        }
    },
    {
        "lat": 40.9638595,
        "lon": 29.2707705,
        "tags": {
            "addr:city": "Istanbul",
            "addr:district": "Sultanbeyli",
            "description": "",
            "opening_hours": null,
            "phone": null,
            "branch": null,
            "amenity": "library",
            "mobile": null,
            "addr:street": "Ziya-ül hak caddesi",
            "cuisine": null,
            "name": "Saypa",
            "name:en": null,
            "name:uk": null,
            "name:de": null,
            "name:tr": null,
            "name:ru": null,
            "name:ar": "مكتبة سايبا"
        }
    },
    {
        "lat": 40.9640929,
        "lon": 29.2659627,
        "tags": {
            "addr:city": "Istanbul",
            "addr:district": "Sultanbeyli",
            "description": "",
            "opening_hours": null,
            "phone": "05378383796",
            "branch": null,
            "amenity": "library",
            "mobile": null,
            "addr:street": "Kuran kursu caddesi",
            "cuisine": null,
            "name": "Uğur kırtasiye oyuncak",
            "name:en": null,
            "name:uk": null,
            "name:de": null,
            "name:tr": null,
            "name:ru": null,
            "name:ar": "مكتبة يوغور"
        }
    },
    {
        "lat": 40.9648316,
        "lon": 29.2654704,
        "tags": {
            "addr:city": "Istanbul",
            "addr:district": "Sultanbeyli",
            "description": "",
            "opening_hours": null,
            "phone": "02163981395",
            "branch": null,
            "amenity": "library",
            "mobile": null,
            "addr:street": "Cami caddesi",
            "cuisine": null,
            "name": "İşler kitabevleri",
            "name:en": null,
            "name:uk": null,
            "name:de": null,
            "name:tr": null,
            "name:ru": null,
            "name:ar": "مكتبة ايشلار"
        }
    },
    {
        "lat": 40.9646453,
        "lon": 29.2691611,
        "tags": {
            "addr:city": "Istanbul",
            "addr:district": "Sultanbeyli",
            "description": "",
            "opening_hours": null,
            "phone": null,
            "branch": null,
            "amenity": "library",
            "mobile": null,
            "addr:street": "Gün caddesi",
            "cuisine": null,
            "name": "Teknoişik okul market",
            "name:en": null,
            "name:uk": null,
            "name:de": null,
            "name:tr": null,
            "name:ru": null,
            "name:ar": "مكتبة تيكنوشيك"
        }
    },
    {
        "lat": 40.9647263,
        "lon": 29.265406,
        "tags": {
            "addr:city": "Istanbul",
            "addr:district": "Sultanbeyli",
            "description": "",
            "opening_hours": null,
            "phone": "02163985781",
            "branch": null,
            "amenity": "library",
            "mobile": null,
            "addr:street": "Cami caddesi",
            "cuisine": null,
            "name": "Eylül kırtasiye",
            "name:en": null,
            "name:uk": null,
            "name:de": null,
            "name:tr": null,
            "name:ru": null,
            "name:ar": "مكتبة ايلول"
        }
    },
    {
        "lat": 40.9669056,
        "lon": 29.2658996,
        "tags": {
            "addr:city": "Istanbul",
            "addr:district": "Sultanbeyli",
            "description": "",
            "opening_hours": null,
            "phone": "02164194404",
            "branch": null,
            "amenity": "library",
            "mobile": null,
            "addr:street": "İpekyolu sokağı",
            "cuisine": null,
            "name": "Anda kırtasiye",
            "name:en": null,
            "name:uk": null,
            "name:de": null,
            "name:tr": null,
            "name:ru": null,
            "name:ar": "مكتبة اندا"
        }
    },
    {
        "lat": 40.9643212,
        "lon": 29.2652558,
        "tags": {
            "addr:city": "Istanbul",
            "addr:district": "Sultanbeyli",
            "description": "",
            "opening_hours": null,
            "phone": "02164196055",
            "branch": null,
            "amenity": "library",
            "mobile": null,
            "addr:street": "Cami caddesi",
            "cuisine": null,
            "name": "Seçkin kırtasiye kitap",
            "name:en": null,
            "name:uk": null,
            "name:de": null,
            "name:tr": null,
            "name:ru": null,
            "name:ar": "مكتبة ساتشكين"
        }
    },
    {
        "lat": 41.0382456,
        "lon": 28.8227632,
        "tags": {
            "addr:city": "İstanbul",
            "addr:district": null,
            "description": "",
            "opening_hours": null,
            "phone": null,
            "branch": null,
            "amenity": "library",
            "mobile": null,
            "addr:street": null,
            "cuisine": null,
            "name": "Hasan Nail Canat Bilgi Evi ve Kültür Merkezi",
            "name:en": null,
            "name:uk": null,
            "name:de": null,
            "name:tr": null,
            "name:ru": null,
            "name:ar": null
        }
    },
    {
        "lat": 40.9813155,
        "lon": 29.266634,
        "tags": {
            "addr:city": "Istanbul",
            "addr:district": "Sultanbeyli",
            "description": "",
            "opening_hours": null,
            "phone": null,
            "branch": null,
            "amenity": "library",
            "mobile": null,
            "addr:street": "kiraz sokaği",
            "cuisine": null,
            "name": "Şevval",
            "name:en": null,
            "name:uk": null,
            "name:de": null,
            "name:tr": null,
            "name:ru": null,
            "name:ar": "مكتبة شيفال"
        }
    },
    {
        "lat": 40.9658194,
        "lon": 29.2799163,
        "tags": {
            "addr:city": "Istanbul",
            "addr:district": "Sultanbeyli",
            "description": "",
            "opening_hours": null,
            "phone": null,
            "branch": null,
            "amenity": "library",
            "mobile": null,
            "addr:street": "cilvegözü sokağı",
            "cuisine": null,
            "name": "ismael",
            "name:en": null,
            "name:uk": null,
            "name:de": null,
            "name:tr": null,
            "name:ru": null,
            "name:ar": "مكتبة اسماعيل"
        }
    },
    {
        "lat": 40.9673036,
        "lon": 29.2516393,
        "tags": {
            "addr:city": "Istanbul",
            "addr:district": "Sultanbeyli",
            "description": "",
            "opening_hours": null,
            "phone": null,
            "branch": null,
            "amenity": "library",
            "mobile": null,
            "addr:street": "Petrol yolu cadeci جادة شارع البترول",
            "cuisine": null,
            "name": "Beyza kırtasiye",
            "name:en": null,
            "name:uk": null,
            "name:de": null,
            "name:tr": null,
            "name:ru": null,
            "name:ar": "بيزا للقرطاسية"
        }
    },
    {
        "lat": 40.9665016,
        "lon": 29.2472728,
        "tags": {
            "addr:city": "Istanbul",
            "addr:district": "Sultanbeyli",
            "description": "",
            "opening_hours": null,
            "phone": null,
            "branch": null,
            "amenity": "library",
            "mobile": null,
            "addr:street": "Hat caddesi هات جاديسي",
            "cuisine": null,
            "name": "Hasan hüsnü paşa kütübhanesi",
            "name:en": null,
            "name:uk": null,
            "name:de": null,
            "name:tr": null,
            "name:ru": null,
            "name:ar": "مكتبة هاسان هوسنو باشا"
        }
    },
    {
        "lat": 40.9469587,
        "lon": 29.3001146,
        "tags": {
            "addr:city": "Istanbul",
            "addr:district": "Sultanbeyli",
            "description": "",
            "opening_hours": null,
            "phone": null,
            "branch": null,
            "amenity": "library",
            "mobile": null,
            "addr:street": "Fatih bulvarı",
            "cuisine": null,
            "name": "Nur kırtasiye",
            "name:en": null,
            "name:uk": null,
            "name:de": null,
            "name:tr": null,
            "name:ru": null,
            "name:ar": "مكتبة نور كرتاسيا"
        }
    },
    {
        "lat": 40.9585197,
        "lon": 29.2568278,
        "tags": {
            "addr:city": "Istanbul",
            "addr:district": "Sultanbeyli",
            "description": "",
            "opening_hours": null,
            "phone": null,
            "branch": null,
            "amenity": "library",
            "mobile": null,
            "addr:street": "Vatan Caddesi",
            "cuisine": null,
            "name": "Aydos Kırtasiye",
            "name:en": null,
            "name:uk": null,
            "name:de": null,
            "name:tr": null,
            "name:ru": null,
            "name:ar": "مكتبة ايدوس"
        }
    },
    {
        "lat": 40.9692219,
        "lon": 29.2634583,
        "tags": {
            "addr:city": "Istanbul",
            "addr:district": "Sultanbeyli",
            "description": "",
            "opening_hours": null,
            "phone": "02164190945",
            "branch": null,
            "amenity": "library",
            "mobile": null,
            "addr:street": "kosova sokaği",
            "cuisine": null,
            "name": "Basimhane reklam",
            "name:en": null,
            "name:uk": null,
            "name:de": null,
            "name:tr": null,
            "name:ru": null,
            "name:ar": "مكتبة باسم هان"
        }
    },
    {
        "lat": 40.9956733,
        "lon": 28.8969398,
        "tags": {
            "addr:city": "Istanbul",
            "addr:district": "Zeytinburnu",
            "description": "",
            "opening_hours": null,
            "phone": null,
            "branch": null,
            "amenity": "library",
            "mobile": null,
            "addr:street": "75/1 Sok.",
            "cuisine": null,
            "name": "Zeytinburnu İlçe Halk Kütüphanesi",
            "name:en": null,
            "name:uk": null,
            "name:de": null,
            "name:tr": null,
            "name:ru": null,
            "name:ar": "مكتبة بلدة زيتينبورنو الشعبية"
        }
    },
    {
        "lat": 41.043616,
        "lon": 28.8393861,
        "tags": {
            "addr:city": "Istanbul",
            "addr:district": "Bağcılar",
            "description": "",
            "opening_hours": null,
            "phone": null,
            "branch": null,
            "amenity": "library",
            "mobile": null,
            "addr:street": "Mevlana caddesi",
            "cuisine": null,
            "name": "Meva",
            "name:en": null,
            "name:uk": null,
            "name:de": null,
            "name:tr": null,
            "name:ru": null,
            "name:ar": "ميفا"
        }
    },
    {
        "lat": 41.0933376,
        "lon": 29.0944335,
        "tags": {
            "addr:city": "İstanbul",
            "addr:district": null,
            "description": "",
            "opening_hours": null,
            "phone": null,
            "branch": null,
            "amenity": "library",
            "mobile": null,
            "addr:street": null,
            "cuisine": null,
            "name": "Turker Inanoglu Vakfi Ulvi Uraz Kitapligi",
            "name:en": null,
            "name:uk": null,
            "name:de": null,
            "name:tr": null,
            "name:ru": null,
            "name:ar": null
        }
    },
    {
        "lat": 40.9936954,
        "lon": 28.903748,
        "tags": {
            "addr:city": "İstanbul",
            "addr:district": null,
            "description": "",
            "opening_hours": null,
            "phone": null,
            "branch": null,
            "amenity": "library",
            "mobile": null,
            "addr:street": null,
            "cuisine": null,
            "name": "Zeytinburnu İlçe Halk Kütüphanesi",
            "name:en": null,
            "name:uk": null,
            "name:de": null,
            "name:tr": null,
            "name:ru": null,
            "name:ar": null
        }
    },
    {
        "lat": 40.8723058,
        "lon": 29.2302793,
        "tags": {
            "addr:city": "İstanbul",
            "addr:district": "Pendik",
            "description": "",
            "opening_hours": "Mo-Sa 08:30-20:00",
            "phone": null,
            "branch": null,
            "amenity": "library",
            "mobile": null,
            "addr:street": "Selim Berzek Caddesi",
            "cuisine": null,
            "name": "Ömer Hekim Kütüphanesi",
            "name:en": null,
            "name:uk": null,
            "name:de": null,
            "name:tr": null,
            "name:ru": null,
            "name:ar": null
        }
    },
    {
        "lat": 40.8929013,
        "lon": 29.2764271,
        "tags": {
            "addr:city": "İstanbul",
            "addr:district": null,
            "description": "",
            "opening_hours": null,
            "phone": null,
            "branch": null,
            "amenity": "library",
            "mobile": null,
            "addr:street": null,
            "cuisine": null,
            "name": "Hüseyin Vassaf Kütüphanesi",
            "name:en": null,
            "name:uk": null,
            "name:de": null,
            "name:tr": null,
            "name:ru": null,
            "name:ar": null
        }
    },
    {
        "lat": 40.9283079,
        "lon": 29.2957087,
        "tags": {
            "addr:city": "İstanbul",
            "addr:district": null,
            "description": "",
            "opening_hours": null,
            "phone": null,
            "branch": null,
            "amenity": "library",
            "mobile": null,
            "addr:street": null,
            "cuisine": null,
            "name": "Yahya Kemal Beyatlı Kütüphanesi",
            "name:en": null,
            "name:uk": null,
            "name:de": null,
            "name:tr": null,
            "name:ru": null,
            "name:ar": null
        }
    },
    {
        "lat": 40.8791632,
        "lon": 29.0683523,
        "tags": {
            "addr:city": "İstanbul",
            "addr:district": null,
            "description": "",
            "opening_hours": null,
            "phone": null,
            "branch": null,
            "amenity": "library",
            "mobile": null,
            "addr:street": null,
            "cuisine": null,
            "name": "Cem Vakfı Kütüphanesi",
            "name:en": null,
            "name:uk": null,
            "name:de": null,
            "name:tr": null,
            "name:ru": null,
            "name:ar": null
        }
    },
    {
        "lat": 41.0097993,
        "lon": 29.0165257,
        "tags": {
            "addr:city": "İstanbul",
            "addr:district": null,
            "description": "",
            "opening_hours": null,
            "phone": null,
            "branch": null,
            "amenity": "library",
            "mobile": null,
            "addr:street": null,
            "cuisine": null,
            "name": "İbrahim Hakkı Konyalı Kütüphanesi",
            "name:en": null,
            "name:uk": null,
            "name:de": null,
            "name:tr": null,
            "name:ru": null,
            "name:ar": null
        }
    },
    {
        "lat": 41.014466,
        "lon": 28.9687637,
        "tags": {
            "addr:city": "İstanbul",
            "addr:district": null,
            "description": "",
            "opening_hours": null,
            "phone": null,
            "branch": null,
            "amenity": "library",
            "mobile": null,
            "addr:street": null,
            "cuisine": null,
            "name": "Kubbe Istambul",
            "name:en": null,
            "name:uk": null,
            "name:de": null,
            "name:tr": null,
            "name:ru": null,
            "name:ar": null
        }
    },
    {
        "lat": 41.1045658,
        "lon": 28.7854389,
        "tags": {
            "addr:city": "İstanbul",
            "addr:district": "Başakşehir",
            "description": "",
            "opening_hours": "Mo-Su 09:00-21:00",
            "phone": "+90 212 486 2971",
            "branch": null,
            "amenity": "library",
            "mobile": null,
            "addr:street": "Ilgaz Sokak",
            "cuisine": null,
            "name": "İBB Rasim Özdenören Kütüphanesi",
            "name:en": null,
            "name:uk": null,
            "name:de": null,
            "name:tr": null,
            "name:ru": null,
            "name:ar": null
        }
    },
    {
        "lat": 41.0786722,
        "lon": 28.9257994,
        "tags": {
            "addr:city": "İstanbul",
            "addr:district": "Eyüpsultan",
            "description": "",
            "opening_hours": "Mo-Sa 09:00-21:00",
            "phone": "+90 212 625 7122",
            "branch": null,
            "amenity": "library",
            "mobile": null,
            "addr:street": "Sevgi Sokağı",
            "cuisine": null,
            "name": "İBB Erdem Beyazıt Kütüphanesi",
            "name:en": null,
            "name:uk": null,
            "name:de": null,
            "name:tr": null,
            "name:ru": null,
            "name:ar": null
        }
    },
    {
        "lat": 41.0328347,
        "lon": 28.9751794,
        "tags": {
            "addr:city": "İstanbul",
            "addr:district": null,
            "description": "",
            "opening_hours": null,
            "phone": null,
            "branch": null,
            "amenity": "library",
            "mobile": null,
            "addr:street": null,
            "cuisine": null,
            "name": "Istanbul Araştırmaları Enstitüsü",
            "name:en": "Istanbul Research Institute",
            "name:uk": null,
            "name:de": null,
            "name:tr": null,
            "name:ru": null,
            "name:ar": null
        }
    },
    {
        "lat": 40.9834854,
        "lon": 29.1152849,
        "tags": {
            "addr:city": "İstanbul",
            "addr:district": null,
            "description": "",
            "opening_hours": null,
            "phone": null,
            "branch": null,
            "amenity": "library",
            "mobile": null,
            "addr:street": "Cami Caddesi",
            "cuisine": null,
            "name": "Mehmet Rüştü Aşıkkutlu Camii Kütüphanesi",
            "name:en": null,
            "name:uk": null,
            "name:de": null,
            "name:tr": null,
            "name:ru": null,
            "name:ar": null
        }
    },
    {
        "lat": 41.0023193,
        "lon": 28.6420224,
        "tags": {
            "addr:city": "İstanbul",
            "addr:district": null,
            "description": "",
            "opening_hours": null,
            "phone": null,
            "branch": null,
            "amenity": "library",
            "mobile": null,
            "addr:street": null,
            "cuisine": null,
            "name": null,
            "name:en": null,
            "name:uk": null,
            "name:de": null,
            "name:tr": null,
            "name:ru": null,
            "name:ar": null
        }
    },
    {
        "lat": 41.0298823,
        "lon": 28.9890738,
        "tags": {
            "addr:city": "İstanbul",
            "addr:district": null,
            "description": "",
            "opening_hours": null,
            "phone": null,
            "branch": null,
            "amenity": "library",
            "mobile": null,
            "addr:street": null,
            "cuisine": null,
            "name": "MSGSÜ Merkez Kütüphanesi",
            "name:en": null,
            "name:uk": null,
            "name:de": null,
            "name:tr": null,
            "name:ru": null,
            "name:ar": null
        }
    },
    {
        "lat": 41.0196446,
        "lon": 28.9253121,
        "tags": {
            "addr:city": "İstanbul",
            "addr:district": null,
            "description": "",
            "opening_hours": null,
            "phone": null,
            "branch": null,
            "amenity": "library",
            "mobile": null,
            "addr:street": null,
            "cuisine": null,
            "name": "Fatih Belediyesi Topkapı Kütüphanesi",
            "name:en": null,
            "name:uk": null,
            "name:de": null,
            "name:tr": null,
            "name:ru": null,
            "name:ar": null
        }
    },
    {
        "lat": 40.9947854,
        "lon": 29.070387,
        "tags": {
            "addr:city": "İstanbul",
            "addr:district": null,
            "description": "",
            "opening_hours": null,
            "phone": null,
            "branch": null,
            "amenity": "library",
            "mobile": null,
            "addr:street": null,
            "cuisine": null,
            "name": "İstanbul Medeniyet Üniversitesi Ziraat Bankası Kütüphanesi",
            "name:en": null,
            "name:uk": null,
            "name:de": null,
            "name:tr": null,
            "name:ru": null,
            "name:ar": null
        }
    },
    {
        "lat": 40.9019314,
        "lon": 29.2284416,
        "tags": {
            "addr:city": "İstanbul",
            "addr:district": null,
            "description": "",
            "opening_hours": null,
            "phone": null,
            "branch": null,
            "amenity": "library",
            "mobile": null,
            "addr:street": null,
            "cuisine": null,
            "name": null,
            "name:en": null,
            "name:uk": null,
            "name:de": null,
            "name:tr": null,
            "name:ru": null,
            "name:ar": null
        }
    },
    {
        "lat": 41.0175596,
        "lon": 28.9403646,
        "tags": {
            "addr:city": "İstanbul",
            "addr:district": "Fatih",
            "description": "",
            "opening_hours": null,
            "phone": "+90 212 453 14 53",
            "branch": null,
            "amenity": "library",
            "mobile": null,
            "addr:street": null,
            "cuisine": null,
            "name": "Fatih Merkez Kütüphanesi",
            "name:en": null,
            "name:uk": null,
            "name:de": null,
            "name:tr": null,
            "name:ru": null,
            "name:ar": null
        }
    },
    {
        "lat": 40.906951,
        "lon": 29.2458651,
        "tags": {
            "addr:city": "İstanbul",
            "addr:district": null,
            "description": "",
            "opening_hours": null,
            "phone": null,
            "branch": null,
            "amenity": "library",
            "mobile": null,
            "addr:street": null,
            "cuisine": null,
            "name": null,
            "name:en": null,
            "name:uk": null,
            "name:de": null,
            "name:tr": null,
            "name:ru": null,
            "name:ar": null
        }
    },
    {
        "lat": 41.0205068,
        "lon": 29.0200946,
        "tags": {
            "addr:city": "Istanbul",
            "addr:district": "Üsküdar",
            "description": "",
            "opening_hours": "Mo 11:00-06:00, Tu-Su 07:00-06:00; PH off",
            "phone": null,
            "branch": null,
            "amenity": "library",
            "mobile": null,
            "addr:street": "Çavuşdere Caddesi",
            "cuisine": null,
            "name": "Haluk Dursun Kütüphanesi",
            "name:en": null,
            "name:uk": null,
            "name:de": null,
            "name:tr": null,
            "name:ru": null,
            "name:ar": null
        }
    },
    {
        "lat": 40.9647424,
        "lon": 29.0948224,
        "tags": {
            "addr:city": "İstanbul",
            "addr:district": null,
            "description": "",
            "opening_hours": "Mo-Sa 08:30-18:00",
            "phone": null,
            "branch": null,
            "amenity": "library",
            "mobile": null,
            "addr:street": null,
            "cuisine": null,
            "name": "Bostancı Ömer Faruk Toprak Halk Kütüphanesi",
            "name:en": null,
            "name:uk": null,
            "name:de": null,
            "name:tr": null,
            "name:ru": null,
            "name:ar": null
        }
    },
    {
        "lat": 41.0405585,
        "lon": 28.9901318,
        "tags": {
            "addr:city": "İstanbul",
            "addr:district": null,
            "description": "",
            "opening_hours": null,
            "phone": null,
            "branch": null,
            "amenity": "library",
            "mobile": null,
            "addr:street": null,
            "cuisine": null,
            "name": null,
            "name:en": null,
            "name:uk": null,
            "name:de": null,
            "name:tr": null,
            "name:ru": null,
            "name:ar": null
        }
    },
    {
        "lat": 40.990719,
        "lon": 29.0222475,
        "tags": {
            "addr:city": "İstanbul",
            "addr:district": "Kadıköy",
            "description": "",
            "opening_hours": "Mo-Fr 09:00-19:00; Sa 09:00-17:00",
            "phone": null,
            "branch": null,
            "amenity": "library",
            "mobile": null,
            "addr:street": null,
            "cuisine": null,
            "name": "Tarih Edebiyat Sanat Kütüphanesi Ve Kültür Merkezi TESAK",
            "name:en": null,
            "name:uk": null,
            "name:de": null,
            "name:tr": null,
            "name:ru": null,
            "name:ar": null
        }
    },
    {
        "lat": 40.9771954,
        "lon": 29.1246801,
        "tags": {
            "addr:city": "İstanbul",
            "addr:district": "Ataşehir",
            "description": "",
            "opening_hours": "Mo-Fr 09:30-18:00",
            "phone": "0216 570 50 00",
            "branch": null,
            "amenity": "library",
            "mobile": null,
            "addr:street": "Prof. Dr. Necmettin Erbakan Caddesi",
            "cuisine": null,
            "name": "Ahmet Telli Çocuk Ve Halk Kütüphanesi",
            "name:en": null,
            "name:uk": null,
            "name:de": null,
            "name:tr": null,
            "name:ru": null,
            "name:ar": null
        }
    },
    {
        "lat": 40.990127,
        "lon": 28.7832456,
        "tags": {
            "addr:city": "İstanbul",
            "addr:district": "Küçükçekmece",
            "description": "",
            "opening_hours": "Mo-Su 09:00-21:00",
            "phone": "+90 212 249 9565",
            "branch": null,
            "amenity": "library",
            "mobile": null,
            "addr:street": "Kahramanlar Caddesi",
            "cuisine": null,
            "name": "İBB Atillâ İlhan Kütüphanesi",
            "name:en": null,
            "name:uk": null,
            "name:de": null,
            "name:tr": null,
            "name:ru": null,
            "name:ar": null
        }
    },
    {
        "lat": 41.0196101,
        "lon": 28.9398749,
        "tags": {
            "addr:city": "İstanbul",
            "addr:district": "Fatih",
            "description": "",
            "opening_hours": "Mo-Su 09:00-21:00",
            "phone": "+90 212 521 5584",
            "branch": null,
            "amenity": "library",
            "mobile": null,
            "addr:street": "Akşemsettin Caddesi",
            "cuisine": null,
            "name": "İBB Ahmet Kabaklı Kütüphanesi",
            "name:en": null,
            "name:uk": null,
            "name:de": null,
            "name:tr": null,
            "name:ru": null,
            "name:ar": null
        }
    },
    {
        "lat": 41.1862817,
        "lon": 28.7647058,
        "tags": {
            "addr:city": "İstanbul",
            "addr:district": "Arnavutköy",
            "description": "",
            "opening_hours": "Mo-Su 09:00-21:00",
            "phone": "+90 212 249 9565",
            "branch": null,
            "amenity": "library",
            "mobile": null,
            "addr:street": null,
            "cuisine": null,
            "name": "İBB Cemil Meriç Kütüphanesi",
            "name:en": null,
            "name:uk": null,
            "name:de": null,
            "name:tr": null,
            "name:ru": null,
            "name:ar": null
        }
    },
    {
        "lat": 41.1085782,
        "lon": 28.9892052,
        "tags": {
            "addr:city": "İstanbul",
            "addr:district": "Sarıyer",
            "description": "",
            "opening_hours": "Mo-Fr 09:00-21:00 Sa-Su 10:00-18:00",
            "phone": "+90 212 249 9565",
            "branch": null,
            "amenity": "library",
            "mobile": null,
            "addr:street": "Cendere Yolu",
            "cuisine": null,
            "name": "İBB Cendere Sanat Kütüphanesi",
            "name:en": null,
            "name:uk": null,
            "name:de": null,
            "name:tr": null,
            "name:ru": null,
            "name:ar": null
        }
    },
    {
        "lat": 41.038943,
        "lon": 28.8956236,
        "tags": {
            "addr:city": "İstanbul",
            "addr:district": "Bayrampaşa",
            "description": "",
            "opening_hours": "Mo-Sa 09:00-17:00",
            "phone": "+90 212 249 9565",
            "branch": null,
            "amenity": "library",
            "mobile": null,
            "addr:street": null,
            "cuisine": null,
            "name": "İBB Evliya Çelebi Kütüphanesi",
            "name:en": null,
            "name:uk": null,
            "name:de": null,
            "name:tr": null,
            "name:ru": null,
            "name:ar": null
        }
    },
    {
        "lat": 41.0980481,
        "lon": 28.8765318,
        "tags": {
            "addr:city": "İstanbul",
            "addr:district": "Sultangazi",
            "description": "",
            "opening_hours": "Mo-Su 09:00-21:00",
            "phone": "+90 212 594 0613",
            "branch": null,
            "amenity": "library",
            "mobile": null,
            "addr:street": "2383. Sokak",
            "cuisine": null,
            "name": "İBB Hacı Bektaş Kütüphanesi",
            "name:en": null,
            "name:uk": null,
            "name:de": null,
            "name:tr": null,
            "name:ru": null,
            "name:ar": null
        }
    },
    {
        "lat": 40.905902,
        "lon": 29.1613794,
        "tags": {
            "addr:city": "İstanbul",
            "addr:district": "Kartal",
            "description": "",
            "opening_hours": "Mo-Sa 09:00-17:00",
            "phone": "+90 216 586 5744",
            "branch": null,
            "amenity": "library",
            "mobile": null,
            "addr:street": "Üsküdar Caddesi",
            "cuisine": null,
            "name": "İBB Halil İnalcık Kütüphanesi",
            "name:en": null,
            "name:uk": null,
            "name:de": null,
            "name:tr": null,
            "name:ru": null,
            "name:ar": null
        }
    },
    {
        "lat": 41.0146728,
        "lon": 28.9220713,
        "tags": {
            "addr:city": "İstanbul",
            "addr:district": "Fatih",
            "description": "",
            "opening_hours": "Mo-Su 09:00-21:00",
            "phone": "+90 212 249 9565",
            "branch": null,
            "amenity": "library",
            "mobile": null,
            "addr:street": "Mevlanakapı Caddesi",
            "cuisine": null,
            "name": "İBB Kara Surları Mevlanakapı Kütüphanesi",
            "name:en": null,
            "name:uk": null,
            "name:de": null,
            "name:tr": null,
            "name:ru": null,
            "name:ar": null
        }
    },
    {
        "lat": 40.886181,
        "lon": 29.1966004,
        "tags": {
            "addr:city": "İstanbul",
            "addr:district": "Kartal",
            "description": "",
            "opening_hours": "Mo-Su 09:00-21:00",
            "phone": "+90 212 249 9565",
            "branch": null,
            "amenity": "library",
            "mobile": null,
            "addr:street": "Ankara Caddesi",
            "cuisine": null,
            "name": "İBB Muallim Cevdet Kütüphanesi",
            "name:en": null,
            "name:uk": null,
            "name:de": null,
            "name:tr": null,
            "name:ru": null,
            "name:ar": null
        }
    },
    {
        "lat": 40.9789898,
        "lon": 29.0251042,
        "tags": {
            "addr:city": "İstanbul",
            "addr:district": null,
            "description": "",
            "opening_hours": "Mo-Su 09:00-22:00",
            "phone": "+90 212 249 9565",
            "branch": null,
            "amenity": "library",
            "mobile": null,
            "addr:street": null,
            "cuisine": null,
            "name": "İBB Moda İskelesi Kütüphanesi",
            "name:en": null,
            "name:uk": null,
            "name:de": null,
            "name:tr": null,
            "name:ru": null,
            "name:ar": null
        }
    },
    {
        "lat": 41.0168755,
        "lon": 29.1059363,
        "tags": {
            "addr:city": "İstanbul",
            "addr:district": "Ümraniye",
            "description": "",
            "opening_hours": "Mo-Sa 09:00-17:00",
            "phone": "+90 216 328 9033",
            "branch": null,
            "amenity": "library",
            "mobile": null,
            "addr:street": "Üstündağ Sokağı",
            "cuisine": null,
            "name": "İBB Nail Nimet Bayraktar Kütüphanesi",
            "name:en": null,
            "name:uk": null,
            "name:de": null,
            "name:tr": null,
            "name:ru": null,
            "name:ar": null
        }
    },
    {
        "lat": 41.0333622,
        "lon": 28.8698987,
        "tags": {
            "addr:city": "İstanbul",
            "addr:district": "Bağcılar",
            "description": "",
            "opening_hours": "Mo-Su 09:00-21:00",
            "phone": "+90 212 435 3614",
            "branch": null,
            "amenity": "library",
            "mobile": null,
            "addr:street": "Dr. Sadık Ahmet Caddesi",
            "cuisine": null,
            "name": "İBB Nasrettin Hoca Kütüphanesi",
            "name:en": null,
            "name:uk": null,
            "name:de": null,
            "name:tr": null,
            "name:ru": null,
            "name:ar": null
        }
    },
    {
        "lat": 41.0409795,
        "lon": 28.9603068,
        "tags": {
            "addr:city": "İstanbul",
            "addr:district": "Beyoğlu",
            "description": "",
            "opening_hours": "Mo-Fr 09:00-17:00",
            "phone": "+90 212 254 6654",
            "branch": null,
            "amenity": "library",
            "mobile": null,
            "addr:street": "Fatih Sultan Minberi Caddesi",
            "cuisine": null,
            "name": "İBB Okçular Tekkesi Kütüphanesi",
            "name:en": null,
            "name:uk": null,
            "name:de": null,
            "name:tr": null,
            "name:ru": null,
            "name:ar": null
        }
    },
    {
        "lat": 41.0665315,
        "lon": 28.995647,
        "tags": {
            "addr:city": "İstanbul",
            "addr:district": "Şişli",
            "description": "",
            "opening_hours": "Tu-Su 10:00-19:00",
            "phone": "+90 212 249 9565",
            "branch": null,
            "amenity": "library",
            "mobile": null,
            "addr:street": "Büyükdere Caddesi",
            "cuisine": null,
            "name": "İBB Mecidiyeköy Ödünç Kütüphane",
            "name:en": null,
            "name:uk": null,
            "name:de": null,
            "name:tr": null,
            "name:ru": null,
            "name:ar": null
        }
    },
    {
        "lat": 41.035921,
        "lon": 28.8724483,
        "tags": {
            "addr:city": "İstanbul",
            "addr:district": "Güngören",
            "description": "",
            "opening_hours": "Mo-Su 09:00-21:00",
            "phone": "+90 212 249 9565",
            "branch": null,
            "amenity": "library",
            "mobile": null,
            "addr:street": "Doğanay Sokağı",
            "cuisine": null,
            "name": "İBB Sezai Karakoç Kütüphanesi",
            "name:en": null,
            "name:uk": null,
            "name:de": null,
            "name:tr": null,
            "name:ru": null,
            "name:ar": null
        }
    },
    {
        "lat": 41.0285491,
        "lon": 28.8770823,
        "tags": {
            "addr:city": "İstanbul",
            "addr:district": "Güngören",
            "description": "",
            "opening_hours": "Mo-Sa 09:00-17:00",
            "phone": "+90 212 562 5087",
            "branch": null,
            "amenity": "library",
            "mobile": null,
            "addr:street": "Çinçindere Caddesi",
            "cuisine": null,
            "name": "İBB Osman Nuri Ergin Kütüphanesi",
            "name:en": null,
            "name:uk": null,
            "name:de": null,
            "name:tr": null,
            "name:ru": null,
            "name:ar": null
        }
    },
    {
        "lat": 41.0155414,
        "lon": 28.9627011,
        "tags": {
            "addr:city": "İstanbul",
            "addr:district": null,
            "description": "",
            "opening_hours": null,
            "phone": null,
            "branch": null,
            "amenity": "library",
            "mobile": null,
            "addr:street": null,
            "cuisine": null,
            "name": "Süleymaniye Kütüphanesi",
            "name:en": null,
            "name:uk": null,
            "name:de": null,
            "name:tr": null,
            "name:ru": null,
            "name:ar": null
        }
    },
    {
        "lat": 40.9688898,
        "lon": 29.065677,
        "tags": {
            "addr:city": "İstanbul",
            "addr:district": null,
            "description": "https://eksisozluk1923.com/caddebostan-muhtar-ozkaya-halk-kutuphanesi--2115233",
            "opening_hours": null,
            "phone": null,
            "branch": null,
            "amenity": "library",
            "mobile": null,
            "addr:street": null,
            "cuisine": null,
            "name": "Muhtar Özkaya Halk Kütüphanesi",
            "name:en": null,
            "name:uk": null,
            "name:de": null,
            "name:tr": null,
            "name:ru": null,
            "name:ar": null
        }
    },
    {
        "lat": 41.0296636,
        "lon": 29.0978657,
        "tags": {
            "addr:city": "Ümraniye/İstanbul",
            "addr:district": "Ümraniye",
            "description": "",
            "opening_hours": "06:00 - 00:00 All Week",
            "phone": null,
            "branch": null,
            "amenity": "library",
            "mobile": "0530 149 77 82",
            "addr:street": "Fatih Sultan Mehmet Caddesi",
            "cuisine": null,
            "name": "Fazlı Aydın Millet Kütüphanesi",
            "name:en": null,
            "name:uk": null,
            "name:de": null,
            "name:tr": null,
            "name:ru": null,
            "name:ar": null
        }
    },
    {
        "lat": 41.0165547,
        "lon": 29.1070599,
        "tags": {
            "addr:city": "İstanbul",
            "addr:district": null,
            "description": "",
            "opening_hours": null,
            "phone": "02164818085",
            "branch": null,
            "amenity": "library",
            "mobile": null,
            "addr:street": "Tonguç Sokağı",
            "cuisine": null,
            "name": "Nadirkitap",
            "name:en": null,
            "name:uk": null,
            "name:de": null,
            "name:tr": null,
            "name:ru": null,
            "name:ar": null
        }
    },
    {
        "lat": 41.0525518,
        "lon": 28.7962117,
        "tags": {
            "addr:city": "İstanbul",
            "addr:district": "Küçükçekmece",
            "description": "",
            "opening_hours": "09:00-22:00",
            "phone": "+90 212 249 9565",
            "branch": null,
            "amenity": "library",
            "mobile": null,
            "addr:street": "İkitelli Caddesi",
            "cuisine": null,
            "name": "İBB Metin Altıok Kütüphanesi",
            "name:en": null,
            "name:uk": null,
            "name:de": null,
            "name:tr": null,
            "name:ru": null,
            "name:ar": null
        }
    },
    {
        "lat": 41.041202,
        "lon": 29.0072169,
        "tags": {
            "addr:city": "İstanbul",
            "addr:district": "Beşiktaş",
            "description": "",
            "opening_hours": "09:00-22:00",
            "phone": "+90 212 312 6772",
            "branch": null,
            "amenity": "library",
            "mobile": null,
            "addr:street": "İskele Caddesi",
            "cuisine": null,
            "name": "İBB Beşiktaş İskele Kütüphanesi",
            "name:en": null,
            "name:uk": null,
            "name:de": null,
            "name:tr": null,
            "name:ru": null,
            "name:ar": null
        }
    },
    {
        "lat": 41.0648709,
        "lon": 28.9872847,
        "tags": {
            "addr:city": "İstanbul",
            "addr:district": "Şişli",
            "description": "",
            "opening_hours": "10:00-22:00",
            "phone": "+90 212 312 6771",
            "branch": null,
            "amenity": "library",
            "mobile": null,
            "addr:street": "Abide-i Hürriyet Caddesi",
            "cuisine": null,
            "name": "İBB Habitat Kütüphane",
            "name:en": null,
            "name:uk": null,
            "name:de": null,
            "name:tr": null,
            "name:ru": null,
            "name:ar": null
        }
    },
    {
        "lat": 41.0142395,
        "lon": 28.9525212,
        "tags": {
            "addr:city": "İstanbul",
            "addr:district": "Fatih",
            "description": "",
            "opening_hours": null,
            "phone": "+90 212 249 9565",
            "branch": null,
            "amenity": "library",
            "mobile": null,
            "addr:street": "Kavalalı Sokağı",
            "cuisine": null,
            "name": "İBB Kazı Evi Kitaplığı",
            "name:en": null,
            "name:uk": null,
            "name:de": null,
            "name:tr": null,
            "name:ru": null,
            "name:ar": null
        }
    },
    {
        "lat": 41.0438314,
        "lon": 28.9373954,
        "tags": {
            "addr:city": "İstanbul",
            "addr:district": "Eyüpsultan",
            "description": "",
            "opening_hours": "Tu-Su 10:00-19:30",
            "phone": null,
            "branch": null,
            "amenity": "library",
            "mobile": null,
            "addr:street": "Feshane Caddesi",
            "cuisine": null,
            "name": "İBB Naile Akıncı Kütüphanesi",
            "name:en": null,
            "name:uk": null,
            "name:de": null,
            "name:tr": null,
            "name:ru": null,
            "name:ar": null
        }
    },
    {
        "lat": 41.0728385,
        "lon": 28.88711,
        "tags": {
            "addr:city": "İstanbul",
            "addr:district": "Bayrampaşa",
            "description": "",
            "opening_hours": "09:00-21:00",
            "phone": "+90 212 312 6769",
            "branch": null,
            "amenity": "library",
            "mobile": null,
            "addr:street": "Eski Edirne Asfaltı",
            "cuisine": null,
            "name": "İBB Sâmiha Ayverdi Kütüphanesi",
            "name:en": null,
            "name:uk": null,
            "name:de": null,
            "name:tr": null,
            "name:ru": null,
            "name:ar": null
        }
    },
    {
        "lat": 41.0457831,
        "lon": 28.902505,
        "tags": {
            "addr:city": "İstanbul",
            "addr:district": "Bayrampaşa",
            "description": "",
            "opening_hours": "09:00-21:00",
            "phone": "+90 212 312 6770",
            "branch": null,
            "amenity": "library",
            "mobile": null,
            "addr:street": "Tuna Caddesi",
            "cuisine": null,
            "name": "İBB Suat Derviş Kütüphanesi",
            "name:en": null,
            "name:uk": null,
            "name:de": null,
            "name:tr": null,
            "name:ru": null,
            "name:ar": null
        }
    },
    {
        "lat": 41.0291621,
        "lon": 29.0799949,
        "tags": {
            "addr:city": "İstanbul",
            "addr:district": "Üsküdar",
            "description": "",
            "opening_hours": "09:00-21:00",
            "phone": "+90 212 333 5288",
            "branch": null,
            "amenity": "library",
            "mobile": null,
            "addr:street": "Bosna Bulvarı",
            "cuisine": null,
            "name": "İBB Salah Birsel Kütüphanesi",
            "name:en": null,
            "name:uk": null,
            "name:de": null,
            "name:tr": null,
            "name:ru": null,
            "name:ar": null
        }
    },
    {
        "lat": 41.0492877,
        "lon": 28.9156329,
        "tags": {
            "addr:city": "İstanbul",
            "addr:district": null,
            "description": "",
            "opening_hours": null,
            "phone": null,
            "branch": null,
            "amenity": "library",
            "mobile": null,
            "addr:street": null,
            "cuisine": null,
            "name": "Beyazıt Kütüphanesi Derleme Koleksiyonu",
            "name:en": null,
            "name:uk": null,
            "name:de": null,
            "name:tr": null,
            "name:ru": null,
            "name:ar": null
        }
    },
    {
        "lat": 40.8735499,
        "lon": 29.1278968,
        "tags": {
            "addr:city": "İstanbul",
            "addr:district": "Adalar",
            "description": "",
            "opening_hours": null,
            "phone": null,
            "branch": null,
            "amenity": "library",
            "mobile": null,
            "addr:street": "Yirmiüç Nisan Caddesi",
            "cuisine": null,
            "name": null,
            "name:en": null,
            "name:uk": null,
            "name:de": null,
            "name:tr": null,
            "name:ru": null,
            "name:ar": null
        }
    },
    {
        "lat": 41.0390178,
        "lon": 28.8808949,
        "tags": {
            "addr:city": "İstanbul",
            "addr:district": "Esenler",
            "description": "",
            "opening_hours": null,
            "phone": null,
            "branch": null,
            "amenity": "library",
            "mobile": null,
            "addr:street": "Ömer Seyfettin Caddesi",
            "cuisine": null,
            "name": "Dr. Adnan Büyükdeniz Dijital Kütüphanesi",
            "name:en": null,
            "name:uk": null,
            "name:de": null,
            "name:tr": null,
            "name:ru": null,
            "name:ar": null
        }
    },
    {
        "lat": 41.0743113,
        "lon": 28.9474746,
        "tags": {
            "addr:city": "İstanbul",
            "addr:district": null,
            "description": "",
            "opening_hours": "Mo-Su 09:00-20:00",
            "phone": null,
            "branch": null,
            "amenity": "library",
            "mobile": null,
            "addr:street": null,
            "cuisine": null,
            "name": "Erdoğan Demirören Kütüphanesi",
            "name:en": null,
            "name:uk": null,
            "name:de": null,
            "name:tr": null,
            "name:ru": null,
            "name:ar": null
        }
    },
    {
        "lat": 41.157104,
        "lon": 28.9143918,
        "tags": {
            "addr:city": "İstanbul",
            "addr:district": null,
            "description": "",
            "opening_hours": null,
            "phone": null,
            "branch": null,
            "amenity": "library",
            "mobile": null,
            "addr:street": null,
            "cuisine": null,
            "name": "Kemerburgaz Bilgi Evi",
            "name:en": null,
            "name:uk": null,
            "name:de": null,
            "name:tr": null,
            "name:ru": null,
            "name:ar": null
        }
    },
    {
        "lat": 41.0140208,
        "lon": 29.0772942,
        "tags": {
            "addr:city": "İstanbul",
            "addr:district": null,
            "description": "",
            "opening_hours": null,
            "phone": null,
            "branch": null,
            "amenity": "library",
            "mobile": null,
            "addr:street": null,
            "cuisine": null,
            "name": "İsmet Uçma Kütüphanesi",
            "name:en": null,
            "name:uk": null,
            "name:de": null,
            "name:tr": null,
            "name:ru": null,
            "name:ar": null
        }
    },
    {
        "lat": 40.999348,
        "lon": 28.9205976,
        "tags": {
            "addr:city": "İstanbul",
            "addr:district": "Fatih",
            "description": "",
            "opening_hours": null,
            "phone": null,
            "branch": null,
            "amenity": "library",
            "mobile": null,
            "addr:street": null,
            "cuisine": null,
            "name": "İBB Kara Surları Belgradkapı Kitaplığı",
            "name:en": null,
            "name:uk": null,
            "name:de": null,
            "name:tr": null,
            "name:ru": null,
            "name:ar": null
        }
    },
    {
        "lat": 40.9809416,
        "lon": 28.8743693,
        "tags": {
            "addr:city": "İstanbul",
            "addr:district": "Bakırköy",
            "description": "",
            "opening_hours": "Mo-Sa 10:00-18:00",
            "phone": null,
            "branch": null,
            "amenity": "library",
            "mobile": null,
            "addr:street": null,
            "cuisine": null,
            "name": "İBB Bakırköy Ödünç Kütüphane",
            "name:en": null,
            "name:uk": null,
            "name:de": null,
            "name:tr": null,
            "name:ru": null,
            "name:ar": null
        }
    },
    {
        "lat": 41.1082453,
        "lon": 29.0835867,
        "tags": {
            "addr:city": "İstanbul",
            "addr:district": "Beykoz",
            "description": "",
            "opening_hours": "Mo-Su 10:00-22:00",
            "phone": null,
            "branch": null,
            "amenity": "library",
            "mobile": null,
            "addr:street": null,
            "cuisine": null,
            "name": "İBB Çubuklu Silolar Kütüphanesi",
            "name:en": null,
            "name:uk": null,
            "name:de": null,
            "name:tr": null,
            "name:ru": null,
            "name:ar": null
        }
    },
    {
        "lat": 41.0069951,
        "lon": 28.9440457,
        "tags": {
            "addr:city": "İstanbul",
            "addr:district": "Fatih",
            "description": "",
            "opening_hours": null,
            "phone": null,
            "branch": null,
            "amenity": "library",
            "mobile": null,
            "addr:street": null,
            "cuisine": null,
            "name": "İBB Bulgur Palas Kütüphanesi",
            "name:en": null,
            "name:uk": null,
            "name:de": null,
            "name:tr": null,
            "name:ru": null,
            "name:ar": null
        }
    },
    {
        "lat": 41.0132922,
        "lon": 28.9545934,
        "tags": {
            "addr:city": "İstanbul",
            "addr:district": "Fatih",
            "description": "",
            "opening_hours": null,
            "phone": null,
            "branch": null,
            "amenity": "library",
            "mobile": null,
            "addr:street": null,
            "cuisine": null,
            "name": "İBB Saraçhane Kütüphane",
            "name:en": null,
            "name:uk": null,
            "name:de": null,
            "name:tr": null,
            "name:ru": null,
            "name:ar": null
        }
    },
    {
        "lat": 41.0611141,
        "lon": 28.9091344,
        "tags": {
            "addr:city": "İstanbul",
            "addr:district": null,
            "description": "",
            "opening_hours": "Mo-Su 09:00-19:00",
            "phone": null,
            "branch": null,
            "amenity": "library",
            "mobile": null,
            "addr:street": null,
            "cuisine": null,
            "name": "İBB Gaziosmanpaşa Meydan Kitaplığı",
            "name:en": null,
            "name:uk": null,
            "name:de": null,
            "name:tr": null,
            "name:ru": null,
            "name:ar": null
        }
    },
    {
        "lat": 41.0503522,
        "lon": 29.0090512,
        "tags": {
            "addr:city": "İstanbul",
            "addr:district": null,
            "description": "",
            "opening_hours": null,
            "phone": null,
            "branch": null,
            "amenity": "library",
            "mobile": null,
            "addr:street": null,
            "cuisine": null,
            "name": "Şevket Sabancı Kütüphanesi",
            "name:en": null,
            "name:uk": null,
            "name:de": null,
            "name:tr": null,
            "name:ru": null,
            "name:ar": null
        }
    },
    {
        "lat": 41.031207,
        "lon": 29.2591511,
        "tags": {
            "addr:city": "İstanbul",
            "addr:district": null,
            "description": "",
            "opening_hours": null,
            "phone": null,
            "branch": null,
            "amenity": "library",
            "mobile": null,
            "addr:street": null,
            "cuisine": null,
            "name": null,
            "name:en": null,
            "name:uk": null,
            "name:de": null,
            "name:tr": null,
            "name:ru": null,
            "name:ar": null
        }
    }
]