[
    {
        "lat": 41.0351309,
        "lon": 28.9772861,
        "tags": {
            "addr:city": "İstanbul",
            "addr:district": null,
            "description": "",
            "opening_hours": null,
            "phone": null,
            "branch": null,
            "amenity": "nightclub",
            "mobile": null,
            "addr:street": null,
            "cuisine": null,
            "name": "Peyote",
            "name:en": null,
            "name:uk": null,
            "name:de": null,
            "name:tr": null,
            "name:ru": null,
            "name:ar": "بِيوتي"
        }
    },
    {
        "lat": 41.0354287,
        "lon": 28.9802016,
        "tags": {
            "addr:city": "Beyoğlu/İstanbul",
            "addr:district": null,
            "description": "",
            "opening_hours": "03:00-12:00",
            "phone": null,
            "branch": null,
            "amenity": "nightclub",
            "mobile": null,
            "addr:street": "Atıf Yılmaz Caddesi",
            "cuisine": null,
            "name": "Depo Taksim",
            "name:en": null,
            "name:uk": null,
            "name:de": null,
            "name:tr": null,
            "name:ru": null,
            "name:ar": null
        }
    },
    {
        "lat": 41.0501286,
        "lon": 29.0310538,
        "tags": {
            "addr:city": "İstanbul",
            "addr:district": "Beşiktaş",
            "description": "Sigara içilebilir alanlar mevcuttur. Fasıl ve canlı müzik yoktur hergün DJ ile müzik yapılmaktadır. Tekne ile ulaşım ve happy hour yoktur. Rezervasyon gereklidir.",
            "opening_hours": "Tu-Su 23:00-05:00",
            "phone": null,
            "branch": null,
            "amenity": "nightclub",
            "mobile": null,
            "addr:street": "Muallim Naci Caddesi",
            "cuisine": null,
            "name": "Supperclub",
            "name:en": null,
            "name:uk": null,
            "name:de": null,
            "name:tr": null,
            "name:ru": null,
            "name:ar": null
        }
    },
    {
        "lat": 41.0069809,
        "lon": 28.6612027,
        "tags": {
            "addr:city": "İstanbul",
            "addr:district": null,
            "description": "",
            "opening_hours": null,
            "phone": null,
            "branch": null,
            "amenity": "nightclub",
            "mobile": null,
            "addr:street": null,
            "cuisine": null,
            "name": "Sky Club",
            "name:en": null,
            "name:uk": null,
            "name:de": null,
            "name:tr": null,
            "name:ru": null,
            "name:ar": null
        }
    },
    {
        "lat": 40.9536149,
        "lon": 29.0943172,
        "tags": {
            "addr:city": "İstanbul",
            "addr:district": null,
            "description": "",
            "opening_hours": null,
            "phone": null,
            "branch": null,
            "amenity": "nightclub",
            "mobile": null,
            "addr:street": null,
            "cuisine": null,
            "name": "Angels Club",
            "name:en": null,
            "name:uk": null,
            "name:de": null,
            "name:tr": null,
            "name:ru": null,
            "name:ar": null
        }
    },
    {
        "lat": 40.9528849,
        "lon": 29.0961842,
        "tags": {
            "addr:city": "İstanbul",
            "addr:district": null,
            "description": "",
            "opening_hours": null,
            "phone": null,
            "branch": null,
            "amenity": "nightclub",
            "mobile": null,
            "addr:street": null,
            "cuisine": null,
            "name": "Dedikodulu",
            "name:en": null,
            "name:uk": null,
            "name:de": null,
            "name:tr": null,
            "name:ru": null,
            "name:ar": null
        }
    },
    {
        "lat": 41.0326057,
        "lon": 28.9769834,
        "tags": {
            "addr:city": "İstanbul",
            "addr:district": null,
            "description": "",
            "opening_hours": null,
            "phone": null,
            "branch": null,
            "amenity": "nightclub",
            "mobile": null,
            "addr:street": null,
            "cuisine": null,
            "name": "Tektekçi",
            "name:en": null,
            "name:uk": null,
            "name:de": null,
            "name:tr": null,
            "name:ru": null,
            "name:ar": null
        }
    },
    {
        "lat": 41.0351885,
        "lon": 28.9781246,
        "tags": {
            "addr:city": "İstanbul",
            "addr:district": null,
            "description": "",
            "opening_hours": "We, Fr, Sa 22:00-05:00",
            "phone": "0212 249 25 31",
            "branch": null,
            "amenity": "nightclub",
            "mobile": null,
            "addr:street": "Balo Sokak",
            "cuisine": null,
            "name": "Machine",
            "name:en": null,
            "name:uk": null,
            "name:de": null,
            "name:tr": null,
            "name:ru": null,
            "name:ar": null
        }
    },
    {
        "lat": 41.035891,
        "lon": 28.982625,
        "tags": {
            "addr:city": "İstanbul",
            "addr:district": null,
            "description": "",
            "opening_hours": "Mo-Sa 22:00-05:00",
            "phone": "0212 293 76 39",
            "branch": null,
            "amenity": "nightclub",
            "mobile": null,
            "addr:street": "Zambak Sokak",
            "cuisine": null,
            "name": "Wake Up Call",
            "name:en": null,
            "name:uk": null,
            "name:de": null,
            "name:tr": null,
            "name:ru": null,
            "name:ar": null
        }
    },
    {
        "lat": 41.0361431,
        "lon": 28.9806079,
        "tags": {
            "addr:city": "İstanbul",
            "addr:district": null,
            "description": "",
            "opening_hours": null,
            "phone": null,
            "branch": null,
            "amenity": "nightclub",
            "mobile": null,
            "addr:street": null,
            "cuisine": null,
            "name": "Bigudi",
            "name:en": null,
            "name:uk": null,
            "name:de": null,
            "name:tr": null,
            "name:ru": null,
            "name:ar": null
        }
    },
    {
        "lat": 41.0762319,
        "lon": 29.0201155,
        "tags": {
            "addr:city": "İstanbul",
            "addr:district": null,
            "description": "",
            "opening_hours": null,
            "phone": null,
            "branch": null,
            "amenity": "nightclub",
            "mobile": null,
            "addr:street": null,
            "cuisine": null,
            "name": "Club İmza",
            "name:en": null,
            "name:uk": null,
            "name:de": null,
            "name:tr": null,
            "name:ru": null,
            "name:ar": null
        }
    },
    {
        "lat": 41.035303,
        "lon": 28.9793984,
        "tags": {
            "addr:city": "İstanbul",
            "addr:district": null,
            "description": "",
            "opening_hours": null,
            "phone": null,
            "branch": null,
            "amenity": "nightclub",
            "mobile": null,
            "addr:street": null,
            "cuisine": null,
            "name": "BEAT",
            "name:en": null,
            "name:uk": null,
            "name:de": null,
            "name:tr": "BEAT",
            "name:ru": null,
            "name:ar": null
        }
    },
    {
        "lat": 40.98956,
        "lon": 29.0225269,
        "tags": {
            "addr:city": "İstanbul",
            "addr:district": null,
            "description": "",
            "opening_hours": null,
            "phone": null,
            "branch": null,
            "amenity": "nightclub",
            "mobile": null,
            "addr:street": null,
            "cuisine": null,
            "name": "Dorock XL",
            "name:en": null,
            "name:uk": null,
            "name:de": null,
            "name:tr": null,
            "name:ru": null,
            "name:ar": null
        }
    },
    {
        "lat": 41.0443827,
        "lon": 29.0066032,
        "tags": {
            "addr:city": "İstanbul",
            "addr:district": "Beşiktaş",
            "description": "",
            "opening_hours": null,
            "phone": null,
            "branch": null,
            "amenity": "nightclub",
            "mobile": null,
            "addr:street": "Akmazçeşme Sokağı",
            "cuisine": null,
            "name": "If Performance Hall",
            "name:en": null,
            "name:uk": null,
            "name:de": null,
            "name:tr": "If Performance",
            "name:ru": null,
            "name:ar": null
        }
    },
    {
        "lat": 41.0348151,
        "lon": 28.977076,
        "tags": {
            "addr:city": "İstanbul",
            "addr:district": null,
            "description": "",
            "opening_hours": null,
            "phone": null,
            "branch": null,
            "amenity": "nightclub",
            "mobile": null,
            "addr:street": null,
            "cuisine": null,
            "name": "Ritim",
            "name:en": "Ritim",
            "name:uk": null,
            "name:de": null,
            "name:tr": "Ritim",
            "name:ru": null,
            "name:ar": null
        }
    },
    {
        "lat": 41.0582648,
        "lon": 28.9800506,
        "tags": {
            "addr:city": "İstanbul",
            "addr:district": null,
            "description": "",
            "opening_hours": null,
            "phone": null,
            "branch": null,
            "amenity": "nightclub",
            "mobile": null,
            "addr:street": null,
            "cuisine": null,
            "name": "Babylon Bomonti",
            "name:en": "Babylon Bomonti",
            "name:uk": null,
            "name:de": null,
            "name:tr": "Babylon Bomonti",
            "name:ru": null,
            "name:ar": null
        }
    },
    {
        "lat": 41.0087229,
        "lon": 28.9540904,
        "tags": {
            "addr:city": "İstanbul",
            "addr:district": null,
            "description": "",
            "opening_hours": null,
            "phone": null,
            "branch": null,
            "amenity": "nightclub",
            "mobile": null,
            "addr:street": null,
            "cuisine": null,
            "name": "Martini meyhanesi",
            "name:en": "Martini club & bar",
            "name:uk": null,
            "name:de": null,
            "name:tr": "Martini meyhanesi",
            "name:ru": null,
            "name:ar": null
        }
    },
    {
        "lat": 41.0355228,
        "lon": 28.9793656,
        "tags": {
            "addr:city": "İstanbul",
            "addr:district": null,
            "description": "",
            "opening_hours": null,
            "phone": null,
            "branch": null,
            "amenity": "nightclub",
            "mobile": null,
            "addr:street": null,
            "cuisine": null,
            "name": null,
            "name:en": "Glow",
            "name:uk": null,
            "name:de": null,
            "name:tr": null,
            "name:ru": null,
            "name:ar": null
        }
    },
    {
        "lat": 41.0329351,
        "lon": 28.9775207,
        "tags": {
            "addr:city": "İstanbul",
            "addr:district": null,
            "description": "",
            "opening_hours": null,
            "phone": null,
            "branch": null,
            "amenity": "nightclub",
            "mobile": null,
            "addr:street": null,
            "cuisine": null,
            "name": null,
            "name:en": "Pixie",
            "name:uk": null,
            "name:de": null,
            "name:tr": null,
            "name:ru": null,
            "name:ar": null
        }
    },
    {
        "lat": 41.0324329,
        "lon": 28.984629,
        "tags": {
            "addr:city": "İstanbul",
            "addr:district": null,
            "description": "",
            "opening_hours": null,
            "phone": null,
            "branch": null,
            "amenity": "nightclub",
            "mobile": null,
            "addr:street": null,
            "cuisine": null,
            "name": null,
            "name:en": "Minimuzikhol",
            "name:uk": null,
            "name:de": null,
            "name:tr": null,
            "name:ru": null,
            "name:ar": null
        }
    },
    {
        "lat": 41.0302416,
        "lon": 29.1819902,
        "tags": {
            "addr:city": "İstanbul",
            "addr:district": null,
            "description": "",
            "opening_hours": null,
            "phone": null,
            "branch": null,
            "amenity": "nightclub",
            "mobile": null,
            "addr:street": null,
            "cuisine": null,
            "name": "berk’s",
            "name:en": null,
            "name:uk": null,
            "name:de": null,
            "name:tr": null,
            "name:ru": null,
            "name:ar": null
        }
    },
    {
        "lat": 41.0309043,
        "lon": 28.9737224,
        "tags": {
            "addr:city": "İstanbul",
            "addr:district": null,
            "description": "",
            "opening_hours": null,
            "phone": null,
            "branch": null,
            "amenity": "nightclub",
            "mobile": null,
            "addr:street": null,
            "cuisine": null,
            "name": "Pablo",
            "name:en": null,
            "name:uk": null,
            "name:de": null,
            "name:tr": null,
            "name:ru": null,
            "name:ar": null
        }
    },
    {
        "lat": 41.2448208,
        "lon": 29.0256253,
        "tags": {
            "addr:city": "Istanbul",
            "addr:district": "Sarıyer",
            "description": "",
            "opening_hours": null,
            "phone": null,
            "branch": null,
            "amenity": "nightclub",
            "mobile": null,
            "addr:street": "Tatlısu Caddesi",
            "cuisine": null,
            "name": "Kafes",
            "name:en": null,
            "name:uk": null,
            "name:de": null,
            "name:tr": null,
            "name:ru": null,
            "name:ar": null
        }
    },
    {
        "lat": 41.0324648,
        "lon": 28.9846458,
        "tags": {
            "addr:city": "İstanbul",
            "addr:district": null,
            "description": "",
            "opening_hours": null,
            "phone": null,
            "branch": null,
            "amenity": "nightclub",
            "mobile": null,
            "addr:street": "Sogancı Sk.",
            "cuisine": null,
            "name": "Minimüzikhol",
            "name:en": null,
            "name:uk": null,
            "name:de": null,
            "name:tr": "Minimüzikhol",
            "name:ru": null,
            "name:ar": null
        }
    },
    {
        "lat": 41.0345453,
        "lon": 29.0403854,
        "tags": {
            "addr:city": "İstanbul",
            "addr:district": null,
            "description": "",
            "opening_hours": null,
            "phone": null,
            "branch": null,
            "amenity": "nightclub",
            "mobile": null,
            "addr:street": null,
            "cuisine": null,
            "name": "Gece Nakkaştepe",
            "name:en": null,
            "name:uk": null,
            "name:de": null,
            "name:tr": null,
            "name:ru": null,
            "name:ar": null
        }
    },
    {
        "lat": 40.9923274,
        "lon": 29.1117165,
        "tags": {
            "addr:city": "İstanbul",
            "addr:district": null,
            "description": "",
            "opening_hours": null,
            "phone": null,
            "branch": null,
            "amenity": "nightclub",
            "mobile": null,
            "addr:street": null,
            "cuisine": null,
            "name": "Süslü Konak;Ataşehir Tenis Spor Kulübü",
            "name:en": null,
            "name:uk": null,
            "name:de": null,
            "name:tr": null,
            "name:ru": null,
            "name:ar": null
        }
    },
    {
        "lat": 41.0513256,
        "lon": 29.0328523,
        "tags": {
            "addr:city": "İstanbul",
            "addr:district": "Beşiktaş",
            "description": "Bu mekanda canlı müzik yapılmaktadır.",
            "opening_hours": "Mo-Su 22:00-05:00",
            "phone": "0212 236 72 55",
            "branch": null,
            "amenity": "nightclub",
            "mobile": null,
            "addr:street": "Muallim Naci Caddesi",
            "cuisine": null,
            "name": "Albüm Club",
            "name:en": null,
            "name:uk": null,
            "name:de": null,
            "name:tr": null,
            "name:ru": null,
            "name:ar": null
        }
    },
    {
        "lat": 40.992405,
        "lon": 28.8443012,
        "tags": {
            "addr:city": "İstanbul",
            "addr:district": null,
            "description": "",
            "opening_hours": null,
            "phone": null,
            "branch": null,
            "amenity": "nightclub",
            "mobile": null,
            "addr:street": null,
            "cuisine": null,
            "name": "Dedikodu Club",
            "name:en": null,
            "name:uk": null,
            "name:de": null,
            "name:tr": null,
            "name:ru": null,
            "name:ar": null
        }
    },
    {
        "lat": 40.9636705,
        "lon": 29.0684251,
        "tags": {
            "addr:city": "İstanbul",
            "addr:district": "Kadıköy",
            "description": "",
            "opening_hours": null,
            "phone": null,
            "branch": null,
            "amenity": "nightclub",
            "mobile": null,
            "addr:street": "Erenköy Camii Sokağı",
            "cuisine": null,
            "name": "Nispet",
            "name:en": null,
            "name:uk": null,
            "name:de": null,
            "name:tr": null,
            "name:ru": null,
            "name:ar": null
        }
    },
    {
        "lat": 40.9903284,
        "lon": 29.0276034,
        "tags": {
            "addr:city": "İstanbul",
            "addr:district": null,
            "description": "",
            "opening_hours": null,
            "phone": null,
            "branch": null,
            "amenity": "nightclub",
            "mobile": null,
            "addr:street": "Kırtasiyeci Sokak",
            "cuisine": null,
            "name": "Bade76",
            "name:en": null,
            "name:uk": null,
            "name:de": null,
            "name:tr": null,
            "name:ru": null,
            "name:ar": null
        }
    },
    {
        "lat": 41.0349462,
        "lon": 28.9847491,
        "tags": {
            "addr:city": "İstanbul",
            "addr:district": null,
            "description": "",
            "opening_hours": null,
            "phone": null,
            "branch": null,
            "amenity": "nightclub",
            "mobile": null,
            "addr:street": "Sıraselviler Caddesi",
            "cuisine": null,
            "name": "Stay  Club Istanbul",
            "name:en": null,
            "name:uk": null,
            "name:de": null,
            "name:tr": null,
            "name:ru": null,
            "name:ar": null
        }
    },
    {
        "lat": 41.0405655,
        "lon": 28.9843973,
        "tags": {
            "addr:city": "İstanbul",
            "addr:district": null,
            "description": "",
            "opening_hours": null,
            "phone": null,
            "branch": null,
            "amenity": "nightclub",
            "mobile": null,
            "addr:street": null,
            "cuisine": null,
            "name": "Taksim Park Club",
            "name:en": null,
            "name:uk": null,
            "name:de": null,
            "name:tr": null,
            "name:ru": null,
            "name:ar": null
        }
    },
    {
        "lat": 41.0375046,
        "lon": 28.9833779,
        "tags": {
            "addr:city": "İstanbul",
            "addr:district": null,
            "description": "",
            "opening_hours": null,
            "phone": null,
            "branch": null,
            "amenity": "nightclub",
            "mobile": null,
            "addr:street": null,
            "cuisine": null,
            "name": "Cheeky Club",
            "name:en": null,
            "name:uk": null,
            "name:de": null,
            "name:tr": null,
            "name:ru": null,
            "name:ar": null
        }
    },
    {
        "lat": 41.0346691,
        "lon": 28.976813,
        "tags": {
            "addr:city": "İstanbul",
            "addr:district": null,
            "description": "",
            "opening_hours": "Tu-Su 21:00-04:00",
            "phone": "+905332153096",
            "branch": null,
            "amenity": "nightclub",
            "mobile": null,
            "addr:street": "Kamer Hatun Caddesi",
            "cuisine": null,
            "name": "Kastel",
            "name:en": null,
            "name:uk": null,
            "name:de": null,
            "name:tr": null,
            "name:ru": null,
            "name:ar": null
        }
    },
    {
        "lat": 41.0658987,
        "lon": 28.6953571,
        "tags": {
            "addr:city": "istanbul",
            "addr:district": "bahçeşehir",
            "description": "",
            "opening_hours": null,
            "phone": null,
            "branch": null,
            "amenity": "nightclub",
            "mobile": null,
            "addr:street": "Doğa Parkı Caddesi",
            "cuisine": null,
            "name": "Pond Bahçeşehir",
            "name:en": null,
            "name:uk": null,
            "name:de": null,
            "name:tr": null,
            "name:ru": null,
            "name:ar": null
        }
    }
]