[
    {
        "lat": 41.0085416,
        "lon": 28.9716244,
        "tags": {
            "addr:city": "İstanbul",
            "addr:district": null,
            "description": "",
            "opening_hours": "Mo-Su 06:00-23:30",
            "phone": null,
            "branch": null,
            "amenity": "public_bath",
            "mobile": null,
            "addr:street": "Vezirhanı Caddesi",
            "cuisine": null,
            "name": "Çemberlitaş Hamamı",
            "name:en": "Çemberlitaş Hammam",
            "name:uk": "Хамам Чемберлиташ",
            "name:de": null,
            "name:tr": null,
            "name:ru": "Хамам Чемберлиташ",
            "name:ar": null
        }
    },
    {
        "lat": 41.032803,
        "lon": 28.9799592,
        "tags": {
            "addr:city": "İstanbul",
            "addr:district": null,
            "description": "Turkish Bath",
            "opening_hours": "Mo-Su 07:00-22:00",
            "phone": null,
            "branch": null,
            "amenity": "public_bath",
            "mobile": null,
            "addr:street": "Turnacıbaşı Sokak",
            "cuisine": null,
            "name": "Tarihi Galatasaray Hamamı",
            "name:en": null,
            "name:uk": null,
            "name:de": null,
            "name:tr": null,
            "name:ru": null,
            "name:ar": "حمام غالاتا سراي التاريخي"
        }
    },
    {
        "lat": 41.034806,
        "lon": 28.97629,
        "tags": {
            "addr:city": "İstanbul",
            "addr:district": null,
            "description": "Suana type is hamam (removed tag type=hamam)",
            "opening_hours": null,
            "phone": null,
            "branch": null,
            "amenity": "public_bath",
            "mobile": null,
            "addr:street": null,
            "cuisine": null,
            "name": "Nur Hamamı",
            "name:en": null,
            "name:uk": null,
            "name:de": null,
            "name:tr": null,
            "name:ru": null,
            "name:ar": "حمام نور"
        }
    },
    {
        "lat": 41.0183278,
        "lon": 28.8701057,
        "tags": {
            "addr:city": "İstanbul",
            "addr:district": null,
            "description": "",
            "opening_hours": null,
            "phone": null,
            "branch": null,
            "amenity": "public_bath",
            "mobile": null,
            "addr:street": null,
            "cuisine": null,
            "name": "Fin Hamamı",
            "name:en": null,
            "name:uk": null,
            "name:de": null,
            "name:tr": null,
            "name:ru": null,
            "name:ar": null
        }
    },
    {
        "lat": 41.0281076,
        "lon": 28.9555035,
        "tags": {
            "addr:city": "Istanbul",
            "addr:district": "Fatih",
            "description": "",
            "opening_hours": null,
            "phone": null,
            "branch": null,
            "amenity": "public_bath",
            "mobile": null,
            "addr:street": "Abdülezelpaşa Caddesi",
            "cuisine": null,
            "name": "Cibali Ayakapı Hamamı",
            "name:en": null,
            "name:uk": null,
            "name:de": null,
            "name:tr": null,
            "name:ru": null,
            "name:ar": "جيبالي اياكابو حمام"
        }
    },
    {
        "lat": 41.0084062,
        "lon": 28.9755675,
        "tags": {
            "addr:city": "Istanbul",
            "addr:district": "Fatih",
            "description": "",
            "opening_hours": null,
            "phone": null,
            "branch": null,
            "amenity": "public_bath",
            "mobile": null,
            "addr:street": "Dr. Eminpaşa Sokak",
            "cuisine": null,
            "name": "Sultan Ahmet Hamami",
            "name:en": null,
            "name:uk": null,
            "name:de": null,
            "name:tr": null,
            "name:ru": null,
            "name:ar": null
        }
    },
    {
        "lat": 41.0083615,
        "lon": 28.9755675,
        "tags": {
            "addr:city": "Istanbul",
            "addr:district": "Fatih",
            "description": "",
            "opening_hours": null,
            "phone": null,
            "branch": null,
            "amenity": "public_bath",
            "mobile": null,
            "addr:street": "Dr. Eminpaşa Sokak",
            "cuisine": null,
            "name": "Blue Bath",
            "name:en": null,
            "name:uk": null,
            "name:de": null,
            "name:tr": null,
            "name:ru": null,
            "name:ar": null
        }
    },
    {
        "lat": 41.0113578,
        "lon": 28.9612659,
        "tags": {
            "addr:city": "Istanbul",
            "addr:district": "Fatih",
            "description": "",
            "opening_hours": null,
            "phone": null,
            "branch": null,
            "amenity": "public_bath",
            "mobile": null,
            "addr:street": "Bozdoğan kemeri caddesi",
            "cuisine": null,
            "name": "Tarihi vezneciler hamamı",
            "name:en": null,
            "name:uk": null,
            "name:de": null,
            "name:tr": null,
            "name:ru": null,
            "name:ar": "حمام فيزنىجيلر التاريخي"
        }
    },
    {
        "lat": 41.0071946,
        "lon": 28.9791452,
        "tags": {
            "addr:city": "Istanbul",
            "addr:district": "Turkey",
            "description": "",
            "opening_hours": null,
            "phone": null,
            "branch": null,
            "amenity": "public_bath",
            "mobile": null,
            "addr:street": "Ayasofya meydanı",
            "cuisine": null,
            "name": "Ayasofya Hürrem Sultan Hamamı",
            "name:en": null,
            "name:uk": null,
            "name:de": null,
            "name:tr": null,
            "name:ru": null,
            "name:ar": null
        }
    },
    {
        "lat": 41.0094227,
        "lon": 28.9315068,
        "tags": {
            "addr:city": "Istanbul",
            "addr:district": "Fatih",
            "description": "",
            "opening_hours": null,
            "phone": "02125853596",
            "branch": null,
            "amenity": "public_bath",
            "mobile": null,
            "addr:street": "Altımermer Caddesi",
            "cuisine": null,
            "name": "Tarihi Küçük Hamam",
            "name:en": null,
            "name:uk": null,
            "name:de": null,
            "name:tr": null,
            "name:ru": null,
            "name:ar": "حمام كوتشوك التاريخي"
        }
    },
    {
        "lat": 41.0171577,
        "lon": 28.9436066,
        "tags": {
            "addr:city": "İstanbul",
            "addr:district": "Fatih",
            "description": "",
            "opening_hours": "Mo-Su 07:00-00:00",
            "phone": null,
            "branch": null,
            "amenity": "public_bath",
            "mobile": null,
            "addr:street": null,
            "cuisine": null,
            "name": "Fatih Hamamı",
            "name:en": null,
            "name:uk": null,
            "name:de": null,
            "name:tr": null,
            "name:ru": null,
            "name:ar": null
        }
    },
    {
        "lat": 41.0137293,
        "lon": 28.948784,
        "tags": {
            "addr:city": "İstanbul",
            "addr:district": null,
            "description": "",
            "opening_hours": null,
            "phone": null,
            "branch": null,
            "amenity": "public_bath",
            "mobile": null,
            "addr:street": "Sofular Caddesi",
            "cuisine": null,
            "name": "Sofular Hamamı",
            "name:en": null,
            "name:uk": null,
            "name:de": null,
            "name:tr": null,
            "name:ru": null,
            "name:ar": null
        }
    },
    {
        "lat": 41.0728423,
        "lon": 28.2466521,
        "tags": {
            "addr:city": "İstanbul",
            "addr:district": null,
            "description": "",
            "opening_hours": null,
            "phone": null,
            "branch": null,
            "amenity": "public_bath",
            "mobile": null,
            "addr:street": null,
            "cuisine": null,
            "name": "Hamam",
            "name:en": null,
            "name:uk": null,
            "name:de": null,
            "name:tr": null,
            "name:ru": null,
            "name:ar": null
        }
    },
    {
        "lat": 41.0041052,
        "lon": 29.1999907,
        "tags": {
            "addr:city": "İstanbul",
            "addr:district": null,
            "description": "",
            "opening_hours": null,
            "phone": null,
            "branch": null,
            "amenity": "public_bath",
            "mobile": null,
            "addr:street": null,
            "cuisine": null,
            "name": "Külliye Hamamı",
            "name:en": null,
            "name:uk": null,
            "name:de": null,
            "name:tr": null,
            "name:ru": null,
            "name:ar": null
        }
    },
    {
        "lat": 41.1346174,
        "lon": 29.0919565,
        "tags": {
            "addr:city": "İstanbul",
            "addr:district": null,
            "description": "",
            "opening_hours": null,
            "phone": null,
            "branch": null,
            "amenity": "public_bath",
            "mobile": null,
            "addr:street": null,
            "cuisine": null,
            "name": "Tarihi Beykoz Hamamı",
            "name:en": null,
            "name:uk": null,
            "name:de": null,
            "name:tr": null,
            "name:ru": null,
            "name:ar": null
        }
    },
    {
        "lat": 40.99384,
        "lon": 28.8485619,
        "tags": {
            "addr:city": "İstanbul",
            "addr:district": null,
            "description": "Hamam - Havuz - Sauna - Buhar Odası",
            "opening_hours": null,
            "phone": "+90 212 551 5615",
            "branch": null,
            "amenity": "public_bath",
            "mobile": null,
            "addr:street": null,
            "cuisine": null,
            "name": "Şirinevler Hamamı",
            "name:en": null,
            "name:uk": null,
            "name:de": null,
            "name:tr": null,
            "name:ru": null,
            "name:ar": null
        }
    },
    {
        "lat": 41.0724427,
        "lon": 28.9037505,
        "tags": {
            "addr:city": "İstanbul",
            "addr:district": "Gaziosmanpaşa",
            "description": "",
            "opening_hours": null,
            "phone": "+90 212 537 00 95",
            "branch": "Küçükköy",
            "amenity": "public_bath",
            "mobile": null,
            "addr:street": "İstanbul Caddesi",
            "cuisine": null,
            "name": "Hamam 365",
            "name:en": null,
            "name:uk": null,
            "name:de": null,
            "name:tr": null,
            "name:ru": null,
            "name:ar": null
        }
    },
    {
        "lat": 40.9818747,
        "lon": 29.1340708,
        "tags": {
            "addr:city": "İstanbul",
            "addr:district": null,
            "description": "Tuvalet, duş ve çamaşır yıkama ücretli.",
            "opening_hours": null,
            "phone": null,
            "branch": null,
            "amenity": "public_bath",
            "mobile": null,
            "addr:street": null,
            "cuisine": null,
            "name": "Tuvalet Duş Çamaşır Yıkama",
            "name:en": null,
            "name:uk": null,
            "name:de": null,
            "name:tr": null,
            "name:ru": null,
            "name:ar": null
        }
    },
    {
        "lat": 41.018612,
        "lon": 29.0710579,
        "tags": {
            "addr:city": "İstanbul",
            "addr:district": null,
            "description": "",
            "opening_hours": null,
            "phone": null,
            "branch": null,
            "amenity": "public_bath",
            "mobile": null,
            "addr:street": null,
            "cuisine": null,
            "name": "Tarihi Bulgurlu Hamamı",
            "name:en": null,
            "name:uk": null,
            "name:de": null,
            "name:tr": null,
            "name:ru": null,
            "name:ar": null
        }
    }
]