[
    {
        "lat": 41.0134172,
        "lon": 28.9474736,
        "tags": {
            "addr:city": "Istanbul",
            "addr:district": "Fatih",
            "description": "",
            "opening_hours": null,
            "phone": null,
            "branch": null,
            "amenity": "social_centre",
            "mobile": null,
            "addr:street": "Hattat Fehmi Sokak",
            "cuisine": null,
            "name": "Hatay ili yoncakaya dernegi",
            "name:en": null,
            "name:uk": null,
            "name:de": null,
            "name:tr": null,
            "name:ru": null,
            "name:ar": "جمعية يونغاكايا هاتاي"
        }
    },
    {
        "lat": 40.9909564,
        "lon": 28.9221704,
        "tags": {
            "addr:city": "Istanbul",
            "addr:district": "Fatih",
            "description": "",
            "opening_hours": null,
            "phone": null,
            "branch": null,
            "amenity": "social_centre",
            "mobile": null,
            "addr:street": "Güntekin sokagi",
            "cuisine": null,
            "name": "Yedikule Hayvan Barınağı",
            "name:en": null,
            "name:uk": null,
            "name:de": null,
            "name:tr": null,
            "name:ru": null,
            "name:ar": "ملجأ يدي كولي للحيوانات"
        }
    },
    {
        "lat": 41.0266576,
        "lon": 28.9553285,
        "tags": {
            "addr:city": "Istanbul",
            "addr:district": "Fatih",
            "description": "",
            "opening_hours": null,
            "phone": null,
            "branch": null,
            "amenity": "social_centre",
            "mobile": null,
            "addr:street": "Küçük Mustafa Paşa Caddesi",
            "cuisine": null,
            "name": "Haliç Özel Eğitim ve Rehabilitasyon Merkezi",
            "name:en": null,
            "name:uk": null,
            "name:de": null,
            "name:tr": null,
            "name:ru": null,
            "name:ar": "مركز الخليج للتعليم الخاص واعادة التأهيل"
        }
    },
    {
        "lat": 40.9948452,
        "lon": 28.9253324,
        "tags": {
            "addr:city": "Istanbul",
            "addr:district": "Fatih",
            "description": "",
            "opening_hours": null,
            "phone": null,
            "branch": null,
            "amenity": "social_centre",
            "mobile": null,
            "addr:street": "İmrahor ilyasbey caddesi",
            "cuisine": null,
            "name": "Mardin dernekleri federasyonu",
            "name:en": null,
            "name:uk": null,
            "name:de": null,
            "name:tr": null,
            "name:ru": null,
            "name:ar": "فيدرالية جمعيات ماردين"
        }
    },
    {
        "lat": 40.9957099,
        "lon": 28.9264038,
        "tags": {
            "addr:city": "Istanbul",
            "addr:district": "Fatih",
            "description": "",
            "opening_hours": null,
            "phone": "(0212) 585 07 26",
            "branch": null,
            "amenity": "social_centre",
            "mobile": null,
            "addr:street": "İmrahor ilyasbey caddesi",
            "cuisine": null,
            "name": "Yedikule Spor Kulübü Lokali",
            "name:en": null,
            "name:uk": null,
            "name:de": null,
            "name:tr": null,
            "name:ru": null,
            "name:ar": "نادي يدي كولي الرياضي"
        }
    },
    {
        "lat": 41.0041076,
        "lon": 28.9302345,
        "tags": {
            "addr:city": "Istanbul",
            "addr:district": "Fatih",
            "description": "",
            "opening_hours": null,
            "phone": null,
            "branch": null,
            "amenity": "social_centre",
            "mobile": null,
            "addr:street": "Turan Topal Sokak",
            "cuisine": null,
            "name": "Kocamustafapasa Spor Kulubu",
            "name:en": null,
            "name:uk": null,
            "name:de": null,
            "name:tr": null,
            "name:ru": null,
            "name:ar": "كوجا مصطفى باشا سبور كلوبو"
        }
    },
    {
        "lat": 41.0086079,
        "lon": 28.9748667,
        "tags": {
            "addr:city": "Istanbul",
            "addr:district": "Fatih",
            "description": "",
            "opening_hours": null,
            "phone": null,
            "branch": null,
            "amenity": "social_centre",
            "mobile": null,
            "addr:street": "Biçki Yudru Sokak",
            "cuisine": null,
            "name": "Bilge Kitap Kulubu",
            "name:en": null,
            "name:uk": null,
            "name:de": null,
            "name:tr": null,
            "name:ru": null,
            "name:ar": null
        }
    },
    {
        "lat": 41.0173912,
        "lon": 28.9441452,
        "tags": {
            "addr:city": "Istanbul",
            "addr:district": "Turkey",
            "description": "",
            "opening_hours": "09:00-17:00",
            "phone": "+905358863999",
            "branch": null,
            "amenity": "social_centre",
            "mobile": null,
            "addr:street": "VATANDAS caddesi",
            "cuisine": null,
            "name": "RIZK Professional development;alhabari",
            "name:en": null,
            "name:uk": null,
            "name:de": null,
            "name:tr": null,
            "name:ru": null,
            "name:ar": "مجموعة الحباري"
        }
    },
    {
        "lat": 40.9732575,
        "lon": 29.2643382,
        "tags": {
            "addr:city": "Istanbul",
            "addr:district": "Sultanbeyli",
            "description": "",
            "opening_hours": null,
            "phone": null,
            "branch": null,
            "amenity": "social_centre",
            "mobile": null,
            "addr:street": "Altınova Sokağı",
            "cuisine": null,
            "name": "Türk Kızılay",
            "name:en": null,
            "name:uk": null,
            "name:de": null,
            "name:tr": null,
            "name:ru": null,
            "name:ar": "تورك كزلاي"
        }
    },
    {
        "lat": 41.0359696,
        "lon": 28.9754479,
        "tags": {
            "addr:city": "İstanbul",
            "addr:district": null,
            "description": "",
            "opening_hours": "Mo-Fr 09:00-12:30, 13:00-17:00",
            "phone": null,
            "branch": null,
            "amenity": "social_centre",
            "mobile": null,
            "addr:street": null,
            "cuisine": null,
            "name": "ASAM SGDD",
            "name:en": null,
            "name:uk": null,
            "name:de": null,
            "name:tr": null,
            "name:ru": null,
            "name:ar": null
        }
    },
    {
        "lat": 41.0332711,
        "lon": 29.1046152,
        "tags": {
            "addr:city": "İstanbul",
            "addr:district": "Ümraniye",
            "description": "",
            "opening_hours": null,
            "phone": null,
            "branch": null,
            "amenity": "social_centre",
            "mobile": null,
            "addr:street": "Yıldırım Caddesi",
            "cuisine": null,
            "name": "Sığınmacılar ve Göçmenlerle Dayanışma Derneği",
            "name:en": "Association for Solidarity with Asylum Seekers and Migrants",
            "name:uk": null,
            "name:de": null,
            "name:tr": null,
            "name:ru": null,
            "name:ar": null
        }
    },
    {
        "lat": 41.0299662,
        "lon": 28.8279537,
        "tags": {
            "addr:city": "Istanbul",
            "addr:district": "Bağcılar",
            "description": "",
            "opening_hours": null,
            "phone": null,
            "branch": null,
            "amenity": "social_centre",
            "mobile": null,
            "addr:street": "Ataturk caddesi",
            "cuisine": null,
            "name": "Asya",
            "name:en": null,
            "name:uk": null,
            "name:de": null,
            "name:tr": null,
            "name:ru": null,
            "name:ar": "اسيا"
        }
    },
    {
        "lat": 41.0753146,
        "lon": 28.9052454,
        "tags": {
            "addr:city": "İstanbul",
            "addr:district": null,
            "description": "",
            "opening_hours": null,
            "phone": null,
            "branch": null,
            "amenity": "social_centre",
            "mobile": null,
            "addr:street": null,
            "cuisine": null,
            "name": "Salon Eftelya",
            "name:en": null,
            "name:uk": null,
            "name:de": null,
            "name:tr": null,
            "name:ru": null,
            "name:ar": null
        }
    },
    {
        "lat": 41.1209718,
        "lon": 28.7751865,
        "tags": {
            "addr:city": "İstanbul",
            "addr:district": null,
            "description": "",
            "opening_hours": null,
            "phone": null,
            "branch": null,
            "amenity": "social_centre",
            "mobile": null,
            "addr:street": null,
            "cuisine": null,
            "name": "İstanbul Kültürler Arası Dayanışma Eğitim ve Araştırma Vakfı",
            "name:en": null,
            "name:uk": null,
            "name:de": null,
            "name:tr": null,
            "name:ru": null,
            "name:ar": null
        }
    },
    {
        "lat": 41.0692335,
        "lon": 29.057455,
        "tags": {
            "addr:city": "İstanbul",
            "addr:district": null,
            "description": "",
            "opening_hours": null,
            "phone": null,
            "branch": null,
            "amenity": "social_centre",
            "mobile": null,
            "addr:street": null,
            "cuisine": null,
            "name": "Enerji Verimliliği Derneği",
            "name:en": null,
            "name:uk": null,
            "name:de": null,
            "name:tr": null,
            "name:ru": null,
            "name:ar": null
        }
    },
    {
        "lat": 41.0566699,
        "lon": 28.9153765,
        "tags": {
            "addr:city": "İstanbul",
            "addr:district": "Gaziosmanpaşa",
            "description": "With a capacity of 600 people, the Junior Salon brings together all the privileges offered by the Grand Salon in a more intimate and warm atmosphere.",
            "opening_hours": null,
            "phone": "+90 212 614 4317",
            "branch": null,
            "amenity": "social_centre",
            "mobile": "+90 530 540 9245",
            "addr:street": "Eyüp Caddesi",
            "cuisine": null,
            "name": "Junior Salon",
            "name:en": null,
            "name:uk": null,
            "name:de": null,
            "name:tr": null,
            "name:ru": null,
            "name:ar": null
        }
    },
    {
        "lat": 41.0565561,
        "lon": 28.915578,
        "tags": {
            "addr:city": "İstanbul",
            "addr:district": "Gaziosmanpaşa",
            "description": "Designed by organization experts to add quality to all types of events, the Grand Salon is ready to host large families, large companies and crowded congresses perfectly with its large capacity and modern infrastructure.",
            "opening_hours": null,
            "phone": "+90 212 614 4317",
            "branch": null,
            "amenity": "social_centre",
            "mobile": null,
            "addr:street": "Eyüp Caddesi",
            "cuisine": null,
            "name": "Grand Salon",
            "name:en": null,
            "name:uk": null,
            "name:de": null,
            "name:tr": null,
            "name:ru": null,
            "name:ar": null
        }
    },
    {
        "lat": 41.0575088,
        "lon": 28.9163223,
        "tags": {
            "addr:city": "İstanbul",
            "addr:district": null,
            "description": "",
            "opening_hours": null,
            "phone": null,
            "branch": null,
            "amenity": "social_centre",
            "mobile": null,
            "addr:street": null,
            "cuisine": null,
            "name": "ÖZGEM Gaziosmanpaşa",
            "name:en": null,
            "name:uk": null,
            "name:de": null,
            "name:tr": null,
            "name:ru": null,
            "name:ar": null
        }
    },
    {
        "lat": 41.1366032,
        "lon": 28.0540615,
        "tags": {
            "addr:city": "İstanbul",
            "addr:district": null,
            "description": "",
            "opening_hours": null,
            "phone": null,
            "branch": null,
            "amenity": "social_centre",
            "mobile": null,
            "addr:street": null,
            "cuisine": null,
            "name": null,
            "name:en": null,
            "name:uk": null,
            "name:de": null,
            "name:tr": null,
            "name:ru": null,
            "name:ar": null
        }
    },
    {
        "lat": 40.8767178,
        "lon": 29.269347,
        "tags": {
            "addr:city": "İstanbul",
            "addr:district": null,
            "description": "",
            "opening_hours": null,
            "phone": null,
            "branch": null,
            "amenity": "social_centre",
            "mobile": null,
            "addr:street": null,
            "cuisine": null,
            "name": "Akıncılar Arama Kurtarma Derneği",
            "name:en": null,
            "name:uk": null,
            "name:de": null,
            "name:tr": null,
            "name:ru": null,
            "name:ar": null
        }
    },
    {
        "lat": 40.8768757,
        "lon": 29.2693754,
        "tags": {
            "addr:city": "İstanbul",
            "addr:district": null,
            "description": "",
            "opening_hours": null,
            "phone": null,
            "branch": null,
            "amenity": "social_centre",
            "mobile": null,
            "addr:street": null,
            "cuisine": null,
            "name": "Bayburt Gökçeli & Uğurgeldi Köy Konağı",
            "name:en": null,
            "name:uk": null,
            "name:de": null,
            "name:tr": null,
            "name:ru": null,
            "name:ar": null
        }
    },
    {
        "lat": 40.876453,
        "lon": 29.2694986,
        "tags": {
            "addr:city": "Istanbul",
            "addr:district": "Pendik",
            "description": "",
            "opening_hours": null,
            "phone": null,
            "branch": null,
            "amenity": "social_centre",
            "mobile": null,
            "addr:street": "Bülbül Sokak",
            "cuisine": null,
            "name": "Eruzum Pazaryolu Kılıççı Derneği",
            "name:en": null,
            "name:uk": null,
            "name:de": null,
            "name:tr": null,
            "name:ru": null,
            "name:ar": null
        }
    },
    {
        "lat": 40.8768998,
        "lon": 29.269036,
        "tags": {
            "addr:city": "İstanbul",
            "addr:district": null,
            "description": "",
            "opening_hours": null,
            "phone": null,
            "branch": null,
            "amenity": "social_centre",
            "mobile": null,
            "addr:street": null,
            "cuisine": null,
            "name": "Çayırözü Köyü Kültür ve Yardımlaşma Derneği",
            "name:en": null,
            "name:uk": null,
            "name:de": null,
            "name:tr": null,
            "name:ru": null,
            "name:ar": null
        }
    },
    {
        "lat": 40.875212,
        "lon": 29.2683343,
        "tags": {
            "addr:city": "İstanbul",
            "addr:district": null,
            "description": "",
            "opening_hours": null,
            "phone": null,
            "branch": null,
            "amenity": "social_centre",
            "mobile": null,
            "addr:street": null,
            "cuisine": null,
            "name": "Salur Köyü Yardımlaşma Dayanışma Derneği",
            "name:en": null,
            "name:uk": null,
            "name:de": null,
            "name:tr": null,
            "name:ru": null,
            "name:ar": null
        }
    },
    {
        "lat": 40.8763125,
        "lon": 29.2677855,
        "tags": {
            "addr:city": "İstanbul",
            "addr:district": null,
            "description": "",
            "opening_hours": null,
            "phone": null,
            "branch": null,
            "amenity": "social_centre",
            "mobile": null,
            "addr:street": null,
            "cuisine": null,
            "name": "İncili Köyü Derneği",
            "name:en": null,
            "name:uk": null,
            "name:de": null,
            "name:tr": null,
            "name:ru": null,
            "name:ar": null
        }
    },
    {
        "lat": 40.9890992,
        "lon": 28.6062274,
        "tags": {
            "addr:city": "İstanbul",
            "addr:district": null,
            "description": "",
            "opening_hours": null,
            "phone": null,
            "branch": null,
            "amenity": "social_centre",
            "mobile": null,
            "addr:street": null,
            "cuisine": null,
            "name": "Zübeyde Ana Yaşam Merkezi",
            "name:en": null,
            "name:uk": null,
            "name:de": null,
            "name:tr": null,
            "name:ru": null,
            "name:ar": null
        }
    }
]