[
    {
        "lat": 41.0095945,
        "lon": 28.947231,
        "tags": {
            "addr:city": "Istanbul",
            "addr:district": "Fatih",
            "description": "",
            "opening_hours": "10:00-22:00",
            "phone": null,
            "branch": null,
            "amenity": "accessories",
            "mobile": null,
            "addr:street": "Turgut özal millet Caddesi",
            "cuisine": null,
            "name": "Aksesuar",
            "name:en": null,
            "name:uk": null,
            "name:de": null,
            "name:tr": null,
            "name:ru": null,
            "name:ar": "اكسيسوار"
        }
    },
    {
        "lat": 40.9661596,
        "lon": 29.2696817,
        "tags": {
            "addr:city": "Istanbul",
            "addr:district": "Sultanbeyli",
            "description": "",
            "opening_hours": "Mo-Fr 07:00-13:30; Mo-Fr 17:00-20:00",
            "phone": null,
            "branch": null,
            "amenity": "accessories",
            "mobile": null,
            "addr:street": "Fatih bulvarı",
            "cuisine": null,
            "name": "Baran gümüş",
            "name:en": null,
            "name:uk": null,
            "name:de": null,
            "name:tr": null,
            "name:ru": null,
            "name:ar": "ساعات باران"
        }
    },
    {
        "lat": 40.9690404,
        "lon": 29.2570154,
        "tags": {
            "addr:city": "Istanbul",
            "addr:district": "Sultanbeyli",
            "description": "",
            "opening_hours": "Mo-Fr 07:00-13:30; Mo-Fr 17:00-20:00",
            "phone": null,
            "branch": null,
            "amenity": "accessories",
            "mobile": null,
            "addr:street": "Fatih Bulvarı Caddesi",
            "cuisine": null,
            "name": "Vesp",
            "name:en": null,
            "name:uk": null,
            "name:de": null,
            "name:tr": null,
            "name:ru": null,
            "name:ar": "احذية فيسب"
        }
    },
    {
        "lat": 40.9689328,
        "lon": 29.258098,
        "tags": {
            "addr:city": "Istanbul",
            "addr:district": "Sultanbeyli",
            "description": "",
            "opening_hours": "Mo-Fr 07:00-13:30; Mo-Fr 17:00-20:00",
            "phone": null,
            "branch": null,
            "amenity": "accessories",
            "mobile": null,
            "addr:street": "Fatih Bulvarı Caddesi",
            "cuisine": null,
            "name": "Soydaş",
            "name:en": null,
            "name:uk": null,
            "name:de": null,
            "name:tr": null,
            "name:ru": null,
            "name:ar": "مجوهرات سويداش"
        }
    }
]