[
    {
        "lat": 41.0043938,
        "lon": 28.8971674,
        "tags": {
            "addr:city": "Istanbul",
            "addr:district": "Zeytinburnu",
            "description": "",
            "opening_hours": null,
            "phone": null,
            "branch": null,
            "amenity": "agrarian",
            "mobile": null,
            "addr:street": "Demirciler sitesi 8 Cd",
            "cuisine": null,
            "name": "SEL INŞAAT ORMAN ÜRÜNLERI",
            "name:en": null,
            "name:uk": null,
            "name:de": null,
            "name:tr": null,
            "name:ru": null,
            "name:ar": "سل للبناء"
        }
    },
    {
        "lat": 41.0521261,
        "lon": 28.8474992,
        "tags": {
            "addr:city": "Istanbul",
            "addr:district": "Bağcılar",
            "description": "",
            "opening_hours": null,
            "phone": null,
            "branch": null,
            "amenity": "agrarian",
            "mobile": null,
            "addr:street": null,
            "cuisine": null,
            "name": "Ömür Adak",
            "name:en": null,
            "name:uk": null,
            "name:de": null,
            "name:tr": null,
            "name:ru": null,
            "name:ar": "اومور اداك للذبائح"
        }
    },
    {
        "lat": 41.2257719,
        "lon": 28.0643697,
        "tags": {
            "addr:city": "İstanbul",
            "addr:district": null,
            "description": "",
            "opening_hours": null,
            "phone": null,
            "branch": null,
            "amenity": "agrarian",
            "mobile": null,
            "addr:street": null,
            "cuisine": null,
            "name": "Botanik Peyzaj ve Fidan",
            "name:en": null,
            "name:uk": null,
            "name:de": null,
            "name:tr": null,
            "name:ru": null,
            "name:ar": null
        }
    },
    {
        "lat": 41.0282392,
        "lon": 29.09437,
        "tags": {
            "addr:city": "İstanbul",
            "addr:district": "Ümraniye",
            "description": "",
            "opening_hours": null,
            "phone": null,
            "branch": null,
            "amenity": "agrarian",
            "mobile": null,
            "addr:street": "Çavuşbaşı Caddesi",
            "cuisine": null,
            "name": "Alo Tarım Market",
            "name:en": null,
            "name:uk": null,
            "name:de": null,
            "name:tr": null,
            "name:ru": null,
            "name:ar": null
        }
    }
]