[
    {
        "lat": 41.032359,
        "lon": 28.9821481,
        "tags": {
            "addr:city": "İstanbul",
            "addr:district": null,
            "description": "",
            "opening_hours": null,
            "phone": null,
            "branch": null,
            "amenity": "antiques",
            "mobile": null,
            "addr:street": "Ağa Hamamı Sokağı",
            "cuisine": null,
            "name": "Arayin",
            "name:en": null,
            "name:uk": null,
            "name:de": null,
            "name:tr": null,
            "name:ru": null,
            "name:ar": null
        }
    },
    {
        "lat": 41.0333291,
        "lon": 28.9816503,
        "tags": {
            "addr:city": "İstanbul",
            "addr:district": null,
            "description": "",
            "opening_hours": null,
            "phone": null,
            "branch": null,
            "amenity": "antiques",
            "mobile": null,
            "addr:street": null,
            "cuisine": null,
            "name": null,
            "name:en": null,
            "name:uk": null,
            "name:de": null,
            "name:tr": null,
            "name:ru": null,
            "name:ar": null
        }
    },
    {
        "lat": 41.0324118,
        "lon": 28.9814582,
        "tags": {
            "addr:city": "İstanbul",
            "addr:district": null,
            "description": "",
            "opening_hours": null,
            "phone": null,
            "branch": null,
            "amenity": "antiques",
            "mobile": null,
            "addr:street": null,
            "cuisine": null,
            "name": "Antikaci Kayabek",
            "name:en": null,
            "name:uk": null,
            "name:de": null,
            "name:tr": null,
            "name:ru": null,
            "name:ar": null
        }
    },
    {
        "lat": 41.0319999,
        "lon": 28.9802276,
        "tags": {
            "addr:city": "Beyoğlu/İstanbul",
            "addr:district": null,
            "description": "",
            "opening_hours": null,
            "phone": "+90 532 611 09 18",
            "branch": null,
            "amenity": "antiques",
            "mobile": null,
            "addr:street": "Faik Paşa Yokuşu",
            "cuisine": null,
            "name": "Osmanly antik Palas",
            "name:en": null,
            "name:uk": null,
            "name:de": null,
            "name:tr": null,
            "name:ru": null,
            "name:ar": null
        }
    },
    {
        "lat": 41.0332535,
        "lon": 28.981614,
        "tags": {
            "addr:city": "İstanbul",
            "addr:district": null,
            "description": "",
            "opening_hours": null,
            "phone": null,
            "branch": null,
            "amenity": "antiques",
            "mobile": null,
            "addr:street": null,
            "cuisine": null,
            "name": "Can Antika",
            "name:en": null,
            "name:uk": null,
            "name:de": null,
            "name:tr": null,
            "name:ru": null,
            "name:ar": null
        }
    },
    {
        "lat": 41.0328963,
        "lon": 29.1751154,
        "tags": {
            "addr:city": "İstanbul Çekmeköy",
            "addr:district": null,
            "description": "",
            "opening_hours": null,
            "phone": null,
            "branch": null,
            "amenity": "antiques",
            "mobile": null,
            "addr:street": "Mimar Sinan Caddesi",
            "cuisine": null,
            "name": "Tüvana",
            "name:en": null,
            "name:uk": null,
            "name:de": null,
            "name:tr": null,
            "name:ru": null,
            "name:ar": null
        }
    },
    {
        "lat": 40.9597535,
        "lon": 29.091451,
        "tags": {
            "addr:city": "İstanbul",
            "addr:district": null,
            "description": "",
            "opening_hours": null,
            "phone": null,
            "branch": null,
            "amenity": "antiques",
            "mobile": null,
            "addr:street": "Turşucu Dere Sokak",
            "cuisine": null,
            "name": "Simay Antik",
            "name:en": null,
            "name:uk": null,
            "name:de": null,
            "name:tr": null,
            "name:ru": null,
            "name:ar": null
        }
    },
    {
        "lat": 40.9599421,
        "lon": 29.0922116,
        "tags": {
            "addr:city": "İstanbul",
            "addr:district": null,
            "description": "",
            "opening_hours": null,
            "phone": null,
            "branch": null,
            "amenity": "antiques",
            "mobile": null,
            "addr:street": null,
            "cuisine": null,
            "name": "Danier Antika",
            "name:en": null,
            "name:uk": null,
            "name:de": null,
            "name:tr": null,
            "name:ru": null,
            "name:ar": null
        }
    },
    {
        "lat": 40.9249,
        "lon": 29.1408095,
        "tags": {
            "addr:city": "İstanbul",
            "addr:district": null,
            "description": "",
            "opening_hours": null,
            "phone": null,
            "branch": null,
            "amenity": "antiques",
            "mobile": null,
            "addr:street": null,
            "cuisine": null,
            "name": null,
            "name:en": null,
            "name:uk": null,
            "name:de": null,
            "name:tr": null,
            "name:ru": null,
            "name:ar": null
        }
    },
    {
        "lat": 41.0128756,
        "lon": 28.9515597,
        "tags": {
            "addr:city": "Istanbul",
            "addr:district": "Aksaray",
            "description": "",
            "opening_hours": null,
            "phone": null,
            "branch": null,
            "amenity": "marketplace",
            "mobile": null,
            "addr:street": "Kırma Tulumba Sokak",
            "cuisine": null,
            "name": "Horhor",
            "name:en": null,
            "name:uk": null,
            "name:de": null,
            "name:tr": null,
            "name:ru": null,
            "name:ar": null
        }
    },
    {
        "lat": 41.0081008,
        "lon": 28.9741258,
        "tags": {
            "addr:city": "Istanbul",
            "addr:district": "Fatih",
            "description": "",
            "opening_hours": null,
            "phone": null,
            "branch": null,
            "amenity": "antiques",
            "mobile": null,
            "addr:street": "Divan yolu caddesi",
            "cuisine": null,
            "name": "Gallery Antique",
            "name:en": null,
            "name:uk": null,
            "name:de": null,
            "name:tr": null,
            "name:ru": null,
            "name:ar": null
        }
    },
    {
        "lat": 41.0072748,
        "lon": 28.9734629,
        "tags": {
            "addr:city": "Istanbul",
            "addr:district": "Fatih",
            "description": "",
            "opening_hours": null,
            "phone": null,
            "branch": null,
            "amenity": "antiques",
            "mobile": null,
            "addr:street": "Binbirderek meydanı sokak",
            "cuisine": null,
            "name": "Sude",
            "name:en": null,
            "name:uk": null,
            "name:de": null,
            "name:tr": null,
            "name:ru": null,
            "name:ar": "سوده"
        }
    },
    {
        "lat": 41.0300183,
        "lon": 28.9401345,
        "tags": {
            "addr:city": "Istanbul",
            "addr:district": "Fatih",
            "description": "",
            "opening_hours": null,
            "phone": null,
            "branch": null,
            "amenity": "antiques",
            "mobile": null,
            "addr:street": "Slama tomruk Caddesi",
            "cuisine": null,
            "name": "Japon pazari",
            "name:en": null,
            "name:uk": null,
            "name:de": null,
            "name:tr": null,
            "name:ru": null,
            "name:ar": "بازار ياباني"
        }
    },
    {
        "lat": 41.0025884,
        "lon": 28.9333783,
        "tags": {
            "addr:city": "Istanbul",
            "addr:district": "Fatih",
            "description": "",
            "opening_hours": null,
            "phone": "05555602744",
            "branch": null,
            "amenity": "antiques",
            "mobile": null,
            "addr:street": "Marmara Caddesi",
            "cuisine": null,
            "name": "Büyük Tesbihçi",
            "name:en": null,
            "name:uk": null,
            "name:de": null,
            "name:tr": null,
            "name:ru": null,
            "name:ar": "بيوك للمسابح"
        }
    },
    {
        "lat": 40.9594381,
        "lon": 29.0960036,
        "tags": {
            "addr:city": "İstanbul",
            "addr:district": "Kadıköy",
            "description": "",
            "opening_hours": null,
            "phone": null,
            "branch": null,
            "amenity": "antiques",
            "mobile": null,
            "addr:street": "Prof. Dr. Kemal Akgüder Caddesi",
            "cuisine": null,
            "name": "Antikacı",
            "name:en": null,
            "name:uk": null,
            "name:de": null,
            "name:tr": null,
            "name:ru": null,
            "name:ar": null
        }
    },
    {
        "lat": 40.9954811,
        "lon": 29.0311753,
        "tags": {
            "addr:city": "İstanbul",
            "addr:district": null,
            "description": "",
            "opening_hours": null,
            "phone": null,
            "branch": null,
            "amenity": "antiques",
            "mobile": null,
            "addr:street": null,
            "cuisine": null,
            "name": "Kapadokya Antika",
            "name:en": null,
            "name:uk": null,
            "name:de": null,
            "name:tr": null,
            "name:ru": null,
            "name:ar": null
        }
    },
    {
        "lat": 40.9678286,
        "lon": 29.0637783,
        "tags": {
            "addr:city": "İstanbul",
            "addr:district": "Kadıköy",
            "description": "",
            "opening_hours": "Mo-Su 09:00-21:00",
            "phone": null,
            "branch": null,
            "amenity": "antiques",
            "mobile": null,
            "addr:street": "Caddebostan Plajyolu Sok",
            "cuisine": null,
            "name": null,
            "name:en": null,
            "name:uk": null,
            "name:de": null,
            "name:tr": null,
            "name:ru": null,
            "name:ar": null
        }
    },
    {
        "lat": 40.9821579,
        "lon": 29.1124502,
        "tags": {
            "addr:city": "İstanbul",
            "addr:district": null,
            "description": "",
            "opening_hours": null,
            "phone": null,
            "branch": null,
            "amenity": "antiques",
            "mobile": null,
            "addr:street": null,
            "cuisine": null,
            "name": "Ataşehir Antika",
            "name:en": null,
            "name:uk": null,
            "name:de": null,
            "name:tr": null,
            "name:ru": null,
            "name:ar": null
        }
    },
    {
        "lat": 40.9841212,
        "lon": 29.0289335,
        "tags": {
            "addr:city": "Istanbul",
            "addr:district": "Kadıköy",
            "description": "",
            "opening_hours": null,
            "phone": null,
            "branch": null,
            "amenity": "antiques",
            "mobile": null,
            "addr:street": "Şair Latifi Sokağı",
            "cuisine": null,
            "name": "Büyükannemin Sandığı",
            "name:en": null,
            "name:uk": null,
            "name:de": null,
            "name:tr": null,
            "name:ru": null,
            "name:ar": null
        }
    },
    {
        "lat": 40.9972057,
        "lon": 29.0300015,
        "tags": {
            "addr:city": "İstanbul",
            "addr:district": "Kadıköy",
            "description": "",
            "opening_hours": null,
            "phone": null,
            "branch": null,
            "amenity": "antiques",
            "mobile": null,
            "addr:street": "Macit Erbudak Sokağı",
            "cuisine": null,
            "name": "Antik Kuntik",
            "name:en": null,
            "name:uk": null,
            "name:de": null,
            "name:tr": null,
            "name:ru": null,
            "name:ar": null
        }
    },
    {
        "lat": 40.8776048,
        "lon": 29.0981553,
        "tags": {
            "addr:city": "İstanbul",
            "addr:district": null,
            "description": "",
            "opening_hours": null,
            "phone": null,
            "branch": null,
            "amenity": "antiques",
            "mobile": null,
            "addr:street": null,
            "cuisine": null,
            "name": null,
            "name:en": null,
            "name:uk": null,
            "name:de": null,
            "name:tr": null,
            "name:ru": null,
            "name:ar": null
        }
    },
    {
        "lat": 40.9845224,
        "lon": 29.0243603,
        "tags": {
            "addr:city": "İstanbul",
            "addr:district": null,
            "description": "",
            "opening_hours": null,
            "phone": null,
            "branch": null,
            "amenity": "antiques",
            "mobile": null,
            "addr:street": "Moda Caddesi",
            "cuisine": null,
            "name": "Baran Antika",
            "name:en": null,
            "name:uk": null,
            "name:de": null,
            "name:tr": null,
            "name:ru": null,
            "name:ar": null
        }
    },
    {
        "lat": 40.9891724,
        "lon": 29.0269586,
        "tags": {
            "addr:city": "İstanbul",
            "addr:district": null,
            "description": "",
            "opening_hours": null,
            "phone": null,
            "branch": null,
            "amenity": "antiques",
            "mobile": null,
            "addr:street": null,
            "cuisine": null,
            "name": "Üstün Antik",
            "name:en": null,
            "name:uk": null,
            "name:de": null,
            "name:tr": null,
            "name:ru": null,
            "name:ar": null
        }
    },
    {
        "lat": 40.9667518,
        "lon": 29.0809747,
        "tags": {
            "addr:city": "İstanbul",
            "addr:district": null,
            "description": "",
            "opening_hours": null,
            "phone": "+90 546 1453434",
            "branch": null,
            "amenity": "antiques",
            "mobile": null,
            "addr:street": "Kaptan Arif Sokağı",
            "cuisine": null,
            "name": "İstanbul Antik",
            "name:en": null,
            "name:uk": null,
            "name:de": null,
            "name:tr": null,
            "name:ru": null,
            "name:ar": null
        }
    },
    {
        "lat": 40.9710713,
        "lon": 29.0634004,
        "tags": {
            "addr:city": "İstanbul",
            "addr:district": "Kadıköy",
            "description": "",
            "opening_hours": null,
            "phone": "+90 532 509 5131",
            "branch": null,
            "amenity": "antiques",
            "mobile": null,
            "addr:street": "Tanzimat Sokağı",
            "cuisine": null,
            "name": "Sancak Antika",
            "name:en": null,
            "name:uk": null,
            "name:de": null,
            "name:tr": null,
            "name:ru": null,
            "name:ar": null
        }
    },
    {
        "lat": 40.9890255,
        "lon": 29.0267273,
        "tags": {
            "addr:city": "İstanbul",
            "addr:district": null,
            "description": "",
            "opening_hours": null,
            "phone": null,
            "branch": null,
            "amenity": "antiques",
            "mobile": null,
            "addr:street": null,
            "cuisine": null,
            "name": "Antique 50",
            "name:en": null,
            "name:uk": null,
            "name:de": null,
            "name:tr": null,
            "name:ru": null,
            "name:ar": null
        }
    },
    {
        "lat": 40.9893679,
        "lon": 29.0270334,
        "tags": {
            "addr:city": "İstanbul",
            "addr:district": null,
            "description": "",
            "opening_hours": null,
            "phone": null,
            "branch": null,
            "amenity": "antiques",
            "mobile": null,
            "addr:street": null,
            "cuisine": null,
            "name": "Özen Antik",
            "name:en": null,
            "name:uk": null,
            "name:de": null,
            "name:tr": null,
            "name:ru": null,
            "name:ar": null
        }
    },
    {
        "lat": 40.9893198,
        "lon": 29.0268343,
        "tags": {
            "addr:city": "İstanbul",
            "addr:district": null,
            "description": "",
            "opening_hours": null,
            "phone": null,
            "branch": null,
            "amenity": "antiques",
            "mobile": null,
            "addr:street": null,
            "cuisine": null,
            "name": "Tellalzade Antiques",
            "name:en": null,
            "name:uk": null,
            "name:de": null,
            "name:tr": null,
            "name:ru": null,
            "name:ar": null
        }
    },
    {
        "lat": 41.0598534,
        "lon": 28.9737072,
        "tags": {
            "addr:city": "Şişi/İstanbul",
            "addr:district": "Şişli",
            "description": "",
            "opening_hours": "Mo-Sa 11:00-21:00",
            "phone": "+90 5353331081",
            "branch": null,
            "amenity": "antiques",
            "mobile": null,
            "addr:street": "Halide Edip Adıvar Caddesi",
            "cuisine": null,
            "name": "Yaz Vintage Shop",
            "name:en": null,
            "name:uk": null,
            "name:de": null,
            "name:tr": null,
            "name:ru": null,
            "name:ar": null
        }
    },
    {
        "lat": 40.9828743,
        "lon": 28.8765652,
        "tags": {
            "addr:city": "İstanbul",
            "addr:district": null,
            "description": "",
            "opening_hours": null,
            "phone": null,
            "branch": null,
            "amenity": "antiques",
            "mobile": null,
            "addr:street": null,
            "cuisine": null,
            "name": null,
            "name:en": null,
            "name:uk": null,
            "name:de": null,
            "name:tr": null,
            "name:ru": null,
            "name:ar": null
        }
    }
]