[
    {
        "lat": 40.9741876,
        "lon": 29.0553567,
        "tags": {
            "addr:city": "İstanbul",
            "addr:district": null,
            "description": "",
            "opening_hours": null,
            "phone": null,
            "branch": null,
            "amenity": "appliance",
            "mobile": null,
            "addr:street": null,
            "cuisine": null,
            "name": "Bosch",
            "name:en": null,
            "name:uk": null,
            "name:de": null,
            "name:tr": null,
            "name:ru": null,
            "name:ar": null
        }
    },
    {
        "lat": 40.92345,
        "lon": 29.1331626,
        "tags": {
            "addr:city": "İstanbul",
            "addr:district": null,
            "description": "",
            "opening_hours": null,
            "phone": null,
            "branch": null,
            "amenity": "appliance",
            "mobile": null,
            "addr:street": null,
            "cuisine": null,
            "name": "Arçelik",
            "name:en": null,
            "name:uk": null,
            "name:de": null,
            "name:tr": null,
            "name:ru": null,
            "name:ar": null
        }
    },
    {
        "lat": 41.093341,
        "lon": 29.0866351,
        "tags": {
            "addr:city": "İstanbul",
            "addr:district": null,
            "description": "arçelik",
            "opening_hours": null,
            "phone": null,
            "branch": null,
            "amenity": "appliance",
            "mobile": null,
            "addr:street": null,
            "cuisine": null,
            "name": "Arçelik",
            "name:en": null,
            "name:uk": null,
            "name:de": null,
            "name:tr": null,
            "name:ru": null,
            "name:ar": null
        }
    },
    {
        "lat": 41.0330705,
        "lon": 28.9752122,
        "tags": {
            "addr:city": "İstanbul",
            "addr:district": null,
            "description": "",
            "opening_hours": null,
            "phone": null,
            "branch": null,
            "amenity": "appliance",
            "mobile": null,
            "addr:street": null,
            "cuisine": null,
            "name": "nilco",
            "name:en": null,
            "name:uk": null,
            "name:de": null,
            "name:tr": null,
            "name:ru": null,
            "name:ar": null
        }
    },
    {
        "lat": 40.9596764,
        "lon": 29.09433,
        "tags": {
            "addr:city": "İstanbul",
            "addr:district": "Kadıköy",
            "description": "",
            "opening_hours": null,
            "phone": null,
            "branch": null,
            "amenity": "appliance",
            "mobile": null,
            "addr:street": "Şemsettin Günaltay Caddesi",
            "cuisine": null,
            "name": "Demir Döküm",
            "name:en": null,
            "name:uk": null,
            "name:de": null,
            "name:tr": null,
            "name:ru": null,
            "name:ar": null
        }
    },
    {
        "lat": 40.9838486,
        "lon": 29.1430873,
        "tags": {
            "addr:city": "İstanbul",
            "addr:district": null,
            "description": "",
            "opening_hours": null,
            "phone": null,
            "branch": null,
            "amenity": "appliance",
            "mobile": null,
            "addr:street": null,
            "cuisine": null,
            "name": "Arçelik",
            "name:en": null,
            "name:uk": null,
            "name:de": null,
            "name:tr": null,
            "name:ru": null,
            "name:ar": null
        }
    },
    {
        "lat": 40.9556342,
        "lon": 29.0932892,
        "tags": {
            "addr:city": "İstanbul",
            "addr:district": "Kadıköy",
            "description": "",
            "opening_hours": null,
            "phone": null,
            "branch": null,
            "amenity": "appliance",
            "mobile": null,
            "addr:street": "Kitapçı Mehmet Süleyman Sokak",
            "cuisine": null,
            "name": "Tefal",
            "name:en": null,
            "name:uk": null,
            "name:de": null,
            "name:tr": null,
            "name:ru": null,
            "name:ar": null
        }
    },
    {
        "lat": 41.0589576,
        "lon": 28.9137116,
        "tags": {
            "addr:city": "İstanbul",
            "addr:district": null,
            "description": "",
            "opening_hours": null,
            "phone": "+90 212 615 2023",
            "branch": null,
            "amenity": "appliance",
            "mobile": null,
            "addr:street": null,
            "cuisine": null,
            "name": "Beko Aykoçlar",
            "name:en": null,
            "name:uk": null,
            "name:de": null,
            "name:tr": null,
            "name:ru": null,
            "name:ar": null
        }
    },
    {
        "lat": 41.107483,
        "lon": 28.8611844,
        "tags": {
            "addr:city": "İstanbul",
            "addr:district": null,
            "description": "",
            "opening_hours": null,
            "phone": null,
            "branch": null,
            "amenity": "appliance",
            "mobile": null,
            "addr:street": null,
            "cuisine": null,
            "name": "Arçelik",
            "name:en": null,
            "name:uk": null,
            "name:de": null,
            "name:tr": null,
            "name:ru": null,
            "name:ar": null
        }
    },
    {
        "lat": 41.1021303,
        "lon": 28.862889,
        "tags": {
            "addr:city": "İstanbul",
            "addr:district": null,
            "description": "",
            "opening_hours": null,
            "phone": null,
            "branch": null,
            "amenity": "appliance",
            "mobile": null,
            "addr:street": null,
            "cuisine": null,
            "name": "Arçelik",
            "name:en": null,
            "name:uk": null,
            "name:de": null,
            "name:tr": null,
            "name:ru": null,
            "name:ar": null
        }
    },
    {
        "lat": 41.1013749,
        "lon": 28.8631924,
        "tags": {
            "addr:city": "İstanbul",
            "addr:district": null,
            "description": "",
            "opening_hours": null,
            "phone": null,
            "branch": null,
            "amenity": "appliance",
            "mobile": null,
            "addr:street": null,
            "cuisine": null,
            "name": "Vestel",
            "name:en": null,
            "name:uk": null,
            "name:de": null,
            "name:tr": null,
            "name:ru": null,
            "name:ar": null
        }
    },
    {
        "lat": 41.093299,
        "lon": 28.8641834,
        "tags": {
            "addr:city": "İstanbul",
            "addr:district": null,
            "description": "",
            "opening_hours": null,
            "phone": null,
            "branch": null,
            "amenity": "appliance",
            "mobile": null,
            "addr:street": null,
            "cuisine": null,
            "name": "Beko",
            "name:en": null,
            "name:uk": null,
            "name:de": null,
            "name:tr": null,
            "name:ru": null,
            "name:ar": null
        }
    },
    {
        "lat": 41.0588266,
        "lon": 28.9143176,
        "tags": {
            "addr:city": "İstanbul",
            "addr:district": null,
            "description": "",
            "opening_hours": null,
            "phone": null,
            "branch": null,
            "amenity": "appliance",
            "mobile": null,
            "addr:street": null,
            "cuisine": null,
            "name": "Arçelik",
            "name:en": null,
            "name:uk": null,
            "name:de": null,
            "name:tr": null,
            "name:ru": null,
            "name:ar": null
        }
    },
    {
        "lat": 41.0965993,
        "lon": 28.863103,
        "tags": {
            "addr:city": "İstanbul",
            "addr:district": null,
            "description": "",
            "opening_hours": null,
            "phone": null,
            "branch": null,
            "amenity": "appliance",
            "mobile": null,
            "addr:street": null,
            "cuisine": null,
            "name": "Arçelik",
            "name:en": null,
            "name:uk": null,
            "name:de": null,
            "name:tr": null,
            "name:ru": null,
            "name:ar": null
        }
    },
    {
        "lat": 41.0968084,
        "lon": 28.8630753,
        "tags": {
            "addr:city": "İstanbul",
            "addr:district": null,
            "description": "",
            "opening_hours": null,
            "phone": null,
            "branch": null,
            "amenity": "appliance",
            "mobile": null,
            "addr:street": null,
            "cuisine": null,
            "name": "Beko",
            "name:en": null,
            "name:uk": null,
            "name:de": null,
            "name:tr": null,
            "name:ru": null,
            "name:ar": null
        }
    },
    {
        "lat": 41.1027932,
        "lon": 28.8620039,
        "tags": {
            "addr:city": "İstanbul",
            "addr:district": null,
            "description": "",
            "opening_hours": null,
            "phone": null,
            "branch": null,
            "amenity": "appliance",
            "mobile": null,
            "addr:street": null,
            "cuisine": null,
            "name": "Beko",
            "name:en": null,
            "name:uk": null,
            "name:de": null,
            "name:tr": null,
            "name:ru": null,
            "name:ar": null
        }
    },
    {
        "lat": 41.101937,
        "lon": 28.8624122,
        "tags": {
            "addr:city": "İstanbul",
            "addr:district": null,
            "description": "",
            "opening_hours": null,
            "phone": null,
            "branch": null,
            "amenity": "appliance",
            "mobile": null,
            "addr:street": null,
            "cuisine": null,
            "name": "Arçelik",
            "name:en": null,
            "name:uk": null,
            "name:de": null,
            "name:tr": null,
            "name:ru": null,
            "name:ar": null
        }
    },
    {
        "lat": 40.9042288,
        "lon": 29.1721813,
        "tags": {
            "addr:city": "İstanbul",
            "addr:district": null,
            "description": "",
            "opening_hours": null,
            "phone": null,
            "branch": null,
            "amenity": "appliance",
            "mobile": null,
            "addr:street": null,
            "cuisine": null,
            "name": "Beko",
            "name:en": null,
            "name:uk": null,
            "name:de": null,
            "name:tr": null,
            "name:ru": null,
            "name:ar": null
        }
    },
    {
        "lat": 40.9624324,
        "lon": 29.0849058,
        "tags": {
            "addr:city": "İstanbul",
            "addr:district": "Kadıköy",
            "description": "",
            "opening_hours": null,
            "phone": null,
            "branch": null,
            "amenity": "appliance",
            "mobile": null,
            "addr:street": "Ayşe Çavuş Caddesi",
            "cuisine": null,
            "name": "Arçelik",
            "name:en": null,
            "name:uk": null,
            "name:de": null,
            "name:tr": null,
            "name:ru": null,
            "name:ar": null
        }
    },
    {
        "lat": 41.1120213,
        "lon": 28.8576208,
        "tags": {
            "addr:city": "İstanbul",
            "addr:district": null,
            "description": "",
            "opening_hours": null,
            "phone": null,
            "branch": null,
            "amenity": "appliance",
            "mobile": null,
            "addr:street": null,
            "cuisine": null,
            "name": "Beko",
            "name:en": null,
            "name:uk": null,
            "name:de": null,
            "name:tr": null,
            "name:ru": null,
            "name:ar": null
        }
    },
    {
        "lat": 41.009208,
        "lon": 29.0988682,
        "tags": {
            "addr:city": "İstanbul",
            "addr:district": null,
            "description": "",
            "opening_hours": null,
            "phone": null,
            "branch": null,
            "amenity": "appliance",
            "mobile": null,
            "addr:street": null,
            "cuisine": null,
            "name": "Beko",
            "name:en": null,
            "name:uk": null,
            "name:de": null,
            "name:tr": null,
            "name:ru": null,
            "name:ar": null
        }
    },
    {
        "lat": 40.9663193,
        "lon": 29.2701133,
        "tags": {
            "addr:city": "Istanbul",
            "addr:district": "Sultanbeyli",
            "description": "",
            "opening_hours": "Mo-Fr 07:00-13:30; Mo-Fr 17:00-20:00",
            "phone": "02164960506",
            "branch": null,
            "amenity": "appliance",
            "mobile": null,
            "addr:street": "fatih bulvarı",
            "cuisine": null,
            "name": "Bosch",
            "name:en": null,
            "name:uk": null,
            "name:de": null,
            "name:tr": null,
            "name:ru": null,
            "name:ar": "كهربائيات"
        }
    },
    {
        "lat": 40.9654378,
        "lon": 29.2727294,
        "tags": {
            "addr:city": "Istanbul",
            "addr:district": "Sultanbeyli",
            "description": "",
            "opening_hours": "Mo-Fr 07:00-13:30; Mo-Fr 17:00-20:00",
            "phone": "02164190430",
            "branch": null,
            "amenity": "appliance",
            "mobile": null,
            "addr:street": "Fatih bulvarı",
            "cuisine": null,
            "name": "Beko",
            "name:en": null,
            "name:uk": null,
            "name:de": null,
            "name:tr": null,
            "name:ru": null,
            "name:ar": "أدوات كهربائية بيكو"
        }
    },
    {
        "lat": 40.9477076,
        "lon": 29.2836196,
        "tags": {
            "addr:city": "Istanbul",
            "addr:district": "Sultanbeyli",
            "description": "",
            "opening_hours": null,
            "phone": null,
            "branch": null,
            "amenity": "appliance",
            "mobile": null,
            "addr:street": "Antalya Caddesi",
            "cuisine": null,
            "name": "Beyaz eşya",
            "name:en": null,
            "name:uk": null,
            "name:de": null,
            "name:tr": null,
            "name:ru": null,
            "name:ar": "مصلح خسالات)بياز ايشا"
        }
    },
    {
        "lat": 40.9582525,
        "lon": 29.2964355,
        "tags": {
            "addr:city": "Istanbul",
            "addr:district": "Sultanbeyli",
            "description": "",
            "opening_hours": null,
            "phone": null,
            "branch": null,
            "amenity": "appliance",
            "mobile": null,
            "addr:street": "Fatih Bulvarı",
            "cuisine": null,
            "name": "Arçelik",
            "name:en": null,
            "name:uk": null,
            "name:de": null,
            "name:tr": null,
            "name:ru": null,
            "name:ar": "ارشيليك للادوات المنزلية"
        }
    },
    {
        "lat": 40.9641031,
        "lon": 29.2831526,
        "tags": {
            "addr:city": "Istanbul",
            "addr:district": "Sultanbeyli",
            "description": "",
            "opening_hours": "Mo-Fr 07:00-13:30; Mo-Fr 17:00-20:00",
            "phone": null,
            "branch": null,
            "amenity": "appliance",
            "mobile": null,
            "addr:street": "Fatih Bulvarı Caddesi",
            "cuisine": null,
            "name": "Vestel",
            "name:en": null,
            "name:uk": null,
            "name:de": null,
            "name:tr": null,
            "name:ru": null,
            "name:ar": "محل فيستيل للموبيليا"
        }
    },
    {
        "lat": 40.9830736,
        "lon": 29.2655641,
        "tags": {
            "addr:city": "Istanbul",
            "addr:district": "Sultanbeyli",
            "description": "",
            "opening_hours": "Mo-Fr 07:00-13:30; Mo-Fr 17:00-20:00",
            "phone": null,
            "branch": null,
            "amenity": "appliance",
            "mobile": null,
            "addr:street": "Bosna Caddesi",
            "cuisine": null,
            "name": "Altus",
            "name:en": null,
            "name:uk": null,
            "name:de": null,
            "name:tr": null,
            "name:ru": null,
            "name:ar": "مفروشات التوس"
        }
    },
    {
        "lat": 40.9681398,
        "lon": 29.2623349,
        "tags": {
            "addr:city": "Istanbul",
            "addr:district": "Sultanbeyli",
            "description": "",
            "opening_hours": "Mo-Fr 07:00-13:30; Mo-Fr 17:00-20:00",
            "phone": null,
            "branch": null,
            "amenity": "appliance",
            "mobile": null,
            "addr:street": "Fatih Bulvarı Caddesi",
            "cuisine": null,
            "name": "Samsung",
            "name:en": null,
            "name:uk": null,
            "name:de": null,
            "name:tr": null,
            "name:ru": null,
            "name:ar": "إلكترونيات سامسونج"
        }
    },
    {
        "lat": 40.9952318,
        "lon": 28.9023273,
        "tags": {
            "addr:city": "Istanbul",
            "addr:district": "Zeytinburnu",
            "description": "",
            "opening_hours": null,
            "phone": null,
            "branch": null,
            "amenity": "appliance",
            "mobile": null,
            "addr:street": "Semiha şakir caddesi",
            "cuisine": null,
            "name": "Beko",
            "name:en": null,
            "name:uk": null,
            "name:de": null,
            "name:tr": null,
            "name:ru": null,
            "name:ar": "بيكو"
        }
    },
    {
        "lat": 40.9919015,
        "lon": 28.9040082,
        "tags": {
            "addr:city": "Istanbul",
            "addr:district": "Zeytinburnu",
            "description": "",
            "opening_hours": null,
            "phone": null,
            "branch": null,
            "amenity": "appliance",
            "mobile": null,
            "addr:street": "58.Blv Cd",
            "cuisine": null,
            "name": "Arçelik",
            "name:en": null,
            "name:uk": null,
            "name:de": null,
            "name:tr": null,
            "name:ru": null,
            "name:ar": "آرشليك"
        }
    },
    {
        "lat": 41.0323978,
        "lon": 28.8634583,
        "tags": {
            "addr:city": "Istanbul",
            "addr:district": "Bağcılar",
            "description": "",
            "opening_hours": null,
            "phone": null,
            "branch": null,
            "amenity": "appliance",
            "mobile": null,
            "addr:street": "Güngören caddesi",
            "cuisine": null,
            "name": "Beko",
            "name:en": null,
            "name:uk": null,
            "name:de": null,
            "name:tr": null,
            "name:ru": null,
            "name:ar": "بيكو"
        }
    },
    {
        "lat": 40.9668202,
        "lon": 29.2683403,
        "tags": {
            "addr:city": "İstanbul",
            "addr:district": null,
            "description": "",
            "opening_hours": null,
            "phone": null,
            "branch": null,
            "amenity": "appliance",
            "mobile": null,
            "addr:street": null,
            "cuisine": null,
            "name": "Arçelik",
            "name:en": null,
            "name:uk": null,
            "name:de": null,
            "name:tr": null,
            "name:ru": null,
            "name:ar": null
        }
    },
    {
        "lat": 40.9831316,
        "lon": 29.2655199,
        "tags": {
            "addr:city": "İstanbul",
            "addr:district": null,
            "description": "",
            "opening_hours": null,
            "phone": null,
            "branch": null,
            "amenity": "appliance",
            "mobile": null,
            "addr:street": null,
            "cuisine": null,
            "name": "Profilo",
            "name:en": null,
            "name:uk": null,
            "name:de": null,
            "name:tr": null,
            "name:ru": null,
            "name:ar": null
        }
    },
    {
        "lat": 40.8993309,
        "lon": 29.2261332,
        "tags": {
            "addr:city": "İstanbul",
            "addr:district": "Kartal",
            "description": "",
            "opening_hours": null,
            "phone": null,
            "branch": null,
            "amenity": "appliance",
            "mobile": null,
            "addr:street": "Abdi İpekci Caddesi",
            "cuisine": null,
            "name": "Vestel - Kurfalı Bayi",
            "name:en": null,
            "name:uk": null,
            "name:de": null,
            "name:tr": null,
            "name:ru": null,
            "name:ar": null
        }
    },
    {
        "lat": 40.8997824,
        "lon": 29.2264148,
        "tags": {
            "addr:city": "İstanbul",
            "addr:district": "Kartal",
            "description": "",
            "opening_hours": null,
            "phone": "02164516171",
            "branch": null,
            "amenity": "appliance",
            "mobile": null,
            "addr:street": "Abdi İpekci Caddesi",
            "cuisine": null,
            "name": "Beko Kurfalı Beyaz Eşya",
            "name:en": null,
            "name:uk": null,
            "name:de": null,
            "name:tr": null,
            "name:ru": null,
            "name:ar": null
        }
    },
    {
        "lat": 41.0048093,
        "lon": 29.0824504,
        "tags": {
            "addr:city": "İstanbul",
            "addr:district": "ataşehir",
            "description": "",
            "opening_hours": null,
            "phone": null,
            "branch": null,
            "amenity": "appliance",
            "mobile": null,
            "addr:street": "adnan menderes",
            "cuisine": null,
            "name": "tutku",
            "name:en": null,
            "name:uk": null,
            "name:de": null,
            "name:tr": null,
            "name:ru": null,
            "name:ar": null
        }
    },
    {
        "lat": 40.8679024,
        "lon": 29.30632,
        "tags": {
            "addr:city": "İstanbul",
            "addr:district": null,
            "description": "",
            "opening_hours": null,
            "phone": null,
            "branch": null,
            "amenity": "appliance",
            "mobile": null,
            "addr:street": null,
            "cuisine": null,
            "name": "Marshall",
            "name:en": null,
            "name:uk": null,
            "name:de": null,
            "name:tr": null,
            "name:ru": null,
            "name:ar": null
        }
    },
    {
        "lat": 40.8819899,
        "lon": 29.233983,
        "tags": {
            "addr:city": "İstanbul",
            "addr:district": null,
            "description": "",
            "opening_hours": null,
            "phone": null,
            "branch": null,
            "amenity": "appliance",
            "mobile": null,
            "addr:street": null,
            "cuisine": null,
            "name": "Arçelik",
            "name:en": null,
            "name:uk": null,
            "name:de": null,
            "name:tr": null,
            "name:ru": null,
            "name:ar": null
        }
    },
    {
        "lat": 40.8963013,
        "lon": 29.251468,
        "tags": {
            "addr:city": "İstanbul",
            "addr:district": null,
            "description": "",
            "opening_hours": null,
            "phone": null,
            "branch": null,
            "amenity": "appliance",
            "mobile": null,
            "addr:street": null,
            "cuisine": null,
            "name": "Bosch",
            "name:en": null,
            "name:uk": null,
            "name:de": null,
            "name:tr": null,
            "name:ru": null,
            "name:ar": null
        }
    },
    {
        "lat": 40.8944594,
        "lon": 29.2470138,
        "tags": {
            "addr:city": "İstanbul",
            "addr:district": null,
            "description": "",
            "opening_hours": null,
            "phone": null,
            "branch": null,
            "amenity": "appliance",
            "mobile": null,
            "addr:street": null,
            "cuisine": null,
            "name": "Uğur",
            "name:en": null,
            "name:uk": null,
            "name:de": null,
            "name:tr": null,
            "name:ru": null,
            "name:ar": null
        }
    },
    {
        "lat": 41.0353471,
        "lon": 28.9121179,
        "tags": {
            "addr:city": "İstanbul",
            "addr:district": null,
            "description": "",
            "opening_hours": null,
            "phone": null,
            "branch": null,
            "amenity": "appliance",
            "mobile": null,
            "addr:street": null,
            "cuisine": null,
            "name": "Beko",
            "name:en": null,
            "name:uk": null,
            "name:de": null,
            "name:tr": null,
            "name:ru": null,
            "name:ar": null
        }
    },
    {
        "lat": 41.142698,
        "lon": 29.0871526,
        "tags": {
            "addr:city": "İstanbul",
            "addr:district": null,
            "description": "",
            "opening_hours": null,
            "phone": null,
            "branch": null,
            "amenity": "appliance",
            "mobile": null,
            "addr:street": null,
            "cuisine": null,
            "name": "Bosch",
            "name:en": null,
            "name:uk": null,
            "name:de": null,
            "name:tr": null,
            "name:ru": null,
            "name:ar": null
        }
    },
    {
        "lat": 40.9900452,
        "lon": 29.1059533,
        "tags": {
            "addr:city": "İstanbul",
            "addr:district": null,
            "description": "",
            "opening_hours": null,
            "phone": null,
            "branch": null,
            "amenity": "appliance",
            "mobile": null,
            "addr:street": null,
            "cuisine": null,
            "name": "Miele",
            "name:en": null,
            "name:uk": null,
            "name:de": null,
            "name:tr": null,
            "name:ru": null,
            "name:ar": null
        }
    },
    {
        "lat": 41.0206306,
        "lon": 28.580329,
        "tags": {
            "addr:city": "İstanbul",
            "addr:district": null,
            "description": "",
            "opening_hours": null,
            "phone": null,
            "branch": null,
            "amenity": "appliance",
            "mobile": null,
            "addr:street": null,
            "cuisine": null,
            "name": "Vestel",
            "name:en": null,
            "name:uk": null,
            "name:de": null,
            "name:tr": null,
            "name:ru": null,
            "name:ar": null
        }
    },
    {
        "lat": 41.1070637,
        "lon": 28.8032181,
        "tags": {
            "addr:city": "İstanbul",
            "addr:district": null,
            "description": "",
            "opening_hours": null,
            "phone": null,
            "branch": null,
            "amenity": "appliance",
            "mobile": null,
            "addr:street": null,
            "cuisine": null,
            "name": "Vestel",
            "name:en": null,
            "name:uk": null,
            "name:de": null,
            "name:tr": null,
            "name:ru": null,
            "name:ar": null
        }
    },
    {
        "lat": 41.1070164,
        "lon": 28.8032211,
        "tags": {
            "addr:city": "İstanbul",
            "addr:district": null,
            "description": "",
            "opening_hours": null,
            "phone": null,
            "branch": null,
            "amenity": "appliance",
            "mobile": null,
            "addr:street": null,
            "cuisine": null,
            "name": "Arçelik",
            "name:en": null,
            "name:uk": null,
            "name:de": null,
            "name:tr": null,
            "name:ru": null,
            "name:ar": null
        }
    },
    {
        "lat": 41.0587488,
        "lon": 28.9140981,
        "tags": {
            "addr:city": "İstanbul",
            "addr:district": null,
            "description": "",
            "opening_hours": null,
            "phone": null,
            "branch": null,
            "amenity": "appliance",
            "mobile": null,
            "addr:street": null,
            "cuisine": null,
            "name": "Vestel",
            "name:en": null,
            "name:uk": null,
            "name:de": null,
            "name:tr": null,
            "name:ru": null,
            "name:ar": null
        }
    },
    {
        "lat": 41.0589801,
        "lon": 28.9139867,
        "tags": {
            "addr:city": "İstanbul",
            "addr:district": null,
            "description": "",
            "opening_hours": null,
            "phone": null,
            "branch": null,
            "amenity": "appliance",
            "mobile": null,
            "addr:street": null,
            "cuisine": null,
            "name": "Bosch",
            "name:en": null,
            "name:uk": null,
            "name:de": null,
            "name:tr": null,
            "name:ru": null,
            "name:ar": null
        }
    },
    {
        "lat": 41.0464939,
        "lon": 28.9841869,
        "tags": {
            "addr:city": "İstanbul",
            "addr:district": null,
            "description": "",
            "opening_hours": null,
            "phone": null,
            "branch": null,
            "amenity": "appliance",
            "mobile": null,
            "addr:street": null,
            "cuisine": null,
            "name": "Erka Soğutma",
            "name:en": null,
            "name:uk": null,
            "name:de": null,
            "name:tr": null,
            "name:ru": null,
            "name:ar": null
        }
    },
    {
        "lat": 40.9209378,
        "lon": 29.2263603,
        "tags": {
            "addr:city": "İstanbul",
            "addr:district": null,
            "description": "",
            "opening_hours": null,
            "phone": null,
            "branch": null,
            "amenity": "appliance",
            "mobile": null,
            "addr:street": null,
            "cuisine": null,
            "name": "Arçelik",
            "name:en": null,
            "name:uk": null,
            "name:de": null,
            "name:tr": null,
            "name:ru": null,
            "name:ar": null
        }
    },
    {
        "lat": 40.9973242,
        "lon": 28.7077586,
        "tags": {
            "addr:city": "Istanbul",
            "addr:district": "avcılar",
            "description": "",
            "opening_hours": null,
            "phone": null,
            "branch": null,
            "amenity": "appliance",
            "mobile": null,
            "addr:street": "Mareşal Caddesi",
            "cuisine": null,
            "name": "Beko",
            "name:en": null,
            "name:uk": null,
            "name:de": null,
            "name:tr": null,
            "name:ru": null,
            "name:ar": null
        }
    },
    {
        "lat": 40.9162521,
        "lon": 29.1998177,
        "tags": {
            "addr:city": "istanbul",
            "addr:district": null,
            "description": "",
            "opening_hours": null,
            "phone": null,
            "branch": null,
            "amenity": "appliance",
            "mobile": null,
            "addr:street": null,
            "cuisine": null,
            "name": "SIEMENS",
            "name:en": null,
            "name:uk": null,
            "name:de": null,
            "name:tr": null,
            "name:ru": null,
            "name:ar": null
        }
    },
    {
        "lat": 40.9716262,
        "lon": 29.083258,
        "tags": {
            "addr:city": "İstanbul",
            "addr:district": null,
            "description": "",
            "opening_hours": null,
            "phone": null,
            "branch": null,
            "amenity": "appliance",
            "mobile": null,
            "addr:street": null,
            "cuisine": null,
            "name": "Arçelik",
            "name:en": null,
            "name:uk": null,
            "name:de": null,
            "name:tr": null,
            "name:ru": null,
            "name:ar": null
        }
    },
    {
        "lat": 40.9700129,
        "lon": 29.0846875,
        "tags": {
            "addr:city": "İstanbul",
            "addr:district": null,
            "description": "",
            "opening_hours": null,
            "phone": null,
            "branch": null,
            "amenity": "appliance",
            "mobile": null,
            "addr:street": null,
            "cuisine": null,
            "name": "Bosch",
            "name:en": null,
            "name:uk": null,
            "name:de": null,
            "name:tr": null,
            "name:ru": null,
            "name:ar": null
        }
    },
    {
        "lat": 40.9253049,
        "lon": 29.130666,
        "tags": {
            "addr:city": "İstanbul",
            "addr:district": null,
            "description": "",
            "opening_hours": null,
            "phone": null,
            "branch": null,
            "amenity": "appliance",
            "mobile": null,
            "addr:street": null,
            "cuisine": null,
            "name": "Bosch",
            "name:en": null,
            "name:uk": null,
            "name:de": null,
            "name:tr": null,
            "name:ru": null,
            "name:ar": null
        }
    },
    {
        "lat": 40.976474,
        "lon": 29.0488477,
        "tags": {
            "addr:city": "İstanbul",
            "addr:district": null,
            "description": "",
            "opening_hours": null,
            "phone": null,
            "branch": null,
            "amenity": "appliance",
            "mobile": null,
            "addr:street": null,
            "cuisine": null,
            "name": "Bosch",
            "name:en": null,
            "name:uk": null,
            "name:de": null,
            "name:tr": null,
            "name:ru": null,
            "name:ar": null
        }
    },
    {
        "lat": 40.9484726,
        "lon": 29.1066063,
        "tags": {
            "addr:city": "İstanbul",
            "addr:district": null,
            "description": "",
            "opening_hours": null,
            "phone": null,
            "branch": null,
            "amenity": "appliance",
            "mobile": null,
            "addr:street": null,
            "cuisine": null,
            "name": "Beko",
            "name:en": null,
            "name:uk": null,
            "name:de": null,
            "name:tr": null,
            "name:ru": null,
            "name:ar": null
        }
    },
    {
        "lat": 40.9811099,
        "lon": 29.0412632,
        "tags": {
            "addr:city": "İstanbul",
            "addr:district": null,
            "description": "",
            "opening_hours": null,
            "phone": null,
            "branch": null,
            "amenity": "appliance",
            "mobile": null,
            "addr:street": null,
            "cuisine": null,
            "name": "Vestel Ekspres",
            "name:en": null,
            "name:uk": null,
            "name:de": null,
            "name:tr": null,
            "name:ru": null,
            "name:ar": null
        }
    },
    {
        "lat": 40.9796309,
        "lon": 29.1147556,
        "tags": {
            "addr:city": "İstanbul",
            "addr:district": null,
            "description": "",
            "opening_hours": null,
            "phone": null,
            "branch": null,
            "amenity": "appliance",
            "mobile": null,
            "addr:street": null,
            "cuisine": null,
            "name": "Vestel Ekspres",
            "name:en": null,
            "name:uk": null,
            "name:de": null,
            "name:tr": null,
            "name:ru": null,
            "name:ar": null
        }
    },
    {
        "lat": 40.9484848,
        "lon": 29.1061637,
        "tags": {
            "addr:city": "İstanbul",
            "addr:district": null,
            "description": "",
            "opening_hours": null,
            "phone": "444 6 688",
            "branch": null,
            "amenity": "appliance",
            "mobile": null,
            "addr:street": null,
            "cuisine": null,
            "name": "Siemens",
            "name:en": null,
            "name:uk": null,
            "name:de": null,
            "name:tr": null,
            "name:ru": null,
            "name:ar": null
        }
    },
    {
        "lat": 40.9789963,
        "lon": 29.114237,
        "tags": {
            "addr:city": "İstanbul",
            "addr:district": null,
            "description": "",
            "opening_hours": null,
            "phone": null,
            "branch": null,
            "amenity": "appliance",
            "mobile": null,
            "addr:street": null,
            "cuisine": null,
            "name": "Beko",
            "name:en": null,
            "name:uk": null,
            "name:de": null,
            "name:tr": null,
            "name:ru": null,
            "name:ar": null
        }
    },
    {
        "lat": 40.9788158,
        "lon": 29.1154762,
        "tags": {
            "addr:city": "İstanbul",
            "addr:district": null,
            "description": "",
            "opening_hours": null,
            "phone": null,
            "branch": null,
            "amenity": "appliance",
            "mobile": null,
            "addr:street": null,
            "cuisine": null,
            "name": "Arçelik",
            "name:en": null,
            "name:uk": null,
            "name:de": null,
            "name:tr": null,
            "name:ru": null,
            "name:ar": null
        }
    },
    {
        "lat": 41.0124805,
        "lon": 29.1282932,
        "tags": {
            "addr:city": "İstanbul",
            "addr:district": null,
            "description": "",
            "opening_hours": null,
            "phone": null,
            "branch": null,
            "amenity": "appliance",
            "mobile": null,
            "addr:street": null,
            "cuisine": null,
            "name": "Arçelik",
            "name:en": null,
            "name:uk": null,
            "name:de": null,
            "name:tr": null,
            "name:ru": null,
            "name:ar": null
        }
    },
    {
        "lat": 41.0116385,
        "lon": 29.1281856,
        "tags": {
            "addr:city": "İstanbul",
            "addr:district": null,
            "description": "",
            "opening_hours": null,
            "phone": null,
            "branch": null,
            "amenity": "appliance",
            "mobile": null,
            "addr:street": null,
            "cuisine": null,
            "name": "Beko",
            "name:en": null,
            "name:uk": null,
            "name:de": null,
            "name:tr": null,
            "name:ru": null,
            "name:ar": null
        }
    },
    {
        "lat": 40.9712717,
        "lon": 29.052617,
        "tags": {
            "addr:city": "İstanbul",
            "addr:district": null,
            "description": "",
            "opening_hours": null,
            "phone": null,
            "branch": null,
            "amenity": "appliance",
            "mobile": null,
            "addr:street": null,
            "cuisine": null,
            "name": "Miele",
            "name:en": null,
            "name:uk": null,
            "name:de": null,
            "name:tr": null,
            "name:ru": null,
            "name:ar": null
        }
    },
    {
        "lat": 41.0304253,
        "lon": 28.8284269,
        "tags": {
            "addr:city": "Istanbul",
            "addr:district": "Bağcılar",
            "description": "",
            "opening_hours": "Mo-Su 09:30-20:30",
            "phone": "+905355888009",
            "branch": null,
            "amenity": "appliance",
            "mobile": null,
            "addr:street": "86. Sokak",
            "cuisine": null,
            "name": "Siemens Efe Teknolojik Aletler Dayanıklı Tüketim Malları Ticaret Limited Şirketi",
            "name:en": null,
            "name:uk": null,
            "name:de": null,
            "name:tr": null,
            "name:ru": null,
            "name:ar": null
        }
    },
    {
        "lat": 40.8783278,
        "lon": 29.2273014,
        "tags": {
            "addr:city": "İstanbul",
            "addr:district": null,
            "description": "",
            "opening_hours": null,
            "phone": null,
            "branch": null,
            "amenity": "appliance",
            "mobile": null,
            "addr:street": null,
            "cuisine": null,
            "name": "Arçelik",
            "name:en": null,
            "name:uk": null,
            "name:de": null,
            "name:tr": null,
            "name:ru": null,
            "name:ar": null
        }
    },
    {
        "lat": 40.9828707,
        "lon": 29.0632836,
        "tags": {
            "addr:city": "İstanbul",
            "addr:district": null,
            "description": "",
            "opening_hours": null,
            "phone": null,
            "branch": null,
            "amenity": "appliance",
            "mobile": null,
            "addr:street": null,
            "cuisine": null,
            "name": "Bosch",
            "name:en": null,
            "name:uk": null,
            "name:de": null,
            "name:tr": null,
            "name:ru": null,
            "name:ar": null
        }
    },
    {
        "lat": 40.9827443,
        "lon": 29.0640065,
        "tags": {
            "addr:city": "İstanbul",
            "addr:district": null,
            "description": "",
            "opening_hours": null,
            "phone": null,
            "branch": null,
            "amenity": "appliance",
            "mobile": null,
            "addr:street": null,
            "cuisine": null,
            "name": "Siemens Kayın Ticaret",
            "name:en": null,
            "name:uk": null,
            "name:de": null,
            "name:tr": null,
            "name:ru": null,
            "name:ar": null
        }
    },
    {
        "lat": 41.0359438,
        "lon": 28.9100948,
        "tags": {
            "addr:city": "İstanbul",
            "addr:district": null,
            "description": "",
            "opening_hours": null,
            "phone": null,
            "branch": null,
            "amenity": "appliance",
            "mobile": null,
            "addr:street": null,
            "cuisine": null,
            "name": "Arçelik",
            "name:en": null,
            "name:uk": null,
            "name:de": null,
            "name:tr": null,
            "name:ru": null,
            "name:ar": null
        }
    },
    {
        "lat": 41.0289765,
        "lon": 28.6829052,
        "tags": {
            "addr:city": "İstanbul",
            "addr:district": null,
            "description": "",
            "opening_hours": null,
            "phone": null,
            "branch": null,
            "amenity": "appliance",
            "mobile": null,
            "addr:street": null,
            "cuisine": null,
            "name": "Arçelik",
            "name:en": null,
            "name:uk": null,
            "name:de": null,
            "name:tr": null,
            "name:ru": null,
            "name:ar": null
        }
    },
    {
        "lat": 41.1142839,
        "lon": 28.9978283,
        "tags": {
            "addr:city": "İstanbul",
            "addr:district": null,
            "description": "",
            "opening_hours": null,
            "phone": null,
            "branch": null,
            "amenity": "appliance",
            "mobile": null,
            "addr:street": null,
            "cuisine": null,
            "name": "Samsung",
            "name:en": null,
            "name:uk": null,
            "name:de": null,
            "name:tr": null,
            "name:ru": null,
            "name:ar": null
        }
    },
    {
        "lat": 41.1138405,
        "lon": 28.9976688,
        "tags": {
            "addr:city": "İstanbul",
            "addr:district": null,
            "description": "",
            "opening_hours": null,
            "phone": null,
            "branch": null,
            "amenity": "appliance",
            "mobile": null,
            "addr:street": null,
            "cuisine": null,
            "name": "Arçelik",
            "name:en": null,
            "name:uk": null,
            "name:de": null,
            "name:tr": null,
            "name:ru": null,
            "name:ar": null
        }
    },
    {
        "lat": 41.1157971,
        "lon": 28.99874,
        "tags": {
            "addr:city": "İstanbul",
            "addr:district": null,
            "description": "",
            "opening_hours": null,
            "phone": null,
            "branch": null,
            "amenity": "appliance",
            "mobile": null,
            "addr:street": null,
            "cuisine": null,
            "name": "Profilo",
            "name:en": null,
            "name:uk": null,
            "name:de": null,
            "name:tr": null,
            "name:ru": null,
            "name:ar": null
        }
    },
    {
        "lat": 41.1141553,
        "lon": 28.9977428,
        "tags": {
            "addr:city": "İstanbul",
            "addr:district": null,
            "description": "",
            "opening_hours": null,
            "phone": null,
            "branch": null,
            "amenity": "appliance",
            "mobile": null,
            "addr:street": null,
            "cuisine": null,
            "name": "Bosch",
            "name:en": null,
            "name:uk": null,
            "name:de": null,
            "name:tr": null,
            "name:ru": null,
            "name:ar": null
        }
    },
    {
        "lat": 41.1143066,
        "lon": 28.9978465,
        "tags": {
            "addr:city": "İstanbul",
            "addr:district": null,
            "description": "",
            "opening_hours": null,
            "phone": null,
            "branch": null,
            "amenity": "appliance",
            "mobile": null,
            "addr:street": null,
            "cuisine": null,
            "name": "Vestel Ekspres",
            "name:en": null,
            "name:uk": null,
            "name:de": null,
            "name:tr": null,
            "name:ru": null,
            "name:ar": null
        }
    },
    {
        "lat": 40.982774,
        "lon": 29.0637338,
        "tags": {
            "addr:city": "İstanbul",
            "addr:district": null,
            "description": "",
            "opening_hours": null,
            "phone": null,
            "branch": null,
            "amenity": "appliance",
            "mobile": null,
            "addr:street": null,
            "cuisine": null,
            "name": "Arçelik",
            "name:en": null,
            "name:uk": null,
            "name:de": null,
            "name:tr": null,
            "name:ru": null,
            "name:ar": null
        }
    },
    {
        "lat": 40.8688233,
        "lon": 29.323235,
        "tags": {
            "addr:city": "İstanbul",
            "addr:district": null,
            "description": "",
            "opening_hours": null,
            "phone": null,
            "branch": null,
            "amenity": "appliance",
            "mobile": null,
            "addr:street": null,
            "cuisine": null,
            "name": "Vestel",
            "name:en": null,
            "name:uk": null,
            "name:de": null,
            "name:tr": null,
            "name:ru": null,
            "name:ar": null
        }
    },
    {
        "lat": 41.0984669,
        "lon": 28.9016182,
        "tags": {
            "addr:city": "İstanbul",
            "addr:district": null,
            "description": "",
            "opening_hours": null,
            "phone": null,
            "branch": null,
            "amenity": "appliance",
            "mobile": null,
            "addr:street": null,
            "cuisine": null,
            "name": "Arçelik",
            "name:en": null,
            "name:uk": null,
            "name:de": null,
            "name:tr": null,
            "name:ru": null,
            "name:ar": null
        }
    },
    {
        "lat": 41.0242199,
        "lon": 29.1071108,
        "tags": {
            "addr:city": "İstanbul",
            "addr:district": null,
            "description": "",
            "opening_hours": null,
            "phone": null,
            "branch": null,
            "amenity": "appliance",
            "mobile": null,
            "addr:street": null,
            "cuisine": null,
            "name": "ElectroStore",
            "name:en": null,
            "name:uk": null,
            "name:de": null,
            "name:tr": null,
            "name:ru": null,
            "name:ar": null
        }
    },
    {
        "lat": 40.9798881,
        "lon": 29.0822371,
        "tags": {
            "addr:city": "İstanbul",
            "addr:district": null,
            "description": "",
            "opening_hours": null,
            "phone": null,
            "branch": null,
            "amenity": "appliance",
            "mobile": null,
            "addr:street": null,
            "cuisine": null,
            "name": "Arçelik",
            "name:en": null,
            "name:uk": null,
            "name:de": null,
            "name:tr": null,
            "name:ru": null,
            "name:ar": null
        }
    },
    {
        "lat": 40.9813702,
        "lon": 28.7223589,
        "tags": {
            "addr:city": "İstanbul",
            "addr:district": null,
            "description": "",
            "opening_hours": null,
            "phone": null,
            "branch": null,
            "amenity": "appliance",
            "mobile": null,
            "addr:street": null,
            "cuisine": null,
            "name": "Beko",
            "name:en": null,
            "name:uk": null,
            "name:de": null,
            "name:tr": null,
            "name:ru": null,
            "name:ar": null
        }
    },
    {
        "lat": 40.981086,
        "lon": 28.7219296,
        "tags": {
            "addr:city": "İstanbul",
            "addr:district": null,
            "description": "",
            "opening_hours": null,
            "phone": null,
            "branch": null,
            "amenity": "appliance",
            "mobile": null,
            "addr:street": null,
            "cuisine": null,
            "name": "Arçelik",
            "name:en": null,
            "name:uk": null,
            "name:de": null,
            "name:tr": null,
            "name:ru": null,
            "name:ar": null
        }
    },
    {
        "lat": 41.0734093,
        "lon": 28.2498051,
        "tags": {
            "addr:city": "İstanbul",
            "addr:district": null,
            "description": "",
            "opening_hours": null,
            "phone": null,
            "branch": null,
            "amenity": "appliance",
            "mobile": null,
            "addr:street": null,
            "cuisine": null,
            "name": "Arçelik",
            "name:en": null,
            "name:uk": null,
            "name:de": null,
            "name:tr": null,
            "name:ru": null,
            "name:ar": null
        }
    },
    {
        "lat": 40.9809299,
        "lon": 29.0412821,
        "tags": {
            "addr:city": "İstanbul",
            "addr:district": null,
            "description": "",
            "opening_hours": null,
            "phone": null,
            "branch": null,
            "amenity": "appliance",
            "mobile": null,
            "addr:street": null,
            "cuisine": null,
            "name": "Arçelik",
            "name:en": null,
            "name:uk": null,
            "name:de": null,
            "name:tr": null,
            "name:ru": null,
            "name:ar": null
        }
    },
    {
        "lat": 40.9737886,
        "lon": 29.0824602,
        "tags": {
            "addr:city": "İstanbul",
            "addr:district": "Kadıköy",
            "description": "",
            "opening_hours": null,
            "phone": null,
            "branch": null,
            "amenity": "appliance",
            "mobile": null,
            "addr:street": "Şemsettin Günaltay Caddesi",
            "cuisine": null,
            "name": "Gürbüz",
            "name:en": null,
            "name:uk": null,
            "name:de": null,
            "name:tr": null,
            "name:ru": null,
            "name:ar": null
        }
    },
    {
        "lat": 40.9761054,
        "lon": 29.0800488,
        "tags": {
            "addr:city": "İstanbul",
            "addr:district": "Kadıköy",
            "description": "",
            "opening_hours": null,
            "phone": null,
            "branch": null,
            "amenity": "appliance",
            "mobile": null,
            "addr:street": "Şemsettin Günaltay Caddesi",
            "cuisine": null,
            "name": "Gürbüz Ev Aletleri",
            "name:en": null,
            "name:uk": null,
            "name:de": null,
            "name:tr": null,
            "name:ru": null,
            "name:ar": null
        }
    },
    {
        "lat": 41.0101363,
        "lon": 29.2109418,
        "tags": {
            "addr:city": "İstanbul",
            "addr:district": null,
            "description": "",
            "opening_hours": null,
            "phone": null,
            "branch": null,
            "amenity": "appliance",
            "mobile": null,
            "addr:street": null,
            "cuisine": null,
            "name": "Vestel",
            "name:en": null,
            "name:uk": null,
            "name:de": null,
            "name:tr": null,
            "name:ru": null,
            "name:ar": null
        }
    },
    {
        "lat": 40.9759191,
        "lon": 29.1223575,
        "tags": {
            "addr:city": "İstanbul",
            "addr:district": "Ataşehir",
            "description": "",
            "opening_hours": null,
            "phone": "+90 216 5772737",
            "branch": null,
            "amenity": "appliance",
            "mobile": null,
            "addr:street": "Prof. Dr. Necmettin Erbakan Caddesi",
            "cuisine": null,
            "name": "Uğur Yetkili Bayii",
            "name:en": null,
            "name:uk": null,
            "name:de": null,
            "name:tr": null,
            "name:ru": null,
            "name:ar": null
        }
    },
    {
        "lat": 41.0808623,
        "lon": 28.9727491,
        "tags": {
            "addr:city": "İstanbul",
            "addr:district": null,
            "description": "",
            "opening_hours": null,
            "phone": null,
            "branch": null,
            "amenity": "appliance",
            "mobile": null,
            "addr:street": null,
            "cuisine": null,
            "name": "Bosch",
            "name:en": null,
            "name:uk": null,
            "name:de": null,
            "name:tr": null,
            "name:ru": null,
            "name:ar": null
        }
    },
    {
        "lat": 41.0812647,
        "lon": 28.9728802,
        "tags": {
            "addr:city": "İstanbul",
            "addr:district": null,
            "description": "",
            "opening_hours": null,
            "phone": null,
            "branch": null,
            "amenity": "appliance",
            "mobile": null,
            "addr:street": null,
            "cuisine": null,
            "name": "Vestel Ekspres",
            "name:en": null,
            "name:uk": null,
            "name:de": null,
            "name:tr": null,
            "name:ru": null,
            "name:ar": null
        }
    },
    {
        "lat": 41.080934,
        "lon": 28.972876,
        "tags": {
            "addr:city": "İstanbul",
            "addr:district": null,
            "description": "",
            "opening_hours": null,
            "phone": null,
            "branch": null,
            "amenity": "appliance",
            "mobile": null,
            "addr:street": null,
            "cuisine": null,
            "name": "Arçelik",
            "name:en": null,
            "name:uk": null,
            "name:de": null,
            "name:tr": null,
            "name:ru": null,
            "name:ar": null
        }
    },
    {
        "lat": 41.0203896,
        "lon": 28.5803636,
        "tags": {
            "addr:city": "İstanbul",
            "addr:district": null,
            "description": "",
            "opening_hours": null,
            "phone": null,
            "branch": null,
            "amenity": "appliance",
            "mobile": null,
            "addr:street": null,
            "cuisine": null,
            "name": "Siemens",
            "name:en": null,
            "name:uk": null,
            "name:de": null,
            "name:tr": null,
            "name:ru": null,
            "name:ar": null
        }
    },
    {
        "lat": 41.021441,
        "lon": 28.5793365,
        "tags": {
            "addr:city": "İstanbul",
            "addr:district": null,
            "description": "",
            "opening_hours": null,
            "phone": null,
            "branch": null,
            "amenity": "appliance",
            "mobile": null,
            "addr:street": null,
            "cuisine": null,
            "name": "Profilo",
            "name:en": null,
            "name:uk": null,
            "name:de": null,
            "name:tr": null,
            "name:ru": null,
            "name:ar": null
        }
    },
    {
        "lat": 40.9803446,
        "lon": 29.0656805,
        "tags": {
            "addr:city": "İstanbul",
            "addr:district": null,
            "description": "",
            "opening_hours": null,
            "phone": null,
            "branch": null,
            "amenity": "appliance",
            "mobile": null,
            "addr:street": null,
            "cuisine": null,
            "name": "Bilgiler Beyaz Eşya",
            "name:en": null,
            "name:uk": null,
            "name:de": null,
            "name:tr": null,
            "name:ru": null,
            "name:ar": null
        }
    },
    {
        "lat": 40.9807101,
        "lon": 29.0784494,
        "tags": {
            "addr:city": "İstanbul",
            "addr:district": null,
            "description": "",
            "opening_hours": null,
            "phone": null,
            "branch": null,
            "amenity": "appliance",
            "mobile": null,
            "addr:street": null,
            "cuisine": null,
            "name": "Arçelik",
            "name:en": null,
            "name:uk": null,
            "name:de": null,
            "name:tr": null,
            "name:ru": null,
            "name:ar": null
        }
    },
    {
        "lat": 41.0015853,
        "lon": 28.8569988,
        "tags": {
            "addr:city": "İstanbul",
            "addr:district": null,
            "description": "",
            "opening_hours": null,
            "phone": null,
            "branch": null,
            "amenity": "appliance",
            "mobile": null,
            "addr:street": null,
            "cuisine": null,
            "name": "Arçelik",
            "name:en": null,
            "name:uk": null,
            "name:de": null,
            "name:tr": null,
            "name:ru": null,
            "name:ar": null
        }
    },
    {
        "lat": 41.082911,
        "lon": 28.9137223,
        "tags": {
            "addr:city": "İstanbul",
            "addr:district": null,
            "description": "",
            "opening_hours": null,
            "phone": null,
            "branch": null,
            "amenity": "appliance",
            "mobile": null,
            "addr:street": null,
            "cuisine": null,
            "name": "Beko",
            "name:en": null,
            "name:uk": null,
            "name:de": null,
            "name:tr": null,
            "name:ru": null,
            "name:ar": null
        }
    },
    {
        "lat": 41.0830232,
        "lon": 28.9135125,
        "tags": {
            "addr:city": "İstanbul",
            "addr:district": null,
            "description": "",
            "opening_hours": null,
            "phone": null,
            "branch": null,
            "amenity": "appliance",
            "mobile": null,
            "addr:street": null,
            "cuisine": null,
            "name": "Profilo",
            "name:en": null,
            "name:uk": null,
            "name:de": null,
            "name:tr": null,
            "name:ru": null,
            "name:ar": null
        }
    },
    {
        "lat": 40.9514647,
        "lon": 29.1023311,
        "tags": {
            "addr:city": "İstanbul",
            "addr:district": null,
            "description": "",
            "opening_hours": "Mo-Su 09:00-20:00",
            "phone": null,
            "branch": null,
            "amenity": "appliance",
            "mobile": null,
            "addr:street": "Bağdat Cd.",
            "cuisine": null,
            "name": "Beko",
            "name:en": null,
            "name:uk": null,
            "name:de": null,
            "name:tr": null,
            "name:ru": null,
            "name:ar": null
        }
    },
    {
        "lat": 40.9590215,
        "lon": 29.0837993,
        "tags": {
            "addr:city": "İstanbul",
            "addr:district": "Kadıköy",
            "description": "",
            "opening_hours": null,
            "phone": null,
            "branch": null,
            "amenity": "appliance",
            "mobile": null,
            "addr:street": "Öncü Sokağı",
            "cuisine": null,
            "name": "Tefal",
            "name:en": null,
            "name:uk": null,
            "name:de": null,
            "name:tr": null,
            "name:ru": null,
            "name:ar": null
        }
    },
    {
        "lat": 40.9630346,
        "lon": 29.0854263,
        "tags": {
            "addr:city": "İstanbul",
            "addr:district": null,
            "description": "",
            "opening_hours": null,
            "phone": null,
            "branch": null,
            "amenity": "appliance",
            "mobile": null,
            "addr:street": null,
            "cuisine": null,
            "name": "Siemens Gamze Ticaret",
            "name:en": null,
            "name:uk": null,
            "name:de": null,
            "name:tr": null,
            "name:ru": null,
            "name:ar": null
        }
    },
    {
        "lat": 40.9734761,
        "lon": 29.0553949,
        "tags": {
            "addr:city": "İstanbul",
            "addr:district": "Kadıköy",
            "description": "",
            "opening_hours": null,
            "phone": null,
            "branch": null,
            "amenity": "appliance",
            "mobile": null,
            "addr:street": "Bağdat Caddesi",
            "cuisine": null,
            "name": "Arçelik",
            "name:en": null,
            "name:uk": null,
            "name:de": null,
            "name:tr": null,
            "name:ru": null,
            "name:ar": null
        }
    },
    {
        "lat": 41.1789614,
        "lon": 28.8910766,
        "tags": {
            "addr:city": "İstanbul",
            "addr:district": null,
            "description": "",
            "opening_hours": null,
            "phone": null,
            "branch": null,
            "amenity": "appliance",
            "mobile": null,
            "addr:street": null,
            "cuisine": null,
            "name": "Arçelik",
            "name:en": null,
            "name:uk": null,
            "name:de": null,
            "name:tr": null,
            "name:ru": null,
            "name:ar": null
        }
    },
    {
        "lat": 41.0365534,
        "lon": 28.8196515,
        "tags": {
            "addr:city": "İstanbul",
            "addr:district": null,
            "description": "",
            "opening_hours": null,
            "phone": null,
            "branch": null,
            "amenity": "appliance",
            "mobile": null,
            "addr:street": null,
            "cuisine": null,
            "name": "Profilo",
            "name:en": null,
            "name:uk": null,
            "name:de": null,
            "name:tr": null,
            "name:ru": null,
            "name:ar": null
        }
    },
    {
        "lat": 40.9755842,
        "lon": 29.052486,
        "tags": {
            "addr:city": "İstanbul",
            "addr:district": "Kadıköy",
            "description": "",
            "opening_hours": null,
            "phone": null,
            "branch": null,
            "amenity": "appliance",
            "mobile": null,
            "addr:street": "Bağdat Caddesi",
            "cuisine": null,
            "name": "Liebherr",
            "name:en": null,
            "name:uk": null,
            "name:de": null,
            "name:tr": null,
            "name:ru": null,
            "name:ar": null
        }
    },
    {
        "lat": 41.0247633,
        "lon": 29.0361038,
        "tags": {
            "addr:city": "İstanbul",
            "addr:district": null,
            "description": "",
            "opening_hours": null,
            "phone": null,
            "branch": null,
            "amenity": "appliance",
            "mobile": null,
            "addr:street": null,
            "cuisine": null,
            "name": "Beko",
            "name:en": null,
            "name:uk": null,
            "name:de": null,
            "name:tr": null,
            "name:ru": null,
            "name:ar": null
        }
    },
    {
        "lat": 40.9769405,
        "lon": 29.0762784,
        "tags": {
            "addr:city": "bsite",
            "addr:district": "Kadıköy",
            "description": "",
            "opening_hours": null,
            "phone": null,
            "branch": null,
            "amenity": "appliance",
            "mobile": null,
            "addr:street": "Ethem Efendi Caddesi",
            "cuisine": null,
            "name": "Tefal",
            "name:en": null,
            "name:uk": null,
            "name:de": null,
            "name:tr": null,
            "name:ru": null,
            "name:ar": null
        }
    },
    {
        "lat": 40.9834623,
        "lon": 29.0397924,
        "tags": {
            "addr:city": "İstanbul",
            "addr:district": "Kadıköy",
            "description": "",
            "opening_hours": null,
            "phone": null,
            "branch": null,
            "amenity": "appliance",
            "mobile": null,
            "addr:street": "Bağdat Caddesi",
            "cuisine": null,
            "name": "Arçelik",
            "name:en": null,
            "name:uk": null,
            "name:de": null,
            "name:tr": null,
            "name:ru": null,
            "name:ar": null
        }
    },
    {
        "lat": 41.0271262,
        "lon": 29.0964064,
        "tags": {
            "addr:city": "İstanbul",
            "addr:district": null,
            "description": "",
            "opening_hours": null,
            "phone": null,
            "branch": null,
            "amenity": "appliance",
            "mobile": null,
            "addr:street": null,
            "cuisine": null,
            "name": "İhlas Mağazası",
            "name:en": null,
            "name:uk": null,
            "name:de": null,
            "name:tr": null,
            "name:ru": null,
            "name:ar": null
        }
    },
    {
        "lat": 40.9243984,
        "lon": 29.1347682,
        "tags": {
            "addr:city": "İstanbul",
            "addr:district": null,
            "description": "",
            "opening_hours": null,
            "phone": null,
            "branch": null,
            "amenity": "appliance",
            "mobile": null,
            "addr:street": null,
            "cuisine": null,
            "name": "Karaca Home",
            "name:en": null,
            "name:uk": null,
            "name:de": null,
            "name:tr": null,
            "name:ru": null,
            "name:ar": null
        }
    },
    {
        "lat": 40.9260031,
        "lon": 29.1322487,
        "tags": {
            "addr:city": "İstanbul",
            "addr:district": null,
            "description": "",
            "opening_hours": null,
            "phone": null,
            "branch": null,
            "amenity": "appliance",
            "mobile": null,
            "addr:street": null,
            "cuisine": null,
            "name": "Arçelik",
            "name:en": null,
            "name:uk": null,
            "name:de": null,
            "name:tr": null,
            "name:ru": null,
            "name:ar": null
        }
    },
    {
        "lat": 40.9135885,
        "lon": 29.297929,
        "tags": {
            "addr:city": "İstanbul",
            "addr:district": null,
            "description": "",
            "opening_hours": null,
            "phone": null,
            "branch": null,
            "amenity": "appliance",
            "mobile": null,
            "addr:street": null,
            "cuisine": null,
            "name": "Arçelik",
            "name:en": null,
            "name:uk": null,
            "name:de": null,
            "name:tr": null,
            "name:ru": null,
            "name:ar": null
        }
    },
    {
        "lat": 41.0342155,
        "lon": 28.8579855,
        "tags": {
            "addr:city": "İstanbul",
            "addr:district": null,
            "description": "",
            "opening_hours": null,
            "phone": null,
            "branch": null,
            "amenity": "appliance",
            "mobile": null,
            "addr:street": null,
            "cuisine": null,
            "name": "Beko",
            "name:en": null,
            "name:uk": null,
            "name:de": null,
            "name:tr": null,
            "name:ru": null,
            "name:ar": null
        }
    },
    {
        "lat": 40.9228898,
        "lon": 29.1345249,
        "tags": {
            "addr:city": "İstanbul",
            "addr:district": null,
            "description": "",
            "opening_hours": null,
            "phone": null,
            "branch": null,
            "amenity": "appliance",
            "mobile": null,
            "addr:street": null,
            "cuisine": null,
            "name": "Beko",
            "name:en": null,
            "name:uk": null,
            "name:de": null,
            "name:tr": null,
            "name:ru": null,
            "name:ar": null
        }
    },
    {
        "lat": 40.9875497,
        "lon": 29.2319614,
        "tags": {
            "addr:city": "İstanbul",
            "addr:district": null,
            "description": "",
            "opening_hours": null,
            "phone": null,
            "branch": null,
            "amenity": "appliance",
            "mobile": null,
            "addr:street": null,
            "cuisine": null,
            "name": "Beko",
            "name:en": null,
            "name:uk": null,
            "name:de": null,
            "name:tr": null,
            "name:ru": null,
            "name:ar": null
        }
    },
    {
        "lat": 41.0252719,
        "lon": 29.0905285,
        "tags": {
            "addr:city": "İstanbul",
            "addr:district": null,
            "description": "",
            "opening_hours": null,
            "phone": null,
            "branch": null,
            "amenity": "appliance",
            "mobile": null,
            "addr:street": null,
            "cuisine": null,
            "name": "senetsepet.com",
            "name:en": null,
            "name:uk": null,
            "name:de": null,
            "name:tr": "senetsepet.com",
            "name:ru": null,
            "name:ar": null
        }
    },
    {
        "lat": 41.0247349,
        "lon": 29.0860177,
        "tags": {
            "addr:city": "İstanbul",
            "addr:district": null,
            "description": "",
            "opening_hours": null,
            "phone": null,
            "branch": null,
            "amenity": "appliance",
            "mobile": null,
            "addr:street": null,
            "cuisine": null,
            "name": "Arçelik",
            "name:en": null,
            "name:uk": null,
            "name:de": null,
            "name:tr": "Arçelik",
            "name:ru": null,
            "name:ar": null
        }
    },
    {
        "lat": 41.0245928,
        "lon": 29.0864609,
        "tags": {
            "addr:city": "İstanbul",
            "addr:district": null,
            "description": "",
            "opening_hours": null,
            "phone": null,
            "branch": null,
            "amenity": "appliance",
            "mobile": null,
            "addr:street": null,
            "cuisine": null,
            "name": "Vestel",
            "name:en": null,
            "name:uk": null,
            "name:de": null,
            "name:tr": "Vestel",
            "name:ru": null,
            "name:ar": null
        }
    },
    {
        "lat": 41.0246764,
        "lon": 29.0874993,
        "tags": {
            "addr:city": "İstanbul",
            "addr:district": null,
            "description": "",
            "opening_hours": null,
            "phone": null,
            "branch": null,
            "amenity": "appliance",
            "mobile": null,
            "addr:street": null,
            "cuisine": null,
            "name": "Beko",
            "name:en": null,
            "name:uk": null,
            "name:de": null,
            "name:tr": "Beko",
            "name:ru": null,
            "name:ar": null
        }
    },
    {
        "lat": 41.0249056,
        "lon": 29.0895896,
        "tags": {
            "addr:city": "İstanbul",
            "addr:district": null,
            "description": "",
            "opening_hours": null,
            "phone": null,
            "branch": null,
            "amenity": "appliance",
            "mobile": null,
            "addr:street": null,
            "cuisine": null,
            "name": "Arçelik",
            "name:en": null,
            "name:uk": null,
            "name:de": null,
            "name:tr": "arçelik",
            "name:ru": null,
            "name:ar": null
        }
    },
    {
        "lat": 41.0253402,
        "lon": 29.0913099,
        "tags": {
            "addr:city": "İstanbul",
            "addr:district": null,
            "description": "",
            "opening_hours": null,
            "phone": null,
            "branch": null,
            "amenity": "appliance",
            "mobile": null,
            "addr:street": null,
            "cuisine": null,
            "name": "Yön AVM",
            "name:en": null,
            "name:uk": null,
            "name:de": null,
            "name:tr": "Yön AVM",
            "name:ru": null,
            "name:ar": null
        }
    },
    {
        "lat": 40.9647666,
        "lon": 29.0901469,
        "tags": {
            "addr:city": "İstanbul",
            "addr:district": null,
            "description": "",
            "opening_hours": null,
            "phone": null,
            "branch": null,
            "amenity": "appliance",
            "mobile": null,
            "addr:street": null,
            "cuisine": null,
            "name": "Arzum",
            "name:en": null,
            "name:uk": null,
            "name:de": null,
            "name:tr": null,
            "name:ru": null,
            "name:ar": null
        }
    },
    {
        "lat": 40.8780903,
        "lon": 29.2334888,
        "tags": {
            "addr:city": "İstanbul",
            "addr:district": null,
            "description": "",
            "opening_hours": null,
            "phone": null,
            "branch": null,
            "amenity": "appliance",
            "mobile": null,
            "addr:street": "Gazipaşa Caddesi",
            "cuisine": null,
            "name": "Vestel",
            "name:en": null,
            "name:uk": null,
            "name:de": null,
            "name:tr": null,
            "name:ru": null,
            "name:ar": null
        }
    },
    {
        "lat": 40.8770868,
        "lon": 29.2347728,
        "tags": {
            "addr:city": "İstanbul",
            "addr:district": null,
            "description": "",
            "opening_hours": null,
            "phone": null,
            "branch": null,
            "amenity": "appliance",
            "mobile": null,
            "addr:street": null,
            "cuisine": null,
            "name": "Arçelik",
            "name:en": null,
            "name:uk": null,
            "name:de": null,
            "name:tr": null,
            "name:ru": null,
            "name:ar": null
        }
    },
    {
        "lat": 40.9812982,
        "lon": 29.0692623,
        "tags": {
            "addr:city": "İstanbul",
            "addr:district": null,
            "description": "",
            "opening_hours": null,
            "phone": null,
            "branch": null,
            "amenity": "appliance",
            "mobile": null,
            "addr:street": null,
            "cuisine": null,
            "name": "Beko",
            "name:en": null,
            "name:uk": null,
            "name:de": null,
            "name:tr": null,
            "name:ru": null,
            "name:ar": null
        }
    },
    {
        "lat": 41.0400431,
        "lon": 28.9653062,
        "tags": {
            "addr:city": "İstanbul",
            "addr:district": null,
            "description": "",
            "opening_hours": null,
            "phone": null,
            "branch": null,
            "amenity": "appliance",
            "mobile": null,
            "addr:street": null,
            "cuisine": null,
            "name": "Beko",
            "name:en": null,
            "name:uk": null,
            "name:de": null,
            "name:tr": null,
            "name:ru": null,
            "name:ar": null
        }
    },
    {
        "lat": 41.0663127,
        "lon": 28.9051176,
        "tags": {
            "addr:city": "İstanbul",
            "addr:district": null,
            "description": "",
            "opening_hours": null,
            "phone": null,
            "branch": null,
            "amenity": "appliance",
            "mobile": null,
            "addr:street": null,
            "cuisine": null,
            "name": "Vestel Beyaz Eşya",
            "name:en": null,
            "name:uk": null,
            "name:de": null,
            "name:tr": null,
            "name:ru": null,
            "name:ar": null
        }
    }
]