[
    {
        "lat": 41.0299189,
        "lon": 28.9802648,
        "tags": {
            "addr:city": "İstanbul",
            "addr:district": null,
            "description": "",
            "opening_hours": "Tu,Sa 11:00-19:00",
            "phone": null,
            "branch": null,
            "amenity": "art",
            "mobile": null,
            "addr:street": null,
            "cuisine": null,
            "name": "REM Artspace",
            "name:en": null,
            "name:uk": null,
            "name:de": null,
            "name:tr": null,
            "name:ru": null,
            "name:ar": null
        }
    },
    {
        "lat": 41.0285765,
        "lon": 28.9796961,
        "tags": {
            "addr:city": "İstanbul",
            "addr:district": null,
            "description": "",
            "opening_hours": null,
            "phone": null,
            "branch": null,
            "amenity": "art",
            "mobile": null,
            "addr:street": null,
            "cuisine": null,
            "name": "Mixer",
            "name:en": null,
            "name:uk": null,
            "name:de": null,
            "name:tr": null,
            "name:ru": null,
            "name:ar": null
        }
    },
    {
        "lat": 41.0297661,
        "lon": 28.9820831,
        "tags": {
            "addr:city": "Beyoğlu/İstanbul",
            "addr:district": null,
            "description": "Closed on Sunday, Monday",
            "opening_hours": "11:00-18:30",
            "phone": "+90 (212) 292 59 68",
            "branch": null,
            "amenity": "art",
            "mobile": null,
            "addr:street": "Defterdar Yokuşu",
            "cuisine": null,
            "name": "The Empire Project",
            "name:en": null,
            "name:uk": null,
            "name:de": null,
            "name:tr": null,
            "name:ru": null,
            "name:ar": null
        }
    },
    {
        "lat": 41.031638,
        "lon": 28.9750351,
        "tags": {
            "addr:city": "İstanbul",
            "addr:district": null,
            "description": "",
            "opening_hours": null,
            "phone": null,
            "branch": null,
            "amenity": "art",
            "mobile": null,
            "addr:street": null,
            "cuisine": null,
            "name": null,
            "name:en": null,
            "name:uk": null,
            "name:de": null,
            "name:tr": null,
            "name:ru": null,
            "name:ar": null
        }
    },
    {
        "lat": 41.0136622,
        "lon": 28.9790049,
        "tags": {
            "addr:city": "Istanbul",
            "addr:district": "Turkey",
            "description": "",
            "opening_hours": null,
            "phone": null,
            "branch": null,
            "amenity": "art",
            "mobile": null,
            "addr:street": "Tayahatun sokak",
            "cuisine": null,
            "name": "İstanbul Ottoman art",
            "name:en": null,
            "name:uk": null,
            "name:de": null,
            "name:tr": null,
            "name:ru": null,
            "name:ar": null
        }
    },
    {
        "lat": 41.0129343,
        "lon": 28.9787284,
        "tags": {
            "addr:city": "Istanbul",
            "addr:district": "Turkey",
            "description": "",
            "opening_hours": null,
            "phone": null,
            "branch": null,
            "amenity": "art",
            "mobile": null,
            "addr:street": "Tayahatun sokak",
            "cuisine": null,
            "name": "Sufi art house",
            "name:en": null,
            "name:uk": null,
            "name:de": null,
            "name:tr": null,
            "name:ru": null,
            "name:ar": null
        }
    },
    {
        "lat": 41.0125722,
        "lon": 28.9786628,
        "tags": {
            "addr:city": "Istanbul",
            "addr:district": "Turkey",
            "description": "",
            "opening_hours": null,
            "phone": null,
            "branch": null,
            "amenity": "art",
            "mobile": null,
            "addr:street": "Tayahatun sokak",
            "cuisine": null,
            "name": "No name art",
            "name:en": null,
            "name:uk": null,
            "name:de": null,
            "name:tr": null,
            "name:ru": null,
            "name:ar": null
        }
    },
    {
        "lat": 41.0531139,
        "lon": 28.9921992,
        "tags": {
            "addr:city": "İstanbul",
            "addr:district": "Şişli",
            "description": "",
            "opening_hours": null,
            "phone": null,
            "branch": null,
            "amenity": "art",
            "mobile": null,
            "addr:street": "Valikonağı Caddesi",
            "cuisine": null,
            "name": "Mim85",
            "name:en": null,
            "name:uk": null,
            "name:de": null,
            "name:tr": null,
            "name:ru": null,
            "name:ar": null
        }
    },
    {
        "lat": 41.0208227,
        "lon": 28.9447876,
        "tags": {
            "addr:city": "Istanbul",
            "addr:district": "Turkey",
            "description": "",
            "opening_hours": null,
            "phone": null,
            "branch": null,
            "amenity": "art",
            "mobile": null,
            "addr:street": "BAB NAIBI sok.",
            "cuisine": null,
            "name": "Ebru sanati",
            "name:en": null,
            "name:uk": null,
            "name:de": null,
            "name:tr": null,
            "name:ru": null,
            "name:ar": "ابرو للفن"
        }
    },
    {
        "lat": 41.0177044,
        "lon": 28.9477515,
        "tags": {
            "addr:city": "Istanbul",
            "addr:district": "Turkey",
            "description": "",
            "opening_hours": null,
            "phone": null,
            "branch": null,
            "amenity": "art",
            "mobile": null,
            "addr:street": "Halicilar caddesi",
            "cuisine": null,
            "name": "Ugur turafiye",
            "name:en": null,
            "name:uk": null,
            "name:de": null,
            "name:tr": null,
            "name:ru": null,
            "name:ar": "اوغر تورافيه"
        }
    },
    {
        "lat": 41.0173887,
        "lon": 28.947022,
        "tags": {
            "addr:city": "Istanbul",
            "addr:district": "Turkey",
            "description": "",
            "opening_hours": null,
            "phone": null,
            "branch": null,
            "amenity": "art",
            "mobile": null,
            "addr:street": "Halicilar caddesi",
            "cuisine": null,
            "name": "Cidar",
            "name:en": null,
            "name:uk": null,
            "name:de": null,
            "name:tr": null,
            "name:ru": null,
            "name:ar": "جدار"
        }
    },
    {
        "lat": 41.016988,
        "lon": 28.9481539,
        "tags": {
            "addr:city": "Istanbul",
            "addr:district": "Turkey",
            "description": "",
            "opening_hours": null,
            "phone": null,
            "branch": null,
            "amenity": "art",
            "mobile": null,
            "addr:street": "SANGUZEL caddesi",
            "cuisine": null,
            "name": "Kobru",
            "name:en": null,
            "name:uk": null,
            "name:de": null,
            "name:tr": null,
            "name:ru": null,
            "name:ar": "كوبرو"
        }
    },
    {
        "lat": 41.0180333,
        "lon": 28.9420508,
        "tags": {
            "addr:city": "Istanbul",
            "addr:district": "Turkey",
            "description": "",
            "opening_hours": null,
            "phone": null,
            "branch": null,
            "amenity": "art",
            "mobile": null,
            "addr:street": "SAIR CEM sokak",
            "cuisine": null,
            "name": "Art",
            "name:en": null,
            "name:uk": null,
            "name:de": null,
            "name:tr": null,
            "name:ru": null,
            "name:ar": "خطاط عربي"
        }
    },
    {
        "lat": 41.0164668,
        "lon": 28.9454032,
        "tags": {
            "addr:city": "Istanbul",
            "addr:district": "Turkey",
            "description": "",
            "opening_hours": null,
            "phone": null,
            "branch": null,
            "amenity": "art",
            "mobile": null,
            "addr:street": "PALIPASA caddesi",
            "cuisine": null,
            "name": "Cidar",
            "name:en": null,
            "name:uk": null,
            "name:de": null,
            "name:tr": null,
            "name:ru": null,
            "name:ar": "جدار"
        }
    },
    {
        "lat": 41.0158817,
        "lon": 29.1897808,
        "tags": {
            "addr:city": "İstanbul",
            "addr:district": null,
            "description": "",
            "opening_hours": null,
            "phone": null,
            "branch": null,
            "amenity": "art",
            "mobile": null,
            "addr:street": null,
            "cuisine": null,
            "name": "Sanatsal Hobi",
            "name:en": null,
            "name:uk": null,
            "name:de": null,
            "name:tr": null,
            "name:ru": null,
            "name:ar": null
        }
    },
    {
        "lat": 40.9954382,
        "lon": 29.0275322,
        "tags": {
            "addr:city": "İstanbul",
            "addr:district": null,
            "description": "",
            "opening_hours": null,
            "phone": null,
            "branch": null,
            "amenity": "art",
            "mobile": null,
            "addr:street": null,
            "cuisine": null,
            "name": "SK Stüdyo",
            "name:en": null,
            "name:uk": null,
            "name:de": null,
            "name:tr": null,
            "name:ru": null,
            "name:ar": null
        }
    },
    {
        "lat": 41.0256126,
        "lon": 28.9754028,
        "tags": {
            "addr:city": "İstanbul",
            "addr:district": null,
            "description": "",
            "opening_hours": null,
            "phone": null,
            "branch": null,
            "amenity": "art",
            "mobile": null,
            "addr:street": "Tatar Bey Sokağı",
            "cuisine": null,
            "name": "Güzel Kelimeler Dükkanı",
            "name:en": null,
            "name:uk": null,
            "name:de": null,
            "name:tr": null,
            "name:ru": null,
            "name:ar": null
        }
    },
    {
        "lat": 41.0243046,
        "lon": 28.9750792,
        "tags": {
            "addr:city": "İstanbul",
            "addr:district": null,
            "description": "",
            "opening_hours": null,
            "phone": null,
            "branch": null,
            "amenity": "art",
            "mobile": null,
            "addr:street": null,
            "cuisine": null,
            "name": "MERT",
            "name:en": null,
            "name:uk": null,
            "name:de": null,
            "name:tr": null,
            "name:ru": null,
            "name:ar": null
        }
    },
    {
        "lat": 41.0238431,
        "lon": 28.9750813,
        "tags": {
            "addr:city": "İstanbul",
            "addr:district": null,
            "description": "",
            "opening_hours": null,
            "phone": "02122924939",
            "branch": null,
            "amenity": "art",
            "mobile": null,
            "addr:street": "Bankalar Caddesi",
            "cuisine": null,
            "name": "Sabanci Universitesi Kasa Galerisi",
            "name:en": "Sabancı University Vault Gallery",
            "name:uk": null,
            "name:de": null,
            "name:tr": "Sabancı Üniversitesi Kasa Galerisi",
            "name:ru": null,
            "name:ar": null
        }
    },
    {
        "lat": 41.0641285,
        "lon": 28.6869858,
        "tags": {
            "addr:city": "İstanbul",
            "addr:district": null,
            "description": "",
            "opening_hours": null,
            "phone": null,
            "branch": null,
            "amenity": "art",
            "mobile": null,
            "addr:street": null,
            "cuisine": null,
            "name": "Bahçeşehir Sanat",
            "name:en": null,
            "name:uk": null,
            "name:de": null,
            "name:tr": null,
            "name:ru": null,
            "name:ar": null
        }
    },
    {
        "lat": 41.1143363,
        "lon": 28.9978623,
        "tags": {
            "addr:city": "İstanbul",
            "addr:district": null,
            "description": "",
            "opening_hours": null,
            "phone": null,
            "branch": null,
            "amenity": "art",
            "mobile": null,
            "addr:street": null,
            "cuisine": null,
            "name": "Deniss",
            "name:en": null,
            "name:uk": null,
            "name:de": null,
            "name:tr": null,
            "name:ru": null,
            "name:ar": null
        }
    },
    {
        "lat": 40.9878756,
        "lon": 29.0251516,
        "tags": {
            "addr:city": "İstanbul",
            "addr:district": null,
            "description": "",
            "opening_hours": null,
            "phone": null,
            "branch": null,
            "amenity": "art",
            "mobile": null,
            "addr:street": null,
            "cuisine": null,
            "name": null,
            "name:en": null,
            "name:uk": null,
            "name:de": null,
            "name:tr": null,
            "name:ru": null,
            "name:ar": null
        }
    },
    {
        "lat": 40.9865444,
        "lon": 29.0236998,
        "tags": {
            "addr:city": "İstanbul",
            "addr:district": null,
            "description": "",
            "opening_hours": null,
            "phone": null,
            "branch": null,
            "amenity": "art",
            "mobile": null,
            "addr:street": null,
            "cuisine": null,
            "name": "Tuncay Efe Atölyesi",
            "name:en": null,
            "name:uk": null,
            "name:de": null,
            "name:tr": null,
            "name:ru": null,
            "name:ar": null
        }
    },
    {
        "lat": 40.9839585,
        "lon": 29.1130653,
        "tags": {
            "addr:city": "İstanbul",
            "addr:district": null,
            "description": "",
            "opening_hours": null,
            "phone": null,
            "branch": null,
            "amenity": "art",
            "mobile": null,
            "addr:street": null,
            "cuisine": null,
            "name": "Mimarizi Sanat Atölyesi",
            "name:en": null,
            "name:uk": null,
            "name:de": null,
            "name:tr": null,
            "name:ru": null,
            "name:ar": null
        }
    },
    {
        "lat": 41.0333265,
        "lon": 28.9816878,
        "tags": {
            "addr:city": "İstanbul",
            "addr:district": null,
            "description": "",
            "opening_hours": null,
            "phone": null,
            "branch": null,
            "amenity": "art",
            "mobile": null,
            "addr:street": null,
            "cuisine": null,
            "name": "Cam Çerçeve",
            "name:en": null,
            "name:uk": null,
            "name:de": null,
            "name:tr": null,
            "name:ru": null,
            "name:ar": null
        }
    },
    {
        "lat": 41.0086347,
        "lon": 28.9775478,
        "tags": {
            "addr:city": "İstanbul",
            "addr:district": null,
            "description": "",
            "opening_hours": null,
            "phone": null,
            "branch": null,
            "amenity": "art",
            "mobile": null,
            "addr:street": null,
            "cuisine": null,
            "name": "Art House",
            "name:en": null,
            "name:uk": null,
            "name:de": null,
            "name:tr": null,
            "name:ru": null,
            "name:ar": null
        }
    },
    {
        "lat": 41.0087472,
        "lon": 28.9775767,
        "tags": {
            "addr:city": "İstanbul",
            "addr:district": null,
            "description": "",
            "opening_hours": null,
            "phone": null,
            "branch": null,
            "amenity": "art",
            "mobile": null,
            "addr:street": null,
            "cuisine": null,
            "name": "El Rincon De Fehmi Original Art",
            "name:en": null,
            "name:uk": null,
            "name:de": null,
            "name:tr": null,
            "name:ru": null,
            "name:ar": null
        }
    },
    {
        "lat": 40.9682685,
        "lon": 29.0841078,
        "tags": {
            "addr:city": "İstanbul",
            "addr:district": null,
            "description": "",
            "opening_hours": null,
            "phone": null,
            "branch": null,
            "amenity": "art",
            "mobile": null,
            "addr:street": null,
            "cuisine": null,
            "name": "Hepsi Antik",
            "name:en": null,
            "name:uk": null,
            "name:de": null,
            "name:tr": null,
            "name:ru": null,
            "name:ar": null
        }
    },
    {
        "lat": 40.9674318,
        "lon": 29.0830568,
        "tags": {
            "addr:city": "İstanbul",
            "addr:district": null,
            "description": "",
            "opening_hours": null,
            "phone": null,
            "branch": null,
            "amenity": "art",
            "mobile": null,
            "addr:street": null,
            "cuisine": null,
            "name": "Dally Atölye",
            "name:en": null,
            "name:uk": null,
            "name:de": null,
            "name:tr": null,
            "name:ru": null,
            "name:ar": null
        }
    }
]