[
    {
        "lat": 41.0301511,
        "lon": 28.975418,
        "tags": {
            "addr:city": "Beyoğlu/İstanbul",
            "addr:district": null,
            "description": "Leather bags",
            "opening_hours": null,
            "phone": "+90 5357284993",
            "branch": null,
            "amenity": "bag",
            "mobile": null,
            "addr:street": "Istical",
            "cuisine": null,
            "name": "Deri Çantalar",
            "name:en": null,
            "name:uk": null,
            "name:de": null,
            "name:tr": null,
            "name:ru": null,
            "name:ar": null
        }
    },
    {
        "lat": 41.0099732,
        "lon": 28.9514074,
        "tags": {
            "addr:city": "Istanbul",
            "addr:district": "Fatih",
            "description": "",
            "opening_hours": "mo-su 08:00-23:00",
            "phone": "05354604199",
            "branch": null,
            "amenity": "bag",
            "mobile": null,
            "addr:street": "Şekerci Sokak",
            "cuisine": null,
            "name": "Şener Çanta",
            "name:en": null,
            "name:uk": null,
            "name:de": null,
            "name:tr": null,
            "name:ru": null,
            "name:ar": "شينير للحقائب"
        }
    },
    {
        "lat": 41.0070226,
        "lon": 28.9509868,
        "tags": {
            "addr:city": "Istanbul",
            "addr:district": "Fatih",
            "description": "",
            "opening_hours": null,
            "phone": "05383198448",
            "branch": null,
            "amenity": "bag",
            "mobile": null,
            "addr:street": "Küçük langa caddesi",
            "cuisine": null,
            "name": "Temsiyas tekstil",
            "name:en": null,
            "name:uk": null,
            "name:de": null,
            "name:tr": null,
            "name:ru": null,
            "name:ar": "تمسياس للحقائب"
        }
    },
    {
        "lat": 41.0139561,
        "lon": 28.9666117,
        "tags": {
            "addr:city": "Istanbul",
            "addr:district": "Fatih",
            "description": "",
            "opening_hours": null,
            "phone": null,
            "branch": null,
            "amenity": "bag",
            "mobile": null,
            "addr:street": "Tacirhane Sokağı",
            "cuisine": null,
            "name": "Ergül Saraciye",
            "name:en": null,
            "name:uk": null,
            "name:de": null,
            "name:tr": null,
            "name:ru": null,
            "name:ar": "إيرغول ساراجييه للحقائب"
        }
    },
    {
        "lat": 41.0142044,
        "lon": 28.9666414,
        "tags": {
            "addr:city": "Istanbul",
            "addr:district": "Fatih",
            "description": "",
            "opening_hours": null,
            "phone": null,
            "branch": null,
            "amenity": "bag",
            "mobile": null,
            "addr:street": "Tacirhane Sokağı",
            "cuisine": null,
            "name": "Çalışkan Saraciye",
            "name:en": null,
            "name:uk": null,
            "name:de": null,
            "name:tr": null,
            "name:ru": null,
            "name:ar": "تشاليشكان ساراجييه للحقائب"
        }
    },
    {
        "lat": 41.0142887,
        "lon": 28.9665644,
        "tags": {
            "addr:city": "Istanbul",
            "addr:district": "Fatih",
            "description": "",
            "opening_hours": null,
            "phone": null,
            "branch": null,
            "amenity": "bag",
            "mobile": null,
            "addr:street": "Tacirhane Sokağı",
            "cuisine": null,
            "name": "BGJ Çanta",
            "name:en": null,
            "name:uk": null,
            "name:de": null,
            "name:tr": null,
            "name:ru": null,
            "name:ar": "بي غي جي للحقائب"
        }
    },
    {
        "lat": 41.014287,
        "lon": 28.9666392,
        "tags": {
            "addr:city": "Istanbul",
            "addr:district": "Fatih",
            "description": "",
            "opening_hours": null,
            "phone": null,
            "branch": null,
            "amenity": "bag",
            "mobile": null,
            "addr:street": "Tacirhane Sokağı",
            "cuisine": null,
            "name": "NBF Çanta",
            "name:en": null,
            "name:uk": null,
            "name:de": null,
            "name:tr": null,
            "name:ru": null,
            "name:ar": "ني بي في تشانتا للحقائب"
        }
    },
    {
        "lat": 41.0144205,
        "lon": 28.9665805,
        "tags": {
            "addr:city": "Istanbul",
            "addr:district": "Fatih",
            "description": "",
            "opening_hours": null,
            "phone": null,
            "branch": null,
            "amenity": "bag",
            "mobile": null,
            "addr:street": "Tacirhane Sokağı",
            "cuisine": null,
            "name": "Differ",
            "name:en": null,
            "name:uk": null,
            "name:de": null,
            "name:tr": null,
            "name:ru": null,
            "name:ar": "ديفار للحقائب"
        }
    },
    {
        "lat": 41.0148928,
        "lon": 28.966832,
        "tags": {
            "addr:city": "Istanbul",
            "addr:district": "Fatih",
            "description": "",
            "opening_hours": null,
            "phone": null,
            "branch": null,
            "amenity": "bag",
            "mobile": null,
            "addr:street": "Tacirhane Sokağı",
            "cuisine": null,
            "name": "Saraç çanta",
            "name:en": null,
            "name:uk": null,
            "name:de": null,
            "name:tr": null,
            "name:ru": null,
            "name:ar": "ساراج تشانتا للحقائب"
        }
    },
    {
        "lat": 41.0144015,
        "lon": 28.9668549,
        "tags": {
            "addr:city": "Istanbul",
            "addr:district": "Fatih",
            "description": "",
            "opening_hours": null,
            "phone": null,
            "branch": null,
            "amenity": "bag",
            "mobile": null,
            "addr:street": "Tacirhane Sokağı",
            "cuisine": null,
            "name": "Debreli Saraciye",
            "name:en": null,
            "name:uk": null,
            "name:de": null,
            "name:tr": null,
            "name:ru": null,
            "name:ar": "ديبريلي ساراجييه للحقائب"
        }
    },
    {
        "lat": 41.0143489,
        "lon": 28.9668577,
        "tags": {
            "addr:city": "Istanbul",
            "addr:district": "Fatih",
            "description": "",
            "opening_hours": null,
            "phone": null,
            "branch": null,
            "amenity": "bag",
            "mobile": null,
            "addr:street": "Tacirhane Sokağı",
            "cuisine": null,
            "name": "Emin Çanta",
            "name:en": null,
            "name:uk": null,
            "name:de": null,
            "name:tr": null,
            "name:ru": null,
            "name:ar": "إمين تشانتا للحقائب"
        }
    },
    {
        "lat": 41.0142259,
        "lon": 28.966852,
        "tags": {
            "addr:city": "Istanbul",
            "addr:district": "Fatih",
            "description": "",
            "opening_hours": null,
            "phone": null,
            "branch": null,
            "amenity": "bag",
            "mobile": null,
            "addr:street": "Tacirhane Sokağı",
            "cuisine": null,
            "name": "Kozan Saraciye",
            "name:en": null,
            "name:uk": null,
            "name:de": null,
            "name:tr": null,
            "name:ru": null,
            "name:ar": "كوزان ساراجييه للحقائب"
        }
    },
    {
        "lat": 41.0138758,
        "lon": 28.9668204,
        "tags": {
            "addr:city": "Istanbul",
            "addr:district": "Fatih",
            "description": "",
            "opening_hours": null,
            "phone": null,
            "branch": null,
            "amenity": "bag",
            "mobile": null,
            "addr:street": "Tacirhane Sokağı",
            "cuisine": null,
            "name": "Laguna Yasay Tekstil",
            "name:en": null,
            "name:uk": null,
            "name:de": null,
            "name:tr": null,
            "name:ru": null,
            "name:ar": "لاغونا ياسيا تكستيل للحقائب"
        }
    },
    {
        "lat": 41.0138134,
        "lon": 28.9668339,
        "tags": {
            "addr:city": "Istanbul",
            "addr:district": "Fatih",
            "description": "",
            "opening_hours": null,
            "phone": null,
            "branch": null,
            "amenity": "bag",
            "mobile": null,
            "addr:street": "Tacirhane Sokağı",
            "cuisine": null,
            "name": "Kilit Han Çantalar Çarşısı",
            "name:en": null,
            "name:uk": null,
            "name:de": null,
            "name:tr": null,
            "name:ru": null,
            "name:ar": "كيليت هان تشانتالار تشارشيسي للحقائب"
        }
    },
    {
        "lat": 41.0134607,
        "lon": 28.9673948,
        "tags": {
            "addr:city": "Istanbul",
            "addr:district": "Fatih",
            "description": "",
            "opening_hours": null,
            "phone": null,
            "branch": null,
            "amenity": "bag",
            "mobile": null,
            "addr:street": "Uzun Çarşı Caddesi",
            "cuisine": null,
            "name": "Eren Çanta",
            "name:en": null,
            "name:uk": null,
            "name:de": null,
            "name:tr": null,
            "name:ru": null,
            "name:ar": "إيرين تشانتا للحقائب"
        }
    },
    {
        "lat": 41.0136226,
        "lon": 28.9673843,
        "tags": {
            "addr:city": "Istanbul",
            "addr:district": "Fatih",
            "description": "",
            "opening_hours": null,
            "phone": null,
            "branch": null,
            "amenity": "bag",
            "mobile": null,
            "addr:street": "Uzun Çarşı Caddesi",
            "cuisine": null,
            "name": "Üç Kardeşler Saraciye",
            "name:en": null,
            "name:uk": null,
            "name:de": null,
            "name:tr": null,
            "name:ru": null,
            "name:ar": "أوتش كاردشلار ساراجييه للحقائب"
        }
    },
    {
        "lat": 41.0136517,
        "lon": 28.9673819,
        "tags": {
            "addr:city": "Istanbul",
            "addr:district": "Fatih",
            "description": "",
            "opening_hours": null,
            "phone": null,
            "branch": null,
            "amenity": "bag",
            "mobile": null,
            "addr:street": "Uzun Çarşı Caddesi",
            "cuisine": null,
            "name": "Çavuşoğlu Çanta",
            "name:en": null,
            "name:uk": null,
            "name:de": null,
            "name:tr": null,
            "name:ru": null,
            "name:ar": "تشافوش أوغلو تشانتا للحقائب"
        }
    },
    {
        "lat": 41.0136901,
        "lon": 28.9673841,
        "tags": {
            "addr:city": "Istanbul",
            "addr:district": "Fatih",
            "description": "",
            "opening_hours": null,
            "phone": null,
            "branch": null,
            "amenity": "bag",
            "mobile": null,
            "addr:street": "Uzun Çarşı Caddesi",
            "cuisine": null,
            "name": "Zenga",
            "name:en": null,
            "name:uk": null,
            "name:de": null,
            "name:tr": null,
            "name:ru": null,
            "name:ar": "زينغا للحقائب"
        }
    },
    {
        "lat": 41.0137609,
        "lon": 28.9673764,
        "tags": {
            "addr:city": "Istanbul",
            "addr:district": "Fatih",
            "description": "",
            "opening_hours": null,
            "phone": null,
            "branch": null,
            "amenity": "bag",
            "mobile": null,
            "addr:street": "Uzun Çarşı Caddesi",
            "cuisine": null,
            "name": "Volkan Saraciye",
            "name:en": null,
            "name:uk": null,
            "name:de": null,
            "name:tr": null,
            "name:ru": null,
            "name:ar": "فولكان ساراجييه للحقائب"
        }
    },
    {
        "lat": 41.0139269,
        "lon": 28.9673632,
        "tags": {
            "addr:city": "Istanbul",
            "addr:district": "Fatih",
            "description": "",
            "opening_hours": null,
            "phone": null,
            "branch": null,
            "amenity": "bag",
            "mobile": null,
            "addr:street": "Uzun Çarşı Caddesi",
            "cuisine": null,
            "name": "CRM",
            "name:en": null,
            "name:uk": null,
            "name:de": null,
            "name:tr": null,
            "name:ru": null,
            "name:ar": "جي ري مي للحقائب"
        }
    },
    {
        "lat": 41.0142089,
        "lon": 28.9673424,
        "tags": {
            "addr:city": "Istanbul",
            "addr:district": "Fatih",
            "description": "",
            "opening_hours": null,
            "phone": null,
            "branch": null,
            "amenity": "bag",
            "mobile": null,
            "addr:street": "Uzun Çarşı Caddesi",
            "cuisine": null,
            "name": "Konyalı Saraciye",
            "name:en": null,
            "name:uk": null,
            "name:de": null,
            "name:tr": null,
            "name:ru": null,
            "name:ar": "كونيالي ساراجيي للحقائب"
        }
    },
    {
        "lat": 41.0142303,
        "lon": 28.9673441,
        "tags": {
            "addr:city": "Istanbul",
            "addr:district": "Fatih",
            "description": "",
            "opening_hours": null,
            "phone": null,
            "branch": null,
            "amenity": "bag",
            "mobile": null,
            "addr:street": "Uzun Çarşı Caddesi",
            "cuisine": null,
            "name": "Albatros",
            "name:en": null,
            "name:uk": null,
            "name:de": null,
            "name:tr": null,
            "name:ru": null,
            "name:ar": "ألباتروس للحقائب"
        }
    },
    {
        "lat": 41.0146109,
        "lon": 28.9675738,
        "tags": {
            "addr:city": "Istanbul",
            "addr:district": "Fatih",
            "description": "",
            "opening_hours": null,
            "phone": null,
            "branch": null,
            "amenity": "bag",
            "mobile": null,
            "addr:street": "Uzun Çarşı Caddesi",
            "cuisine": null,
            "name": "Ekrem Gümüş Saraciye",
            "name:en": null,
            "name:uk": null,
            "name:de": null,
            "name:tr": null,
            "name:ru": null,
            "name:ar": "إيكريم غوموش ساراجييه للحقائب"
        }
    },
    {
        "lat": 41.0145616,
        "lon": 28.9675661,
        "tags": {
            "addr:city": "Istanbul",
            "addr:district": "Fatih",
            "description": "",
            "opening_hours": null,
            "phone": null,
            "branch": null,
            "amenity": "bag",
            "mobile": null,
            "addr:street": "Uzun Çarşı Caddesi",
            "cuisine": null,
            "name": "Valix İstanbul",
            "name:en": null,
            "name:uk": null,
            "name:de": null,
            "name:tr": null,
            "name:ru": null,
            "name:ar": "فاليكس اسطنبول للحقائب"
        }
    },
    {
        "lat": 41.0144312,
        "lon": 28.967545,
        "tags": {
            "addr:city": "Istanbul",
            "addr:district": "Fatih",
            "description": "",
            "opening_hours": null,
            "phone": null,
            "branch": null,
            "amenity": "bag",
            "mobile": null,
            "addr:street": "Uzun Çarşı Caddesi",
            "cuisine": null,
            "name": "Vrosi",
            "name:en": null,
            "name:uk": null,
            "name:de": null,
            "name:tr": null,
            "name:ru": null,
            "name:ar": "فروسي للحقائب"
        }
    },
    {
        "lat": 41.0143863,
        "lon": 28.967542,
        "tags": {
            "addr:city": "Istanbul",
            "addr:district": "Fatih",
            "description": "",
            "opening_hours": null,
            "phone": null,
            "branch": null,
            "amenity": "bag",
            "mobile": null,
            "addr:street": "Uzun Çarşı Caddesi",
            "cuisine": null,
            "name": "Saraciye Dünyası",
            "name:en": null,
            "name:uk": null,
            "name:de": null,
            "name:tr": null,
            "name:ru": null,
            "name:ar": "ساراجييه دونيساسه للحقائب"
        }
    },
    {
        "lat": 41.013895,
        "lon": 28.9675487,
        "tags": {
            "addr:city": "Istanbul",
            "addr:district": "Fatih",
            "description": "",
            "opening_hours": null,
            "phone": null,
            "branch": null,
            "amenity": "bag",
            "mobile": null,
            "addr:street": "Uzun Çarşı Caddesi",
            "cuisine": null,
            "name": "Yücel Saraciye",
            "name:en": null,
            "name:uk": null,
            "name:de": null,
            "name:tr": null,
            "name:ru": null,
            "name:ar": "يوجيل ساراجييه للحقائب"
        }
    },
    {
        "lat": 41.0135213,
        "lon": 28.9675819,
        "tags": {
            "addr:city": "Istanbul",
            "addr:district": "Fatih",
            "description": "",
            "opening_hours": null,
            "phone": null,
            "branch": null,
            "amenity": "bag",
            "mobile": null,
            "addr:street": "Uzun Çarşı Caddesi",
            "cuisine": null,
            "name": "Çantaş",
            "name:en": null,
            "name:uk": null,
            "name:de": null,
            "name:tr": null,
            "name:ru": null,
            "name:ar": "تشانتاش للحقائب"
        }
    },
    {
        "lat": 41.013441,
        "lon": 28.9675943,
        "tags": {
            "addr:city": "Istanbul",
            "addr:district": "Fatih",
            "description": "",
            "opening_hours": null,
            "phone": null,
            "branch": null,
            "amenity": "bag",
            "mobile": null,
            "addr:street": "Uzun Çarşı Caddesi",
            "cuisine": null,
            "name": "Şenyüz Saraciye",
            "name:en": null,
            "name:uk": null,
            "name:de": null,
            "name:tr": null,
            "name:ru": null,
            "name:ar": "شينيوز ساراجييه للحقائب"
        }
    },
    {
        "lat": 41.0141896,
        "lon": 28.9671827,
        "tags": {
            "addr:city": "Istanbul",
            "addr:district": "Fatih",
            "description": "",
            "opening_hours": null,
            "phone": null,
            "branch": null,
            "amenity": "bag",
            "mobile": null,
            "addr:street": "Nargileci Sokağı",
            "cuisine": null,
            "name": "Yaygan Çanta ve Kırtasiye",
            "name:en": null,
            "name:uk": null,
            "name:de": null,
            "name:tr": null,
            "name:ru": null,
            "name:ar": "يايغان تشانتا في كرتاسييه للقرطاسية والحقائب"
        }
    },
    {
        "lat": 41.0141684,
        "lon": 28.9662351,
        "tags": {
            "addr:city": "Istanbul",
            "addr:district": "Fatih",
            "description": "",
            "opening_hours": null,
            "phone": null,
            "branch": null,
            "amenity": "bag",
            "mobile": null,
            "addr:street": "Nargileci Sokağı",
            "cuisine": null,
            "name": "Away Çanta",
            "name:en": null,
            "name:uk": null,
            "name:de": null,
            "name:tr": null,
            "name:ru": null,
            "name:ar": "أواي تشانتا للحقائب"
        }
    },
    {
        "lat": 41.0141674,
        "lon": 28.9663117,
        "tags": {
            "addr:city": "Istanbul",
            "addr:district": "Fatih",
            "description": "",
            "opening_hours": null,
            "phone": null,
            "branch": null,
            "amenity": "bag",
            "mobile": null,
            "addr:street": "Nargileci Sokağı",
            "cuisine": null,
            "name": "Risoc Collection",
            "name:en": null,
            "name:uk": null,
            "name:de": null,
            "name:tr": null,
            "name:ru": null,
            "name:ar": "ريزوك كولكشن للحقائب"
        }
    },
    {
        "lat": 41.014191,
        "lon": 28.9663099,
        "tags": {
            "addr:city": "Istanbul",
            "addr:district": "Fatih",
            "description": "",
            "opening_hours": null,
            "phone": null,
            "branch": null,
            "amenity": "bag",
            "mobile": null,
            "addr:street": "Nargileci Sokağı",
            "cuisine": null,
            "name": "Oben Çanta",
            "name:en": null,
            "name:uk": null,
            "name:de": null,
            "name:tr": null,
            "name:ru": null,
            "name:ar": "أوبين تشانتا للحقائب"
        }
    },
    {
        "lat": 41.0142,
        "lon": 28.9664257,
        "tags": {
            "addr:city": "Istanbul",
            "addr:district": "Fatih",
            "description": "",
            "opening_hours": null,
            "phone": null,
            "branch": null,
            "amenity": "bag",
            "mobile": null,
            "addr:street": "Nargileci Sokağı",
            "cuisine": null,
            "name": "AK kemeraltı Çantı",
            "name:en": null,
            "name:uk": null,
            "name:de": null,
            "name:tr": null,
            "name:ru": null,
            "name:ar": "أك كيميرألتيه تشانتا للحقائب"
        }
    },
    {
        "lat": 41.0132619,
        "lon": 28.9671151,
        "tags": {
            "addr:city": "Istanbul",
            "addr:district": "Fatih",
            "description": "",
            "opening_hours": null,
            "phone": null,
            "branch": null,
            "amenity": "bag",
            "mobile": null,
            "addr:street": "Semaver Sokağı",
            "cuisine": null,
            "name": "Ümit Çanta",
            "name:en": null,
            "name:uk": null,
            "name:de": null,
            "name:tr": null,
            "name:ru": null,
            "name:ar": "أوميت تشانتا للحقائب"
        }
    },
    {
        "lat": 41.0131679,
        "lon": 28.9674031,
        "tags": {
            "addr:city": "Istanbul",
            "addr:district": "Fatih",
            "description": "",
            "opening_hours": null,
            "phone": null,
            "branch": null,
            "amenity": "bag",
            "mobile": null,
            "addr:street": "Semaver Sokağı",
            "cuisine": null,
            "name": "Maraton Deri",
            "name:en": null,
            "name:uk": null,
            "name:de": null,
            "name:tr": null,
            "name:ru": null,
            "name:ar": "ماراتون ديري للحقائب"
        }
    },
    {
        "lat": 41.013158,
        "lon": 28.9664891,
        "tags": {
            "addr:city": "Istanbul",
            "addr:district": "Fatih",
            "description": "",
            "opening_hours": null,
            "phone": null,
            "branch": null,
            "amenity": "bag",
            "mobile": null,
            "addr:street": "Semaver Sokağı",
            "cuisine": null,
            "name": "Kübrüs Saraciye",
            "name:en": null,
            "name:uk": null,
            "name:de": null,
            "name:tr": null,
            "name:ru": null,
            "name:ar": "كوبروس ساراجييه للحقائب"
        }
    },
    {
        "lat": 41.0131578,
        "lon": 28.9664475,
        "tags": {
            "addr:city": "Istanbul",
            "addr:district": "Fatih",
            "description": "",
            "opening_hours": null,
            "phone": null,
            "branch": null,
            "amenity": "bag",
            "mobile": null,
            "addr:street": "Semaver Sokağı",
            "cuisine": null,
            "name": "Elif Saraciye",
            "name:en": null,
            "name:uk": null,
            "name:de": null,
            "name:tr": null,
            "name:ru": null,
            "name:ar": "إيليف ساراجييه للحقائب"
        }
    },
    {
        "lat": 41.0146052,
        "lon": 28.9676619,
        "tags": {
            "addr:city": "Istanbul",
            "addr:district": "Fatih",
            "description": "",
            "opening_hours": null,
            "phone": null,
            "branch": null,
            "amenity": "bag",
            "mobile": null,
            "addr:street": "Paşa Cami Sokağı",
            "cuisine": null,
            "name": "İray Çanta",
            "name:en": null,
            "name:uk": null,
            "name:de": null,
            "name:tr": null,
            "name:ru": null,
            "name:ar": "إيراي تشانتا للحقائب"
        }
    },
    {
        "lat": 41.0147327,
        "lon": 28.9671424,
        "tags": {
            "addr:city": "Istanbul",
            "addr:district": "Fatih",
            "description": "",
            "opening_hours": null,
            "phone": null,
            "branch": null,
            "amenity": "bag",
            "mobile": null,
            "addr:street": "Mangalcı Sokağı",
            "cuisine": null,
            "name": "Takin Çanta",
            "name:en": null,
            "name:uk": null,
            "name:de": null,
            "name:tr": null,
            "name:ru": null,
            "name:ar": "تاكين تشانتا للحقائب"
        }
    },
    {
        "lat": 41.0147345,
        "lon": 28.9669627,
        "tags": {
            "addr:city": "Istanbul",
            "addr:district": "Fatih",
            "description": "",
            "opening_hours": null,
            "phone": null,
            "branch": null,
            "amenity": "bag",
            "mobile": null,
            "addr:street": "Mangalcı Sokağı",
            "cuisine": null,
            "name": "Salih Çanta",
            "name:en": null,
            "name:uk": null,
            "name:de": null,
            "name:tr": null,
            "name:ru": null,
            "name:ar": "ساليه تشانتا للحقائب"
        }
    },
    {
        "lat": 41.0144653,
        "lon": 28.9673441,
        "tags": {
            "addr:city": "Istanbul",
            "addr:district": "Fatih",
            "description": "",
            "opening_hours": null,
            "phone": null,
            "branch": null,
            "amenity": "bag",
            "mobile": null,
            "addr:street": "Havancı Sokağı",
            "cuisine": null,
            "name": "Yıldız Saraciye",
            "name:en": null,
            "name:uk": null,
            "name:de": null,
            "name:tr": null,
            "name:ru": null,
            "name:ar": "يلدز ساراجييه للحقائب"
        }
    },
    {
        "lat": 41.0144639,
        "lon": 28.9672371,
        "tags": {
            "addr:city": "Istanbul",
            "addr:district": "Fatih",
            "description": "",
            "opening_hours": null,
            "phone": null,
            "branch": null,
            "amenity": "bag",
            "mobile": null,
            "addr:street": "Havancı Sokağı",
            "cuisine": null,
            "name": "Kutay Çanta",
            "name:en": null,
            "name:uk": null,
            "name:de": null,
            "name:tr": null,
            "name:ru": null,
            "name:ar": "كوتاي تشانتا للحقائب"
        }
    },
    {
        "lat": 41.014464,
        "lon": 28.9671513,
        "tags": {
            "addr:city": "Istanbul",
            "addr:district": "Fatih",
            "description": "",
            "opening_hours": null,
            "phone": null,
            "branch": null,
            "amenity": "bag",
            "mobile": null,
            "addr:street": "Havancı Sokağı",
            "cuisine": null,
            "name": "İray Çanta",
            "name:en": null,
            "name:uk": null,
            "name:de": null,
            "name:tr": null,
            "name:ru": null,
            "name:ar": "إيراي تشانتا للحقائب"
        }
    },
    {
        "lat": 41.0144709,
        "lon": 28.9669997,
        "tags": {
            "addr:city": "Istanbul",
            "addr:district": "Fatih",
            "description": "",
            "opening_hours": null,
            "phone": null,
            "branch": null,
            "amenity": "bag",
            "mobile": null,
            "addr:street": "Havancı Sokağı",
            "cuisine": null,
            "name": "Merkez İthalat",
            "name:en": null,
            "name:uk": null,
            "name:de": null,
            "name:tr": null,
            "name:ru": null,
            "name:ar": "ميركيز إتهالات للحقائب"
        }
    },
    {
        "lat": 41.0144725,
        "lon": 28.9668803,
        "tags": {
            "addr:city": "Istanbul",
            "addr:district": "Fatih",
            "description": "",
            "opening_hours": null,
            "phone": null,
            "branch": null,
            "amenity": "bag",
            "mobile": null,
            "addr:street": "Havancı Sokağı",
            "cuisine": null,
            "name": "Albatros Çanta",
            "name:en": null,
            "name:uk": null,
            "name:de": null,
            "name:tr": null,
            "name:ru": null,
            "name:ar": "ألباتروس تشانتا للحقائب"
        }
    },
    {
        "lat": 41.0144644,
        "lon": 28.9665607,
        "tags": {
            "addr:city": "Istanbul",
            "addr:district": "Fatih",
            "description": "",
            "opening_hours": null,
            "phone": null,
            "branch": null,
            "amenity": "bag",
            "mobile": null,
            "addr:street": "Havancı Sokağı",
            "cuisine": null,
            "name": "Lawin Çanta",
            "name:en": null,
            "name:uk": null,
            "name:de": null,
            "name:tr": null,
            "name:ru": null,
            "name:ar": "لاوين تشانتا للحقائب"
        }
    },
    {
        "lat": 41.0144595,
        "lon": 28.9663998,
        "tags": {
            "addr:city": "Istanbul",
            "addr:district": "Fatih",
            "description": "",
            "opening_hours": null,
            "phone": null,
            "branch": null,
            "amenity": "bag",
            "mobile": null,
            "addr:street": "Havancı Sokağı",
            "cuisine": null,
            "name": "Ünal Çanta",
            "name:en": null,
            "name:uk": null,
            "name:de": null,
            "name:tr": null,
            "name:ru": null,
            "name:ar": "أونال تشانتا للحقائب"
        }
    },
    {
        "lat": 41.0145887,
        "lon": 28.9663727,
        "tags": {
            "addr:city": "Istanbul",
            "addr:district": "Fatih",
            "description": "",
            "opening_hours": null,
            "phone": null,
            "branch": null,
            "amenity": "bag",
            "mobile": null,
            "addr:street": "Havancı Sokağı",
            "cuisine": null,
            "name": "D ve Z Çanta",
            "name:en": null,
            "name:uk": null,
            "name:de": null,
            "name:tr": null,
            "name:ru": null,
            "name:ar": "دي في زي تشانتا للحقائب"
        }
    },
    {
        "lat": 41.0145855,
        "lon": 28.9664148,
        "tags": {
            "addr:city": "Istanbul",
            "addr:district": "Fatih",
            "description": "",
            "opening_hours": null,
            "phone": null,
            "branch": null,
            "amenity": "bag",
            "mobile": null,
            "addr:street": "Havancı Sokağı",
            "cuisine": null,
            "name": "Kütahya",
            "name:en": null,
            "name:uk": null,
            "name:de": null,
            "name:tr": null,
            "name:ru": null,
            "name:ar": "كوتاهيا للحقائب"
        }
    },
    {
        "lat": 41.0145861,
        "lon": 28.966449,
        "tags": {
            "addr:city": "Istanbul",
            "addr:district": "Fatih",
            "description": "",
            "opening_hours": null,
            "phone": null,
            "branch": null,
            "amenity": "bag",
            "mobile": null,
            "addr:street": "Havancı Sokağı",
            "cuisine": null,
            "name": "Leman Çanta ve Cüzdan",
            "name:en": null,
            "name:uk": null,
            "name:de": null,
            "name:tr": null,
            "name:ru": null,
            "name:ar": "ليمان تشانتا في جوزدان للحقائب والمحفظات"
        }
    },
    {
        "lat": 41.014594,
        "lon": 28.9666455,
        "tags": {
            "addr:city": "Istanbul",
            "addr:district": "Fatih",
            "description": "",
            "opening_hours": null,
            "phone": null,
            "branch": null,
            "amenity": "bag",
            "mobile": null,
            "addr:street": "Havancı Sokağı",
            "cuisine": null,
            "name": "Petto Çanta",
            "name:en": null,
            "name:uk": null,
            "name:de": null,
            "name:tr": null,
            "name:ru": null,
            "name:ar": "بيتتو تشانتا للحقائب"
        }
    },
    {
        "lat": 41.0145904,
        "lon": 28.9670574,
        "tags": {
            "addr:city": "Istanbul",
            "addr:district": "Fatih",
            "description": "",
            "opening_hours": null,
            "phone": null,
            "branch": null,
            "amenity": "bag",
            "mobile": null,
            "addr:street": "Havancı Sokağı",
            "cuisine": null,
            "name": "İray Çanta",
            "name:en": null,
            "name:uk": null,
            "name:de": null,
            "name:tr": null,
            "name:ru": null,
            "name:ar": "إيراي تشانتا للحقائب"
        }
    },
    {
        "lat": 41.0145886,
        "lon": 28.9671246,
        "tags": {
            "addr:city": "Istanbul",
            "addr:district": "Fatih",
            "description": "",
            "opening_hours": null,
            "phone": null,
            "branch": null,
            "amenity": "bag",
            "mobile": null,
            "addr:street": "Havancı Sokağı",
            "cuisine": null,
            "name": "Topkaralar Çanta",
            "name:en": null,
            "name:uk": null,
            "name:de": null,
            "name:tr": null,
            "name:ru": null,
            "name:ar": "توبكارالار تشانتا للحقائب"
        }
    },
    {
        "lat": 41.0145885,
        "lon": 28.9671917,
        "tags": {
            "addr:city": "Istanbul",
            "addr:district": "Fatih",
            "description": "",
            "opening_hours": null,
            "phone": null,
            "branch": null,
            "amenity": "bag",
            "mobile": null,
            "addr:street": "Havancı Sokağı",
            "cuisine": null,
            "name": "Sidiva",
            "name:en": null,
            "name:uk": null,
            "name:de": null,
            "name:tr": null,
            "name:ru": null,
            "name:ar": "سيديفا للحقائب"
        }
    },
    {
        "lat": 41.014591,
        "lon": 28.9672371,
        "tags": {
            "addr:city": "Istanbul",
            "addr:district": "Fatih",
            "description": "",
            "opening_hours": null,
            "phone": null,
            "branch": null,
            "amenity": "bag",
            "mobile": null,
            "addr:street": "Havancı Sokağı",
            "cuisine": null,
            "name": "Cakard Çalışkan Saraciye",
            "name:en": null,
            "name:uk": null,
            "name:de": null,
            "name:tr": null,
            "name:ru": null,
            "name:ar": "جاكارد تشاليشكان ساراجييه للحقائب"
        }
    },
    {
        "lat": 41.0325236,
        "lon": 28.9457692,
        "tags": {
            "addr:city": "Istanbul",
            "addr:district": "Fatih",
            "description": "",
            "opening_hours": null,
            "phone": null,
            "branch": null,
            "amenity": "bag",
            "mobile": null,
            "addr:street": "Ayan Caddesi",
            "cuisine": null,
            "name": "Akay",
            "name:en": null,
            "name:uk": null,
            "name:de": null,
            "name:tr": null,
            "name:ru": null,
            "name:ar": "أكاي للحقائب"
        }
    },
    {
        "lat": 41.0087568,
        "lon": 28.9516101,
        "tags": {
            "addr:city": "Istanbul",
            "addr:district": "Fatih",
            "description": "",
            "opening_hours": null,
            "phone": null,
            "branch": null,
            "amenity": "bag",
            "mobile": null,
            "addr:street": "Valide cami sokağı",
            "cuisine": null,
            "name": "Temsiyas sarraciye",
            "name:en": null,
            "name:uk": null,
            "name:de": null,
            "name:tr": null,
            "name:ru": null,
            "name:ar": "تيمسياس للحقائب"
        }
    },
    {
        "lat": 41.0089378,
        "lon": 28.9527941,
        "tags": {
            "addr:city": "Istanbul",
            "addr:district": "Fatih",
            "description": "",
            "opening_hours": null,
            "phone": null,
            "branch": null,
            "amenity": "bag",
            "mobile": null,
            "addr:street": "Teceddüt sokağı",
            "cuisine": null,
            "name": "Selvi sarraciye",
            "name:en": null,
            "name:uk": null,
            "name:de": null,
            "name:tr": null,
            "name:ru": null,
            "name:ar": "سيلفي للحقائب"
        }
    },
    {
        "lat": 41.0037817,
        "lon": 28.9312976,
        "tags": {
            "addr:city": "Istanbul",
            "addr:district": "Fatih",
            "description": "",
            "opening_hours": null,
            "phone": null,
            "branch": null,
            "amenity": "bag",
            "mobile": null,
            "addr:street": "Koca Mustafapaşa Caddesi",
            "cuisine": null,
            "name": "Fuschıa Paris",
            "name:en": null,
            "name:uk": null,
            "name:de": null,
            "name:tr": null,
            "name:ru": null,
            "name:ar": "فوستشا باريس"
        }
    },
    {
        "lat": 41.0037946,
        "lon": 28.9279342,
        "tags": {
            "addr:city": "Istanbul",
            "addr:district": "Fatih",
            "description": "",
            "opening_hours": null,
            "phone": null,
            "branch": null,
            "amenity": "bag",
            "mobile": null,
            "addr:street": "Koca Mustafapaşa Caddesi",
            "cuisine": null,
            "name": "Paşa Çanta",
            "name:en": null,
            "name:uk": null,
            "name:de": null,
            "name:tr": null,
            "name:ru": null,
            "name:ar": "باشا تشانتا"
        }
    },
    {
        "lat": 41.0091879,
        "lon": 28.9787766,
        "tags": {
            "addr:city": "Istanbul",
            "addr:district": "Turkey",
            "description": "",
            "opening_hours": null,
            "phone": null,
            "branch": null,
            "amenity": "bag",
            "mobile": null,
            "addr:street": "Alemdar Caddesi",
            "cuisine": null,
            "name": "Sahra leder",
            "name:en": null,
            "name:uk": null,
            "name:de": null,
            "name:tr": null,
            "name:ru": null,
            "name:ar": null
        }
    },
    {
        "lat": 41.0137312,
        "lon": 28.9790534,
        "tags": {
            "addr:city": "Istanbul",
            "addr:district": "Turkey",
            "description": "",
            "opening_hours": null,
            "phone": null,
            "branch": null,
            "amenity": "bag",
            "mobile": null,
            "addr:street": "Tayahatun sokak",
            "cuisine": null,
            "name": "Galata leather",
            "name:en": null,
            "name:uk": null,
            "name:de": null,
            "name:tr": null,
            "name:ru": null,
            "name:ar": null
        }
    },
    {
        "lat": 41.0132297,
        "lon": 28.9787988,
        "tags": {
            "addr:city": "Istanbul",
            "addr:district": "Turkey",
            "description": "",
            "opening_hours": null,
            "phone": null,
            "branch": null,
            "amenity": "bag",
            "mobile": null,
            "addr:street": "Tayahatun sokak",
            "cuisine": null,
            "name": "Tuncer lether hand",
            "name:en": null,
            "name:uk": null,
            "name:de": null,
            "name:tr": null,
            "name:ru": null,
            "name:ar": null
        }
    },
    {
        "lat": 41.0057774,
        "lon": 28.9789376,
        "tags": {
            "addr:city": "Istanbul",
            "addr:district": "Fatih",
            "description": "",
            "opening_hours": null,
            "phone": null,
            "branch": null,
            "amenity": "bag",
            "mobile": null,
            "addr:street": "Utangaç Sokak",
            "cuisine": null,
            "name": "Uğur",
            "name:en": null,
            "name:uk": null,
            "name:de": null,
            "name:tr": null,
            "name:ru": null,
            "name:ar": null
        }
    },
    {
        "lat": 41.0191678,
        "lon": 28.9467661,
        "tags": {
            "addr:city": "Istanbul",
            "addr:district": "Turkey",
            "description": "",
            "opening_hours": null,
            "phone": null,
            "branch": null,
            "amenity": "bag",
            "mobile": null,
            "addr:street": "Akdeniz Caddesi",
            "cuisine": null,
            "name": "Zerre",
            "name:en": null,
            "name:uk": null,
            "name:de": null,
            "name:tr": null,
            "name:ru": null,
            "name:ar": "زررة"
        }
    },
    {
        "lat": 41.0193011,
        "lon": 28.9470455,
        "tags": {
            "addr:city": "Istanbul",
            "addr:district": "Turkey",
            "description": "",
            "opening_hours": null,
            "phone": null,
            "branch": null,
            "amenity": "bag",
            "mobile": null,
            "addr:street": "Akdeniz Caddesi",
            "cuisine": null,
            "name": "Yaren",
            "name:en": null,
            "name:uk": null,
            "name:de": null,
            "name:tr": null,
            "name:ru": null,
            "name:ar": "يارين"
        }
    },
    {
        "lat": 41.0087586,
        "lon": 28.9661391,
        "tags": {
            "addr:city": "Istanbul",
            "addr:district": "Fatih",
            "description": "",
            "opening_hours": null,
            "phone": null,
            "branch": null,
            "amenity": "bag",
            "mobile": null,
            "addr:street": "Tiyatro Caddesi",
            "cuisine": null,
            "name": "Varol Çanta",
            "name:en": null,
            "name:uk": null,
            "name:de": null,
            "name:tr": null,
            "name:ru": null,
            "name:ar": null
        }
    },
    {
        "lat": 41.0083407,
        "lon": 28.9659749,
        "tags": {
            "addr:city": "Istanbul",
            "addr:district": "Fatih",
            "description": "",
            "opening_hours": null,
            "phone": null,
            "branch": null,
            "amenity": "bag",
            "mobile": null,
            "addr:street": "Tiyatro Caddesi",
            "cuisine": null,
            "name": "Ucuz Toptan Çanta",
            "name:en": null,
            "name:uk": null,
            "name:de": null,
            "name:tr": null,
            "name:ru": null,
            "name:ar": null
        }
    },
    {
        "lat": 41.0071897,
        "lon": 28.9654302,
        "tags": {
            "addr:city": "Istanbul",
            "addr:district": "Fatih",
            "description": "",
            "opening_hours": null,
            "phone": null,
            "branch": null,
            "amenity": "bag",
            "mobile": null,
            "addr:street": "Tiyatro Caddesi",
            "cuisine": null,
            "name": "YSF Bags",
            "name:en": null,
            "name:uk": null,
            "name:de": null,
            "name:tr": null,
            "name:ru": null,
            "name:ar": "يي سي في باغز"
        }
    },
    {
        "lat": 41.1032348,
        "lon": 28.8622639,
        "tags": {
            "addr:city": "İstanbul",
            "addr:district": null,
            "description": "",
            "opening_hours": null,
            "phone": null,
            "branch": null,
            "amenity": "bag",
            "mobile": null,
            "addr:street": null,
            "cuisine": null,
            "name": "Bag Hause",
            "name:en": null,
            "name:uk": null,
            "name:de": null,
            "name:tr": null,
            "name:ru": null,
            "name:ar": null
        }
    },
    {
        "lat": 41.1029282,
        "lon": 28.8625489,
        "tags": {
            "addr:city": "İstanbul",
            "addr:district": null,
            "description": "",
            "opening_hours": null,
            "phone": null,
            "branch": null,
            "amenity": "bag",
            "mobile": null,
            "addr:street": null,
            "cuisine": null,
            "name": "Bag City",
            "name:en": null,
            "name:uk": null,
            "name:de": null,
            "name:tr": null,
            "name:ru": null,
            "name:ar": null
        }
    },
    {
        "lat": 41.1086548,
        "lon": 28.8660204,
        "tags": {
            "addr:city": "İstanbul",
            "addr:district": null,
            "description": "",
            "opening_hours": null,
            "phone": null,
            "branch": null,
            "amenity": "bag",
            "mobile": null,
            "addr:street": null,
            "cuisine": null,
            "name": "Eva Çanta",
            "name:en": null,
            "name:uk": null,
            "name:de": null,
            "name:tr": null,
            "name:ru": null,
            "name:ar": null
        }
    },
    {
        "lat": 41.106646,
        "lon": 28.8626979,
        "tags": {
            "addr:city": "İstanbul",
            "addr:district": null,
            "description": "",
            "opening_hours": null,
            "phone": null,
            "branch": null,
            "amenity": "bag",
            "mobile": null,
            "addr:street": null,
            "cuisine": null,
            "name": null,
            "name:en": null,
            "name:uk": null,
            "name:de": null,
            "name:tr": null,
            "name:ru": null,
            "name:ar": null
        }
    },
    {
        "lat": 40.9971348,
        "lon": 28.9096106,
        "tags": {
            "addr:city": "Istanbul",
            "addr:district": "Zeytinburnu",
            "description": "",
            "opening_hours": null,
            "phone": null,
            "branch": null,
            "amenity": "bag",
            "mobile": null,
            "addr:street": null,
            "cuisine": null,
            "name": "Has outlet",
            "name:en": null,
            "name:uk": null,
            "name:de": null,
            "name:tr": null,
            "name:ru": null,
            "name:ar": "هاس للحقائب"
        }
    },
    {
        "lat": 40.9838938,
        "lon": 28.8935533,
        "tags": {
            "addr:city": "Istanbul",
            "addr:district": "Zeytinburnu",
            "description": "",
            "opening_hours": null,
            "phone": null,
            "branch": null,
            "amenity": "bag",
            "mobile": null,
            "addr:street": "3/3 sokak",
            "cuisine": null,
            "name": "Bag Z",
            "name:en": null,
            "name:uk": null,
            "name:de": null,
            "name:tr": null,
            "name:ru": null,
            "name:ar": "باغ ز"
        }
    },
    {
        "lat": 40.9951733,
        "lon": 28.9108511,
        "tags": {
            "addr:city": "Istanbul",
            "addr:district": "Zeytinburnu",
            "description": "",
            "opening_hours": null,
            "phone": null,
            "branch": null,
            "amenity": "bag",
            "mobile": null,
            "addr:street": null,
            "cuisine": null,
            "name": "Can çanta",
            "name:en": null,
            "name:uk": null,
            "name:de": null,
            "name:tr": null,
            "name:ru": null,
            "name:ar": "حقائب جان"
        }
    },
    {
        "lat": 41.0288917,
        "lon": 28.8302227,
        "tags": {
            "addr:city": "Istanbul",
            "addr:district": "Bağcılar",
            "description": "",
            "opening_hours": null,
            "phone": null,
            "branch": null,
            "amenity": "bag",
            "mobile": null,
            "addr:street": "Menderes Caddesi",
            "cuisine": null,
            "name": "Çanta Festivali",
            "name:en": null,
            "name:uk": null,
            "name:de": null,
            "name:tr": null,
            "name:ru": null,
            "name:ar": "مهرجان الحقيبة"
        }
    },
    {
        "lat": 41.0431439,
        "lon": 28.8478737,
        "tags": {
            "addr:city": "Istanbul",
            "addr:district": null,
            "description": "",
            "opening_hours": null,
            "phone": null,
            "branch": null,
            "amenity": "bag",
            "mobile": null,
            "addr:street": "Birlik Caddesi",
            "cuisine": null,
            "name": "ÇANTA EVİ",
            "name:en": null,
            "name:uk": null,
            "name:de": null,
            "name:tr": null,
            "name:ru": null,
            "name:ar": "تشانتا افي"
        }
    },
    {
        "lat": 41.0320231,
        "lon": 28.8468767,
        "tags": {
            "addr:city": "Istanbul",
            "addr:district": "Bağcılar",
            "description": "",
            "opening_hours": null,
            "phone": null,
            "branch": null,
            "amenity": "bag",
            "mobile": null,
            "addr:street": "Hoca Ahmet Yesevi Caddesi",
            "cuisine": null,
            "name": "Zuhal çanta",
            "name:en": null,
            "name:uk": null,
            "name:de": null,
            "name:tr": null,
            "name:ru": null,
            "name:ar": "شناتي زحل"
        }
    },
    {
        "lat": 41.0286312,
        "lon": 28.8569711,
        "tags": {
            "addr:city": "Istanbul",
            "addr:district": "Bağcılar",
            "description": "",
            "opening_hours": null,
            "phone": null,
            "branch": null,
            "amenity": "bag",
            "mobile": null,
            "addr:street": "Bağcılar Caddesi",
            "cuisine": null,
            "name": "Ünteks Çanta ve Valiz",
            "name:en": null,
            "name:uk": null,
            "name:de": null,
            "name:tr": null,
            "name:ru": null,
            "name:ar": "أونتكس للحاقائب"
        }
    },
    {
        "lat": 40.9714345,
        "lon": 29.1347932,
        "tags": {
            "addr:city": "İstanbul",
            "addr:district": null,
            "description": "",
            "opening_hours": null,
            "phone": null,
            "branch": null,
            "amenity": "bag",
            "mobile": null,
            "addr:street": null,
            "cuisine": null,
            "name": "Şi-la Çanta",
            "name:en": null,
            "name:uk": null,
            "name:de": null,
            "name:tr": null,
            "name:ru": null,
            "name:ar": null
        }
    },
    {
        "lat": 41.0271731,
        "lon": 28.9744734,
        "tags": {
            "addr:city": "İstanbul",
            "addr:district": null,
            "description": "",
            "opening_hours": null,
            "phone": null,
            "branch": null,
            "amenity": "bag",
            "mobile": null,
            "addr:street": null,
            "cuisine": null,
            "name": "old cotton cargo",
            "name:en": null,
            "name:uk": null,
            "name:de": null,
            "name:tr": null,
            "name:ru": null,
            "name:ar": null
        }
    },
    {
        "lat": 41.0272998,
        "lon": 28.9745396,
        "tags": {
            "addr:city": "İstanbul",
            "addr:district": null,
            "description": "",
            "opening_hours": null,
            "phone": null,
            "branch": null,
            "amenity": "bag",
            "mobile": null,
            "addr:street": null,
            "cuisine": null,
            "name": null,
            "name:en": null,
            "name:uk": null,
            "name:de": null,
            "name:tr": null,
            "name:ru": null,
            "name:ar": null
        }
    },
    {
        "lat": 41.0275169,
        "lon": 28.9744273,
        "tags": {
            "addr:city": "İstanbul",
            "addr:district": null,
            "description": "",
            "opening_hours": null,
            "phone": null,
            "branch": null,
            "amenity": "bag",
            "mobile": null,
            "addr:street": null,
            "cuisine": null,
            "name": "Tower Leather bag",
            "name:en": null,
            "name:uk": null,
            "name:de": null,
            "name:tr": null,
            "name:ru": null,
            "name:ar": null
        }
    },
    {
        "lat": 41.2615235,
        "lon": 28.7393896,
        "tags": {
            "addr:city": "İstanbul",
            "addr:district": null,
            "description": "",
            "opening_hours": null,
            "phone": null,
            "branch": null,
            "amenity": "bag",
            "mobile": null,
            "addr:street": null,
            "cuisine": null,
            "name": "Samsonite",
            "name:en": null,
            "name:uk": null,
            "name:de": null,
            "name:tr": null,
            "name:ru": null,
            "name:ar": null
        }
    },
    {
        "lat": 41.2620412,
        "lon": 28.7465268,
        "tags": {
            "addr:city": "İstanbul",
            "addr:district": null,
            "description": "",
            "opening_hours": null,
            "phone": null,
            "branch": null,
            "amenity": "bag",
            "mobile": null,
            "addr:street": null,
            "cuisine": null,
            "name": "Samsonite",
            "name:en": null,
            "name:uk": null,
            "name:de": null,
            "name:tr": null,
            "name:ru": null,
            "name:ar": null
        }
    },
    {
        "lat": 40.9547948,
        "lon": 29.0934844,
        "tags": {
            "addr:city": "İstanbul",
            "addr:district": null,
            "description": "",
            "opening_hours": null,
            "phone": null,
            "branch": null,
            "amenity": "bag",
            "mobile": null,
            "addr:street": null,
            "cuisine": null,
            "name": "Peri Boutique Çanta",
            "name:en": null,
            "name:uk": null,
            "name:de": null,
            "name:tr": null,
            "name:ru": null,
            "name:ar": null
        }
    },
    {
        "lat": 40.9896727,
        "lon": 29.0290189,
        "tags": {
            "addr:city": "İstanbul",
            "addr:district": null,
            "description": "",
            "opening_hours": null,
            "phone": null,
            "branch": null,
            "amenity": "bag",
            "mobile": null,
            "addr:street": null,
            "cuisine": null,
            "name": "Seçim Çanta",
            "name:en": null,
            "name:uk": null,
            "name:de": null,
            "name:tr": null,
            "name:ru": null,
            "name:ar": null
        }
    },
    {
        "lat": 40.9891342,
        "lon": 29.029166,
        "tags": {
            "addr:city": "İstanbul",
            "addr:district": null,
            "description": "",
            "opening_hours": null,
            "phone": null,
            "branch": null,
            "amenity": "bag",
            "mobile": null,
            "addr:street": null,
            "cuisine": null,
            "name": "Marito's Çanta",
            "name:en": null,
            "name:uk": null,
            "name:de": null,
            "name:tr": null,
            "name:ru": null,
            "name:ar": null
        }
    },
    {
        "lat": 40.9803729,
        "lon": 29.1127789,
        "tags": {
            "addr:city": "İstanbul",
            "addr:district": null,
            "description": "",
            "opening_hours": null,
            "phone": null,
            "branch": null,
            "amenity": "bag",
            "mobile": null,
            "addr:street": null,
            "cuisine": null,
            "name": "Atakan Çanta",
            "name:en": null,
            "name:uk": null,
            "name:de": null,
            "name:tr": null,
            "name:ru": null,
            "name:ar": null
        }
    },
    {
        "lat": 40.9724081,
        "lon": 29.113188,
        "tags": {
            "addr:city": "İstanbul",
            "addr:district": null,
            "description": "",
            "opening_hours": null,
            "phone": null,
            "branch": null,
            "amenity": "bag",
            "mobile": null,
            "addr:street": null,
            "cuisine": null,
            "name": "Onur Çanta",
            "name:en": null,
            "name:uk": null,
            "name:de": null,
            "name:tr": null,
            "name:ru": null,
            "name:ar": null
        }
    },
    {
        "lat": 40.879207,
        "lon": 29.2327142,
        "tags": {
            "addr:city": "İstanbul",
            "addr:district": null,
            "description": "",
            "opening_hours": null,
            "phone": null,
            "branch": null,
            "amenity": "bag",
            "mobile": null,
            "addr:street": null,
            "cuisine": null,
            "name": "Uğurlu Çanta",
            "name:en": null,
            "name:uk": null,
            "name:de": null,
            "name:tr": null,
            "name:ru": null,
            "name:ar": null
        }
    },
    {
        "lat": 41.1683763,
        "lon": 29.0564481,
        "tags": {
            "addr:city": "İstanbul",
            "addr:district": null,
            "description": "",
            "opening_hours": null,
            "phone": null,
            "branch": null,
            "amenity": "bag",
            "mobile": null,
            "addr:street": null,
            "cuisine": null,
            "name": "Kehan Çanta",
            "name:en": null,
            "name:uk": null,
            "name:de": null,
            "name:tr": null,
            "name:ru": null,
            "name:ar": null
        }
    },
    {
        "lat": 40.9801719,
        "lon": 29.112815,
        "tags": {
            "addr:city": "İstanbul",
            "addr:district": null,
            "description": "",
            "opening_hours": null,
            "phone": null,
            "branch": null,
            "amenity": "bag",
            "mobile": null,
            "addr:street": null,
            "cuisine": null,
            "name": "Çanta Tamiri",
            "name:en": null,
            "name:uk": null,
            "name:de": null,
            "name:tr": null,
            "name:ru": null,
            "name:ar": null
        }
    },
    {
        "lat": 41.1014394,
        "lon": 28.8646416,
        "tags": {
            "addr:city": "İstanbul",
            "addr:district": null,
            "description": "",
            "opening_hours": null,
            "phone": null,
            "branch": null,
            "amenity": "bag",
            "mobile": null,
            "addr:street": null,
            "cuisine": null,
            "name": "Eva çanta",
            "name:en": null,
            "name:uk": null,
            "name:de": null,
            "name:tr": null,
            "name:ru": null,
            "name:ar": null
        }
    },
    {
        "lat": 41.0239828,
        "lon": 29.0171712,
        "tags": {
            "addr:city": "İstanbul",
            "addr:district": null,
            "description": "",
            "opening_hours": null,
            "phone": null,
            "branch": null,
            "amenity": "bag",
            "mobile": null,
            "addr:street": null,
            "cuisine": null,
            "name": "Ozan Çanta",
            "name:en": null,
            "name:uk": null,
            "name:de": null,
            "name:tr": null,
            "name:ru": null,
            "name:ar": null
        }
    },
    {
        "lat": 40.9718112,
        "lon": 29.0586938,
        "tags": {
            "addr:city": "İstanbul",
            "addr:district": "Kadıköy",
            "description": "",
            "opening_hours": "09:00 - 21:00",
            "phone": null,
            "branch": null,
            "amenity": "bag",
            "mobile": null,
            "addr:street": "Bağdat Caddesi",
            "cuisine": null,
            "name": "Samsonite",
            "name:en": null,
            "name:uk": null,
            "name:de": null,
            "name:tr": null,
            "name:ru": null,
            "name:ar": null
        }
    },
    {
        "lat": 40.9676681,
        "lon": 29.0664093,
        "tags": {
            "addr:city": "İstanbul",
            "addr:district": null,
            "description": "",
            "opening_hours": null,
            "phone": null,
            "branch": null,
            "amenity": "bag",
            "mobile": null,
            "addr:street": null,
            "cuisine": null,
            "name": "Angelina Torani",
            "name:en": null,
            "name:uk": null,
            "name:de": null,
            "name:tr": null,
            "name:ru": null,
            "name:ar": null
        }
    },
    {
        "lat": 40.9071229,
        "lon": 29.3152173,
        "tags": {
            "addr:city": "İstanbul",
            "addr:district": null,
            "description": "after security check",
            "opening_hours": null,
            "phone": null,
            "branch": null,
            "amenity": "bag",
            "mobile": null,
            "addr:street": null,
            "cuisine": null,
            "name": "Collection",
            "name:en": null,
            "name:uk": null,
            "name:de": null,
            "name:tr": null,
            "name:ru": null,
            "name:ar": null
        }
    },
    {
        "lat": 41.0245216,
        "lon": 29.0858213,
        "tags": {
            "addr:city": "İstanbul",
            "addr:district": null,
            "description": "",
            "opening_hours": null,
            "phone": null,
            "branch": null,
            "amenity": "bag",
            "mobile": null,
            "addr:street": null,
            "cuisine": null,
            "name": "Yeşil Kundurma",
            "name:en": null,
            "name:uk": null,
            "name:de": null,
            "name:tr": "Yeşil Kundurma",
            "name:ru": null,
            "name:ar": null
        }
    },
    {
        "lat": 41.0245581,
        "lon": 29.0862292,
        "tags": {
            "addr:city": "İstanbul",
            "addr:district": null,
            "description": "",
            "opening_hours": null,
            "phone": null,
            "branch": null,
            "amenity": "bag",
            "mobile": null,
            "addr:street": null,
            "cuisine": null,
            "name": "Çizgi Çanta",
            "name:en": null,
            "name:uk": null,
            "name:de": null,
            "name:tr": "Çizgi Çanta",
            "name:ru": null,
            "name:ar": null
        }
    },
    {
        "lat": 41.0250825,
        "lon": 29.0890684,
        "tags": {
            "addr:city": "İstanbul",
            "addr:district": null,
            "description": "",
            "opening_hours": null,
            "phone": null,
            "branch": null,
            "amenity": "bag",
            "mobile": null,
            "addr:street": null,
            "cuisine": null,
            "name": "OGZ Çanta",
            "name:en": null,
            "name:uk": null,
            "name:de": null,
            "name:tr": "OGZ Çanta",
            "name:ru": null,
            "name:ar": null
        }
    },
    {
        "lat": 41.0247037,
        "lon": 29.0895614,
        "tags": {
            "addr:city": "İstanbul",
            "addr:district": null,
            "description": "",
            "opening_hours": null,
            "phone": null,
            "branch": null,
            "amenity": "bag",
            "mobile": null,
            "addr:street": null,
            "cuisine": null,
            "name": "N&R Çanta",
            "name:en": null,
            "name:uk": null,
            "name:de": null,
            "name:tr": "N&R Çanta",
            "name:ru": null,
            "name:ar": null
        }
    },
    {
        "lat": 40.9873731,
        "lon": 28.9040213,
        "tags": {
            "addr:city": "İstanbul",
            "addr:district": null,
            "description": "",
            "opening_hours": null,
            "phone": null,
            "branch": null,
            "amenity": "bag",
            "mobile": null,
            "addr:street": null,
            "cuisine": null,
            "name": "Amazing",
            "name:en": null,
            "name:uk": null,
            "name:de": null,
            "name:tr": null,
            "name:ru": null,
            "name:ar": null
        }
    },
    {
        "lat": 41.0327029,
        "lon": 28.976626,
        "tags": {
            "addr:city": "İstanbul",
            "addr:district": null,
            "description": "",
            "opening_hours": null,
            "phone": null,
            "branch": null,
            "amenity": "bag",
            "mobile": null,
            "addr:street": "İstiklal Caddesi",
            "cuisine": null,
            "name": "Derpa",
            "name:en": null,
            "name:uk": null,
            "name:de": null,
            "name:tr": null,
            "name:ru": null,
            "name:ar": null
        }
    },
    {
        "lat": 41.0384694,
        "lon": 28.9848156,
        "tags": {
            "addr:city": "İstanbul",
            "addr:district": null,
            "description": "",
            "opening_hours": null,
            "phone": null,
            "branch": null,
            "amenity": "bag",
            "mobile": null,
            "addr:street": "Şehit Muhtar Bey Caddesi",
            "cuisine": null,
            "name": null,
            "name:en": null,
            "name:uk": null,
            "name:de": null,
            "name:tr": null,
            "name:ru": null,
            "name:ar": null
        }
    },
    {
        "lat": 41.0243371,
        "lon": 28.9778797,
        "tags": {
            "addr:city": "İstanbul",
            "addr:district": null,
            "description": "",
            "opening_hours": null,
            "phone": null,
            "branch": null,
            "amenity": "bag",
            "mobile": null,
            "addr:street": null,
            "cuisine": null,
            "name": "Genove Exclusive",
            "name:en": null,
            "name:uk": null,
            "name:de": null,
            "name:tr": null,
            "name:ru": null,
            "name:ar": null
        }
    }
]