[
    {
        "lat": 41.0084783,
        "lon": 28.9660206,
        "tags": {
            "addr:city": "Istanbul",
            "addr:district": "Fatih",
            "description": "",
            "opening_hours": null,
            "phone": null,
            "branch": null,
            "amenity": "Bag_shop",
            "mobile": null,
            "addr:street": "Tiyatro Caddesi",
            "cuisine": null,
            "name": "Gönen çanta",
            "name:en": null,
            "name:uk": null,
            "name:de": null,
            "name:tr": null,
            "name:ru": null,
            "name:ar": null
        }
    },
    {
        "lat": 41.0080386,
        "lon": 28.9661071,
        "tags": {
            "addr:city": "Istanbul",
            "addr:district": "Fatih",
            "description": "",
            "opening_hours": null,
            "phone": null,
            "branch": null,
            "amenity": "Bag_shop",
            "mobile": null,
            "addr:street": "Yahya Paşa Sokak",
            "cuisine": null,
            "name": "Merid Yen",
            "name:en": null,
            "name:uk": null,
            "name:de": null,
            "name:tr": null,
            "name:ru": null,
            "name:ar": null
        }
    },
    {
        "lat": 41.0079827,
        "lon": 28.9669475,
        "tags": {
            "addr:city": "Istanbul",
            "addr:district": "Fatih",
            "description": "",
            "opening_hours": null,
            "phone": null,
            "branch": null,
            "amenity": "Bag_shop",
            "mobile": null,
            "addr:street": "Hattat Sokak",
            "cuisine": null,
            "name": "Lamberti",
            "name:en": null,
            "name:uk": null,
            "name:de": null,
            "name:tr": null,
            "name:ru": null,
            "name:ar": null
        }
    },
    {
        "lat": 41.0083535,
        "lon": 28.9665317,
        "tags": {
            "addr:city": "Istanbul",
            "addr:district": "Fatih",
            "description": "",
            "opening_hours": null,
            "phone": null,
            "branch": null,
            "amenity": "Bag_shop",
            "mobile": null,
            "addr:street": "Sinekli Medrese Sokak",
            "cuisine": null,
            "name": "Mert Çanta",
            "name:en": null,
            "name:uk": null,
            "name:de": null,
            "name:tr": null,
            "name:ru": null,
            "name:ar": null
        }
    },
    {
        "lat": 41.0084147,
        "lon": 28.9665559,
        "tags": {
            "addr:city": "Istanbul",
            "addr:district": "Fatih",
            "description": "",
            "opening_hours": null,
            "phone": null,
            "branch": null,
            "amenity": "Bag_shop",
            "mobile": null,
            "addr:street": "Sinekli Medrese Sokak",
            "cuisine": null,
            "name": "Mutlu Çanta",
            "name:en": null,
            "name:uk": null,
            "name:de": null,
            "name:tr": null,
            "name:ru": null,
            "name:ar": null
        }
    },
    {
        "lat": 41.0086002,
        "lon": 28.966511,
        "tags": {
            "addr:city": "Istanbul",
            "addr:district": "Fatih",
            "description": "",
            "opening_hours": null,
            "phone": null,
            "branch": null,
            "amenity": "Bag_shop",
            "mobile": null,
            "addr:street": "Asma Kandil Sokak",
            "cuisine": null,
            "name": "Ose Çanta",
            "name:en": null,
            "name:uk": null,
            "name:de": null,
            "name:tr": null,
            "name:ru": null,
            "name:ar": null
        }
    },
    {
        "lat": 41.0085272,
        "lon": 28.9663876,
        "tags": {
            "addr:city": "Istanbul",
            "addr:district": "Fatih",
            "description": "",
            "opening_hours": null,
            "phone": null,
            "branch": null,
            "amenity": "Bag_shop",
            "mobile": null,
            "addr:street": "Asma Kandil Sokak",
            "cuisine": null,
            "name": "Z ve Ç",
            "name:en": null,
            "name:uk": null,
            "name:de": null,
            "name:tr": null,
            "name:ru": null,
            "name:ar": null
        }
    },
    {
        "lat": 41.0085586,
        "lon": 28.9661422,
        "tags": {
            "addr:city": "Istanbul",
            "addr:district": "Fatih",
            "description": "",
            "opening_hours": null,
            "phone": null,
            "branch": null,
            "amenity": "Bag_shop",
            "mobile": null,
            "addr:street": "Asma Kandil Sokak",
            "cuisine": null,
            "name": "Nas Çanta Ve Aksesuar",
            "name:en": null,
            "name:uk": null,
            "name:de": null,
            "name:tr": null,
            "name:ru": null,
            "name:ar": null
        }
    },
    {
        "lat": 41.0086456,
        "lon": 28.9662924,
        "tags": {
            "addr:city": "Istanbul",
            "addr:district": "Fatih",
            "description": "",
            "opening_hours": null,
            "phone": null,
            "branch": null,
            "amenity": "Bag_shop",
            "mobile": null,
            "addr:street": "Asma Kandil Sokak",
            "cuisine": null,
            "name": "Alpe",
            "name:en": null,
            "name:uk": null,
            "name:de": null,
            "name:tr": null,
            "name:ru": null,
            "name:ar": null
        }
    }
]