[
    {
        "lat": 40.9943743,
        "lon": 28.9103944,
        "tags": {
            "addr:city": "İstanbul",
            "addr:district": null,
            "description": "",
            "opening_hours": null,
            "phone": null,
            "branch": null,
            "amenity": "beauty",
            "mobile": null,
            "addr:street": null,
            "cuisine": null,
            "name": null,
            "name:en": null,
            "name:uk": null,
            "name:de": null,
            "name:tr": null,
            "name:ru": null,
            "name:ar": null
        }
    },
    {
        "lat": 41.087419,
        "lon": 29.012504,
        "tags": {
            "addr:city": "İstanbul",
            "addr:district": null,
            "description": "",
            "opening_hours": null,
            "phone": null,
            "branch": null,
            "amenity": "beauty",
            "mobile": null,
            "addr:street": null,
            "cuisine": null,
            "name": "Saka",
            "name:en": null,
            "name:uk": null,
            "name:de": null,
            "name:tr": null,
            "name:ru": null,
            "name:ar": null
        }
    },
    {
        "lat": 41.0104134,
        "lon": 29.1363969,
        "tags": {
            "addr:city": "İstanbul",
            "addr:district": null,
            "description": "",
            "opening_hours": "24/7",
            "phone": "05312526910",
            "branch": null,
            "amenity": "beauty",
            "mobile": null,
            "addr:street": "Elalmış Caddesi",
            "cuisine": null,
            "name": "queen güzellik merkezi",
            "name:en": null,
            "name:uk": null,
            "name:de": null,
            "name:tr": null,
            "name:ru": null,
            "name:ar": null
        }
    },
    {
        "lat": 41.0327667,
        "lon": 28.9776704,
        "tags": {
            "addr:city": "İstanbul",
            "addr:district": null,
            "description": "",
            "opening_hours": "Mo-Su 10:00-22:00",
            "phone": "02122431807",
            "branch": null,
            "amenity": "beauty",
            "mobile": null,
            "addr:street": "Yeni Çarşı Caddesi",
            "cuisine": null,
            "name": "Organic Me",
            "name:en": "gate tattoo",
            "name:uk": null,
            "name:de": null,
            "name:tr": "gatetattoo",
            "name:ru": null,
            "name:ar": null
        }
    },
    {
        "lat": 41.0526968,
        "lon": 29.0000916,
        "tags": {
            "addr:city": "İstanbul",
            "addr:district": null,
            "description": "",
            "opening_hours": null,
            "phone": null,
            "branch": null,
            "amenity": "beauty",
            "mobile": null,
            "addr:street": "Hakkı Yeten Caddesi",
            "cuisine": null,
            "name": "Estecenter Plastik Cerrahi Merkezi",
            "name:en": null,
            "name:uk": null,
            "name:de": null,
            "name:tr": null,
            "name:ru": null,
            "name:ar": null
        }
    },
    {
        "lat": 40.9723265,
        "lon": 29.0628129,
        "tags": {
            "addr:city": "Kadıköy/İstanbul",
            "addr:district": null,
            "description": "",
            "opening_hours": "Mo-Sa 10:00-19:00",
            "phone": "05442398270",
            "branch": null,
            "amenity": "beauty",
            "mobile": null,
            "addr:street": "Reşit Belgesay Sokak",
            "cuisine": null,
            "name": "Nalan Rukun Kalıcı Makyaj Stüdyosu",
            "name:en": "Permenant make-up",
            "name:uk": null,
            "name:de": null,
            "name:tr": "Nalan Rukun Kalıcı Makyaj Stüdyosu",
            "name:ru": null,
            "name:ar": null
        }
    },
    {
        "lat": 41.0512389,
        "lon": 28.9917386,
        "tags": {
            "addr:city": "İstanbul",
            "addr:district": null,
            "description": "",
            "opening_hours": null,
            "phone": null,
            "branch": null,
            "amenity": "beauty",
            "mobile": null,
            "addr:street": null,
            "cuisine": null,
            "name": null,
            "name:en": "Swarovski",
            "name:uk": null,
            "name:de": null,
            "name:tr": null,
            "name:ru": null,
            "name:ar": null
        }
    },
    {
        "lat": 40.9451207,
        "lon": 29.1199056,
        "tags": {
            "addr:city": "İstanbul",
            "addr:district": null,
            "description": "",
            "opening_hours": null,
            "phone": null,
            "branch": null,
            "amenity": "beauty",
            "mobile": null,
            "addr:street": null,
            "cuisine": null,
            "name": "Merve Güzellik Salonu / Kuaför",
            "name:en": null,
            "name:uk": null,
            "name:de": null,
            "name:tr": null,
            "name:ru": null,
            "name:ar": null
        }
    },
    {
        "lat": 40.9223828,
        "lon": 29.1347341,
        "tags": {
            "addr:city": "İstanbul",
            "addr:district": null,
            "description": "",
            "opening_hours": null,
            "phone": null,
            "branch": null,
            "amenity": "beauty",
            "mobile": null,
            "addr:street": null,
            "cuisine": null,
            "name": "Yves Rocher",
            "name:en": null,
            "name:uk": null,
            "name:de": null,
            "name:tr": null,
            "name:ru": null,
            "name:ar": null
        }
    },
    {
        "lat": 41.093887,
        "lon": 29.0878682,
        "tags": {
            "addr:city": "İstanbul",
            "addr:district": null,
            "description": "",
            "opening_hours": null,
            "phone": null,
            "branch": null,
            "amenity": "beauty",
            "mobile": null,
            "addr:street": "Yürekli Adam sokak",
            "cuisine": null,
            "name": "tuana güzellik salonu",
            "name:en": null,
            "name:uk": null,
            "name:de": null,
            "name:tr": null,
            "name:ru": null,
            "name:ar": null
        }
    },
    {
        "lat": 41.0047286,
        "lon": 28.8710508,
        "tags": {
            "addr:city": "İstanbul",
            "addr:district": null,
            "description": "",
            "opening_hours": null,
            "phone": null,
            "branch": null,
            "amenity": "beauty",
            "mobile": null,
            "addr:street": null,
            "cuisine": null,
            "name": "Doğa Güzellik",
            "name:en": null,
            "name:uk": null,
            "name:de": null,
            "name:tr": null,
            "name:ru": null,
            "name:ar": null
        }
    },
    {
        "lat": 41.0803831,
        "lon": 28.877471,
        "tags": {
            "addr:city": "İstanbul",
            "addr:district": "Gaziosmanpaşa",
            "description": "Güzellik Salonumuz sizlerle.",
            "opening_hours": "Mo-Sa 08:00-18:00",
            "phone": "+90 533 721 62 71",
            "branch": null,
            "amenity": "beauty",
            "mobile": null,
            "addr:street": "Eski Edirne Asfaltı",
            "cuisine": null,
            "name": "Alebra Beauty - Güzellik Salonu",
            "name:en": "Alebra Beauty",
            "name:uk": null,
            "name:de": null,
            "name:tr": null,
            "name:ru": null,
            "name:ar": null
        }
    },
    {
        "lat": 40.9533041,
        "lon": 29.0933405,
        "tags": {
            "addr:city": "İstanbul",
            "addr:district": null,
            "description": "",
            "opening_hours": null,
            "phone": null,
            "branch": null,
            "amenity": "beauty",
            "mobile": null,
            "addr:street": null,
            "cuisine": null,
            "name": "Tanit Estetik",
            "name:en": null,
            "name:uk": null,
            "name:de": null,
            "name:tr": null,
            "name:ru": null,
            "name:ar": null
        }
    },
    {
        "lat": 40.9279546,
        "lon": 29.3089986,
        "tags": {
            "addr:city": "İstanbul",
            "addr:district": "Pendik",
            "description": "",
            "opening_hours": null,
            "phone": "+90 501 208 4048",
            "branch": null,
            "amenity": "beauty",
            "mobile": null,
            "addr:street": "Osmanlı Bulvarı",
            "cuisine": null,
            "name": "Studio Volumes",
            "name:en": null,
            "name:uk": null,
            "name:de": null,
            "name:tr": null,
            "name:ru": null,
            "name:ar": null
        }
    },
    {
        "lat": 41.0114162,
        "lon": 28.9781504,
        "tags": {
            "addr:city": "İstanbul",
            "addr:district": null,
            "description": "",
            "opening_hours": null,
            "phone": null,
            "branch": null,
            "amenity": "beauty",
            "mobile": null,
            "addr:street": null,
            "cuisine": null,
            "name": null,
            "name:en": null,
            "name:uk": null,
            "name:de": null,
            "name:tr": null,
            "name:ru": null,
            "name:ar": null
        }
    },
    {
        "lat": 41.0404604,
        "lon": 28.9842935,
        "tags": {
            "addr:city": "İstanbul",
            "addr:district": null,
            "description": "",
            "opening_hours": null,
            "phone": null,
            "branch": null,
            "amenity": "beauty",
            "mobile": null,
            "addr:street": null,
            "cuisine": null,
            "name": null,
            "name:en": "فندقنا",
            "name:uk": null,
            "name:de": null,
            "name:tr": null,
            "name:ru": null,
            "name:ar": null
        }
    },
    {
        "lat": 41.0439333,
        "lon": 29.0097761,
        "tags": {
            "addr:city": "İstanbul",
            "addr:district": null,
            "description": "",
            "opening_hours": null,
            "phone": null,
            "branch": null,
            "amenity": "beauty",
            "mobile": null,
            "addr:street": null,
            "cuisine": null,
            "name": null,
            "name:en": null,
            "name:uk": null,
            "name:de": null,
            "name:tr": null,
            "name:ru": null,
            "name:ar": null
        }
    },
    {
        "lat": 41.0061486,
        "lon": 28.9310474,
        "tags": {
            "addr:city": "Istanbul",
            "addr:district": "Fatih",
            "description": "",
            "opening_hours": null,
            "phone": null,
            "branch": null,
            "amenity": "beauty",
            "mobile": null,
            "addr:street": "Vidin Caddesi",
            "cuisine": null,
            "name": "Aşkın Saç Tasarım",
            "name:en": null,
            "name:uk": null,
            "name:de": null,
            "name:tr": null,
            "name:ru": null,
            "name:ar": "اشكن ساتش تاسارم"
        }
    },
    {
        "lat": 41.0126652,
        "lon": 28.9783287,
        "tags": {
            "addr:city": "Istanbul",
            "addr:district": "Fatih",
            "description": "",
            "opening_hours": null,
            "phone": "+90 212 458 87 12",
            "branch": null,
            "amenity": "beauty",
            "mobile": null,
            "addr:street": "Hüdavendigar Caddesi",
            "cuisine": null,
            "name": "Studex",
            "name:en": null,
            "name:uk": null,
            "name:de": null,
            "name:tr": null,
            "name:ru": null,
            "name:ar": null
        }
    },
    {
        "lat": 41.0145001,
        "lon": 28.9779362,
        "tags": {
            "addr:city": "Istanbul",
            "addr:district": "Fatih",
            "description": "",
            "opening_hours": null,
            "phone": "+90 212 514 25 14",
            "branch": null,
            "amenity": "beauty",
            "mobile": null,
            "addr:street": "İstasyon Arkası Sokak",
            "cuisine": null,
            "name": "Felicity spa",
            "name:en": null,
            "name:uk": null,
            "name:de": null,
            "name:tr": null,
            "name:ru": null,
            "name:ar": null
        }
    },
    {
        "lat": 41.0116823,
        "lon": 28.9600036,
        "tags": {
            "addr:city": "Istanbul",
            "addr:district": "Fatih",
            "description": "",
            "opening_hours": null,
            "phone": null,
            "branch": null,
            "amenity": "beauty",
            "mobile": null,
            "addr:street": "Darülfünun Caddesi",
            "cuisine": null,
            "name": "Kümbet bijuteri accessories",
            "name:en": null,
            "name:uk": null,
            "name:de": null,
            "name:tr": null,
            "name:ru": null,
            "name:ar": "كومبيت بيجوتيري للاكسسوارات والحلي"
        }
    },
    {
        "lat": 41.0150524,
        "lon": 28.9672809,
        "tags": {
            "addr:city": "Istanbul",
            "addr:district": "Fatih",
            "description": "",
            "opening_hours": null,
            "phone": null,
            "branch": null,
            "amenity": "beauty",
            "mobile": null,
            "addr:street": "İsmetiye Caddesi",
            "cuisine": null,
            "name": "Ulgen Bijuteri",
            "name:en": null,
            "name:uk": null,
            "name:de": null,
            "name:tr": null,
            "name:ru": null,
            "name:ar": "أولغين بيجوتيري للحلي"
        }
    },
    {
        "lat": 41.013974,
        "lon": 28.9675463,
        "tags": {
            "addr:city": "Istanbul",
            "addr:district": "Fatih",
            "description": "",
            "opening_hours": null,
            "phone": null,
            "branch": null,
            "amenity": "beauty",
            "mobile": null,
            "addr:street": "Uzun Çarşı Caddesi",
            "cuisine": null,
            "name": "Metin Toka",
            "name:en": null,
            "name:uk": null,
            "name:de": null,
            "name:tr": null,
            "name:ru": null,
            "name:ar": "ميتين توكا للاكسسوارات"
        }
    },
    {
        "lat": 41.0045796,
        "lon": 28.9311087,
        "tags": {
            "addr:city": "Istanbul",
            "addr:district": "Fatih",
            "description": "",
            "opening_hours": null,
            "phone": null,
            "branch": null,
            "amenity": "beauty",
            "mobile": null,
            "addr:street": "Kuvayi Milliye Caddesi",
            "cuisine": null,
            "name": "Esteroza Estetik Ve Güzellik",
            "name:en": null,
            "name:uk": null,
            "name:de": null,
            "name:tr": null,
            "name:ru": null,
            "name:ar": "استيروزا استيتيك في غوزالليك"
        }
    },
    {
        "lat": 41.0236013,
        "lon": 28.9508299,
        "tags": {
            "addr:city": "Istanbul",
            "addr:district": "Fatih",
            "description": "",
            "opening_hours": null,
            "phone": null,
            "branch": null,
            "amenity": "beauty",
            "mobile": null,
            "addr:street": "Doğan sokak",
            "cuisine": null,
            "name": "Derin",
            "name:en": null,
            "name:uk": null,
            "name:de": null,
            "name:tr": null,
            "name:ru": null,
            "name:ar": "ديرين"
        }
    },
    {
        "lat": 41.020648,
        "lon": 28.9473742,
        "tags": {
            "addr:city": "Istanbul",
            "addr:district": "Fatih",
            "description": "",
            "opening_hours": null,
            "phone": null,
            "branch": null,
            "amenity": "beauty",
            "mobile": null,
            "addr:street": "yedi emirler sokak",
            "cuisine": null,
            "name": "Beraber",
            "name:en": null,
            "name:uk": null,
            "name:de": null,
            "name:tr": null,
            "name:ru": null,
            "name:ar": "برابر"
        }
    },
    {
        "lat": 41.0171034,
        "lon": 28.9504125,
        "tags": {
            "addr:city": "Istanbul",
            "addr:district": "Turkey",
            "description": "",
            "opening_hours": null,
            "phone": null,
            "branch": null,
            "amenity": "beauty",
            "mobile": null,
            "addr:street": "Fevzi paşa caddesi",
            "cuisine": null,
            "name": "Istanbul estetist polikliniği",
            "name:en": null,
            "name:uk": null,
            "name:de": null,
            "name:tr": null,
            "name:ru": null,
            "name:ar": "اسطنبول استاتيست بوليكلييني"
        }
    },
    {
        "lat": 41.0117202,
        "lon": 28.9395491,
        "tags": {
            "addr:city": "Istanbul",
            "addr:district": "Turkey",
            "description": "",
            "opening_hours": "07:00-20:00",
            "phone": "02125863914",
            "branch": null,
            "amenity": "beauty",
            "mobile": null,
            "addr:street": "Turgut özal millet caddesi",
            "cuisine": null,
            "name": "Yakup Kuaför güzellik salonu",
            "name:en": null,
            "name:uk": null,
            "name:de": null,
            "name:tr": null,
            "name:ru": null,
            "name:ar": "كوافير يعقوب للتجميل"
        }
    },
    {
        "lat": 41.0076091,
        "lon": 28.9391468,
        "tags": {
            "addr:city": "Istanbul",
            "addr:district": "Fatih",
            "description": "",
            "opening_hours": null,
            "phone": null,
            "branch": null,
            "amenity": "beauty",
            "mobile": null,
            "addr:street": "Hekimoğlu ali paşa Caddesi",
            "cuisine": null,
            "name": "Salon euro still",
            "name:en": null,
            "name:uk": null,
            "name:de": null,
            "name:tr": null,
            "name:ru": null,
            "name:ar": "صالون اورو ستيل"
        }
    },
    {
        "lat": 41.0088725,
        "lon": 28.9378814,
        "tags": {
            "addr:city": "Istanbul",
            "addr:district": "Fatih",
            "description": "",
            "opening_hours": null,
            "phone": null,
            "branch": null,
            "amenity": "beauty",
            "mobile": null,
            "addr:street": "Ahmet Hikmet Sokağı",
            "cuisine": null,
            "name": "Magic Hands",
            "name:en": null,
            "name:uk": null,
            "name:de": null,
            "name:tr": null,
            "name:ru": null,
            "name:ar": "ماجيك هاندس"
        }
    },
    {
        "lat": 41.0297283,
        "lon": 28.9396967,
        "tags": {
            "addr:city": "Istanbul",
            "addr:district": "Fatih",
            "description": "",
            "opening_hours": null,
            "phone": null,
            "branch": null,
            "amenity": "beauty",
            "mobile": null,
            "addr:street": "Slama tomruk Caddesi",
            "cuisine": null,
            "name": "Rabia Saç Tasarım",
            "name:en": null,
            "name:uk": null,
            "name:de": null,
            "name:tr": null,
            "name:ru": null,
            "name:ar": "ربيعا مركز تجميل"
        }
    },
    {
        "lat": 41.0702783,
        "lon": 29.0016062,
        "tags": {
            "addr:city": "İstanbul",
            "addr:district": null,
            "description": "",
            "opening_hours": null,
            "phone": null,
            "branch": null,
            "amenity": "beauty",
            "mobile": null,
            "addr:street": null,
            "cuisine": null,
            "name": "Yves Rocher",
            "name:en": "Yves Rocher",
            "name:uk": null,
            "name:de": null,
            "name:tr": null,
            "name:ru": null,
            "name:ar": null
        }
    },
    {
        "lat": 41.0161286,
        "lon": 28.9697879,
        "tags": {
            "addr:city": "Istanbul",
            "addr:district": "Fatih",
            "description": "",
            "opening_hours": null,
            "phone": null,
            "branch": null,
            "amenity": "beauty",
            "mobile": null,
            "addr:street": "Fındıkçılar Sokak",
            "cuisine": null,
            "name": "Modaax Aksesuar",
            "name:en": null,
            "name:uk": null,
            "name:de": null,
            "name:tr": null,
            "name:ru": null,
            "name:ar": "موداكس اكسيسوار"
        }
    },
    {
        "lat": 41.0161823,
        "lon": 28.9697436,
        "tags": {
            "addr:city": "Istanbul",
            "addr:district": "Fatih",
            "description": "",
            "opening_hours": null,
            "phone": null,
            "branch": null,
            "amenity": "beauty",
            "mobile": null,
            "addr:street": "Fındıkçılar Sokak",
            "cuisine": null,
            "name": "Taş Dünyası Aksesuar",
            "name:en": null,
            "name:uk": null,
            "name:de": null,
            "name:tr": null,
            "name:ru": null,
            "name:ar": "تاش دونياسي اكسيسوار"
        }
    },
    {
        "lat": 40.9587179,
        "lon": 29.0985615,
        "tags": {
            "addr:city": "İstanbul",
            "addr:district": "Kadıköy",
            "description": "",
            "opening_hours": null,
            "phone": null,
            "branch": null,
            "amenity": "beauty",
            "mobile": null,
            "addr:street": "Prof. Dr. Ali Nihat Tarlan Caddesi",
            "cuisine": null,
            "name": "Maya Yoga",
            "name:en": null,
            "name:uk": null,
            "name:de": null,
            "name:tr": null,
            "name:ru": null,
            "name:ar": null
        }
    },
    {
        "lat": 41.0321205,
        "lon": 29.1806286,
        "tags": {
            "addr:city": "İstanbul",
            "addr:district": "Çekmeköy",
            "description": "",
            "opening_hours": "Mo-Su 09:00-20:00",
            "phone": "+90 216 639 08 02",
            "branch": null,
            "amenity": "beauty",
            "mobile": null,
            "addr:street": "Mimar Sinan Caddesi",
            "cuisine": null,
            "name": "Nail Clinic Spa",
            "name:en": null,
            "name:uk": null,
            "name:de": null,
            "name:tr": null,
            "name:ru": null,
            "name:ar": null
        }
    },
    {
        "lat": 40.8989389,
        "lon": 29.17363,
        "tags": {
            "addr:city": "İstanbul",
            "addr:district": null,
            "description": "",
            "opening_hours": null,
            "phone": null,
            "branch": null,
            "amenity": "beauty",
            "mobile": null,
            "addr:street": null,
            "cuisine": null,
            "name": "Tutku Güzellik Salonu",
            "name:en": null,
            "name:uk": null,
            "name:de": null,
            "name:tr": null,
            "name:ru": null,
            "name:ar": null
        }
    },
    {
        "lat": 40.8988091,
        "lon": 29.1735549,
        "tags": {
            "addr:city": "İstanbul",
            "addr:district": null,
            "description": "",
            "opening_hours": null,
            "phone": null,
            "branch": null,
            "amenity": "beauty",
            "mobile": null,
            "addr:street": null,
            "cuisine": null,
            "name": "Hanifi Güzellik Salonu",
            "name:en": null,
            "name:uk": null,
            "name:de": null,
            "name:tr": null,
            "name:ru": null,
            "name:ar": null
        }
    },
    {
        "lat": 41.106368,
        "lon": 28.8603357,
        "tags": {
            "addr:city": "İstanbul",
            "addr:district": null,
            "description": "",
            "opening_hours": null,
            "phone": null,
            "branch": null,
            "amenity": "beauty",
            "mobile": null,
            "addr:street": null,
            "cuisine": null,
            "name": "Cansın",
            "name:en": null,
            "name:uk": null,
            "name:de": null,
            "name:tr": null,
            "name:ru": null,
            "name:ar": null
        }
    },
    {
        "lat": 40.8851903,
        "lon": 29.2329086,
        "tags": {
            "addr:city": "Pendik, İstanbul",
            "addr:district": "pendik",
            "description": "",
            "opening_hours": "Mo-Su 09:00-21:00",
            "phone": null,
            "branch": null,
            "amenity": "beauty",
            "mobile": null,
            "addr:street": null,
            "cuisine": null,
            "name": "derma viva güzellik",
            "name:en": null,
            "name:uk": null,
            "name:de": null,
            "name:tr": null,
            "name:ru": null,
            "name:ar": null
        }
    },
    {
        "lat": 41.0313525,
        "lon": 29.1827228,
        "tags": {
            "addr:city": "İstanbul",
            "addr:district": null,
            "description": "",
            "opening_hours": null,
            "phone": "+90 216 642 47 62",
            "branch": null,
            "amenity": "beauty",
            "mobile": null,
            "addr:street": null,
            "cuisine": null,
            "name": "Oje",
            "name:en": null,
            "name:uk": null,
            "name:de": null,
            "name:tr": null,
            "name:ru": null,
            "name:ar": null
        }
    },
    {
        "lat": 40.8846914,
        "lon": 29.2321105,
        "tags": {
            "addr:city": "İstanbul",
            "addr:district": null,
            "description": "",
            "opening_hours": "Mo-Su 09:00-21:00",
            "phone": null,
            "branch": null,
            "amenity": "beauty",
            "mobile": null,
            "addr:street": "feyza sokak",
            "cuisine": null,
            "name": "doğalife estetik cerrahi ve saç ekim merkezi",
            "name:en": null,
            "name:uk": null,
            "name:de": null,
            "name:tr": null,
            "name:ru": null,
            "name:ar": null
        }
    },
    {
        "lat": 41.0598366,
        "lon": 28.9138152,
        "tags": {
            "addr:city": "İstanbul",
            "addr:district": null,
            "description": "",
            "opening_hours": null,
            "phone": null,
            "branch": null,
            "amenity": "beauty",
            "mobile": null,
            "addr:street": null,
            "cuisine": null,
            "name": "ACAR",
            "name:en": null,
            "name:uk": null,
            "name:de": null,
            "name:tr": null,
            "name:ru": null,
            "name:ar": null
        }
    },
    {
        "lat": 41.0587154,
        "lon": 28.9141119,
        "tags": {
            "addr:city": "İstanbul",
            "addr:district": null,
            "description": "",
            "opening_hours": null,
            "phone": null,
            "branch": null,
            "amenity": "beauty",
            "mobile": null,
            "addr:street": null,
            "cuisine": null,
            "name": "AyNes Güzellik",
            "name:en": null,
            "name:uk": null,
            "name:de": null,
            "name:tr": null,
            "name:ru": null,
            "name:ar": null
        }
    },
    {
        "lat": 41.0593231,
        "lon": 28.9135929,
        "tags": {
            "addr:city": "İstanbul",
            "addr:district": null,
            "description": "",
            "opening_hours": null,
            "phone": null,
            "branch": null,
            "amenity": "beauty",
            "mobile": null,
            "addr:street": null,
            "cuisine": null,
            "name": "Yves Rocher",
            "name:en": null,
            "name:uk": null,
            "name:de": null,
            "name:tr": null,
            "name:ru": null,
            "name:ar": null
        }
    },
    {
        "lat": 41.0997824,
        "lon": 28.8627648,
        "tags": {
            "addr:city": "İstanbul",
            "addr:district": null,
            "description": "",
            "opening_hours": null,
            "phone": null,
            "branch": null,
            "amenity": "beauty",
            "mobile": null,
            "addr:street": null,
            "cuisine": null,
            "name": "Marjinal",
            "name:en": null,
            "name:uk": null,
            "name:de": null,
            "name:tr": null,
            "name:ru": null,
            "name:ar": null
        }
    },
    {
        "lat": 41.1010713,
        "lon": 28.8626951,
        "tags": {
            "addr:city": "İstanbul",
            "addr:district": null,
            "description": "",
            "opening_hours": null,
            "phone": null,
            "branch": null,
            "amenity": "beauty",
            "mobile": null,
            "addr:street": null,
            "cuisine": null,
            "name": "Epilia Güzellik Salonu",
            "name:en": null,
            "name:uk": null,
            "name:de": null,
            "name:tr": null,
            "name:ru": null,
            "name:ar": null
        }
    },
    {
        "lat": 40.8244319,
        "lon": 29.3100781,
        "tags": {
            "addr:city": "İstanbul",
            "addr:district": null,
            "description": "",
            "opening_hours": null,
            "phone": null,
            "branch": null,
            "amenity": "beauty",
            "mobile": null,
            "addr:street": null,
            "cuisine": null,
            "name": null,
            "name:en": null,
            "name:uk": null,
            "name:de": null,
            "name:tr": null,
            "name:ru": null,
            "name:ar": null
        }
    },
    {
        "lat": 40.962019,
        "lon": 29.0846204,
        "tags": {
            "addr:city": "İstanbul",
            "addr:district": "Kadıköy",
            "description": "",
            "opening_hours": null,
            "phone": null,
            "branch": null,
            "amenity": "beauty",
            "mobile": null,
            "addr:street": "Ayşe Çavuş Caddesi",
            "cuisine": null,
            "name": "Rol Lostra",
            "name:en": null,
            "name:uk": null,
            "name:de": null,
            "name:tr": null,
            "name:ru": null,
            "name:ar": null
        }
    },
    {
        "lat": 41.1327853,
        "lon": 28.8340228,
        "tags": {
            "addr:city": "İstanbul",
            "addr:district": null,
            "description": "",
            "opening_hours": null,
            "phone": null,
            "branch": null,
            "amenity": "beauty",
            "mobile": null,
            "addr:street": null,
            "cuisine": null,
            "name": "Sidelya",
            "name:en": null,
            "name:uk": null,
            "name:de": null,
            "name:tr": null,
            "name:ru": null,
            "name:ar": null
        }
    },
    {
        "lat": 40.9595778,
        "lon": 29.0923555,
        "tags": {
            "addr:city": "İstanbul",
            "addr:district": "Kadıköy",
            "description": "",
            "opening_hours": null,
            "phone": null,
            "branch": null,
            "amenity": "beauty",
            "mobile": null,
            "addr:street": "Emin Ali Paşa Caddesi",
            "cuisine": null,
            "name": "Nil Güzellik Salonu",
            "name:en": null,
            "name:uk": null,
            "name:de": null,
            "name:tr": null,
            "name:ru": null,
            "name:ar": null
        }
    },
    {
        "lat": 40.9057722,
        "lon": 29.2264321,
        "tags": {
            "addr:city": "İstanbul",
            "addr:district": null,
            "description": "",
            "opening_hours": null,
            "phone": null,
            "branch": null,
            "amenity": "beauty",
            "mobile": null,
            "addr:street": null,
            "cuisine": null,
            "name": "Salon Koza Güzellik Merkezi",
            "name:en": null,
            "name:uk": null,
            "name:de": null,
            "name:tr": null,
            "name:ru": null,
            "name:ar": null
        }
    },
    {
        "lat": 41.007473,
        "lon": 28.9563395,
        "tags": {
            "addr:city": "İstanbul",
            "addr:district": null,
            "description": "",
            "opening_hours": null,
            "phone": null,
            "branch": null,
            "amenity": "beauty",
            "mobile": null,
            "addr:street": null,
            "cuisine": null,
            "name": "Melitte bebe",
            "name:en": null,
            "name:uk": null,
            "name:de": null,
            "name:tr": null,
            "name:ru": null,
            "name:ar": null
        }
    },
    {
        "lat": 41.0156584,
        "lon": 29.1901728,
        "tags": {
            "addr:city": "İstanbul",
            "addr:district": null,
            "description": "",
            "opening_hours": null,
            "phone": "+90 216 641 13 46",
            "branch": null,
            "amenity": "beauty",
            "mobile": null,
            "addr:street": null,
            "cuisine": null,
            "name": "Epi-Dem Güzellik Salonu",
            "name:en": null,
            "name:uk": null,
            "name:de": null,
            "name:tr": null,
            "name:ru": null,
            "name:ar": null
        }
    },
    {
        "lat": 41.0798545,
        "lon": 29.0072882,
        "tags": {
            "addr:city": "İstanbul",
            "addr:district": null,
            "description": "",
            "opening_hours": null,
            "phone": null,
            "branch": null,
            "amenity": "beauty",
            "mobile": null,
            "addr:street": "Talatpaşa Caddesi",
            "cuisine": null,
            "name": "Eyfe Perfumum",
            "name:en": null,
            "name:uk": null,
            "name:de": null,
            "name:tr": null,
            "name:ru": null,
            "name:ar": null
        }
    },
    {
        "lat": 40.9866427,
        "lon": 28.7832605,
        "tags": {
            "addr:city": "İstanbul",
            "addr:district": null,
            "description": "",
            "opening_hours": "Mo-Sa 09:00-20:00",
            "phone": null,
            "branch": null,
            "amenity": "beauty",
            "mobile": null,
            "addr:street": "Ziya Gökalp cadde",
            "cuisine": null,
            "name": "CENNET GÜZELLİK SALONU",
            "name:en": null,
            "name:uk": null,
            "name:de": null,
            "name:tr": null,
            "name:ru": null,
            "name:ar": null
        }
    },
    {
        "lat": 41.0120221,
        "lon": 28.9098298,
        "tags": {
            "addr:city": "Istanbul",
            "addr:district": "Zeytinburnu",
            "description": "",
            "opening_hours": null,
            "phone": null,
            "branch": null,
            "amenity": "beauty",
            "mobile": null,
            "addr:street": "Gümüşsuyu Davutpaşa Caddesi",
            "cuisine": null,
            "name": "Imren Öztürk Beauty Center",
            "name:en": null,
            "name:uk": null,
            "name:de": null,
            "name:tr": null,
            "name:ru": null,
            "name:ar": "مركز امران اسفورك بيوتي سنتر"
        }
    },
    {
        "lat": 41.0046858,
        "lon": 28.9047309,
        "tags": {
            "addr:city": "Istanbul",
            "addr:district": "Zeytinburnu",
            "description": "",
            "opening_hours": null,
            "phone": null,
            "branch": null,
            "amenity": "beauty",
            "mobile": null,
            "addr:street": "Mevlana Cd",
            "cuisine": null,
            "name": "Fi güzellik salonu",
            "name:en": null,
            "name:uk": null,
            "name:de": null,
            "name:tr": null,
            "name:ru": null,
            "name:ar": "صالون تجميل"
        }
    },
    {
        "lat": 40.9860172,
        "lon": 28.9041649,
        "tags": {
            "addr:city": "Istanbul",
            "addr:district": "Zeytinburnu",
            "description": "",
            "opening_hours": null,
            "phone": null,
            "branch": null,
            "amenity": "beauty",
            "mobile": null,
            "addr:street": "58. Bulvar Caddesi",
            "cuisine": null,
            "name": "Winkelen",
            "name:en": null,
            "name:uk": null,
            "name:de": null,
            "name:tr": null,
            "name:ru": null,
            "name:ar": "وينكيلان"
        }
    },
    {
        "lat": 41.0515576,
        "lon": 28.8466031,
        "tags": {
            "addr:city": "Istanbul",
            "addr:district": "Bağcılar",
            "description": "",
            "opening_hours": null,
            "phone": null,
            "branch": null,
            "amenity": "beauty",
            "mobile": null,
            "addr:street": null,
            "cuisine": null,
            "name": "Rossel makyaj ürünleri",
            "name:en": null,
            "name:uk": null,
            "name:de": null,
            "name:tr": null,
            "name:ru": null,
            "name:ar": "روسيل للماكياج"
        }
    },
    {
        "lat": 41.0335345,
        "lon": 28.8232633,
        "tags": {
            "addr:city": "Istanbul",
            "addr:district": "Bağcılar",
            "description": "",
            "opening_hours": null,
            "phone": "05307899330",
            "branch": null,
            "amenity": "beauty",
            "mobile": null,
            "addr:street": "Favziçakmak Caddesi",
            "cuisine": null,
            "name": "Cevriye",
            "name:en": null,
            "name:uk": null,
            "name:de": null,
            "name:tr": null,
            "name:ru": null,
            "name:ar": "جاورية"
        }
    },
    {
        "lat": 41.0156557,
        "lon": 28.9698538,
        "tags": {
            "addr:city": "İstanbul",
            "addr:district": null,
            "description": "",
            "opening_hours": null,
            "phone": null,
            "branch": null,
            "amenity": "beauty",
            "mobile": null,
            "addr:street": null,
            "cuisine": null,
            "name": null,
            "name:en": null,
            "name:uk": null,
            "name:de": null,
            "name:tr": null,
            "name:ru": null,
            "name:ar": null
        }
    },
    {
        "lat": 41.0505542,
        "lon": 28.985803,
        "tags": {
            "addr:city": "İstanbul",
            "addr:district": null,
            "description": "",
            "opening_hours": null,
            "phone": null,
            "branch": null,
            "amenity": "beauty",
            "mobile": null,
            "addr:street": null,
            "cuisine": null,
            "name": "hair mess",
            "name:en": null,
            "name:uk": null,
            "name:de": null,
            "name:tr": null,
            "name:ru": null,
            "name:ar": null
        }
    },
    {
        "lat": 41.0476738,
        "lon": 28.8114108,
        "tags": {
            "addr:city": "İstanbul",
            "addr:district": null,
            "description": "",
            "opening_hours": null,
            "phone": null,
            "branch": null,
            "amenity": "beauty",
            "mobile": null,
            "addr:street": null,
            "cuisine": null,
            "name": "مول 212",
            "name:en": null,
            "name:uk": null,
            "name:de": null,
            "name:tr": null,
            "name:ru": null,
            "name:ar": null
        }
    },
    {
        "lat": 40.8722997,
        "lon": 29.3266428,
        "tags": {
            "addr:city": "İstanbul",
            "addr:district": null,
            "description": "",
            "opening_hours": null,
            "phone": null,
            "branch": null,
            "amenity": "beauty",
            "mobile": null,
            "addr:street": null,
            "cuisine": null,
            "name": null,
            "name:en": null,
            "name:uk": null,
            "name:de": null,
            "name:tr": null,
            "name:ru": null,
            "name:ar": null
        }
    },
    {
        "lat": 40.8727232,
        "lon": 29.3258471,
        "tags": {
            "addr:city": "İstanbul",
            "addr:district": null,
            "description": "",
            "opening_hours": null,
            "phone": null,
            "branch": null,
            "amenity": "beauty",
            "mobile": null,
            "addr:street": null,
            "cuisine": null,
            "name": null,
            "name:en": null,
            "name:uk": null,
            "name:de": null,
            "name:tr": null,
            "name:ru": null,
            "name:ar": null
        }
    },
    {
        "lat": 41.0556182,
        "lon": 29.0747465,
        "tags": {
            "addr:city": "İstanbul",
            "addr:district": null,
            "description": "",
            "opening_hours": null,
            "phone": null,
            "branch": null,
            "amenity": "beauty",
            "mobile": null,
            "addr:street": null,
            "cuisine": null,
            "name": "Map güzellik&bakım",
            "name:en": null,
            "name:uk": null,
            "name:de": null,
            "name:tr": null,
            "name:ru": null,
            "name:ar": null
        }
    },
    {
        "lat": 41.0109026,
        "lon": 28.9681941,
        "tags": {
            "addr:city": "İstanbul",
            "addr:district": null,
            "description": "",
            "opening_hours": null,
            "phone": null,
            "branch": null,
            "amenity": "beauty",
            "mobile": null,
            "addr:street": null,
            "cuisine": null,
            "name": "Lonca",
            "name:en": null,
            "name:uk": null,
            "name:de": null,
            "name:tr": null,
            "name:ru": null,
            "name:ar": null
        }
    },
    {
        "lat": 41.0722895,
        "lon": 28.902673,
        "tags": {
            "addr:city": "İstanbul",
            "addr:district": null,
            "description": "",
            "opening_hours": null,
            "phone": null,
            "branch": null,
            "amenity": "beauty",
            "mobile": null,
            "addr:street": null,
            "cuisine": null,
            "name": "Tuba Beauty Saloon",
            "name:en": null,
            "name:uk": null,
            "name:de": null,
            "name:tr": null,
            "name:ru": null,
            "name:ar": null
        }
    },
    {
        "lat": 41.0315826,
        "lon": 28.9761336,
        "tags": {
            "addr:city": "İstanbul",
            "addr:district": null,
            "description": "",
            "opening_hours": null,
            "phone": null,
            "branch": null,
            "amenity": "beauty",
            "mobile": null,
            "addr:street": "İstiklal Caddesi",
            "cuisine": null,
            "name": "Yves Rocher",
            "name:en": null,
            "name:uk": null,
            "name:de": null,
            "name:tr": null,
            "name:ru": null,
            "name:ar": null
        }
    },
    {
        "lat": 40.9835046,
        "lon": 29.1134171,
        "tags": {
            "addr:city": "İstanbul",
            "addr:district": null,
            "description": "",
            "opening_hours": null,
            "phone": "+90 216 594 57 59",
            "branch": null,
            "amenity": "beauty",
            "mobile": null,
            "addr:street": null,
            "cuisine": null,
            "name": "H&D Güzellik ve Bakım Merkezi",
            "name:en": null,
            "name:uk": null,
            "name:de": null,
            "name:tr": null,
            "name:ru": null,
            "name:ar": null
        }
    },
    {
        "lat": 40.9881027,
        "lon": 29.0284956,
        "tags": {
            "addr:city": "İstanbul",
            "addr:district": null,
            "description": "",
            "opening_hours": null,
            "phone": null,
            "branch": null,
            "amenity": "beauty",
            "mobile": null,
            "addr:street": null,
            "cuisine": null,
            "name": "Yves Rocher",
            "name:en": null,
            "name:uk": null,
            "name:de": null,
            "name:tr": null,
            "name:ru": null,
            "name:ar": null
        }
    },
    {
        "lat": 40.9872702,
        "lon": 29.0285837,
        "tags": {
            "addr:city": "İstanbul",
            "addr:district": null,
            "description": "",
            "opening_hours": null,
            "phone": null,
            "branch": null,
            "amenity": "beauty",
            "mobile": null,
            "addr:street": null,
            "cuisine": null,
            "name": "Yves Rocher",
            "name:en": null,
            "name:uk": null,
            "name:de": null,
            "name:tr": null,
            "name:ru": null,
            "name:ar": null
        }
    },
    {
        "lat": 41.0478957,
        "lon": 28.8111885,
        "tags": {
            "addr:city": "İstanbul",
            "addr:district": null,
            "description": "",
            "opening_hours": null,
            "phone": null,
            "branch": null,
            "amenity": "beauty",
            "mobile": null,
            "addr:street": null,
            "cuisine": null,
            "name": "Yves Rocher",
            "name:en": null,
            "name:uk": null,
            "name:de": null,
            "name:tr": null,
            "name:ru": null,
            "name:ar": null
        }
    },
    {
        "lat": 40.8480974,
        "lon": 29.3026253,
        "tags": {
            "addr:city": "İstanbul",
            "addr:district": null,
            "description": "",
            "opening_hours": null,
            "phone": null,
            "branch": null,
            "amenity": "beauty",
            "mobile": null,
            "addr:street": null,
            "cuisine": null,
            "name": null,
            "name:en": null,
            "name:uk": null,
            "name:de": null,
            "name:tr": null,
            "name:ru": null,
            "name:ar": null
        }
    },
    {
        "lat": 41.0460103,
        "lon": 28.8944294,
        "tags": {
            "addr:city": "İstanbul",
            "addr:district": "Bayrampaşa",
            "description": "",
            "opening_hours": null,
            "phone": null,
            "branch": null,
            "amenity": "beauty",
            "mobile": null,
            "addr:street": "Yorum Sokak",
            "cuisine": null,
            "name": "Azaliya Güzellik Salonu",
            "name:en": null,
            "name:uk": null,
            "name:de": null,
            "name:tr": null,
            "name:ru": null,
            "name:ar": null
        }
    },
    {
        "lat": 41.0250515,
        "lon": 29.0168218,
        "tags": {
            "addr:city": "İstanbul",
            "addr:district": null,
            "description": "",
            "opening_hours": null,
            "phone": null,
            "branch": null,
            "amenity": "beauty",
            "mobile": null,
            "addr:street": null,
            "cuisine": null,
            "name": "lokmanZade",
            "name:en": null,
            "name:uk": null,
            "name:de": null,
            "name:tr": null,
            "name:ru": null,
            "name:ar": null
        }
    },
    {
        "lat": 40.9824214,
        "lon": 29.1149645,
        "tags": {
            "addr:city": "İstanbul",
            "addr:district": null,
            "description": "",
            "opening_hours": null,
            "phone": "+905469595922",
            "branch": null,
            "amenity": "beauty",
            "mobile": null,
            "addr:street": null,
            "cuisine": null,
            "name": "Derya Arslan Türban Tasarım & Profesyonel Makyaj",
            "name:en": null,
            "name:uk": null,
            "name:de": null,
            "name:tr": null,
            "name:ru": null,
            "name:ar": null
        }
    },
    {
        "lat": 40.9851046,
        "lon": 29.086821,
        "tags": {
            "addr:city": "Kadıköy/İstanbul",
            "addr:district": "kadıköy",
            "description": "",
            "opening_hours": null,
            "phone": "0216 359 33 73",
            "branch": null,
            "amenity": "beauty",
            "mobile": null,
            "addr:street": "Çelik Sokağı",
            "cuisine": null,
            "name": "Lavinya Güzellik salonu",
            "name:en": null,
            "name:uk": null,
            "name:de": null,
            "name:tr": null,
            "name:ru": null,
            "name:ar": null
        }
    },
    {
        "lat": 40.9817501,
        "lon": 29.087215,
        "tags": {
            "addr:city": "İstanbul",
            "addr:district": "Kadıköy",
            "description": "",
            "opening_hours": null,
            "phone": "0216 302 28 19",
            "branch": null,
            "amenity": "beauty",
            "mobile": null,
            "addr:street": "Atatürk Caddesi",
            "cuisine": null,
            "name": "CITYBEAUTY",
            "name:en": null,
            "name:uk": null,
            "name:de": null,
            "name:tr": null,
            "name:ru": null,
            "name:ar": null
        }
    },
    {
        "lat": 40.8785699,
        "lon": 29.2309258,
        "tags": {
            "addr:city": "İstanbul",
            "addr:district": "Pendik",
            "description": "",
            "opening_hours": null,
            "phone": null,
            "branch": null,
            "amenity": "beauty",
            "mobile": null,
            "addr:street": "19 Mayıs Caddesi",
            "cuisine": null,
            "name": "Yves Rocher",
            "name:en": null,
            "name:uk": null,
            "name:de": null,
            "name:tr": null,
            "name:ru": null,
            "name:ar": null
        }
    },
    {
        "lat": 41.0502224,
        "lon": 28.9878959,
        "tags": {
            "addr:city": "İstanbul",
            "addr:district": "Şişli",
            "description": "",
            "opening_hours": "Mo-Su 09:00-19:00",
            "phone": "0212 288 11 11",
            "branch": null,
            "amenity": "beauty",
            "mobile": null,
            "addr:street": "Halaskargazi Caddesi",
            "cuisine": null,
            "name": "Medis Estetik ve Güzellik Merkezi",
            "name:en": null,
            "name:uk": null,
            "name:de": null,
            "name:tr": null,
            "name:ru": null,
            "name:ar": null
        }
    },
    {
        "lat": 40.9814623,
        "lon": 29.1188785,
        "tags": {
            "addr:city": "İstanbul",
            "addr:district": null,
            "description": "",
            "opening_hours": null,
            "phone": null,
            "branch": null,
            "amenity": "beauty",
            "mobile": null,
            "addr:street": null,
            "cuisine": null,
            "name": "Bediş Güzellik Salonu",
            "name:en": null,
            "name:uk": null,
            "name:de": null,
            "name:tr": null,
            "name:ru": null,
            "name:ar": null
        }
    },
    {
        "lat": 40.9815506,
        "lon": 29.119435,
        "tags": {
            "addr:city": "İstanbul",
            "addr:district": null,
            "description": "",
            "opening_hours": null,
            "phone": null,
            "branch": null,
            "amenity": "beauty",
            "mobile": null,
            "addr:street": null,
            "cuisine": null,
            "name": "Aymira Koçaklı",
            "name:en": null,
            "name:uk": null,
            "name:de": null,
            "name:tr": null,
            "name:ru": null,
            "name:ar": null
        }
    },
    {
        "lat": 40.9800387,
        "lon": 29.1183137,
        "tags": {
            "addr:city": "İstanbul",
            "addr:district": null,
            "description": "",
            "opening_hours": null,
            "phone": null,
            "branch": null,
            "amenity": "beauty",
            "mobile": null,
            "addr:street": null,
            "cuisine": null,
            "name": "Güz Güzellik Salonu",
            "name:en": null,
            "name:uk": null,
            "name:de": null,
            "name:tr": null,
            "name:ru": null,
            "name:ar": null
        }
    },
    {
        "lat": 41.009651,
        "lon": 28.650688,
        "tags": {
            "addr:city": "İstanbul",
            "addr:district": null,
            "description": "",
            "opening_hours": null,
            "phone": null,
            "branch": null,
            "amenity": "beauty",
            "mobile": null,
            "addr:street": null,
            "cuisine": null,
            "name": "Ayshen Beauty House",
            "name:en": null,
            "name:uk": null,
            "name:de": null,
            "name:tr": null,
            "name:ru": null,
            "name:ar": null
        }
    },
    {
        "lat": 41.0258044,
        "lon": 29.0977289,
        "tags": {
            "addr:city": "İstanbul",
            "addr:district": null,
            "description": "",
            "opening_hours": null,
            "phone": null,
            "branch": null,
            "amenity": "beauty",
            "mobile": null,
            "addr:street": null,
            "cuisine": null,
            "name": "DERFAMED ESTETİK ve GÜZELLİK MERKEZİ",
            "name:en": null,
            "name:uk": null,
            "name:de": null,
            "name:tr": null,
            "name:ru": null,
            "name:ar": null
        }
    },
    {
        "lat": 40.9913812,
        "lon": 29.0284483,
        "tags": {
            "addr:city": "İstanbul",
            "addr:district": null,
            "description": "",
            "opening_hours": null,
            "phone": null,
            "branch": null,
            "amenity": "beauty",
            "mobile": null,
            "addr:street": null,
            "cuisine": null,
            "name": "Yves Rocher",
            "name:en": null,
            "name:uk": null,
            "name:de": null,
            "name:tr": null,
            "name:ru": null,
            "name:ar": null
        }
    },
    {
        "lat": 40.9811773,
        "lon": 29.123644,
        "tags": {
            "addr:city": "İstanbul",
            "addr:district": null,
            "description": "",
            "opening_hours": null,
            "phone": null,
            "branch": null,
            "amenity": "beauty",
            "mobile": null,
            "addr:street": "Koca Sinan Caddesi",
            "cuisine": null,
            "name": "Emine Güzellik Salonu",
            "name:en": null,
            "name:uk": null,
            "name:de": null,
            "name:tr": null,
            "name:ru": null,
            "name:ar": null
        }
    },
    {
        "lat": 40.9834335,
        "lon": 29.1173162,
        "tags": {
            "addr:city": "İstanbul",
            "addr:district": null,
            "description": "",
            "opening_hours": null,
            "phone": null,
            "branch": null,
            "amenity": "beauty",
            "mobile": null,
            "addr:street": null,
            "cuisine": null,
            "name": "Şenay Öğretici Happy Face",
            "name:en": null,
            "name:uk": null,
            "name:de": null,
            "name:tr": null,
            "name:ru": null,
            "name:ar": null
        }
    },
    {
        "lat": 41.003234,
        "lon": 29.0713883,
        "tags": {
            "addr:city": "İstanbul",
            "addr:district": null,
            "description": "",
            "opening_hours": "Mo-Fr 10:00-19:00; Sa 10:00-17:00",
            "phone": null,
            "branch": null,
            "amenity": "beauty",
            "mobile": null,
            "addr:street": null,
            "cuisine": null,
            "name": null,
            "name:en": "Biologique Recherche Centre",
            "name:uk": null,
            "name:de": null,
            "name:tr": null,
            "name:ru": null,
            "name:ar": null
        }
    },
    {
        "lat": 40.9740507,
        "lon": 28.7196288,
        "tags": {
            "addr:city": "İstanbul",
            "addr:district": null,
            "description": "",
            "opening_hours": null,
            "phone": null,
            "branch": null,
            "amenity": "beauty",
            "mobile": null,
            "addr:street": null,
            "cuisine": null,
            "name": "Ruby Beauty Salon",
            "name:en": null,
            "name:uk": null,
            "name:de": null,
            "name:tr": null,
            "name:ru": null,
            "name:ar": null
        }
    },
    {
        "lat": 40.9559334,
        "lon": 29.0907799,
        "tags": {
            "addr:city": "İstanbul",
            "addr:district": "Kadıköy",
            "description": "",
            "opening_hours": "Mo-Su 10:00-19:00",
            "phone": "+902164648448",
            "branch": null,
            "amenity": "beauty",
            "mobile": null,
            "addr:street": "Taşlıçeşme Sokağı",
            "cuisine": null,
            "name": "Figen Göl Güzellik merkezi",
            "name:en": null,
            "name:uk": null,
            "name:de": null,
            "name:tr": null,
            "name:ru": null,
            "name:ar": null
        }
    },
    {
        "lat": 41.089621,
        "lon": 28.9020491,
        "tags": {
            "addr:city": "İstanbul",
            "addr:district": null,
            "description": "",
            "opening_hours": null,
            "phone": null,
            "branch": null,
            "amenity": "beauty",
            "mobile": null,
            "addr:street": null,
            "cuisine": null,
            "name": "Angel Güzellik Salonu",
            "name:en": null,
            "name:uk": null,
            "name:de": null,
            "name:tr": null,
            "name:ru": null,
            "name:ar": null
        }
    },
    {
        "lat": 41.089742,
        "lon": 28.9020442,
        "tags": {
            "addr:city": "İstanbul",
            "addr:district": null,
            "description": "",
            "opening_hours": null,
            "phone": null,
            "branch": null,
            "amenity": "beauty",
            "mobile": null,
            "addr:street": null,
            "cuisine": null,
            "name": "Salon Levent",
            "name:en": null,
            "name:uk": null,
            "name:de": null,
            "name:tr": null,
            "name:ru": null,
            "name:ar": null
        }
    },
    {
        "lat": 40.9793371,
        "lon": 29.1091989,
        "tags": {
            "addr:city": "İstanbul",
            "addr:district": null,
            "description": "",
            "opening_hours": null,
            "phone": null,
            "branch": null,
            "amenity": "beauty",
            "mobile": null,
            "addr:street": null,
            "cuisine": null,
            "name": "Gözde Gizem Beauty & Wellness",
            "name:en": null,
            "name:uk": null,
            "name:de": null,
            "name:tr": null,
            "name:ru": null,
            "name:ar": null
        }
    },
    {
        "lat": 40.9797549,
        "lon": 29.1143416,
        "tags": {
            "addr:city": "İstanbul",
            "addr:district": null,
            "description": "",
            "opening_hours": null,
            "phone": null,
            "branch": null,
            "amenity": "beauty",
            "mobile": null,
            "addr:street": null,
            "cuisine": null,
            "name": "Deniz Kahveci",
            "name:en": null,
            "name:uk": null,
            "name:de": null,
            "name:tr": null,
            "name:ru": null,
            "name:ar": null
        }
    },
    {
        "lat": 40.9790673,
        "lon": 29.1150942,
        "tags": {
            "addr:city": "İstanbul",
            "addr:district": null,
            "description": "",
            "opening_hours": null,
            "phone": null,
            "branch": null,
            "amenity": "beauty",
            "mobile": null,
            "addr:street": null,
            "cuisine": null,
            "name": "Gelincik Güzellik Salonu",
            "name:en": null,
            "name:uk": null,
            "name:de": null,
            "name:tr": null,
            "name:ru": null,
            "name:ar": null
        }
    },
    {
        "lat": 40.9519229,
        "lon": 29.101387,
        "tags": {
            "addr:city": "İstanbul",
            "addr:district": null,
            "description": "",
            "opening_hours": null,
            "phone": null,
            "branch": null,
            "amenity": "beauty",
            "mobile": null,
            "addr:street": null,
            "cuisine": null,
            "name": "Poiz Spa",
            "name:en": null,
            "name:uk": null,
            "name:de": null,
            "name:tr": null,
            "name:ru": null,
            "name:ar": null
        }
    },
    {
        "lat": 40.9406049,
        "lon": 29.1168163,
        "tags": {
            "addr:city": "İstanbul",
            "addr:district": null,
            "description": "",
            "opening_hours": null,
            "phone": null,
            "branch": null,
            "amenity": "beauty",
            "mobile": null,
            "addr:street": null,
            "cuisine": null,
            "name": "Değişim Güzellik Salonu",
            "name:en": null,
            "name:uk": null,
            "name:de": null,
            "name:tr": null,
            "name:ru": null,
            "name:ar": null
        }
    },
    {
        "lat": 41.024102,
        "lon": 29.1074468,
        "tags": {
            "addr:city": "İstanbul",
            "addr:district": null,
            "description": "",
            "opening_hours": null,
            "phone": null,
            "branch": null,
            "amenity": "beauty",
            "mobile": null,
            "addr:street": null,
            "cuisine": null,
            "name": "Nefes",
            "name:en": null,
            "name:uk": null,
            "name:de": null,
            "name:tr": null,
            "name:ru": null,
            "name:ar": null
        }
    },
    {
        "lat": 40.9792335,
        "lon": 29.1169873,
        "tags": {
            "addr:city": "İstanbul",
            "addr:district": null,
            "description": "",
            "opening_hours": null,
            "phone": null,
            "branch": null,
            "amenity": "beauty",
            "mobile": null,
            "addr:street": null,
            "cuisine": null,
            "name": "Claymed Güzellik",
            "name:en": null,
            "name:uk": null,
            "name:de": null,
            "name:tr": null,
            "name:ru": null,
            "name:ar": null
        }
    },
    {
        "lat": 41.0594995,
        "lon": 28.9067534,
        "tags": {
            "addr:city": "İstanbul",
            "addr:district": null,
            "description": "",
            "opening_hours": null,
            "phone": null,
            "branch": null,
            "amenity": "beauty",
            "mobile": null,
            "addr:street": null,
            "cuisine": null,
            "name": "Pera Güzellik",
            "name:en": null,
            "name:uk": null,
            "name:de": null,
            "name:tr": null,
            "name:ru": null,
            "name:ar": null
        }
    },
    {
        "lat": 41.0308678,
        "lon": 29.1731029,
        "tags": {
            "addr:city": "İstanbul",
            "addr:district": "Çekmeköy",
            "description": "Çekmeköy Estecool güzellik merkezimizde yaptığımız işlemlerimiz : epilasyon, iğneli epilasyon, cilt bakımı, hdrafacial, dermapen, karbon peeling, altın iğne, dövme silme, mikroblading, ipek kirpik, kirpik lifting, G5 masajı, pasifjimnastik, lenfdrenaj, so",
            "opening_hours": "Mo-Su 09:00-21:00",
            "phone": "+905300438369",
            "branch": null,
            "amenity": "beauty",
            "mobile": null,
            "addr:street": "Ethem Sokağı",
            "cuisine": null,
            "name": "Çekmeköy Estecool",
            "name:en": null,
            "name:uk": null,
            "name:de": null,
            "name:tr": null,
            "name:ru": null,
            "name:ar": null
        }
    },
    {
        "lat": 40.9797397,
        "lon": 29.1243796,
        "tags": {
            "addr:city": "İstanbul",
            "addr:district": null,
            "description": "",
            "opening_hours": null,
            "phone": null,
            "branch": null,
            "amenity": "beauty",
            "mobile": null,
            "addr:street": null,
            "cuisine": null,
            "name": "Sevgi Akın Güzellik Salonu",
            "name:en": null,
            "name:uk": null,
            "name:de": null,
            "name:tr": null,
            "name:ru": null,
            "name:ar": null
        }
    },
    {
        "lat": 41.035289,
        "lon": 28.9818822,
        "tags": {
            "addr:city": "İstanbul",
            "addr:district": null,
            "description": "",
            "opening_hours": null,
            "phone": null,
            "branch": null,
            "amenity": "beauty",
            "mobile": null,
            "addr:street": null,
            "cuisine": null,
            "name": "Yves Rocher",
            "name:en": null,
            "name:uk": null,
            "name:de": null,
            "name:tr": null,
            "name:ru": null,
            "name:ar": null
        }
    },
    {
        "lat": 41.0512568,
        "lon": 28.9906847,
        "tags": {
            "addr:city": "İSTANBUL",
            "addr:district": "Nisantasi",
            "description": "",
            "opening_hours": "Mo-Su 10:00-19:00",
            "phone": "0535 616 75 85",
            "branch": null,
            "amenity": "beauty",
            "mobile": null,
            "addr:street": "Valikonağı Caddesi",
            "cuisine": null,
            "name": "Kutup Yıldızı Beauty",
            "name:en": null,
            "name:uk": null,
            "name:de": null,
            "name:tr": null,
            "name:ru": null,
            "name:ar": null
        }
    },
    {
        "lat": 41.0099545,
        "lon": 28.6681658,
        "tags": {
            "addr:city": "istanbul",
            "addr:district": "esenyurt",
            "description": "",
            "opening_hours": "Mo-Su 09:00-21:00",
            "phone": "+905448845459",
            "branch": null,
            "amenity": "beauty",
            "mobile": null,
            "addr:street": "Orhangazi Caddesi",
            "cuisine": null,
            "name": "TGEST AKADEMİ",
            "name:en": null,
            "name:uk": null,
            "name:de": null,
            "name:tr": null,
            "name:ru": null,
            "name:ar": null
        }
    },
    {
        "lat": 40.9865152,
        "lon": 29.1095648,
        "tags": {
            "addr:city": "İstanbul",
            "addr:district": null,
            "description": "",
            "opening_hours": null,
            "phone": null,
            "branch": null,
            "amenity": "beauty",
            "mobile": null,
            "addr:street": null,
            "cuisine": null,
            "name": "Est'e Q Wellness & Beauty",
            "name:en": null,
            "name:uk": null,
            "name:de": null,
            "name:tr": null,
            "name:ru": null,
            "name:ar": null
        }
    },
    {
        "lat": 41.0539512,
        "lon": 28.9870057,
        "tags": {
            "addr:city": "Istanbul",
            "addr:district": "şişli",
            "description": "",
            "opening_hours": "Mo-Sa 10:00-20:00",
            "phone": "+905321698150",
            "branch": null,
            "amenity": "beauty",
            "mobile": null,
            "addr:street": "Halaskar Gazi Cadde",
            "cuisine": null,
            "name": "Selin Kılıç Beuaty",
            "name:en": null,
            "name:uk": null,
            "name:de": null,
            "name:tr": null,
            "name:ru": null,
            "name:ar": null
        }
    },
    {
        "lat": 40.9813145,
        "lon": 29.041134,
        "tags": {
            "addr:city": "İstanbul",
            "addr:district": "Kadıköy",
            "description": "",
            "opening_hours": null,
            "phone": null,
            "branch": null,
            "amenity": "beauty",
            "mobile": null,
            "addr:street": "Bağdat Caddesi",
            "cuisine": null,
            "name": "PodyArt",
            "name:en": null,
            "name:uk": null,
            "name:de": null,
            "name:tr": null,
            "name:ru": null,
            "name:ar": null
        }
    },
    {
        "lat": 40.9924525,
        "lon": 28.8446614,
        "tags": {
            "addr:city": "İstanbul",
            "addr:district": null,
            "description": "",
            "opening_hours": null,
            "phone": null,
            "branch": null,
            "amenity": "beauty",
            "mobile": null,
            "addr:street": null,
            "cuisine": null,
            "name": "Anatolia Güzellik Salonu",
            "name:en": null,
            "name:uk": null,
            "name:de": null,
            "name:tr": null,
            "name:ru": null,
            "name:ar": null
        }
    },
    {
        "lat": 40.9923393,
        "lon": 28.8437963,
        "tags": {
            "addr:city": "istanbul",
            "addr:district": "bahçelievler",
            "description": "",
            "opening_hours": "Mo-Su 10:00-22:00",
            "phone": "+90541 274 47 84",
            "branch": null,
            "amenity": "beauty",
            "mobile": null,
            "addr:street": "Mahmut bey Yolu meriç sokak",
            "cuisine": null,
            "name": "Aylin Beauty Center",
            "name:en": null,
            "name:uk": null,
            "name:de": null,
            "name:tr": null,
            "name:ru": null,
            "name:ar": null
        }
    },
    {
        "lat": 40.9940829,
        "lon": 29.0262053,
        "tags": {
            "addr:city": "İstanbul",
            "addr:district": null,
            "description": "",
            "opening_hours": null,
            "phone": null,
            "branch": null,
            "amenity": "beauty",
            "mobile": null,
            "addr:street": "Recaizade Sokağı",
            "cuisine": null,
            "name": "Aziziye Hamami",
            "name:en": null,
            "name:uk": null,
            "name:de": null,
            "name:tr": null,
            "name:ru": null,
            "name:ar": null
        }
    },
    {
        "lat": 41.0689773,
        "lon": 28.6837988,
        "tags": {
            "addr:city": "İstanbul",
            "addr:district": "TEMER RESİDENCE",
            "description": "",
            "opening_hours": "Mo-Su 9:00-19:00",
            "phone": "+905323723852",
            "branch": null,
            "amenity": "beauty",
            "mobile": null,
            "addr:street": "SÜZER BLV.",
            "cuisine": null,
            "name": "MH Beauty Salon",
            "name:en": null,
            "name:uk": null,
            "name:de": null,
            "name:tr": "MH GÜZELLİK SALONU",
            "name:ru": null,
            "name:ar": null
        }
    },
    {
        "lat": 41.0152745,
        "lon": 28.9697416,
        "tags": {
            "addr:city": "İstanbul",
            "addr:district": null,
            "description": "",
            "opening_hours": null,
            "phone": null,
            "branch": null,
            "amenity": "beauty",
            "mobile": null,
            "addr:street": null,
            "cuisine": null,
            "name": "D&P Perfumum",
            "name:en": null,
            "name:uk": null,
            "name:de": null,
            "name:tr": null,
            "name:ru": null,
            "name:ar": null
        }
    },
    {
        "lat": 41.0809754,
        "lon": 28.973024,
        "tags": {
            "addr:city": "İstanbul",
            "addr:district": null,
            "description": "",
            "opening_hours": null,
            "phone": null,
            "branch": null,
            "amenity": "beauty",
            "mobile": null,
            "addr:street": null,
            "cuisine": null,
            "name": "Elif Subaşı Güzellik Salonu",
            "name:en": null,
            "name:uk": null,
            "name:de": null,
            "name:tr": null,
            "name:ru": null,
            "name:ar": null
        }
    },
    {
        "lat": 41.0819767,
        "lon": 28.9701501,
        "tags": {
            "addr:city": "İstanbul",
            "addr:district": null,
            "description": "",
            "opening_hours": null,
            "phone": null,
            "branch": null,
            "amenity": "beauty",
            "mobile": null,
            "addr:street": null,
            "cuisine": null,
            "name": "Glory Beauty",
            "name:en": null,
            "name:uk": null,
            "name:de": null,
            "name:tr": null,
            "name:ru": null,
            "name:ar": null
        }
    },
    {
        "lat": 41.1779925,
        "lon": 28.9915963,
        "tags": {
            "addr:city": "İstanbul",
            "addr:district": null,
            "description": "",
            "opening_hours": null,
            "phone": null,
            "branch": null,
            "amenity": "beauty",
            "mobile": null,
            "addr:street": null,
            "cuisine": null,
            "name": "Nazife Demir Güzellik Salonu",
            "name:en": null,
            "name:uk": null,
            "name:de": null,
            "name:tr": null,
            "name:ru": null,
            "name:ar": null
        }
    },
    {
        "lat": 41.0377939,
        "lon": 28.9840992,
        "tags": {
            "addr:city": "İstanbul",
            "addr:district": null,
            "description": "",
            "opening_hours": null,
            "phone": null,
            "branch": null,
            "amenity": "beauty",
            "mobile": null,
            "addr:street": null,
            "cuisine": null,
            "name": null,
            "name:en": null,
            "name:uk": null,
            "name:de": null,
            "name:tr": null,
            "name:ru": null,
            "name:ar": null
        }
    },
    {
        "lat": 41.0317871,
        "lon": 28.9828425,
        "tags": {
            "addr:city": "İstanbul",
            "addr:district": null,
            "description": "",
            "opening_hours": null,
            "phone": null,
            "branch": null,
            "amenity": "beauty",
            "mobile": null,
            "addr:street": null,
            "cuisine": null,
            "name": null,
            "name:en": "CatWalk Beauty Studio",
            "name:uk": null,
            "name:de": null,
            "name:tr": null,
            "name:ru": null,
            "name:ar": null
        }
    },
    {
        "lat": 40.96905,
        "lon": 29.0754364,
        "tags": {
            "addr:city": "İstanbul",
            "addr:district": "Kadıköy",
            "description": "",
            "opening_hours": null,
            "phone": "+90 216 386 63 43",
            "branch": null,
            "amenity": "beauty",
            "mobile": null,
            "addr:street": "Eralp Sokağı",
            "cuisine": null,
            "name": "Habibe Demirci Güzellik Salonu",
            "name:en": null,
            "name:uk": null,
            "name:de": null,
            "name:tr": null,
            "name:ru": null,
            "name:ar": null
        }
    },
    {
        "lat": 41.0824951,
        "lon": 28.9140134,
        "tags": {
            "addr:city": "İstanbul",
            "addr:district": null,
            "description": "",
            "opening_hours": null,
            "phone": null,
            "branch": null,
            "amenity": "beauty",
            "mobile": null,
            "addr:street": null,
            "cuisine": null,
            "name": "Neşeli Diyet & Güzellik Salonu",
            "name:en": null,
            "name:uk": null,
            "name:de": null,
            "name:tr": null,
            "name:ru": null,
            "name:ar": null
        }
    },
    {
        "lat": 41.0722925,
        "lon": 28.9394595,
        "tags": {
            "addr:city": "İstanbul",
            "addr:district": null,
            "description": "",
            "opening_hours": null,
            "phone": null,
            "branch": null,
            "amenity": "beauty",
            "mobile": null,
            "addr:street": null,
            "cuisine": null,
            "name": "Kosova Kuaför Solarium Ağda",
            "name:en": null,
            "name:uk": null,
            "name:de": null,
            "name:tr": null,
            "name:ru": null,
            "name:ar": null
        }
    },
    {
        "lat": 41.0760438,
        "lon": 28.9254986,
        "tags": {
            "addr:city": "İstanbul",
            "addr:district": null,
            "description": "",
            "opening_hours": null,
            "phone": null,
            "branch": null,
            "amenity": "beauty",
            "mobile": null,
            "addr:street": null,
            "cuisine": null,
            "name": "Man Icure",
            "name:en": null,
            "name:uk": null,
            "name:de": null,
            "name:tr": null,
            "name:ru": null,
            "name:ar": null
        }
    },
    {
        "lat": 41.0760752,
        "lon": 28.9255703,
        "tags": {
            "addr:city": "İstanbul",
            "addr:district": null,
            "description": "",
            "opening_hours": null,
            "phone": null,
            "branch": null,
            "amenity": "beauty",
            "mobile": null,
            "addr:street": null,
            "cuisine": null,
            "name": "Villa Beauty",
            "name:en": null,
            "name:uk": null,
            "name:de": null,
            "name:tr": null,
            "name:ru": null,
            "name:ar": null
        }
    },
    {
        "lat": 41.0232346,
        "lon": 28.6441948,
        "tags": {
            "addr:city": "İSTANBUL",
            "addr:district": "ESENYURT",
            "description": "",
            "opening_hours": "Mo-Su 10:00-20:00",
            "phone": "+90 542 825 40 28",
            "branch": null,
            "amenity": "beauty",
            "mobile": null,
            "addr:street": "Necip Fazıl Kısakürek Caddesi",
            "cuisine": null,
            "name": "DİLAN UYSAL BEAUTY CENTER",
            "name:en": null,
            "name:uk": null,
            "name:de": null,
            "name:tr": null,
            "name:ru": null,
            "name:ar": null
        }
    },
    {
        "lat": 40.9827935,
        "lon": 29.0633143,
        "tags": {
            "addr:city": "İstanbul",
            "addr:district": null,
            "description": "",
            "opening_hours": null,
            "phone": null,
            "branch": null,
            "amenity": "beauty",
            "mobile": null,
            "addr:street": null,
            "cuisine": null,
            "name": "Akın Sağlık Güzellik Merkezi",
            "name:en": null,
            "name:uk": null,
            "name:de": null,
            "name:tr": null,
            "name:ru": null,
            "name:ar": null
        }
    },
    {
        "lat": 41.081564,
        "lon": 28.944215,
        "tags": {
            "addr:city": "İstanbul",
            "addr:district": null,
            "description": "",
            "opening_hours": null,
            "phone": null,
            "branch": null,
            "amenity": "beauty",
            "mobile": null,
            "addr:street": null,
            "cuisine": null,
            "name": "Dilber Güzellik Salonu",
            "name:en": null,
            "name:uk": null,
            "name:de": null,
            "name:tr": null,
            "name:ru": null,
            "name:ar": null
        }
    },
    {
        "lat": 41.0521902,
        "lon": 28.9910257,
        "tags": {
            "addr:city": "İstanbul",
            "addr:district": "Şişli",
            "description": "15 yıldan fazla deneyimimizle iğneli epilasyon uygulamaları yapıyoruz. İğneli epilasyon yanında cilt bakımı, kalıcı makyaj, plasma pen, derma pen, anti-aging ve microblading işlemlerini profesyonel olarak uyguluyoruz.",
            "opening_hours": "Mo-Su 08:00-21:00",
            "phone": "+905539279687",
            "branch": null,
            "amenity": "beauty",
            "mobile": null,
            "addr:street": "Rumeli Caddesi",
            "cuisine": null,
            "name": "İstanbul İğneli Epilasyon by Gökçe Temuçin",
            "name:en": null,
            "name:uk": null,
            "name:de": null,
            "name:tr": null,
            "name:ru": null,
            "name:ar": null
        }
    },
    {
        "lat": 40.9679484,
        "lon": 29.0754224,
        "tags": {
            "addr:city": "İstanbul",
            "addr:district": null,
            "description": "",
            "opening_hours": null,
            "phone": "+90 216 358 23 24",
            "branch": null,
            "amenity": "beauty",
            "mobile": null,
            "addr:street": null,
            "cuisine": null,
            "name": "Yakup Gökdere Hair & Nail",
            "name:en": null,
            "name:uk": null,
            "name:de": null,
            "name:tr": null,
            "name:ru": null,
            "name:ar": null
        }
    },
    {
        "lat": 41.0307558,
        "lon": 28.9736605,
        "tags": {
            "addr:city": "İstanbul",
            "addr:district": null,
            "description": "",
            "opening_hours": null,
            "phone": null,
            "branch": null,
            "amenity": "beauty",
            "mobile": null,
            "addr:street": null,
            "cuisine": null,
            "name": "plaza hotel",
            "name:en": null,
            "name:uk": null,
            "name:de": null,
            "name:tr": null,
            "name:ru": null,
            "name:ar": null
        }
    },
    {
        "lat": 40.9649935,
        "lon": 29.0751495,
        "tags": {
            "addr:city": "İstanbul",
            "addr:district": "Kadıköy",
            "description": "",
            "opening_hours": null,
            "phone": null,
            "branch": null,
            "amenity": "beauty",
            "mobile": null,
            "addr:street": "Bilim Sokağı",
            "cuisine": null,
            "name": "Hayat Beauty Palace",
            "name:en": null,
            "name:uk": null,
            "name:de": null,
            "name:tr": null,
            "name:ru": null,
            "name:ar": null
        }
    },
    {
        "lat": 41.063771,
        "lon": 28.993733,
        "tags": {
            "addr:city": "İstanbul",
            "addr:district": null,
            "description": "",
            "opening_hours": null,
            "phone": null,
            "branch": null,
            "amenity": "beauty",
            "mobile": null,
            "addr:street": null,
            "cuisine": null,
            "name": "Afra Beauty",
            "name:en": null,
            "name:uk": null,
            "name:de": null,
            "name:tr": null,
            "name:ru": null,
            "name:ar": null
        }
    },
    {
        "lat": 41.0681352,
        "lon": 28.9936561,
        "tags": {
            "addr:city": "İstanbul",
            "addr:district": "Şişli",
            "description": "",
            "opening_hours": null,
            "phone": "+90 533 377 2878",
            "branch": null,
            "amenity": "beauty",
            "mobile": null,
            "addr:street": "Atakan Sokak",
            "cuisine": null,
            "name": "Estepalace Clinic",
            "name:en": null,
            "name:uk": null,
            "name:de": null,
            "name:tr": null,
            "name:ru": null,
            "name:ar": null
        }
    },
    {
        "lat": 40.9907319,
        "lon": 29.0289622,
        "tags": {
            "addr:city": "İstanbul",
            "addr:district": null,
            "description": "",
            "opening_hours": null,
            "phone": "05333281242",
            "branch": null,
            "amenity": "beauty",
            "mobile": null,
            "addr:street": "Söğütlüçeşme Caddesi",
            "cuisine": null,
            "name": "777nails_beautybar",
            "name:en": null,
            "name:uk": null,
            "name:de": null,
            "name:tr": null,
            "name:ru": null,
            "name:ar": null
        }
    },
    {
        "lat": 41.0938338,
        "lon": 28.8938414,
        "tags": {
            "addr:city": "İstanbul",
            "addr:district": "Sultangazi",
            "description": "",
            "opening_hours": null,
            "phone": null,
            "branch": null,
            "amenity": "beauty",
            "mobile": "+90 555 090 3757",
            "addr:street": "Adem Yavuz Caddesi",
            "cuisine": null,
            "name": "Rain's Güzellik & Estetik Merkezi",
            "name:en": "Rain's Beauty & Aesthetic Center",
            "name:uk": null,
            "name:de": null,
            "name:tr": null,
            "name:ru": null,
            "name:ar": null
        }
    },
    {
        "lat": 41.0608309,
        "lon": 28.6977709,
        "tags": {
            "addr:city": "istanbul",
            "addr:district": "başakşehir",
            "description": "",
            "opening_hours": "Mo-Sa 10:00-19:00",
            "phone": null,
            "branch": null,
            "amenity": "beauty",
            "mobile": null,
            "addr:street": "Doğa Parkı Caddesi",
            "cuisine": null,
            "name": "De Bonne Estetik",
            "name:en": null,
            "name:uk": null,
            "name:de": null,
            "name:tr": null,
            "name:ru": null,
            "name:ar": null
        }
    },
    {
        "lat": 40.992459,
        "lon": 29.1227963,
        "tags": {
            "addr:city": "İstanbul",
            "addr:district": null,
            "description": "",
            "opening_hours": null,
            "phone": null,
            "branch": null,
            "amenity": "beauty",
            "mobile": null,
            "addr:street": null,
            "cuisine": null,
            "name": "Turnak Butik Ataşehir",
            "name:en": null,
            "name:uk": null,
            "name:de": null,
            "name:tr": null,
            "name:ru": null,
            "name:ar": null
        }
    },
    {
        "lat": 41.0060382,
        "lon": 29.0707873,
        "tags": {
            "addr:city": "İstanbul",
            "addr:district": null,
            "description": "",
            "opening_hours": null,
            "phone": null,
            "branch": null,
            "amenity": "beauty",
            "mobile": null,
            "addr:street": null,
            "cuisine": null,
            "name": "Health & Beauty",
            "name:en": null,
            "name:uk": null,
            "name:de": null,
            "name:tr": null,
            "name:ru": null,
            "name:ar": null
        }
    },
    {
        "lat": 40.9674025,
        "lon": 29.066637,
        "tags": {
            "addr:city": "İstanbul",
            "addr:district": null,
            "description": "",
            "opening_hours": null,
            "phone": null,
            "branch": null,
            "amenity": "beauty",
            "mobile": null,
            "addr:street": null,
            "cuisine": null,
            "name": "SCLINIC Beauty & Welness",
            "name:en": null,
            "name:uk": null,
            "name:de": null,
            "name:tr": null,
            "name:ru": null,
            "name:ar": null
        }
    },
    {
        "lat": 40.9913161,
        "lon": 29.2310213,
        "tags": {
            "addr:city": "İstanbul",
            "addr:district": null,
            "description": "",
            "opening_hours": null,
            "phone": null,
            "branch": null,
            "amenity": "beauty",
            "mobile": null,
            "addr:street": null,
            "cuisine": null,
            "name": "Mila Esthetic",
            "name:en": null,
            "name:uk": null,
            "name:de": null,
            "name:tr": null,
            "name:ru": null,
            "name:ar": null
        }
    },
    {
        "lat": 41.0361727,
        "lon": 28.7859939,
        "tags": {
            "addr:city": "İstanbul",
            "addr:district": "Küçükçekmece",
            "description": "",
            "opening_hours": null,
            "phone": null,
            "branch": null,
            "amenity": "beauty",
            "mobile": null,
            "addr:street": "Posta sokak",
            "cuisine": null,
            "name": "GESY Estetik Atakent VIP",
            "name:en": null,
            "name:uk": null,
            "name:de": null,
            "name:tr": null,
            "name:ru": null,
            "name:ar": null
        }
    },
    {
        "lat": 40.9789057,
        "lon": 29.1169563,
        "tags": {
            "addr:city": "İstanbul",
            "addr:district": null,
            "description": "",
            "opening_hours": null,
            "phone": null,
            "branch": null,
            "amenity": "beauty",
            "mobile": null,
            "addr:street": null,
            "cuisine": null,
            "name": "Sevil Yıldırım Beauty",
            "name:en": null,
            "name:uk": null,
            "name:de": null,
            "name:tr": null,
            "name:ru": null,
            "name:ar": null
        }
    },
    {
        "lat": 41.0046274,
        "lon": 29.1068814,
        "tags": {
            "addr:city": "İstanbul",
            "addr:district": "Ataşehir",
            "description": "Lioubov Tchernova tarafından kurulan NaiLyuba markası, İstanbul Ataşehir'de uzman ekibi ile manikür, pedikür, protez tırnak, jel tırnak, nail art, kalıcı oje, nasır, batık tırnak, mantar bakımı ve microblading ve ipek kirpik hizmetleri sunmaktadır.",
            "opening_hours": "Mo-Su 08:00-20:00",
            "phone": "+90 216 709 01 63",
            "branch": null,
            "amenity": "beauty",
            "mobile": "+90 532 399 56 88",
            "addr:street": "Finans Caddesi",
            "cuisine": null,
            "name": "NaiLyuba",
            "name:en": null,
            "name:uk": null,
            "name:de": null,
            "name:tr": null,
            "name:ru": null,
            "name:ar": null
        }
    },
    {
        "lat": 41.0030561,
        "lon": 29.1068171,
        "tags": {
            "addr:city": "İstanbul",
            "addr:district": null,
            "description": "",
            "opening_hours": "08:00-20:00",
            "phone": "5323995688",
            "branch": null,
            "amenity": "beauty",
            "mobile": null,
            "addr:street": "Sarphan Finanspark",
            "cuisine": null,
            "name": "NaiLyuba",
            "name:en": null,
            "name:uk": null,
            "name:de": null,
            "name:tr": null,
            "name:ru": null,
            "name:ar": null
        }
    },
    {
        "lat": 41.0749575,
        "lon": 28.6228542,
        "tags": {
            "addr:city": "İstanbul",
            "addr:district": null,
            "description": "",
            "opening_hours": null,
            "phone": null,
            "branch": null,
            "amenity": "beauty",
            "mobile": null,
            "addr:street": null,
            "cuisine": null,
            "name": "Medical Estetik",
            "name:en": null,
            "name:uk": null,
            "name:de": null,
            "name:tr": null,
            "name:ru": null,
            "name:ar": null
        }
    },
    {
        "lat": 40.9674535,
        "lon": 29.0667813,
        "tags": {
            "addr:city": "İstanbul",
            "addr:district": null,
            "description": "",
            "opening_hours": null,
            "phone": null,
            "branch": null,
            "amenity": "beauty",
            "mobile": null,
            "addr:street": null,
            "cuisine": null,
            "name": "Xclinic New-Gen Beauty",
            "name:en": null,
            "name:uk": null,
            "name:de": null,
            "name:tr": null,
            "name:ru": null,
            "name:ar": null
        }
    },
    {
        "lat": 40.9597076,
        "lon": 29.0811929,
        "tags": {
            "addr:city": "İstanbul",
            "addr:district": null,
            "description": "",
            "opening_hours": null,
            "phone": null,
            "branch": null,
            "amenity": "beauty",
            "mobile": null,
            "addr:street": null,
            "cuisine": null,
            "name": "Felix Beauty Bar",
            "name:en": null,
            "name:uk": null,
            "name:de": null,
            "name:tr": null,
            "name:ru": null,
            "name:ar": null
        }
    },
    {
        "lat": 41.0139655,
        "lon": 28.7978127,
        "tags": {
            "addr:city": "İstanbul",
            "addr:district": null,
            "description": "",
            "opening_hours": null,
            "phone": null,
            "branch": null,
            "amenity": "beauty",
            "mobile": null,
            "addr:street": null,
            "cuisine": null,
            "name": "Studio Good",
            "name:en": null,
            "name:uk": null,
            "name:de": null,
            "name:tr": null,
            "name:ru": null,
            "name:ar": null
        }
    },
    {
        "lat": 41.0483737,
        "lon": 28.9802007,
        "tags": {
            "addr:city": "İstanbul",
            "addr:district": null,
            "description": "",
            "opening_hours": null,
            "phone": null,
            "branch": null,
            "amenity": "beauty",
            "mobile": null,
            "addr:street": null,
            "cuisine": null,
            "name": null,
            "name:en": null,
            "name:uk": null,
            "name:de": null,
            "name:tr": null,
            "name:ru": null,
            "name:ar": null
        }
    },
    {
        "lat": 41.0249248,
        "lon": 29.0875351,
        "tags": {
            "addr:city": "İstanbul",
            "addr:district": null,
            "description": "",
            "opening_hours": null,
            "phone": null,
            "branch": null,
            "amenity": "beauty",
            "mobile": null,
            "addr:street": null,
            "cuisine": null,
            "name": "Yves Rocher",
            "name:en": null,
            "name:uk": null,
            "name:de": null,
            "name:tr": "Yves Rocher",
            "name:ru": null,
            "name:ar": null
        }
    },
    {
        "lat": 41.0247657,
        "lon": 29.0882122,
        "tags": {
            "addr:city": "İstanbul",
            "addr:district": null,
            "description": "",
            "opening_hours": null,
            "phone": null,
            "branch": null,
            "amenity": "beauty",
            "mobile": null,
            "addr:street": null,
            "cuisine": null,
            "name": "eve",
            "name:en": null,
            "name:uk": null,
            "name:de": null,
            "name:tr": "eve",
            "name:ru": null,
            "name:ar": null
        }
    },
    {
        "lat": 41.0253249,
        "lon": 29.0912012,
        "tags": {
            "addr:city": "İstanbul",
            "addr:district": null,
            "description": "",
            "opening_hours": null,
            "phone": null,
            "branch": null,
            "amenity": "beauty",
            "mobile": null,
            "addr:street": null,
            "cuisine": null,
            "name": "Procsin",
            "name:en": null,
            "name:uk": null,
            "name:de": null,
            "name:tr": "Procsin",
            "name:ru": null,
            "name:ar": null
        }
    },
    {
        "lat": 40.9650489,
        "lon": 29.0884416,
        "tags": {
            "addr:city": "İstanbul",
            "addr:district": "Kadıköy",
            "description": "",
            "opening_hours": null,
            "phone": null,
            "branch": null,
            "amenity": "beauty",
            "mobile": null,
            "addr:street": "Şemsettin Günaltay Caddesi",
            "cuisine": null,
            "name": "Ceren Sevindik",
            "name:en": null,
            "name:uk": null,
            "name:de": null,
            "name:tr": null,
            "name:ru": null,
            "name:ar": null
        }
    },
    {
        "lat": 40.9707306,
        "lon": 29.0847093,
        "tags": {
            "addr:city": "İstanbul",
            "addr:district": null,
            "description": "",
            "opening_hours": null,
            "phone": null,
            "branch": null,
            "amenity": "beauty",
            "mobile": null,
            "addr:street": null,
            "cuisine": null,
            "name": "Saloon Life",
            "name:en": null,
            "name:uk": null,
            "name:de": null,
            "name:tr": null,
            "name:ru": null,
            "name:ar": null
        }
    },
    {
        "lat": 41.0246492,
        "lon": 29.0895591,
        "tags": {
            "addr:city": "İstanbul",
            "addr:district": null,
            "description": "",
            "opening_hours": null,
            "phone": null,
            "branch": null,
            "amenity": "beauty",
            "mobile": null,
            "addr:street": null,
            "cuisine": null,
            "name": "Semra Kaş Tasarım",
            "name:en": null,
            "name:uk": null,
            "name:de": null,
            "name:tr": "Semra Kaş Tasarım",
            "name:ru": null,
            "name:ar": null
        }
    },
    {
        "lat": 40.9670557,
        "lon": 29.0921893,
        "tags": {
            "addr:city": "İstanbul",
            "addr:district": "Kadıköy",
            "description": "",
            "opening_hours": null,
            "phone": null,
            "branch": null,
            "amenity": "beauty",
            "mobile": null,
            "addr:street": "Kaya Sultan Sokağı",
            "cuisine": null,
            "name": "Salon MAAYS",
            "name:en": null,
            "name:uk": null,
            "name:de": null,
            "name:tr": null,
            "name:ru": null,
            "name:ar": null
        }
    },
    {
        "lat": 40.9795519,
        "lon": 29.1140639,
        "tags": {
            "addr:city": "İstanbul",
            "addr:district": null,
            "description": "",
            "opening_hours": null,
            "phone": null,
            "branch": null,
            "amenity": "beauty",
            "mobile": null,
            "addr:street": null,
            "cuisine": null,
            "name": "Bellance Beauty Salon",
            "name:en": null,
            "name:uk": null,
            "name:de": null,
            "name:tr": null,
            "name:ru": null,
            "name:ar": null
        }
    },
    {
        "lat": 40.9625836,
        "lon": 29.0805499,
        "tags": {
            "addr:city": "İstanbul",
            "addr:district": null,
            "description": "",
            "opening_hours": null,
            "phone": null,
            "branch": null,
            "amenity": "beauty",
            "mobile": null,
            "addr:street": null,
            "cuisine": null,
            "name": null,
            "name:en": null,
            "name:uk": null,
            "name:de": null,
            "name:tr": null,
            "name:ru": null,
            "name:ar": null
        }
    },
    {
        "lat": 40.9602992,
        "lon": 29.0789659,
        "tags": {
            "addr:city": "İstanbul",
            "addr:district": null,
            "description": "",
            "opening_hours": null,
            "phone": null,
            "branch": null,
            "amenity": "beauty",
            "mobile": null,
            "addr:street": null,
            "cuisine": null,
            "name": "Tattoo master",
            "name:en": null,
            "name:uk": null,
            "name:de": null,
            "name:tr": null,
            "name:ru": null,
            "name:ar": null
        }
    },
    {
        "lat": 40.9663526,
        "lon": 29.084693,
        "tags": {
            "addr:city": "İstanbul",
            "addr:district": null,
            "description": "",
            "opening_hours": null,
            "phone": null,
            "branch": null,
            "amenity": "beauty",
            "mobile": null,
            "addr:street": null,
            "cuisine": null,
            "name": "Fuego Nail Art Studio",
            "name:en": null,
            "name:uk": null,
            "name:de": null,
            "name:tr": null,
            "name:ru": null,
            "name:ar": null
        }
    },
    {
        "lat": 40.9670302,
        "lon": 29.0852456,
        "tags": {
            "addr:city": "İstanbul",
            "addr:district": null,
            "description": "",
            "opening_hours": null,
            "phone": null,
            "branch": null,
            "amenity": "beauty",
            "mobile": null,
            "addr:street": null,
            "cuisine": null,
            "name": "Nail Art Studio",
            "name:en": null,
            "name:uk": null,
            "name:de": null,
            "name:tr": null,
            "name:ru": null,
            "name:ar": null
        }
    },
    {
        "lat": 41.0062295,
        "lon": 29.1384995,
        "tags": {
            "addr:city": "İstanbul",
            "addr:district": null,
            "description": "",
            "opening_hours": null,
            "phone": null,
            "branch": null,
            "amenity": "beauty",
            "mobile": null,
            "addr:street": null,
            "cuisine": null,
            "name": null,
            "name:en": null,
            "name:uk": null,
            "name:de": null,
            "name:tr": null,
            "name:ru": null,
            "name:ar": null
        }
    },
    {
        "lat": 40.9105811,
        "lon": 29.2967005,
        "tags": {
            "addr:city": "İstanbul",
            "addr:district": "Pendik",
            "description": "",
            "opening_hours": null,
            "phone": null,
            "branch": null,
            "amenity": "beauty",
            "mobile": null,
            "addr:street": "Ankara Caddesi",
            "cuisine": null,
            "name": "Yu Beauty Palace",
            "name:en": null,
            "name:uk": null,
            "name:de": null,
            "name:tr": null,
            "name:ru": null,
            "name:ar": null
        }
    },
    {
        "lat": 40.9241859,
        "lon": 29.1336291,
        "tags": {
            "addr:city": "İstanbul",
            "addr:district": null,
            "description": "",
            "opening_hours": null,
            "phone": null,
            "branch": null,
            "amenity": "beauty",
            "mobile": null,
            "addr:street": null,
            "cuisine": null,
            "name": "Mona Güzellik Merkezi",
            "name:en": null,
            "name:uk": null,
            "name:de": null,
            "name:tr": null,
            "name:ru": null,
            "name:ar": null
        }
    },
    {
        "lat": 41.0637189,
        "lon": 29.0054882,
        "tags": {
            "addr:city": "İstanbul",
            "addr:district": null,
            "description": "",
            "opening_hours": null,
            "phone": "+90 212 274 49 74",
            "branch": null,
            "amenity": "beauty",
            "mobile": null,
            "addr:street": "Süleymanbey Sokak",
            "cuisine": null,
            "name": "Kuafor Erol",
            "name:en": null,
            "name:uk": null,
            "name:de": null,
            "name:tr": null,
            "name:ru": null,
            "name:ar": null
        }
    }
]