[
    {
        "lat": 41.014139,
        "lon": 28.9673479,
        "tags": {
            "addr:city": "Istanbul",
            "addr:district": "Fatih",
            "description": "",
            "opening_hours": null,
            "phone": null,
            "branch": null,
            "amenity": "billiard_shop",
            "mobile": null,
            "addr:street": "Uzun Çarşı Caddesi",
            "cuisine": null,
            "name": "Yağız Ticaret",
            "name:en": null,
            "name:uk": null,
            "name:de": null,
            "name:tr": null,
            "name:ru": null,
            "name:ar": "ياغز تيجاريت للوازم البيلياردو"
        }
    },
    {
        "lat": 41.0149695,
        "lon": 28.9673657,
        "tags": {
            "addr:city": "Istanbul",
            "addr:district": "Fatih",
            "description": "",
            "opening_hours": null,
            "phone": null,
            "branch": null,
            "amenity": "billiard_shop",
            "mobile": null,
            "addr:street": "Uzun Çarşı Caddesi",
            "cuisine": null,
            "name": "Derya Bilardo",
            "name:en": null,
            "name:uk": null,
            "name:de": null,
            "name:tr": null,
            "name:ru": null,
            "name:ar": "ديريا بيلاردو"
        }
    }
]