[
    {
        "lat": 40.9999782,
        "lon": 28.8523295,
        "tags": {
            "addr:city": "İstanbul",
            "addr:district": null,
            "description": "",
            "opening_hours": null,
            "phone": "+90 537 243 86 83",
            "branch": null,
            "amenity": "car_parts",
            "mobile": null,
            "addr:street": null,
            "cuisine": null,
            "name": "Karizma Motor",
            "name:en": null,
            "name:uk": null,
            "name:de": null,
            "name:tr": null,
            "name:ru": null,
            "name:ar": null
        }
    },
    {
        "lat": 41.0391823,
        "lon": 28.8498233,
        "tags": {
            "addr:city": "İstanbul",
            "addr:district": null,
            "description": "",
            "opening_hours": null,
            "phone": null,
            "branch": null,
            "amenity": "car_parts",
            "mobile": null,
            "addr:street": null,
            "cuisine": null,
            "name": "Lazer Motor",
            "name:en": null,
            "name:uk": null,
            "name:de": null,
            "name:tr": null,
            "name:ru": null,
            "name:ar": null
        }
    },
    {
        "lat": 40.9972167,
        "lon": 28.8514444,
        "tags": {
            "addr:city": "İstanbul",
            "addr:district": null,
            "description": "",
            "opening_hours": null,
            "phone": null,
            "branch": null,
            "amenity": "car_parts",
            "mobile": null,
            "addr:street": null,
            "cuisine": null,
            "name": "Karizma Motorsiklet",
            "name:en": null,
            "name:uk": null,
            "name:de": null,
            "name:tr": null,
            "name:ru": null,
            "name:ar": null
        }
    },
    {
        "lat": 41.0722456,
        "lon": 28.887998,
        "tags": {
            "addr:city": "İstanbul",
            "addr:district": null,
            "description": "",
            "opening_hours": null,
            "phone": null,
            "branch": null,
            "amenity": "car_parts",
            "mobile": null,
            "addr:street": null,
            "cuisine": null,
            "name": "Çağ Oto",
            "name:en": null,
            "name:uk": null,
            "name:de": null,
            "name:tr": null,
            "name:ru": null,
            "name:ar": null
        }
    },
    {
        "lat": 41.0946658,
        "lon": 29.0878574,
        "tags": {
            "addr:city": "İstanbul",
            "addr:district": null,
            "description": "",
            "opening_hours": null,
            "phone": null,
            "branch": null,
            "amenity": "car_parts",
            "mobile": null,
            "addr:street": "Özgür Caddesi",
            "cuisine": null,
            "name": "mutlu akü",
            "name:en": null,
            "name:uk": null,
            "name:de": null,
            "name:tr": null,
            "name:ru": null,
            "name:ar": null
        }
    },
    {
        "lat": 41.0855682,
        "lon": 29.0118721,
        "tags": {
            "addr:city": "İstanbul",
            "addr:district": null,
            "description": "",
            "opening_hours": null,
            "phone": null,
            "branch": null,
            "amenity": "car_parts",
            "mobile": null,
            "addr:street": null,
            "cuisine": null,
            "name": null,
            "name:en": null,
            "name:uk": null,
            "name:de": null,
            "name:tr": null,
            "name:ru": null,
            "name:ar": null
        }
    },
    {
        "lat": 41.009146,
        "lon": 28.9736778,
        "tags": {
            "addr:city": "İstanbul",
            "addr:district": null,
            "description": "",
            "opening_hours": null,
            "phone": null,
            "branch": null,
            "amenity": "car_parts",
            "mobile": null,
            "addr:street": null,
            "cuisine": null,
            "name": "autoparkplatz",
            "name:en": null,
            "name:uk": null,
            "name:de": null,
            "name:tr": "autoparkplatz",
            "name:ru": null,
            "name:ar": null
        }
    },
    {
        "lat": 41.0064298,
        "lon": 28.9463706,
        "tags": {
            "addr:city": "İstanbul",
            "addr:district": null,
            "description": "",
            "opening_hours": null,
            "phone": null,
            "branch": null,
            "amenity": "car_parts",
            "mobile": null,
            "addr:street": null,
            "cuisine": null,
            "name": "cargo sabah",
            "name:en": "cargo sabah",
            "name:uk": null,
            "name:de": null,
            "name:tr": "cargo sabah",
            "name:ru": null,
            "name:ar": null
        }
    },
    {
        "lat": 41.0726451,
        "lon": 28.8083905,
        "tags": {
            "addr:city": "İstanbul",
            "addr:district": null,
            "description": "",
            "opening_hours": null,
            "phone": null,
            "branch": null,
            "amenity": "car_parts",
            "mobile": null,
            "addr:street": "Kuzey Çevre Otoyolu TEM Bağlantısı",
            "cuisine": null,
            "name": "öz Hiçret",
            "name:en": null,
            "name:uk": null,
            "name:de": null,
            "name:tr": null,
            "name:ru": null,
            "name:ar": null
        }
    },
    {
        "lat": 41.0068055,
        "lon": 28.9500006,
        "tags": {
            "addr:city": "Istanbul",
            "addr:district": "Fatih",
            "description": "",
            "opening_hours": null,
            "phone": "(0212) 530 34 23",
            "branch": null,
            "amenity": "car_parts",
            "mobile": null,
            "addr:street": "Namık kemal caddesi",
            "cuisine": null,
            "name": "Auto Japon Taıwan",
            "name:en": null,
            "name:uk": null,
            "name:de": null,
            "name:tr": null,
            "name:ru": null,
            "name:ar": "جابان تايوان لقطع التبديل"
        }
    },
    {
        "lat": 41.007627,
        "lon": 28.9498771,
        "tags": {
            "addr:city": "Istanbul",
            "addr:district": "Fatih",
            "description": "",
            "opening_hours": null,
            "phone": null,
            "branch": null,
            "amenity": "car_parts",
            "mobile": null,
            "addr:street": "Manastırlı rıfat sokağı",
            "cuisine": null,
            "name": "Oto akdeniz",
            "name:en": null,
            "name:uk": null,
            "name:de": null,
            "name:tr": null,
            "name:ru": null,
            "name:ar": "أوتو أكدينيز لقطع غيار السيارات"
        }
    },
    {
        "lat": 41.007627,
        "lon": 28.9495045,
        "tags": {
            "addr:city": "Istanbul",
            "addr:district": "Fatih",
            "description": "",
            "opening_hours": null,
            "phone": "02126334467",
            "branch": null,
            "amenity": "car_parts",
            "mobile": null,
            "addr:street": "Manastırlı rıfat sokağı",
            "cuisine": null,
            "name": "Baki otomotiv",
            "name:en": null,
            "name:uk": null,
            "name:de": null,
            "name:tr": null,
            "name:ru": null,
            "name:ar": "باقي للسيارات"
        }
    },
    {
        "lat": 41.0088494,
        "lon": 28.9500479,
        "tags": {
            "addr:city": "Istanbul",
            "addr:district": "Fatih",
            "description": "",
            "opening_hours": null,
            "phone": "(0212) 632 08 25",
            "branch": null,
            "amenity": "car_parts",
            "mobile": null,
            "addr:street": "Namık kemal caddesi",
            "cuisine": null,
            "name": "Samsun Segman San",
            "name:en": null,
            "name:uk": null,
            "name:de": null,
            "name:tr": null,
            "name:ru": null,
            "name:ar": "بيع قطع سيارات"
        }
    },
    {
        "lat": 41.0300489,
        "lon": 28.9372735,
        "tags": {
            "addr:city": "Istanbul",
            "addr:district": "Fatih",
            "description": "",
            "opening_hours": null,
            "phone": null,
            "branch": null,
            "amenity": "car_parts",
            "mobile": null,
            "addr:street": "Şeyh Eyüp Sokak",
            "cuisine": null,
            "name": "Sarımir Oto",
            "name:en": null,
            "name:uk": null,
            "name:de": null,
            "name:tr": null,
            "name:ru": null,
            "name:ar": "ساري مير قطع سيارات"
        }
    },
    {
        "lat": 41.1354433,
        "lon": 28.8301109,
        "tags": {
            "addr:city": "İstanbul",
            "addr:district": null,
            "description": "",
            "opening_hours": null,
            "phone": null,
            "branch": null,
            "amenity": "car_parts",
            "mobile": null,
            "addr:street": null,
            "cuisine": null,
            "name": "Mek Par",
            "name:en": null,
            "name:uk": null,
            "name:de": null,
            "name:tr": null,
            "name:ru": null,
            "name:ar": null
        }
    },
    {
        "lat": 40.9874187,
        "lon": 29.263872,
        "tags": {
            "addr:city": "Istanbul",
            "addr:district": "Sultanbeyli",
            "description": "",
            "opening_hours": null,
            "phone": "05357756884",
            "branch": null,
            "amenity": "car_parts",
            "mobile": null,
            "addr:street": "bosna Caddesi",
            "cuisine": null,
            "name": "Eylül Oto",
            "name:en": null,
            "name:uk": null,
            "name:de": null,
            "name:tr": null,
            "name:ru": null,
            "name:ar": "مغسلة أيلول اوتو"
        }
    },
    {
        "lat": 40.9686339,
        "lon": 29.2595711,
        "tags": {
            "addr:city": "Istanbul",
            "addr:district": "Sultanbeyli",
            "description": "",
            "opening_hours": "Mo-Fr 07:00-13:30; Mo-Fr 17:00-20:00",
            "phone": "02164966452",
            "branch": null,
            "amenity": "car_parts",
            "mobile": null,
            "addr:street": "Fatih Bulvarı Caddesi",
            "cuisine": null,
            "name": "Mutlu",
            "name:en": null,
            "name:uk": null,
            "name:de": null,
            "name:tr": null,
            "name:ru": null,
            "name:ar": "خردوات موتلو"
        }
    },
    {
        "lat": 40.9660702,
        "lon": 29.2754809,
        "tags": {
            "addr:city": "Istanbul",
            "addr:district": "Sultanbeyli",
            "description": "",
            "opening_hours": "24/7",
            "phone": null,
            "branch": null,
            "amenity": "car_parts",
            "mobile": null,
            "addr:street": "Fatih Bulvarı",
            "cuisine": null,
            "name": "Polatlar",
            "name:en": null,
            "name:uk": null,
            "name:de": null,
            "name:tr": null,
            "name:ru": null,
            "name:ar": "المراد للسيارات"
        }
    },
    {
        "lat": 40.9686046,
        "lon": 29.2598689,
        "tags": {
            "addr:city": "Istanbul",
            "addr:district": "Sultanbeyli",
            "description": "",
            "opening_hours": "Mo-Fr 07:00-13:30; Mo-Fr 17:00-20:00",
            "phone": null,
            "branch": null,
            "amenity": "car_parts",
            "mobile": null,
            "addr:street": "Fatih Bulvarı Caddesi",
            "cuisine": null,
            "name": "Karakaya",
            "name:en": null,
            "name:uk": null,
            "name:de": null,
            "name:tr": null,
            "name:ru": null,
            "name:ar": "خردوات كاراكايا"
        }
    },
    {
        "lat": 41.0756635,
        "lon": 28.8111792,
        "tags": {
            "addr:city": "İstanbul",
            "addr:district": null,
            "description": "",
            "opening_hours": "Mo-Sa 07:30-18:00",
            "phone": null,
            "branch": null,
            "amenity": "car_parts",
            "mobile": null,
            "addr:street": "Eski Turgut Özal Cad.",
            "cuisine": null,
            "name": "Ağar Oto Egzoz San. Tic.A.Ş",
            "name:en": null,
            "name:uk": null,
            "name:de": null,
            "name:tr": null,
            "name:ru": null,
            "name:ar": null
        }
    },
    {
        "lat": 41.0289278,
        "lon": 28.9097226,
        "tags": {
            "addr:city": "Istanbul",
            "addr:district": "Zeytinburnu",
            "description": "",
            "opening_hours": "Mo-Fr 08:00-17:00; Mo-Sa 07:30-15:00",
            "phone": null,
            "branch": null,
            "amenity": "car_parts",
            "mobile": null,
            "addr:street": "Gümüşsuyu Caddesi",
            "cuisine": null,
            "name": "Özlü Araba Aksesuar",
            "name:en": null,
            "name:uk": null,
            "name:de": null,
            "name:tr": null,
            "name:ru": null,
            "name:ar": "محل اوزلو لزينة السيارات"
        }
    },
    {
        "lat": 41.0190829,
        "lon": 28.9063565,
        "tags": {
            "addr:city": "Istanbul",
            "addr:district": "Zeytinburnu",
            "description": "",
            "opening_hours": "Mo-Fr 08:00-17:00; Mo-Sa 07:30-15:00",
            "phone": "(0212) 482 54 68",
            "branch": null,
            "amenity": "car_parts",
            "mobile": null,
            "addr:street": "Yılanlı Ayazma Yolu",
            "cuisine": null,
            "name": "Çıkmacı Ahmet",
            "name:en": null,
            "name:uk": null,
            "name:de": null,
            "name:tr": null,
            "name:ru": null,
            "name:ar": "محل احمد لاصلاح السيارات"
        }
    },
    {
        "lat": 41.0183124,
        "lon": 28.9053188,
        "tags": {
            "addr:city": "Istanbul",
            "addr:district": "Zeytinburnu",
            "description": "",
            "opening_hours": "Mo-Fr 09:00-17:00; Mo-Sa 07:30-15:00",
            "phone": null,
            "branch": null,
            "amenity": "car_parts",
            "mobile": null,
            "addr:street": "Yılanlı Ayazma Yolu",
            "cuisine": null,
            "name": "Oto cam",
            "name:en": null,
            "name:uk": null,
            "name:de": null,
            "name:tr": null,
            "name:ru": null,
            "name:ar": "اوت جام"
        }
    },
    {
        "lat": 41.0182869,
        "lon": 28.9061176,
        "tags": {
            "addr:city": "Istanbul",
            "addr:district": "Zeytinburnu",
            "description": "",
            "opening_hours": "Mo-Su 07:00-20:00",
            "phone": "02124817774",
            "branch": null,
            "amenity": "car_parts",
            "mobile": null,
            "addr:street": "Yılanlı Ayazma Yolu",
            "cuisine": null,
            "name": "Oto Hikmet",
            "name:en": null,
            "name:uk": null,
            "name:de": null,
            "name:tr": null,
            "name:ru": null,
            "name:ar": "حكمت لقطع السيارات"
        }
    },
    {
        "lat": 41.0275796,
        "lon": 28.9093511,
        "tags": {
            "addr:city": "Istanbul",
            "addr:district": "Zeytinburnu",
            "description": "",
            "opening_hours": "Mo-Fr 08:00-17:00; Mo-Sa 07:30-15:00",
            "phone": null,
            "branch": null,
            "amenity": "car_parts",
            "mobile": null,
            "addr:street": "Gümüşsuyu Caddesi",
            "cuisine": null,
            "name": "Enes Oto",
            "name:en": null,
            "name:uk": null,
            "name:de": null,
            "name:tr": null,
            "name:ru": null,
            "name:ar": "محل انس لصيانة المكيفات"
        }
    },
    {
        "lat": 41.0281448,
        "lon": 28.9085627,
        "tags": {
            "addr:city": "Istanbul",
            "addr:district": "Zeytinburnu",
            "description": "",
            "opening_hours": "Mo-Su 07:00-20:00",
            "phone": "05349835766",
            "branch": null,
            "amenity": "car_parts",
            "mobile": null,
            "addr:street": "Hastane Yolu Sokak",
            "cuisine": null,
            "name": "Üçler Oto",
            "name:en": null,
            "name:uk": null,
            "name:de": null,
            "name:tr": null,
            "name:ru": null,
            "name:ar": "محل اوجلر لاصلاح السيارات"
        }
    },
    {
        "lat": 41.0182456,
        "lon": 28.905553,
        "tags": {
            "addr:city": "Istanbul",
            "addr:district": "Zeytinburnu",
            "description": "",
            "opening_hours": "Mo-Su 07:00-20:00",
            "phone": "0212485186",
            "branch": null,
            "amenity": "car_parts",
            "mobile": null,
            "addr:street": "Yılanlı Ayazma Yolu",
            "cuisine": null,
            "name": "Oto Ekrem",
            "name:en": null,
            "name:uk": null,
            "name:de": null,
            "name:tr": null,
            "name:ru": null,
            "name:ar": "اكرم لاصلاح السيارات"
        }
    },
    {
        "lat": 41.0188256,
        "lon": 28.9062456,
        "tags": {
            "addr:city": "Istanbul",
            "addr:district": "Zeytinburnu",
            "description": "",
            "opening_hours": "Mo-Fr 08:00-17:00; Mo-Sa 07:30-15:00",
            "phone": null,
            "branch": null,
            "amenity": "car_parts",
            "mobile": null,
            "addr:street": "Yılanlı Ayazma Yolu",
            "cuisine": null,
            "name": "Yılman Oto",
            "name:en": null,
            "name:uk": null,
            "name:de": null,
            "name:tr": null,
            "name:ru": null,
            "name:ar": "محل ييلمان لاصلاح السيارات"
        }
    },
    {
        "lat": 41.0189398,
        "lon": 28.9053815,
        "tags": {
            "addr:city": "Istanbul",
            "addr:district": "Zeytinburnu",
            "description": "",
            "opening_hours": "Mo-Su 07:00-20:00",
            "phone": "02124811606",
            "branch": null,
            "amenity": "car_parts",
            "mobile": null,
            "addr:street": "Yılanlı Ayazma Yolu",
            "cuisine": null,
            "name": "Yıldırım Ford Par",
            "name:en": null,
            "name:uk": null,
            "name:de": null,
            "name:tr": null,
            "name:ru": null,
            "name:ar": "يلدرم لقطع السيارات"
        }
    },
    {
        "lat": 41.0185689,
        "lon": 28.9052101,
        "tags": {
            "addr:city": "Istanbul",
            "addr:district": "Zeytinburnu",
            "description": "",
            "opening_hours": "Mo-Su 07:00-20:00",
            "phone": null,
            "branch": null,
            "amenity": "car_parts",
            "mobile": null,
            "addr:street": "Yılanlı Ayazma Yolu",
            "cuisine": null,
            "name": "Burak Otomotive",
            "name:en": null,
            "name:uk": null,
            "name:de": null,
            "name:tr": null,
            "name:ru": null,
            "name:ar": "مصنع براق لقطع السيارات"
        }
    },
    {
        "lat": 41.0206111,
        "lon": 28.9102827,
        "tags": {
            "addr:city": "Istanbul",
            "addr:district": "Zeytinburnu",
            "description": "",
            "opening_hours": "Mo-Fr 08:00-17:00; Mo-Sa 07:30-15:00",
            "phone": null,
            "branch": null,
            "amenity": "car_parts",
            "mobile": null,
            "addr:street": "Davutpaşa Caddesi",
            "cuisine": null,
            "name": "Doraglass",
            "name:en": null,
            "name:uk": null,
            "name:de": null,
            "name:tr": null,
            "name:ru": null,
            "name:ar": "دوراغلاس لاصلاح السيارات"
        }
    },
    {
        "lat": 41.026465,
        "lon": 28.9133223,
        "tags": {
            "addr:city": "Istanbul",
            "addr:district": "Zeytinburnu",
            "description": "",
            "opening_hours": "Mo-Fr 08:00-17:00; Mo-Sa 07:30-15:00",
            "phone": "02125445858",
            "branch": null,
            "amenity": "car_parts",
            "mobile": null,
            "addr:street": "Litros Yolu Sokağı",
            "cuisine": null,
            "name": "Gümüş Çekiç Oto",
            "name:en": null,
            "name:uk": null,
            "name:de": null,
            "name:tr": null,
            "name:ru": null,
            "name:ar": "محل غوموش لاصلاح السيارات"
        }
    },
    {
        "lat": 41.0190253,
        "lon": 28.9059834,
        "tags": {
            "addr:city": "Istanbul",
            "addr:district": "Zeytinburnu",
            "description": "",
            "opening_hours": "Mo-Fr 08:00-17:00; Mo-Sa 07:30-15:00",
            "phone": "02124818769",
            "branch": null,
            "amenity": "car_parts",
            "mobile": null,
            "addr:street": "Yılanlı Ayazma Yolu",
            "cuisine": null,
            "name": "Gürsoy",
            "name:en": null,
            "name:uk": null,
            "name:de": null,
            "name:tr": null,
            "name:ru": null,
            "name:ar": "محل غورسوي لاصلاح السيارات"
        }
    },
    {
        "lat": 41.0276792,
        "lon": 28.9088888,
        "tags": {
            "addr:city": "Istanbul",
            "addr:district": "Zeytinburnu",
            "description": "",
            "opening_hours": "Mo-Fr 08:00-17:00; Mo-Sa 07:30-15:00",
            "phone": "02126133057",
            "branch": null,
            "amenity": "car_parts",
            "mobile": null,
            "addr:street": "Litros Yolu Sk.",
            "cuisine": null,
            "name": "Özcan Oto",
            "name:en": null,
            "name:uk": null,
            "name:de": null,
            "name:tr": null,
            "name:ru": null,
            "name:ar": "محل اوزجان لاصلاح السيارات"
        }
    },
    {
        "lat": 40.9948562,
        "lon": 28.895333,
        "tags": {
            "addr:city": "Istanbul",
            "addr:district": "Zeytinburnu",
            "description": "",
            "opening_hours": null,
            "phone": null,
            "branch": null,
            "amenity": "car_parts",
            "mobile": null,
            "addr:street": "Prof. Dr.turan Güneş Caddesi",
            "cuisine": null,
            "name": "Yağ aku",
            "name:en": null,
            "name:uk": null,
            "name:de": null,
            "name:tr": null,
            "name:ru": null,
            "name:ar": "ياغ اكو"
        }
    },
    {
        "lat": 40.9964671,
        "lon": 28.8954465,
        "tags": {
            "addr:city": "Istanbul",
            "addr:district": "Zeytinburnu",
            "description": "",
            "opening_hours": null,
            "phone": null,
            "branch": null,
            "amenity": "car_parts",
            "mobile": null,
            "addr:street": "Prof. Dr.turan Güneş Caddesi",
            "cuisine": null,
            "name": "Otosüslen",
            "name:en": null,
            "name:uk": null,
            "name:de": null,
            "name:tr": null,
            "name:ru": null,
            "name:ar": "أوتوسوسلان"
        }
    },
    {
        "lat": 40.9843629,
        "lon": 28.8936723,
        "tags": {
            "addr:city": "Istanbul",
            "addr:district": "Zeytinburnu",
            "description": "",
            "opening_hours": null,
            "phone": null,
            "branch": null,
            "amenity": "car_parts",
            "mobile": null,
            "addr:street": "18. sokak",
            "cuisine": null,
            "name": "Gemel Oto Aksesuar",
            "name:en": null,
            "name:uk": null,
            "name:de": null,
            "name:tr": null,
            "name:ru": null,
            "name:ar": "غيميل أوتو أكسسوار"
        }
    },
    {
        "lat": 40.9829856,
        "lon": 28.8933815,
        "tags": {
            "addr:city": "Istanbul",
            "addr:district": "Zeytinburnu",
            "description": "",
            "opening_hours": null,
            "phone": "02126799485",
            "branch": null,
            "amenity": "car_parts",
            "mobile": null,
            "addr:street": "Turan Güneş Caddesi",
            "cuisine": null,
            "name": "Mutlu Akü",
            "name:en": null,
            "name:uk": null,
            "name:de": null,
            "name:tr": null,
            "name:ru": null,
            "name:ar": "موتلو أكو"
        }
    },
    {
        "lat": 40.9849218,
        "lon": 28.8932625,
        "tags": {
            "addr:city": "Istanbul",
            "addr:district": "Zeytinburnu",
            "description": "",
            "opening_hours": null,
            "phone": null,
            "branch": null,
            "amenity": "car_parts",
            "mobile": null,
            "addr:street": "Turan Güneş Caddesi",
            "cuisine": null,
            "name": "Mutlu Akü",
            "name:en": null,
            "name:uk": null,
            "name:de": null,
            "name:tr": null,
            "name:ru": null,
            "name:ar": "موتلو أكو"
        }
    },
    {
        "lat": 41.0688135,
        "lon": 28.8531098,
        "tags": {
            "addr:city": "Istanbul",
            "addr:district": "Bağcılar",
            "description": "",
            "opening_hours": null,
            "phone": null,
            "branch": null,
            "amenity": "car_parts",
            "mobile": null,
            "addr:street": "Veysel Karani Caddesi",
            "cuisine": null,
            "name": "Center Oto Aksesuar",
            "name:en": null,
            "name:uk": null,
            "name:de": null,
            "name:tr": null,
            "name:ru": null,
            "name:ar": "سينتير اوتو اكسيسوار"
        }
    },
    {
        "lat": 41.0495977,
        "lon": 28.8589376,
        "tags": {
            "addr:city": "Istanbul",
            "addr:district": "Bağcılar",
            "description": "",
            "opening_hours": null,
            "phone": "05357140602",
            "branch": null,
            "amenity": "car_parts",
            "mobile": null,
            "addr:street": "Osmangazi Caddesi",
            "cuisine": null,
            "name": "Akay Otomotiv & Petrol Ürünleri",
            "name:en": null,
            "name:uk": null,
            "name:de": null,
            "name:tr": null,
            "name:ru": null,
            "name:ar": null
        }
    },
    {
        "lat": 41.0470185,
        "lon": 28.8598367,
        "tags": {
            "addr:city": "Istanbul",
            "addr:district": "Bağcılar",
            "description": "",
            "opening_hours": null,
            "phone": null,
            "branch": null,
            "amenity": "car_parts",
            "mobile": null,
            "addr:street": "Osmangazi Caddesi",
            "cuisine": null,
            "name": "emir oto aksesuar",
            "name:en": null,
            "name:uk": null,
            "name:de": null,
            "name:tr": null,
            "name:ru": null,
            "name:ar": "أمير اوتو اكسسوار"
        }
    },
    {
        "lat": 41.0422678,
        "lon": 28.8318253,
        "tags": {
            "addr:city": "Istanbul",
            "addr:district": "Bağcılar",
            "description": "",
            "opening_hours": null,
            "phone": null,
            "branch": null,
            "amenity": "car_parts",
            "mobile": null,
            "addr:street": "Mahmutbey Caddesi",
            "cuisine": null,
            "name": "Oto Aksesuar Tuning",
            "name:en": null,
            "name:uk": null,
            "name:de": null,
            "name:tr": null,
            "name:ru": null,
            "name:ar": "أوتو أكسسوار تونينك"
        }
    },
    {
        "lat": 41.0434882,
        "lon": 28.8313896,
        "tags": {
            "addr:city": "Istanbul",
            "addr:district": "Bağcılar",
            "description": "",
            "opening_hours": null,
            "phone": null,
            "branch": null,
            "amenity": "car_parts",
            "mobile": null,
            "addr:street": "Mahmutbey caddesi",
            "cuisine": null,
            "name": "Erdal otomotiv",
            "name:en": null,
            "name:uk": null,
            "name:de": null,
            "name:tr": null,
            "name:ru": null,
            "name:ar": "اردال اتوموتيف"
        }
    },
    {
        "lat": 41.0434017,
        "lon": 28.859366,
        "tags": {
            "addr:city": "Istanbul",
            "addr:district": null,
            "description": "",
            "opening_hours": null,
            "phone": null,
            "branch": null,
            "amenity": "car_parts",
            "mobile": null,
            "addr:street": "Osmangazi Caddesi",
            "cuisine": null,
            "name": "Oto Aksesuar",
            "name:en": null,
            "name:uk": null,
            "name:de": null,
            "name:tr": null,
            "name:ru": null,
            "name:ar": "أوتو أكسيسوار"
        }
    },
    {
        "lat": 41.0302685,
        "lon": 28.8635471,
        "tags": {
            "addr:city": "Istanbul",
            "addr:district": "Bağcılar",
            "description": "",
            "opening_hours": null,
            "phone": null,
            "branch": null,
            "amenity": "car_parts",
            "mobile": null,
            "addr:street": "Güngören caddesi",
            "cuisine": null,
            "name": "Mutlu aku",
            "name:en": null,
            "name:uk": null,
            "name:de": null,
            "name:tr": null,
            "name:ru": null,
            "name:ar": "موتلو اكو"
        }
    },
    {
        "lat": 41.0300296,
        "lon": 28.8636823,
        "tags": {
            "addr:city": "Istanbul",
            "addr:district": "Bağcılar",
            "description": "",
            "opening_hours": null,
            "phone": null,
            "branch": null,
            "amenity": "car_parts",
            "mobile": null,
            "addr:street": "Güngören caddesi",
            "cuisine": null,
            "name": "Elif oto aksesuar",
            "name:en": null,
            "name:uk": null,
            "name:de": null,
            "name:tr": null,
            "name:ru": null,
            "name:ar": "اليف اوتو اكسسوارات"
        }
    },
    {
        "lat": 40.9205164,
        "lon": 29.1325144,
        "tags": {
            "addr:city": "İstanbul",
            "addr:district": null,
            "description": "",
            "opening_hours": null,
            "phone": null,
            "branch": null,
            "amenity": "car_parts",
            "mobile": null,
            "addr:street": null,
            "cuisine": null,
            "name": "Oto Elektirik",
            "name:en": null,
            "name:uk": null,
            "name:de": null,
            "name:tr": null,
            "name:ru": null,
            "name:ar": null
        }
    },
    {
        "lat": 40.9696002,
        "lon": 29.2623017,
        "tags": {
            "addr:city": "İstanbul",
            "addr:district": null,
            "description": "",
            "opening_hours": null,
            "phone": null,
            "branch": null,
            "amenity": "car_parts",
            "mobile": null,
            "addr:street": null,
            "cuisine": null,
            "name": "Mutlu Akü",
            "name:en": null,
            "name:uk": null,
            "name:de": null,
            "name:tr": null,
            "name:ru": null,
            "name:ar": null
        }
    },
    {
        "lat": 40.8625637,
        "lon": 29.3338508,
        "tags": {
            "addr:city": "İstanbul",
            "addr:district": null,
            "description": "",
            "opening_hours": null,
            "phone": null,
            "branch": null,
            "amenity": "car_parts",
            "mobile": null,
            "addr:street": null,
            "cuisine": null,
            "name": "Güdekler Otomotiv",
            "name:en": null,
            "name:uk": null,
            "name:de": null,
            "name:tr": null,
            "name:ru": null,
            "name:ar": null
        }
    },
    {
        "lat": 40.862443,
        "lon": 29.3336913,
        "tags": {
            "addr:city": "İstanbul",
            "addr:district": null,
            "description": "",
            "opening_hours": null,
            "phone": null,
            "branch": null,
            "amenity": "car_parts",
            "mobile": null,
            "addr:street": null,
            "cuisine": null,
            "name": "Barlas Rulman",
            "name:en": null,
            "name:uk": null,
            "name:de": null,
            "name:tr": null,
            "name:ru": null,
            "name:ar": null
        }
    },
    {
        "lat": 40.8623061,
        "lon": 29.3335342,
        "tags": {
            "addr:city": "İstanbul",
            "addr:district": null,
            "description": "",
            "opening_hours": null,
            "phone": null,
            "branch": null,
            "amenity": "car_parts",
            "mobile": null,
            "addr:street": null,
            "cuisine": null,
            "name": "Şengül Oto",
            "name:en": null,
            "name:uk": null,
            "name:de": null,
            "name:tr": null,
            "name:ru": null,
            "name:ar": null
        }
    },
    {
        "lat": 40.8622701,
        "lon": 29.3334846,
        "tags": {
            "addr:city": "İstanbul",
            "addr:district": null,
            "description": "",
            "opening_hours": null,
            "phone": null,
            "branch": null,
            "amenity": "car_parts",
            "mobile": null,
            "addr:street": null,
            "cuisine": null,
            "name": "Terazi Baskül",
            "name:en": null,
            "name:uk": null,
            "name:de": null,
            "name:tr": null,
            "name:ru": null,
            "name:ar": null
        }
    },
    {
        "lat": 40.8622234,
        "lon": 29.3334237,
        "tags": {
            "addr:city": "İstanbul",
            "addr:district": null,
            "description": "",
            "opening_hours": null,
            "phone": null,
            "branch": null,
            "amenity": "car_parts",
            "mobile": null,
            "addr:street": null,
            "cuisine": null,
            "name": "Lion Oto",
            "name:en": null,
            "name:uk": null,
            "name:de": null,
            "name:tr": null,
            "name:ru": null,
            "name:ar": null
        }
    },
    {
        "lat": 40.8644486,
        "lon": 29.3355087,
        "tags": {
            "addr:city": "İstanbul",
            "addr:district": null,
            "description": "",
            "opening_hours": null,
            "phone": null,
            "branch": null,
            "amenity": "car_parts",
            "mobile": null,
            "addr:street": null,
            "cuisine": null,
            "name": "DeSam Otomotiv",
            "name:en": null,
            "name:uk": null,
            "name:de": null,
            "name:tr": null,
            "name:ru": null,
            "name:ar": null
        }
    },
    {
        "lat": 40.8897119,
        "lon": 29.3537929,
        "tags": {
            "addr:city": "İstanbul",
            "addr:district": null,
            "description": "",
            "opening_hours": null,
            "phone": null,
            "branch": null,
            "amenity": "car_parts",
            "mobile": null,
            "addr:street": null,
            "cuisine": null,
            "name": "Pinokyo Teknik",
            "name:en": null,
            "name:uk": null,
            "name:de": null,
            "name:tr": null,
            "name:ru": null,
            "name:ar": null
        }
    },
    {
        "lat": 40.889859,
        "lon": 29.3538884,
        "tags": {
            "addr:city": "İstanbul",
            "addr:district": null,
            "description": "",
            "opening_hours": null,
            "phone": null,
            "branch": null,
            "amenity": "car_parts",
            "mobile": null,
            "addr:street": null,
            "cuisine": null,
            "name": "Yaşarlar Rulman",
            "name:en": null,
            "name:uk": null,
            "name:de": null,
            "name:tr": null,
            "name:ru": null,
            "name:ar": null
        }
    },
    {
        "lat": 40.8903577,
        "lon": 29.353965,
        "tags": {
            "addr:city": "İstanbul",
            "addr:district": null,
            "description": "",
            "opening_hours": null,
            "phone": null,
            "branch": null,
            "amenity": "car_parts",
            "mobile": null,
            "addr:street": null,
            "cuisine": null,
            "name": "Atlas Lastikçilik",
            "name:en": null,
            "name:uk": null,
            "name:de": null,
            "name:tr": null,
            "name:ru": null,
            "name:ar": null
        }
    },
    {
        "lat": 40.9840991,
        "lon": 29.0289792,
        "tags": {
            "addr:city": "İstanbul",
            "addr:district": null,
            "description": "",
            "opening_hours": null,
            "phone": null,
            "branch": null,
            "amenity": "car_parts",
            "mobile": null,
            "addr:street": "Şair Latifi Sokağı",
            "cuisine": null,
            "name": "SS Tuning",
            "name:en": null,
            "name:uk": null,
            "name:de": null,
            "name:tr": null,
            "name:ru": null,
            "name:ar": null
        }
    },
    {
        "lat": 41.0261339,
        "lon": 28.9739926,
        "tags": {
            "addr:city": "İstanbul",
            "addr:district": null,
            "description": "",
            "opening_hours": null,
            "phone": null,
            "branch": null,
            "amenity": "car_parts",
            "mobile": null,
            "addr:street": null,
            "cuisine": null,
            "name": null,
            "name:en": null,
            "name:uk": null,
            "name:de": null,
            "name:tr": null,
            "name:ru": null,
            "name:ar": null
        }
    },
    {
        "lat": 40.996832,
        "lon": 28.9152824,
        "tags": {
            "addr:city": "İstanbul",
            "addr:district": null,
            "description": "",
            "opening_hours": null,
            "phone": "+902126646671",
            "branch": null,
            "amenity": "car_parts",
            "mobile": null,
            "addr:street": "Balikli Kazlicesme Yoli Cad.",
            "cuisine": null,
            "name": null,
            "name:en": "Bagaj Market",
            "name:uk": null,
            "name:de": null,
            "name:tr": null,
            "name:ru": "Багажники",
            "name:ar": null
        }
    },
    {
        "lat": 41.0110342,
        "lon": 29.0935544,
        "tags": {
            "addr:city": "İstanbul",
            "addr:district": null,
            "description": "",
            "opening_hours": null,
            "phone": "+902164115975",
            "branch": null,
            "amenity": "car_parts",
            "mobile": null,
            "addr:street": "Yüksel Sokak",
            "cuisine": null,
            "name": "Dermas Spor Malzemeleri Tic.",
            "name:en": null,
            "name:uk": null,
            "name:de": null,
            "name:tr": null,
            "name:ru": "Компрессор",
            "name:ar": null
        }
    },
    {
        "lat": 40.970589,
        "lon": 29.1455295,
        "tags": {
            "addr:city": "İstanbul",
            "addr:district": null,
            "description": "",
            "opening_hours": null,
            "phone": null,
            "branch": null,
            "amenity": "car_parts",
            "mobile": null,
            "addr:street": null,
            "cuisine": null,
            "name": "Oto Kılıf",
            "name:en": null,
            "name:uk": null,
            "name:de": null,
            "name:tr": null,
            "name:ru": null,
            "name:ar": null
        }
    },
    {
        "lat": 40.9796086,
        "lon": 29.184131,
        "tags": {
            "addr:city": "İstanbul",
            "addr:district": null,
            "description": "",
            "opening_hours": null,
            "phone": null,
            "branch": null,
            "amenity": "car_parts",
            "mobile": null,
            "addr:street": null,
            "cuisine": null,
            "name": "Nevpa",
            "name:en": null,
            "name:uk": null,
            "name:de": null,
            "name:tr": null,
            "name:ru": null,
            "name:ar": null
        }
    },
    {
        "lat": 41.0221929,
        "lon": 29.116807,
        "tags": {
            "addr:city": "İstanbul",
            "addr:district": null,
            "description": "",
            "opening_hours": null,
            "phone": null,
            "branch": null,
            "amenity": "car_parts",
            "mobile": null,
            "addr:street": null,
            "cuisine": null,
            "name": "Eng Mercedes",
            "name:en": null,
            "name:uk": null,
            "name:de": null,
            "name:tr": null,
            "name:ru": null,
            "name:ar": null
        }
    },
    {
        "lat": 41.022172,
        "lon": 29.116881,
        "tags": {
            "addr:city": "İstanbul",
            "addr:district": null,
            "description": "",
            "opening_hours": null,
            "phone": null,
            "branch": null,
            "amenity": "car_parts",
            "mobile": null,
            "addr:street": null,
            "cuisine": null,
            "name": "Oto Kenan Aksesuar",
            "name:en": null,
            "name:uk": null,
            "name:de": null,
            "name:tr": null,
            "name:ru": null,
            "name:ar": null
        }
    },
    {
        "lat": 40.9792575,
        "lon": 29.1079481,
        "tags": {
            "addr:city": "İstanbul",
            "addr:district": null,
            "description": "",
            "opening_hours": null,
            "phone": null,
            "branch": null,
            "amenity": "car_parts",
            "mobile": null,
            "addr:street": null,
            "cuisine": null,
            "name": "SGL Dizayn",
            "name:en": null,
            "name:uk": null,
            "name:de": null,
            "name:tr": null,
            "name:ru": null,
            "name:ar": null
        }
    },
    {
        "lat": 40.9625051,
        "lon": 29.1031953,
        "tags": {
            "addr:city": "İstanbul",
            "addr:district": null,
            "description": "",
            "opening_hours": null,
            "phone": null,
            "branch": null,
            "amenity": "car_parts",
            "mobile": null,
            "addr:street": null,
            "cuisine": null,
            "name": "Keskin Otomotiv",
            "name:en": null,
            "name:uk": null,
            "name:de": null,
            "name:tr": null,
            "name:ru": null,
            "name:ar": null
        }
    },
    {
        "lat": 40.9817019,
        "lon": 29.1214554,
        "tags": {
            "addr:city": "İstanbul",
            "addr:district": null,
            "description": "",
            "opening_hours": null,
            "phone": null,
            "branch": null,
            "amenity": "car_parts",
            "mobile": null,
            "addr:street": null,
            "cuisine": null,
            "name": "Emas Oto Lastiğim",
            "name:en": null,
            "name:uk": null,
            "name:de": null,
            "name:tr": null,
            "name:ru": null,
            "name:ar": null
        }
    },
    {
        "lat": 41.0183424,
        "lon": 28.9088449,
        "tags": {
            "addr:city": "Istanbul",
            "addr:district": "Zeytinburnu",
            "description": "+905559654836",
            "opening_hours": null,
            "phone": "+902124819030",
            "branch": null,
            "amenity": "car_parts",
            "mobile": null,
            "addr:street": "Yedikule Çırpıcı Yol Sokağı",
            "cuisine": null,
            "name": "TOPKAPI KAZANCI SEGMAN",
            "name:en": "KAZANCI SEGMAN",
            "name:uk": null,
            "name:de": null,
            "name:tr": null,
            "name:ru": null,
            "name:ar": null
        }
    },
    {
        "lat": 41.0954632,
        "lon": 29.0877285,
        "tags": {
            "addr:city": "Kavacık Mahallesi",
            "addr:district": "BEYKOZ",
            "description": "FREN EKİPMANLARI YEDEKPARÇA SATIŞ",
            "opening_hours": "Mo-Sa 08:00-18:00",
            "phone": "5537133926",
            "branch": null,
            "amenity": "car_parts",
            "mobile": null,
            "addr:street": "Öztürk Sokağı",
            "cuisine": null,
            "name": "GÜR BALATA OTOMOTİV",
            "name:en": null,
            "name:uk": null,
            "name:de": null,
            "name:tr": null,
            "name:ru": null,
            "name:ar": null
        }
    },
    {
        "lat": 41.0174697,
        "lon": 28.9096704,
        "tags": {
            "addr:city": "Istanbul",
            "addr:district": "Zeytinburnu",
            "description": "",
            "opening_hours": null,
            "phone": "+902124820501",
            "branch": null,
            "amenity": "car_parts",
            "mobile": null,
            "addr:street": "Topkapı Ticaret Merkeİ 1",
            "cuisine": null,
            "name": "Ayyıldız Otomotiv Sanayi ve Ticaret Anonim Şirketi",
            "name:en": null,
            "name:uk": null,
            "name:de": null,
            "name:tr": null,
            "name:ru": null,
            "name:ar": null
        }
    },
    {
        "lat": 40.9668301,
        "lon": 29.1065325,
        "tags": {
            "addr:city": "İstanbul",
            "addr:district": null,
            "description": "",
            "opening_hours": null,
            "phone": null,
            "branch": null,
            "amenity": "car_parts",
            "mobile": null,
            "addr:street": null,
            "cuisine": null,
            "name": "Bostancı Otomotiv",
            "name:en": null,
            "name:uk": null,
            "name:de": null,
            "name:tr": null,
            "name:ru": null,
            "name:ar": null
        }
    },
    {
        "lat": 40.9692179,
        "lon": 29.1088819,
        "tags": {
            "addr:city": "İstanbul",
            "addr:district": null,
            "description": "",
            "opening_hours": null,
            "phone": null,
            "branch": null,
            "amenity": "car_parts",
            "mobile": null,
            "addr:street": null,
            "cuisine": null,
            "name": "Dizel Servis",
            "name:en": null,
            "name:uk": null,
            "name:de": null,
            "name:tr": null,
            "name:ru": null,
            "name:ar": null
        }
    },
    {
        "lat": 40.9692896,
        "lon": 29.1090033,
        "tags": {
            "addr:city": "İstanbul",
            "addr:district": null,
            "description": "",
            "opening_hours": null,
            "phone": null,
            "branch": null,
            "amenity": "car_parts",
            "mobile": null,
            "addr:street": null,
            "cuisine": null,
            "name": "HSK Otomotiv",
            "name:en": null,
            "name:uk": null,
            "name:de": null,
            "name:tr": null,
            "name:ru": null,
            "name:ar": null
        }
    },
    {
        "lat": 40.9672419,
        "lon": 29.107274,
        "tags": {
            "addr:city": "İstanbul",
            "addr:district": null,
            "description": "",
            "opening_hours": null,
            "phone": null,
            "branch": null,
            "amenity": "car_parts",
            "mobile": null,
            "addr:street": null,
            "cuisine": null,
            "name": "Söğüt Oto Cam",
            "name:en": null,
            "name:uk": null,
            "name:de": null,
            "name:tr": null,
            "name:ru": null,
            "name:ar": null
        }
    },
    {
        "lat": 40.9695074,
        "lon": 29.111217,
        "tags": {
            "addr:city": "İstanbul",
            "addr:district": null,
            "description": "",
            "opening_hours": null,
            "phone": null,
            "branch": null,
            "amenity": "car_parts",
            "mobile": null,
            "addr:street": null,
            "cuisine": null,
            "name": "Sinyor Özay Oto Show",
            "name:en": null,
            "name:uk": null,
            "name:de": null,
            "name:tr": null,
            "name:ru": null,
            "name:ar": null
        }
    },
    {
        "lat": 41.0198552,
        "lon": 28.5644274,
        "tags": {
            "addr:city": "İstanbul",
            "addr:district": null,
            "description": "",
            "opening_hours": null,
            "phone": null,
            "branch": null,
            "amenity": "car_parts",
            "mobile": null,
            "addr:street": null,
            "cuisine": null,
            "name": "Life Tuning",
            "name:en": null,
            "name:uk": null,
            "name:de": null,
            "name:tr": null,
            "name:ru": null,
            "name:ar": null
        }
    },
    {
        "lat": 40.9814905,
        "lon": 29.112576,
        "tags": {
            "addr:city": "İstanbul",
            "addr:district": null,
            "description": "",
            "opening_hours": null,
            "phone": null,
            "branch": null,
            "amenity": "car_parts",
            "mobile": null,
            "addr:street": null,
            "cuisine": null,
            "name": "Home Garage",
            "name:en": null,
            "name:uk": null,
            "name:de": null,
            "name:tr": null,
            "name:ru": null,
            "name:ar": null
        }
    },
    {
        "lat": 41.0136001,
        "lon": 28.6939779,
        "tags": {
            "addr:city": "İstanbul",
            "addr:district": null,
            "description": "",
            "opening_hours": null,
            "phone": null,
            "branch": null,
            "amenity": "car_parts",
            "mobile": null,
            "addr:street": null,
            "cuisine": null,
            "name": "Serkan Akü Market",
            "name:en": null,
            "name:uk": null,
            "name:de": null,
            "name:tr": null,
            "name:ru": null,
            "name:ar": null
        }
    },
    {
        "lat": 41.0136503,
        "lon": 28.6938059,
        "tags": {
            "addr:city": "İstanbul",
            "addr:district": null,
            "description": "",
            "opening_hours": null,
            "phone": null,
            "branch": null,
            "amenity": "car_parts",
            "mobile": null,
            "addr:street": null,
            "cuisine": null,
            "name": "Car Tech",
            "name:en": null,
            "name:uk": null,
            "name:de": null,
            "name:tr": null,
            "name:ru": null,
            "name:ar": null
        }
    },
    {
        "lat": 40.9603488,
        "lon": 29.1018659,
        "tags": {
            "addr:city": "İstanbul",
            "addr:district": null,
            "description": "",
            "opening_hours": null,
            "phone": null,
            "branch": null,
            "amenity": "car_parts",
            "mobile": null,
            "addr:street": null,
            "cuisine": null,
            "name": "Ekşili Otomotiv",
            "name:en": null,
            "name:uk": null,
            "name:de": null,
            "name:tr": null,
            "name:ru": null,
            "name:ar": null
        }
    },
    {
        "lat": 40.9813599,
        "lon": 29.1114279,
        "tags": {
            "addr:city": "İstanbul",
            "addr:district": null,
            "description": "",
            "opening_hours": null,
            "phone": null,
            "branch": null,
            "amenity": "car_parts",
            "mobile": null,
            "addr:street": null,
            "cuisine": null,
            "name": "Kardeşler Oto",
            "name:en": null,
            "name:uk": null,
            "name:de": null,
            "name:tr": null,
            "name:ru": null,
            "name:ar": null
        }
    },
    {
        "lat": 41.0012735,
        "lon": 28.8567495,
        "tags": {
            "addr:city": "İstanbul",
            "addr:district": null,
            "description": "",
            "opening_hours": null,
            "phone": null,
            "branch": null,
            "amenity": "car_parts",
            "mobile": null,
            "addr:street": null,
            "cuisine": null,
            "name": "Şahin Oto",
            "name:en": null,
            "name:uk": null,
            "name:de": null,
            "name:tr": null,
            "name:ru": null,
            "name:ar": null
        }
    },
    {
        "lat": 41.0726246,
        "lon": 28.9412163,
        "tags": {
            "addr:city": "İstanbul",
            "addr:district": null,
            "description": "",
            "opening_hours": null,
            "phone": null,
            "branch": null,
            "amenity": "car_parts",
            "mobile": null,
            "addr:street": null,
            "cuisine": null,
            "name": "Classic Cars Oto Aksesuar",
            "name:en": null,
            "name:uk": null,
            "name:de": null,
            "name:tr": null,
            "name:ru": null,
            "name:ar": null
        }
    },
    {
        "lat": 41.0763325,
        "lon": 28.9392596,
        "tags": {
            "addr:city": "İstanbul",
            "addr:district": null,
            "description": "",
            "opening_hours": null,
            "phone": null,
            "branch": null,
            "amenity": "car_parts",
            "mobile": null,
            "addr:street": null,
            "cuisine": null,
            "name": "Güneş Otogaz LPG ve Araç Bakım Merkezi",
            "name:en": null,
            "name:uk": null,
            "name:de": null,
            "name:tr": null,
            "name:ru": null,
            "name:ar": null
        }
    },
    {
        "lat": 41.0762804,
        "lon": 28.9392067,
        "tags": {
            "addr:city": "İstanbul",
            "addr:district": null,
            "description": "",
            "opening_hours": null,
            "phone": null,
            "branch": null,
            "amenity": "car_parts",
            "mobile": null,
            "addr:street": null,
            "cuisine": null,
            "name": "İnci Akü",
            "name:en": null,
            "name:uk": null,
            "name:de": null,
            "name:tr": null,
            "name:ru": null,
            "name:ar": null
        }
    },
    {
        "lat": 41.0765881,
        "lon": 28.9379644,
        "tags": {
            "addr:city": "İstanbul",
            "addr:district": null,
            "description": "",
            "opening_hours": null,
            "phone": null,
            "branch": null,
            "amenity": "car_parts",
            "mobile": null,
            "addr:street": null,
            "cuisine": null,
            "name": "Etiketçi Güngör Oto",
            "name:en": null,
            "name:uk": null,
            "name:de": null,
            "name:tr": null,
            "name:ru": null,
            "name:ar": null
        }
    },
    {
        "lat": 41.0780369,
        "lon": 28.93426,
        "tags": {
            "addr:city": "İstanbul",
            "addr:district": null,
            "description": "",
            "opening_hours": null,
            "phone": null,
            "branch": null,
            "amenity": "car_parts",
            "mobile": null,
            "addr:street": null,
            "cuisine": null,
            "name": "Eras Oto Aksesuar İmalatı",
            "name:en": null,
            "name:uk": null,
            "name:de": null,
            "name:tr": null,
            "name:ru": null,
            "name:ar": null
        }
    },
    {
        "lat": 41.0222651,
        "lon": 29.1150634,
        "tags": {
            "addr:city": "İstanbul",
            "addr:district": null,
            "description": "",
            "opening_hours": null,
            "phone": null,
            "branch": null,
            "amenity": "car_parts",
            "mobile": null,
            "addr:street": null,
            "cuisine": null,
            "name": "Forsage Oto Servis Ekipmanları",
            "name:en": null,
            "name:uk": null,
            "name:de": null,
            "name:tr": null,
            "name:ru": null,
            "name:ar": null
        }
    },
    {
        "lat": 41.023066,
        "lon": 29.1123985,
        "tags": {
            "addr:city": "İstanbul",
            "addr:district": null,
            "description": "",
            "opening_hours": null,
            "phone": null,
            "branch": null,
            "amenity": "car_parts",
            "mobile": null,
            "addr:street": null,
            "cuisine": null,
            "name": "Atakan Tuning",
            "name:en": null,
            "name:uk": null,
            "name:de": null,
            "name:tr": null,
            "name:ru": null,
            "name:ar": null
        }
    },
    {
        "lat": 41.022007,
        "lon": 29.1159225,
        "tags": {
            "addr:city": "İstanbul",
            "addr:district": null,
            "description": "",
            "opening_hours": null,
            "phone": null,
            "branch": null,
            "amenity": "car_parts",
            "mobile": null,
            "addr:street": null,
            "cuisine": null,
            "name": "Söğüt Oto Cam",
            "name:en": null,
            "name:uk": null,
            "name:de": null,
            "name:tr": null,
            "name:ru": null,
            "name:ar": null
        }
    },
    {
        "lat": 41.0220269,
        "lon": 29.115852,
        "tags": {
            "addr:city": "İstanbul",
            "addr:district": null,
            "description": "",
            "opening_hours": null,
            "phone": null,
            "branch": null,
            "amenity": "car_parts",
            "mobile": null,
            "addr:street": null,
            "cuisine": null,
            "name": "GT Garage",
            "name:en": null,
            "name:uk": null,
            "name:de": null,
            "name:tr": null,
            "name:ru": null,
            "name:ar": null
        }
    },
    {
        "lat": 41.0233456,
        "lon": 29.1112257,
        "tags": {
            "addr:city": "İstanbul",
            "addr:district": null,
            "description": "",
            "opening_hours": null,
            "phone": null,
            "branch": null,
            "amenity": "car_parts",
            "mobile": null,
            "addr:street": null,
            "cuisine": null,
            "name": "Durlas",
            "name:en": null,
            "name:uk": null,
            "name:de": null,
            "name:tr": null,
            "name:ru": null,
            "name:ar": null
        }
    },
    {
        "lat": 41.02218,
        "lon": 29.115387,
        "tags": {
            "addr:city": "İstanbul",
            "addr:district": null,
            "description": "",
            "opening_hours": null,
            "phone": null,
            "branch": null,
            "amenity": "car_parts",
            "mobile": null,
            "addr:street": null,
            "cuisine": null,
            "name": "Stil Oto Dizayn",
            "name:en": null,
            "name:uk": null,
            "name:de": null,
            "name:tr": null,
            "name:ru": null,
            "name:ar": null
        }
    },
    {
        "lat": 41.0084765,
        "lon": 28.5372176,
        "tags": {
            "addr:city": "İstanbul",
            "addr:district": "Büyükçekmece",
            "description": "",
            "opening_hours": "Mo-Fr 10:00-17:00",
            "phone": "+902128636004",
            "branch": null,
            "amenity": "car_parts",
            "mobile": null,
            "addr:street": "Mustafa Kemal Bulvarı",
            "cuisine": null,
            "name": "Spare Parts Garage",
            "name:en": null,
            "name:uk": null,
            "name:de": null,
            "name:tr": null,
            "name:ru": null,
            "name:ar": null
        }
    },
    {
        "lat": 41.0823192,
        "lon": 28.6309518,
        "tags": {
            "addr:city": "İstanbul",
            "addr:district": null,
            "description": "",
            "opening_hours": null,
            "phone": null,
            "branch": null,
            "amenity": "car_parts",
            "mobile": "+90 532 592 89 57",
            "addr:street": null,
            "cuisine": null,
            "name": "Karadeniz Oto Şahin Yetkili Egsoz Gazı Ölçüm İstasyonu",
            "name:en": null,
            "name:uk": null,
            "name:de": null,
            "name:tr": null,
            "name:ru": null,
            "name:ar": null
        }
    },
    {
        "lat": 41.0773131,
        "lon": 28.636732,
        "tags": {
            "addr:city": "İstanbul",
            "addr:district": null,
            "description": "",
            "opening_hours": null,
            "phone": null,
            "branch": null,
            "amenity": "car_parts",
            "mobile": null,
            "addr:street": null,
            "cuisine": null,
            "name": "T.I.R. Market",
            "name:en": null,
            "name:uk": null,
            "name:de": null,
            "name:tr": null,
            "name:ru": null,
            "name:ar": null
        }
    },
    {
        "lat": 41.1505081,
        "lon": 28.4810163,
        "tags": {
            "addr:city": "İstanbul",
            "addr:district": null,
            "description": "",
            "opening_hours": null,
            "phone": null,
            "branch": null,
            "amenity": "car_parts",
            "mobile": null,
            "addr:street": null,
            "cuisine": null,
            "name": "Car Parts TR Otomotiv Yedek Parça",
            "name:en": null,
            "name:uk": null,
            "name:de": null,
            "name:tr": null,
            "name:ru": null,
            "name:ar": null
        }
    },
    {
        "lat": 41.0180845,
        "lon": 28.9083169,
        "tags": {
            "addr:city": "İstanbul",
            "addr:district": null,
            "description": "",
            "opening_hours": "Mo-Su 09:00-07:00",
            "phone": null,
            "branch": null,
            "amenity": "car_parts",
            "mobile": null,
            "addr:street": null,
            "cuisine": null,
            "name": "İsmail oto",
            "name:en": null,
            "name:uk": null,
            "name:de": null,
            "name:tr": null,
            "name:ru": null,
            "name:ar": null
        }
    },
    {
        "lat": 41.0779932,
        "lon": 28.2445268,
        "tags": {
            "addr:city": "İstanbul",
            "addr:district": null,
            "description": "",
            "opening_hours": null,
            "phone": null,
            "branch": null,
            "amenity": "car_parts",
            "mobile": null,
            "addr:street": null,
            "cuisine": null,
            "name": "Weber Saint Gobain",
            "name:en": null,
            "name:uk": null,
            "name:de": null,
            "name:tr": null,
            "name:ru": null,
            "name:ar": null
        }
    },
    {
        "lat": 40.9313365,
        "lon": 29.1350842,
        "tags": {
            "addr:city": "İstanbul",
            "addr:district": null,
            "description": "",
            "opening_hours": null,
            "phone": null,
            "branch": null,
            "amenity": "car_parts",
            "mobile": null,
            "addr:street": null,
            "cuisine": null,
            "name": "Tosunlar Oto & Aksesuar",
            "name:en": null,
            "name:uk": null,
            "name:de": null,
            "name:tr": null,
            "name:ru": null,
            "name:ar": null
        }
    }
]