[
    {
        "lat": 41.1011854,
        "lon": 28.8962288,
        "tags": {
            "addr:city": "İstanbul",
            "addr:district": null,
            "description": "",
            "opening_hours": null,
            "phone": null,
            "branch": null,
            "amenity": "carpet",
            "mobile": null,
            "addr:street": null,
            "cuisine": null,
            "name": null,
            "name:en": null,
            "name:uk": null,
            "name:de": null,
            "name:tr": null,
            "name:ru": null,
            "name:ar": null
        }
    },
    {
        "lat": 41.1015005,
        "lon": 28.8962907,
        "tags": {
            "addr:city": "İstanbul",
            "addr:district": null,
            "description": "",
            "opening_hours": null,
            "phone": null,
            "branch": null,
            "amenity": "carpet",
            "mobile": null,
            "addr:street": null,
            "cuisine": null,
            "name": null,
            "name:en": null,
            "name:uk": null,
            "name:de": null,
            "name:tr": null,
            "name:ru": null,
            "name:ar": null
        }
    },
    {
        "lat": 41.0159013,
        "lon": 29.1304132,
        "tags": {
            "addr:city": "İstanbul",
            "addr:district": null,
            "description": "",
            "opening_hours": null,
            "phone": null,
            "branch": null,
            "amenity": "carpet",
            "mobile": null,
            "addr:street": null,
            "cuisine": null,
            "name": "Yonca Halı",
            "name:en": null,
            "name:uk": null,
            "name:de": null,
            "name:tr": null,
            "name:ru": null,
            "name:ar": null
        }
    },
    {
        "lat": 41.0163222,
        "lon": 29.130122,
        "tags": {
            "addr:city": "İstanbul",
            "addr:district": null,
            "description": "",
            "opening_hours": null,
            "phone": null,
            "branch": null,
            "amenity": "carpet",
            "mobile": null,
            "addr:street": null,
            "cuisine": null,
            "name": "Merinos Halı",
            "name:en": null,
            "name:uk": null,
            "name:de": null,
            "name:tr": null,
            "name:ru": null,
            "name:ar": null
        }
    },
    {
        "lat": 41.016836,
        "lon": 29.1309863,
        "tags": {
            "addr:city": "İstanbul",
            "addr:district": null,
            "description": "",
            "opening_hours": null,
            "phone": null,
            "branch": null,
            "amenity": "carpet",
            "mobile": null,
            "addr:street": null,
            "cuisine": null,
            "name": "Bahariye Halı",
            "name:en": null,
            "name:uk": null,
            "name:de": null,
            "name:tr": null,
            "name:ru": null,
            "name:ar": null
        }
    },
    {
        "lat": 41.0719706,
        "lon": 28.8883837,
        "tags": {
            "addr:city": "İstanbul",
            "addr:district": null,
            "description": "",
            "opening_hours": null,
            "phone": null,
            "branch": null,
            "amenity": "carpet",
            "mobile": null,
            "addr:street": null,
            "cuisine": null,
            "name": "İpek Halı",
            "name:en": null,
            "name:uk": null,
            "name:de": null,
            "name:tr": null,
            "name:ru": null,
            "name:ar": null
        }
    },
    {
        "lat": 40.9228107,
        "lon": 29.1346397,
        "tags": {
            "addr:city": "İstanbul",
            "addr:district": null,
            "description": "",
            "opening_hours": null,
            "phone": null,
            "branch": null,
            "amenity": "carpet",
            "mobile": null,
            "addr:street": null,
            "cuisine": null,
            "name": "Yavuz Halı",
            "name:en": null,
            "name:uk": null,
            "name:de": null,
            "name:tr": null,
            "name:ru": null,
            "name:ar": null
        }
    },
    {
        "lat": 41.008056,
        "lon": 28.9764194,
        "tags": {
            "addr:city": "Istanbul",
            "addr:district": "Fatih",
            "description": "",
            "opening_hours": null,
            "phone": null,
            "branch": null,
            "amenity": "carpet",
            "mobile": null,
            "addr:street": "Divan Yolu Caddesi",
            "cuisine": null,
            "name": "Yurdan Carpet and Jewelery",
            "name:en": null,
            "name:uk": null,
            "name:de": null,
            "name:tr": null,
            "name:ru": null,
            "name:ar": null
        }
    },
    {
        "lat": 41.0085668,
        "lon": 28.9769548,
        "tags": {
            "addr:city": "Istanbul",
            "addr:district": "Fatih",
            "description": "",
            "opening_hours": null,
            "phone": null,
            "branch": null,
            "amenity": "carpet",
            "mobile": null,
            "addr:street": "Muhterem Efendi Sokak",
            "cuisine": null,
            "name": "Art House Carpet ve Kilims",
            "name:en": null,
            "name:uk": null,
            "name:de": null,
            "name:tr": null,
            "name:ru": null,
            "name:ar": null
        }
    },
    {
        "lat": 41.0096627,
        "lon": 28.9771874,
        "tags": {
            "addr:city": "Istanbul",
            "addr:district": "Fatih",
            "description": "",
            "opening_hours": null,
            "phone": null,
            "branch": null,
            "amenity": "carpet",
            "mobile": null,
            "addr:street": "Salkım Söğüt Sokak",
            "cuisine": null,
            "name": "Royal Carpet and Jewelry",
            "name:en": null,
            "name:uk": null,
            "name:de": null,
            "name:tr": null,
            "name:ru": null,
            "name:ar": null
        }
    },
    {
        "lat": 41.0092189,
        "lon": 28.9772568,
        "tags": {
            "addr:city": "Istanbul",
            "addr:district": "Fatih",
            "description": "",
            "opening_hours": null,
            "phone": "0212 514 43 79",
            "branch": null,
            "amenity": "carpet",
            "mobile": null,
            "addr:street": "Yerebatan Caddesi",
            "cuisine": null,
            "name": "Sedir Art Gallery",
            "name:en": null,
            "name:uk": null,
            "name:de": null,
            "name:tr": null,
            "name:ru": null,
            "name:ar": null
        }
    },
    {
        "lat": 41.0186934,
        "lon": 28.9582418,
        "tags": {
            "addr:city": "Istanbul",
            "addr:district": "Turkey",
            "description": "",
            "opening_hours": null,
            "phone": null,
            "branch": null,
            "amenity": "carpet",
            "mobile": null,
            "addr:street": "Atatürk bulvarı",
            "cuisine": null,
            "name": "şimşek halıcılık",
            "name:en": null,
            "name:uk": null,
            "name:de": null,
            "name:tr": null,
            "name:ru": null,
            "name:ar": "شيمشيك"
        }
    },
    {
        "lat": 41.0038551,
        "lon": 28.928107,
        "tags": {
            "addr:city": "Istanbul",
            "addr:district": "Fatih",
            "description": "",
            "opening_hours": null,
            "phone": null,
            "branch": null,
            "amenity": "carpet",
            "mobile": null,
            "addr:street": "Koca Mustafapaşa Caddesi",
            "cuisine": null,
            "name": "Isparta Halı",
            "name:en": null,
            "name:uk": null,
            "name:de": null,
            "name:tr": null,
            "name:ru": null,
            "name:ar": "سجاد اسبارتا"
        }
    },
    {
        "lat": 41.0051458,
        "lon": 28.9790086,
        "tags": {
            "addr:city": "Istanbul",
            "addr:district": "Turkey",
            "description": "",
            "opening_hours": null,
            "phone": null,
            "branch": null,
            "amenity": "carpet",
            "mobile": null,
            "addr:street": "Mimar mehmet ağa Caddesi",
            "cuisine": null,
            "name": "5k rug store",
            "name:en": null,
            "name:uk": null,
            "name:de": null,
            "name:tr": null,
            "name:ru": null,
            "name:ar": null
        }
    },
    {
        "lat": 41.0053462,
        "lon": 28.978672,
        "tags": {
            "addr:city": "Istanbul",
            "addr:district": "Turkey",
            "description": "",
            "opening_hours": null,
            "phone": null,
            "branch": null,
            "amenity": "carpet",
            "mobile": null,
            "addr:street": "Mimar mehmet ağa Caddesi",
            "cuisine": null,
            "name": "ONUR Rug store",
            "name:en": null,
            "name:uk": null,
            "name:de": null,
            "name:tr": null,
            "name:ru": null,
            "name:ar": null
        }
    },
    {
        "lat": 41.0093721,
        "lon": 28.9787713,
        "tags": {
            "addr:city": "Istanbul",
            "addr:district": "Turkey",
            "description": "",
            "opening_hours": null,
            "phone": null,
            "branch": null,
            "amenity": "carpet",
            "mobile": null,
            "addr:street": "Alemdar Caddesi",
            "cuisine": null,
            "name": "Kars Halıcılık",
            "name:en": null,
            "name:uk": null,
            "name:de": null,
            "name:tr": null,
            "name:ru": null,
            "name:ar": null
        }
    },
    {
        "lat": 41.0046621,
        "lon": 28.9798361,
        "tags": {
            "addr:city": "Istanbul",
            "addr:district": "Turkey",
            "description": "",
            "opening_hours": null,
            "phone": null,
            "branch": null,
            "amenity": "carpet",
            "mobile": null,
            "addr:street": "Mimar mehmet ağa Caddesi",
            "cuisine": null,
            "name": "Kirkıt rugs",
            "name:en": null,
            "name:uk": null,
            "name:de": null,
            "name:tr": null,
            "name:ru": null,
            "name:ar": "كيركيت سجاد"
        }
    },
    {
        "lat": 41.0132932,
        "lon": 28.9788195,
        "tags": {
            "addr:city": "Istanbul",
            "addr:district": "Turkey",
            "description": "",
            "opening_hours": null,
            "phone": null,
            "branch": null,
            "amenity": "carpet",
            "mobile": null,
            "addr:street": "Tayahatun sokak",
            "cuisine": null,
            "name": "Halıcı",
            "name:en": null,
            "name:uk": null,
            "name:de": null,
            "name:tr": null,
            "name:ru": null,
            "name:ar": null
        }
    },
    {
        "lat": 41.0064939,
        "lon": 28.9795116,
        "tags": {
            "addr:city": "Istanbul",
            "addr:district": "Fatih",
            "description": "",
            "opening_hours": null,
            "phone": null,
            "branch": null,
            "amenity": "carpet",
            "mobile": null,
            "addr:street": "Tevkifhane sokak",
            "cuisine": null,
            "name": "Green Rug Store",
            "name:en": null,
            "name:uk": null,
            "name:de": null,
            "name:tr": null,
            "name:ru": null,
            "name:ar": null
        }
    },
    {
        "lat": 41.0059029,
        "lon": 28.9792728,
        "tags": {
            "addr:city": "Istanbul",
            "addr:district": "Fatih",
            "description": "",
            "opening_hours": null,
            "phone": null,
            "branch": null,
            "amenity": "carpet",
            "mobile": null,
            "addr:street": "Utangaç Sokak",
            "cuisine": null,
            "name": "Gift store",
            "name:en": null,
            "name:uk": null,
            "name:de": null,
            "name:tr": null,
            "name:ru": null,
            "name:ar": null
        }
    },
    {
        "lat": 41.0057349,
        "lon": 28.9790154,
        "tags": {
            "addr:city": "Istanbul",
            "addr:district": "Fatih",
            "description": "",
            "opening_hours": null,
            "phone": null,
            "branch": null,
            "amenity": "carpet",
            "mobile": null,
            "addr:street": "Utangaç Sokak",
            "cuisine": null,
            "name": "Urartu carpets",
            "name:en": null,
            "name:uk": null,
            "name:de": null,
            "name:tr": null,
            "name:ru": null,
            "name:ar": null
        }
    },
    {
        "lat": 41.0058178,
        "lon": 28.9791508,
        "tags": {
            "addr:city": "Istanbul",
            "addr:district": "Fatih",
            "description": "",
            "opening_hours": null,
            "phone": null,
            "branch": null,
            "amenity": "carpet",
            "mobile": null,
            "addr:street": "Utangaç Sokak",
            "cuisine": null,
            "name": "Galata art",
            "name:en": null,
            "name:uk": null,
            "name:de": null,
            "name:tr": null,
            "name:ru": null,
            "name:ar": null
        }
    },
    {
        "lat": 41.0058644,
        "lon": 28.9798066,
        "tags": {
            "addr:city": "Istanbul",
            "addr:district": "Fatih",
            "description": "",
            "opening_hours": null,
            "phone": null,
            "branch": null,
            "amenity": "carpet",
            "mobile": null,
            "addr:street": "Kutlugun sokak",
            "cuisine": null,
            "name": "Aytek rug store",
            "name:en": null,
            "name:uk": null,
            "name:de": null,
            "name:tr": null,
            "name:ru": null,
            "name:ar": null
        }
    },
    {
        "lat": 41.0303375,
        "lon": 29.1725815,
        "tags": {
            "addr:city": "İstanbul",
            "addr:district": null,
            "description": "",
            "opening_hours": null,
            "phone": null,
            "branch": null,
            "amenity": "carpet",
            "mobile": null,
            "addr:street": null,
            "cuisine": null,
            "name": "Düet Halı",
            "name:en": null,
            "name:uk": null,
            "name:de": null,
            "name:tr": null,
            "name:ru": null,
            "name:ar": null
        }
    },
    {
        "lat": 40.9659343,
        "lon": 29.2705884,
        "tags": {
            "addr:city": "Istanbul",
            "addr:district": "Sultanbeyli",
            "description": "",
            "opening_hours": "Mo-Fr 07:00-13:30; Mo-Fr 17:00-20:00",
            "phone": null,
            "branch": null,
            "amenity": "carpet",
            "mobile": null,
            "addr:street": "Fatih bulvarı",
            "cuisine": null,
            "name": "Sultan Halı",
            "name:en": null,
            "name:uk": null,
            "name:de": null,
            "name:tr": null,
            "name:ru": null,
            "name:ar": "مفروشات سلطان هالي"
        }
    },
    {
        "lat": 40.9687713,
        "lon": 29.2616653,
        "tags": {
            "addr:city": "Istanbul",
            "addr:district": "Sultanbeyli",
            "description": "",
            "opening_hours": "Mo-Fr 07:00-13:30; Mo-Fr 17:00-20:00",
            "phone": "02163983390",
            "branch": null,
            "amenity": "carpet",
            "mobile": null,
            "addr:street": "faith bulvarı",
            "cuisine": null,
            "name": "Saray Halı",
            "name:en": null,
            "name:uk": null,
            "name:de": null,
            "name:tr": null,
            "name:ru": null,
            "name:ar": "محل سجاد ساراي هال"
        }
    },
    {
        "lat": 41.0299962,
        "lon": 28.9123625,
        "tags": {
            "addr:city": "Istanbul",
            "addr:district": "Zeytinburnu",
            "description": "",
            "opening_hours": "Mo-Fr 08:00-17:00; Mo-Sa 07:30-15:00",
            "phone": null,
            "branch": null,
            "amenity": "carpet",
            "mobile": null,
            "addr:street": "Gümüşsuyu Caddesi",
            "cuisine": null,
            "name": "Kaşmir Halı",
            "name:en": null,
            "name:uk": null,
            "name:de": null,
            "name:tr": null,
            "name:ru": null,
            "name:ar": "سجاد كشمير"
        }
    },
    {
        "lat": 41.0036704,
        "lon": 28.9035052,
        "tags": {
            "addr:city": "Istanbul",
            "addr:district": "Zeytinburnu",
            "description": "",
            "opening_hours": "Mo-Fr 09:00-17:00",
            "phone": null,
            "branch": null,
            "amenity": "carpet",
            "mobile": null,
            "addr:street": null,
            "cuisine": null,
            "name": "Angora Halı",
            "name:en": null,
            "name:uk": null,
            "name:de": null,
            "name:tr": null,
            "name:ru": null,
            "name:ar": "سجادات انجورا"
        }
    },
    {
        "lat": 40.99552,
        "lon": 28.9022553,
        "tags": {
            "addr:city": "Istanbul",
            "addr:district": "Zeytinburnu",
            "description": "",
            "opening_hours": null,
            "phone": null,
            "branch": null,
            "amenity": "carpet",
            "mobile": null,
            "addr:street": "75/3 sok.",
            "cuisine": null,
            "name": "Gençler halı",
            "name:en": null,
            "name:uk": null,
            "name:de": null,
            "name:tr": null,
            "name:ru": null,
            "name:ar": "سجاد كينتشلار"
        }
    },
    {
        "lat": 40.9932447,
        "lon": 28.8947994,
        "tags": {
            "addr:city": "Istanbul",
            "addr:district": "Zeytinburnu",
            "description": "",
            "opening_hours": null,
            "phone": null,
            "branch": null,
            "amenity": "carpet",
            "mobile": null,
            "addr:street": "Turan Güneş Caddesi",
            "cuisine": null,
            "name": "sanat halı",
            "name:en": null,
            "name:uk": null,
            "name:de": null,
            "name:tr": null,
            "name:ru": null,
            "name:ar": "سانات حال"
        }
    },
    {
        "lat": 41.0501258,
        "lon": 28.830455,
        "tags": {
            "addr:city": "Istanbul",
            "addr:district": "Bağcılar",
            "description": "",
            "opening_hours": null,
            "phone": null,
            "branch": null,
            "amenity": "carpet",
            "mobile": null,
            "addr:street": "İnönü caddesi",
            "cuisine": null,
            "name": "Dolce Vita Halı",
            "name:en": null,
            "name:uk": null,
            "name:de": null,
            "name:tr": null,
            "name:ru": null,
            "name:ar": "دولجا فيتا هالى"
        }
    },
    {
        "lat": 41.050189,
        "lon": 28.8300252,
        "tags": {
            "addr:city": "Istanbul",
            "addr:district": "Bağcılar",
            "description": "",
            "opening_hours": null,
            "phone": null,
            "branch": null,
            "amenity": "carpet",
            "mobile": null,
            "addr:street": "İnönü Caddesi",
            "cuisine": null,
            "name": "TUĞRA HALI",
            "name:en": null,
            "name:uk": null,
            "name:de": null,
            "name:tr": null,
            "name:ru": null,
            "name:ar": "توغرا"
        }
    },
    {
        "lat": 41.0623311,
        "lon": 28.854923,
        "tags": {
            "addr:city": "Istanbul",
            "addr:district": "Bağcılar",
            "description": "",
            "opening_hours": null,
            "phone": null,
            "branch": null,
            "amenity": "carpet",
            "mobile": null,
            "addr:street": "Barbaros caddesi",
            "cuisine": null,
            "name": "Merinos",
            "name:en": null,
            "name:uk": null,
            "name:de": null,
            "name:tr": null,
            "name:ru": null,
            "name:ar": "ميرينوس"
        }
    },
    {
        "lat": 41.0597366,
        "lon": 28.8547195,
        "tags": {
            "addr:city": "Istanbul",
            "addr:district": "Bağcılar",
            "description": "",
            "opening_hours": null,
            "phone": null,
            "branch": null,
            "amenity": "carpet",
            "mobile": null,
            "addr:street": "Barbaros caddesi",
            "cuisine": null,
            "name": "Kaşmir Halı",
            "name:en": null,
            "name:uk": null,
            "name:de": null,
            "name:tr": null,
            "name:ru": null,
            "name:ar": "كاشمير هالى"
        }
    },
    {
        "lat": 41.0472341,
        "lon": 28.8500496,
        "tags": {
            "addr:city": "Istanbul",
            "addr:district": "Zeytinburnu",
            "description": "",
            "opening_hours": null,
            "phone": null,
            "branch": null,
            "amenity": "carpet",
            "mobile": null,
            "addr:street": null,
            "cuisine": null,
            "name": "ROYAL HALI",
            "name:en": null,
            "name:uk": null,
            "name:de": null,
            "name:tr": null,
            "name:ru": null,
            "name:ar": "محل اثاث"
        }
    },
    {
        "lat": 41.0521702,
        "lon": 28.8302963,
        "tags": {
            "addr:city": "Istanbul",
            "addr:district": "Bağcılar",
            "description": "",
            "opening_hours": null,
            "phone": null,
            "branch": null,
            "amenity": "carpet",
            "mobile": null,
            "addr:street": "İnönü caddesi",
            "cuisine": null,
            "name": "Sanat Halı",
            "name:en": null,
            "name:uk": null,
            "name:de": null,
            "name:tr": null,
            "name:ru": null,
            "name:ar": "صنعت هالى"
        }
    },
    {
        "lat": 41.0337685,
        "lon": 28.8337755,
        "tags": {
            "addr:city": "Istanbul",
            "addr:district": "Bağcılar",
            "description": "",
            "opening_hours": null,
            "phone": null,
            "branch": null,
            "amenity": "carpet",
            "mobile": null,
            "addr:street": "Mahmutbey caddesi",
            "cuisine": null,
            "name": "Ahsen Halı",
            "name:en": null,
            "name:uk": null,
            "name:de": null,
            "name:tr": null,
            "name:ru": null,
            "name:ar": "سجاد احسن"
        }
    },
    {
        "lat": 41.0318826,
        "lon": 28.8457167,
        "tags": {
            "addr:city": "Istanbul",
            "addr:district": "Bağcılar",
            "description": "",
            "opening_hours": null,
            "phone": null,
            "branch": null,
            "amenity": "carpet",
            "mobile": null,
            "addr:street": "Hoca Ahmet Yesevi caddesi",
            "cuisine": null,
            "name": "ikra halı showroom",
            "name:en": null,
            "name:uk": null,
            "name:de": null,
            "name:tr": null,
            "name:ru": null,
            "name:ar": "ايكرا هالي شوروم"
        }
    },
    {
        "lat": 41.0456282,
        "lon": 28.8463881,
        "tags": {
            "addr:city": "Istanbul",
            "addr:district": "Bağcılar",
            "description": "",
            "opening_hours": null,
            "phone": null,
            "branch": null,
            "amenity": "carpet",
            "mobile": null,
            "addr:street": "Velioğlu caddesi",
            "cuisine": null,
            "name": "Festival Halı",
            "name:en": null,
            "name:uk": null,
            "name:de": null,
            "name:tr": null,
            "name:ru": null,
            "name:ar": "سجادات فيستيفال"
        }
    },
    {
        "lat": 41.0369199,
        "lon": 28.8343399,
        "tags": {
            "addr:city": "Istanbul",
            "addr:district": "Bağcılar",
            "description": "",
            "opening_hours": null,
            "phone": null,
            "branch": null,
            "amenity": "carpet",
            "mobile": null,
            "addr:street": "Mahmutbey caddesi",
            "cuisine": null,
            "name": "Halı",
            "name:en": null,
            "name:uk": null,
            "name:de": null,
            "name:tr": null,
            "name:ru": null,
            "name:ar": "سجاد"
        }
    },
    {
        "lat": 41.036244,
        "lon": 28.8338813,
        "tags": {
            "addr:city": "Istanbul",
            "addr:district": "Bağcılar",
            "description": "",
            "opening_hours": null,
            "phone": null,
            "branch": null,
            "amenity": "carpet",
            "mobile": null,
            "addr:street": "Mahmutbey Caddesi",
            "cuisine": null,
            "name": "Artemis Halı",
            "name:en": null,
            "name:uk": null,
            "name:de": null,
            "name:tr": null,
            "name:ru": null,
            "name:ar": "ارتميس هاله"
        }
    },
    {
        "lat": 41.0212201,
        "lon": 28.8580688,
        "tags": {
            "addr:city": "Istanbul",
            "addr:district": "Zeytinburnu",
            "description": "",
            "opening_hours": null,
            "phone": null,
            "branch": null,
            "amenity": "carpet",
            "mobile": null,
            "addr:street": null,
            "cuisine": null,
            "name": "Tuğra Halı",
            "name:en": null,
            "name:uk": null,
            "name:de": null,
            "name:tr": null,
            "name:ru": null,
            "name:ar": "محل مفروشات"
        }
    },
    {
        "lat": 41.0235399,
        "lon": 28.8574192,
        "tags": {
            "addr:city": "Istanbul",
            "addr:district": "Zeytinburnu",
            "description": "",
            "opening_hours": null,
            "phone": null,
            "branch": null,
            "amenity": "carpet",
            "mobile": null,
            "addr:street": null,
            "cuisine": null,
            "name": "CADDE HALI",
            "name:en": null,
            "name:uk": null,
            "name:de": null,
            "name:tr": null,
            "name:ru": null,
            "name:ar": "محل مفروشات"
        }
    },
    {
        "lat": 40.8650849,
        "lon": 29.3278316,
        "tags": {
            "addr:city": "İstanbul",
            "addr:district": null,
            "description": "",
            "opening_hours": null,
            "phone": null,
            "branch": null,
            "amenity": "carpet",
            "mobile": null,
            "addr:street": null,
            "cuisine": null,
            "name": "Kashmir Halı",
            "name:en": null,
            "name:uk": null,
            "name:de": null,
            "name:tr": null,
            "name:ru": null,
            "name:ar": null
        }
    },
    {
        "lat": 40.8693619,
        "lon": 29.3274082,
        "tags": {
            "addr:city": "İstanbul",
            "addr:district": null,
            "description": "",
            "opening_hours": null,
            "phone": null,
            "branch": null,
            "amenity": "carpet",
            "mobile": null,
            "addr:street": null,
            "cuisine": null,
            "name": null,
            "name:en": null,
            "name:uk": null,
            "name:de": null,
            "name:tr": null,
            "name:ru": null,
            "name:ar": null
        }
    },
    {
        "lat": 40.8782544,
        "lon": 29.2351003,
        "tags": {
            "addr:city": "İstanbul",
            "addr:district": null,
            "description": "",
            "opening_hours": null,
            "phone": null,
            "branch": null,
            "amenity": "carpet",
            "mobile": null,
            "addr:street": null,
            "cuisine": null,
            "name": "Tuğra Halı",
            "name:en": null,
            "name:uk": null,
            "name:de": null,
            "name:tr": null,
            "name:ru": null,
            "name:ar": null
        }
    },
    {
        "lat": 40.8784174,
        "lon": 29.2348918,
        "tags": {
            "addr:city": "İstanbul",
            "addr:district": null,
            "description": "",
            "opening_hours": null,
            "phone": null,
            "branch": null,
            "amenity": "carpet",
            "mobile": null,
            "addr:street": null,
            "cuisine": null,
            "name": "Cengiz Halı",
            "name:en": null,
            "name:uk": null,
            "name:de": null,
            "name:tr": null,
            "name:ru": null,
            "name:ar": null
        }
    },
    {
        "lat": 41.0459377,
        "lon": 28.8057581,
        "tags": {
            "addr:city": "İstanbul",
            "addr:district": null,
            "description": "",
            "opening_hours": null,
            "phone": null,
            "branch": null,
            "amenity": "carpet",
            "mobile": null,
            "addr:street": null,
            "cuisine": null,
            "name": "Angora Halı",
            "name:en": null,
            "name:uk": null,
            "name:de": null,
            "name:tr": null,
            "name:ru": null,
            "name:ar": null
        }
    },
    {
        "lat": 41.072522,
        "lon": 28.2736534,
        "tags": {
            "addr:city": "İstanbul",
            "addr:district": null,
            "description": "",
            "opening_hours": null,
            "phone": null,
            "branch": null,
            "amenity": "carpet",
            "mobile": null,
            "addr:street": null,
            "cuisine": null,
            "name": "Kilim Halı",
            "name:en": null,
            "name:uk": null,
            "name:de": null,
            "name:tr": null,
            "name:ru": null,
            "name:ar": null
        }
    },
    {
        "lat": 40.9174878,
        "lon": 29.195076,
        "tags": {
            "addr:city": "istanbul",
            "addr:district": null,
            "description": "",
            "opening_hours": null,
            "phone": null,
            "branch": null,
            "amenity": "carpet",
            "mobile": null,
            "addr:street": null,
            "cuisine": null,
            "name": "padişah halı",
            "name:en": null,
            "name:uk": null,
            "name:de": null,
            "name:tr": null,
            "name:ru": null,
            "name:ar": null
        }
    },
    {
        "lat": 40.9722203,
        "lon": 29.0828837,
        "tags": {
            "addr:city": "İstanbul",
            "addr:district": "Kadıköy",
            "description": "",
            "opening_hours": null,
            "phone": null,
            "branch": null,
            "amenity": "carpet",
            "mobile": null,
            "addr:street": "Şemsettin Günaltay Caddesi",
            "cuisine": null,
            "name": "Cihan Halı / Sanat Halı",
            "name:en": null,
            "name:uk": null,
            "name:de": null,
            "name:tr": null,
            "name:ru": null,
            "name:ar": null
        }
    },
    {
        "lat": 40.9797287,
        "lon": 29.1045696,
        "tags": {
            "addr:city": "İstanbul",
            "addr:district": null,
            "description": "",
            "opening_hours": null,
            "phone": null,
            "branch": null,
            "amenity": "carpet",
            "mobile": null,
            "addr:street": null,
            "cuisine": null,
            "name": "Meteset",
            "name:en": null,
            "name:uk": null,
            "name:de": null,
            "name:tr": null,
            "name:ru": null,
            "name:ar": null
        }
    },
    {
        "lat": 40.9902387,
        "lon": 28.8711132,
        "tags": {
            "addr:city": "İstanbul",
            "addr:district": null,
            "description": "",
            "opening_hours": null,
            "phone": null,
            "branch": null,
            "amenity": "carpet",
            "mobile": null,
            "addr:street": null,
            "cuisine": null,
            "name": "Alşay Halı",
            "name:en": null,
            "name:uk": null,
            "name:de": null,
            "name:tr": null,
            "name:ru": null,
            "name:ar": null
        }
    },
    {
        "lat": 40.9787874,
        "lon": 29.1159214,
        "tags": {
            "addr:city": "İstanbul",
            "addr:district": null,
            "description": "",
            "opening_hours": null,
            "phone": null,
            "branch": null,
            "amenity": "carpet",
            "mobile": null,
            "addr:street": null,
            "cuisine": null,
            "name": "Kirman Exclusive",
            "name:en": null,
            "name:uk": null,
            "name:de": null,
            "name:tr": null,
            "name:ru": null,
            "name:ar": null
        }
    },
    {
        "lat": 40.9810209,
        "lon": 29.0729523,
        "tags": {
            "addr:city": "İstanbul",
            "addr:district": null,
            "description": "",
            "opening_hours": null,
            "phone": null,
            "branch": null,
            "amenity": "carpet",
            "mobile": null,
            "addr:street": null,
            "cuisine": null,
            "name": "Darbaz",
            "name:en": null,
            "name:uk": null,
            "name:de": null,
            "name:tr": null,
            "name:ru": null,
            "name:ar": null
        }
    },
    {
        "lat": 41.020645,
        "lon": 29.1237888,
        "tags": {
            "addr:city": "İstanbul",
            "addr:district": null,
            "description": "",
            "opening_hours": null,
            "phone": null,
            "branch": null,
            "amenity": "carpet",
            "mobile": null,
            "addr:street": null,
            "cuisine": null,
            "name": "Yılmaz Halı",
            "name:en": null,
            "name:uk": null,
            "name:de": null,
            "name:tr": null,
            "name:ru": null,
            "name:ar": null
        }
    },
    {
        "lat": 40.9789093,
        "lon": 29.1183572,
        "tags": {
            "addr:city": "İstanbul",
            "addr:district": null,
            "description": "",
            "opening_hours": null,
            "phone": null,
            "branch": null,
            "amenity": "carpet",
            "mobile": null,
            "addr:street": null,
            "cuisine": null,
            "name": "Kayı Halı",
            "name:en": null,
            "name:uk": null,
            "name:de": null,
            "name:tr": null,
            "name:ru": null,
            "name:ar": null
        }
    },
    {
        "lat": 40.9707175,
        "lon": 29.0525607,
        "tags": {
            "addr:city": "İstanbul",
            "addr:district": null,
            "description": "",
            "opening_hours": null,
            "phone": null,
            "branch": null,
            "amenity": "carpet",
            "mobile": null,
            "addr:street": null,
            "cuisine": null,
            "name": "Şale Halı",
            "name:en": null,
            "name:uk": null,
            "name:de": null,
            "name:tr": null,
            "name:ru": null,
            "name:ar": null
        }
    },
    {
        "lat": 40.9740467,
        "lon": 29.0476062,
        "tags": {
            "addr:city": "İstanbul",
            "addr:district": null,
            "description": "",
            "opening_hours": null,
            "phone": null,
            "branch": null,
            "amenity": "carpet",
            "mobile": null,
            "addr:street": null,
            "cuisine": null,
            "name": "Dolcevita Halı",
            "name:en": null,
            "name:uk": null,
            "name:de": null,
            "name:tr": null,
            "name:ru": null,
            "name:ar": null
        }
    },
    {
        "lat": 40.9787827,
        "lon": 29.0781942,
        "tags": {
            "addr:city": "İstanbul",
            "addr:district": null,
            "description": "",
            "opening_hours": null,
            "phone": null,
            "branch": null,
            "amenity": "carpet",
            "mobile": null,
            "addr:street": null,
            "cuisine": null,
            "name": "Bağdat Halı",
            "name:en": null,
            "name:uk": null,
            "name:de": null,
            "name:tr": null,
            "name:ru": null,
            "name:ar": null
        }
    },
    {
        "lat": 41.0376139,
        "lon": 28.9087771,
        "tags": {
            "addr:city": "İstanbul",
            "addr:district": null,
            "description": "",
            "opening_hours": null,
            "phone": null,
            "branch": null,
            "amenity": "carpet",
            "mobile": null,
            "addr:street": null,
            "cuisine": null,
            "name": "Topçuoğlu Halı",
            "name:en": null,
            "name:uk": null,
            "name:de": null,
            "name:tr": null,
            "name:ru": null,
            "name:ar": null
        }
    },
    {
        "lat": 41.1823159,
        "lon": 28.7431164,
        "tags": {
            "addr:city": "İstanbul",
            "addr:district": null,
            "description": "",
            "opening_hours": null,
            "phone": null,
            "branch": null,
            "amenity": "carpet",
            "mobile": null,
            "addr:street": null,
            "cuisine": null,
            "name": "Kaşmir Halı",
            "name:en": null,
            "name:uk": null,
            "name:de": null,
            "name:tr": null,
            "name:ru": null,
            "name:ar": null
        }
    },
    {
        "lat": 41.0206364,
        "lon": 29.1239867,
        "tags": {
            "addr:city": "İstanbul",
            "addr:district": null,
            "description": "",
            "opening_hours": null,
            "phone": null,
            "branch": null,
            "amenity": "carpet",
            "mobile": null,
            "addr:street": null,
            "cuisine": null,
            "name": "Halı Outlet",
            "name:en": null,
            "name:uk": null,
            "name:de": null,
            "name:tr": null,
            "name:ru": null,
            "name:ar": null
        }
    },
    {
        "lat": 41.0498127,
        "lon": 28.8999307,
        "tags": {
            "addr:city": "İstanbul",
            "addr:district": null,
            "description": "",
            "opening_hours": null,
            "phone": null,
            "branch": null,
            "amenity": "carpet",
            "mobile": null,
            "addr:street": null,
            "cuisine": null,
            "name": "Sanat Halı",
            "name:en": null,
            "name:uk": null,
            "name:de": null,
            "name:tr": null,
            "name:ru": null,
            "name:ar": null
        }
    },
    {
        "lat": 41.0127926,
        "lon": 28.9785897,
        "tags": {
            "addr:city": "İstanbul",
            "addr:district": null,
            "description": "",
            "opening_hours": null,
            "phone": null,
            "branch": null,
            "amenity": "carpet",
            "mobile": null,
            "addr:street": null,
            "cuisine": null,
            "name": "Tuncer Home Textile",
            "name:en": null,
            "name:uk": null,
            "name:de": null,
            "name:tr": null,
            "name:ru": null,
            "name:ar": null
        }
    },
    {
        "lat": 41.0488573,
        "lon": 28.898447,
        "tags": {
            "addr:city": "İstanbul",
            "addr:district": null,
            "description": "",
            "opening_hours": null,
            "phone": null,
            "branch": null,
            "amenity": "carpet",
            "mobile": null,
            "addr:street": null,
            "cuisine": null,
            "name": "Topçuoğlu Halı",
            "name:en": null,
            "name:uk": null,
            "name:de": null,
            "name:tr": null,
            "name:ru": null,
            "name:ar": null
        }
    },
    {
        "lat": 41.049254,
        "lon": 28.896847,
        "tags": {
            "addr:city": "İstanbul",
            "addr:district": null,
            "description": "",
            "opening_hours": null,
            "phone": null,
            "branch": null,
            "amenity": "carpet",
            "mobile": null,
            "addr:street": null,
            "cuisine": null,
            "name": "Tolga Halı Yıkama",
            "name:en": null,
            "name:uk": null,
            "name:de": null,
            "name:tr": null,
            "name:ru": null,
            "name:ar": null
        }
    },
    {
        "lat": 41.0822656,
        "lon": 28.9143661,
        "tags": {
            "addr:city": "İstanbul",
            "addr:district": null,
            "description": "",
            "opening_hours": null,
            "phone": null,
            "branch": null,
            "amenity": "carpet",
            "mobile": null,
            "addr:street": null,
            "cuisine": null,
            "name": "Adıgüzel Halı",
            "name:en": null,
            "name:uk": null,
            "name:de": null,
            "name:tr": null,
            "name:ru": null,
            "name:ar": null
        }
    },
    {
        "lat": 41.0830086,
        "lon": 28.9130565,
        "tags": {
            "addr:city": "İstanbul",
            "addr:district": null,
            "description": "",
            "opening_hours": null,
            "phone": null,
            "branch": null,
            "amenity": "carpet",
            "mobile": null,
            "addr:street": null,
            "cuisine": null,
            "name": "MerinosEvim Hallaç Tül Perde ve Halı",
            "name:en": null,
            "name:uk": null,
            "name:de": null,
            "name:tr": null,
            "name:ru": null,
            "name:ar": null
        }
    },
    {
        "lat": 41.0840275,
        "lon": 28.9117113,
        "tags": {
            "addr:city": "İstanbul",
            "addr:district": null,
            "description": "",
            "opening_hours": null,
            "phone": null,
            "branch": null,
            "amenity": "carpet",
            "mobile": null,
            "addr:street": null,
            "cuisine": null,
            "name": "Merinos Corner",
            "name:en": null,
            "name:uk": null,
            "name:de": null,
            "name:tr": null,
            "name:ru": null,
            "name:ar": null
        }
    },
    {
        "lat": 41.0818061,
        "lon": 28.9186569,
        "tags": {
            "addr:city": "İstanbul",
            "addr:district": null,
            "description": "",
            "opening_hours": null,
            "phone": null,
            "branch": null,
            "amenity": "carpet",
            "mobile": null,
            "addr:street": null,
            "cuisine": null,
            "name": "Sultan Halı",
            "name:en": null,
            "name:uk": null,
            "name:de": null,
            "name:tr": null,
            "name:ru": null,
            "name:ar": null
        }
    },
    {
        "lat": 41.0769168,
        "lon": 28.9370495,
        "tags": {
            "addr:city": "İstanbul",
            "addr:district": null,
            "description": "",
            "opening_hours": null,
            "phone": null,
            "branch": null,
            "amenity": "carpet",
            "mobile": null,
            "addr:street": null,
            "cuisine": null,
            "name": "Hazine Halı",
            "name:en": null,
            "name:uk": null,
            "name:de": null,
            "name:tr": null,
            "name:ru": null,
            "name:ar": null
        }
    },
    {
        "lat": 41.0056048,
        "lon": 28.978434,
        "tags": {
            "addr:city": "İstanbul",
            "addr:district": null,
            "description": "",
            "opening_hours": null,
            "phone": null,
            "branch": null,
            "amenity": "carpet",
            "mobile": null,
            "addr:street": null,
            "cuisine": null,
            "name": null,
            "name:en": null,
            "name:uk": null,
            "name:de": null,
            "name:tr": null,
            "name:ru": null,
            "name:ar": null
        }
    },
    {
        "lat": 41.0739079,
        "lon": 29.0706347,
        "tags": {
            "addr:city": "İstanbul",
            "addr:district": null,
            "description": "",
            "opening_hours": null,
            "phone": null,
            "branch": null,
            "amenity": "carpet",
            "mobile": null,
            "addr:street": null,
            "cuisine": null,
            "name": "Tuğra-Hisar Halı",
            "name:en": null,
            "name:uk": null,
            "name:de": null,
            "name:tr": null,
            "name:ru": null,
            "name:ar": null
        }
    },
    {
        "lat": 40.9921102,
        "lon": 29.0333416,
        "tags": {
            "addr:city": "İstanbul",
            "addr:district": null,
            "description": "",
            "opening_hours": null,
            "phone": null,
            "branch": null,
            "amenity": "carpet",
            "mobile": null,
            "addr:street": null,
            "cuisine": null,
            "name": "Paspas Dünyası",
            "name:en": null,
            "name:uk": null,
            "name:de": null,
            "name:tr": null,
            "name:ru": null,
            "name:ar": null
        }
    },
    {
        "lat": 40.924121,
        "lon": 29.1361871,
        "tags": {
            "addr:city": "İstanbul",
            "addr:district": null,
            "description": "",
            "opening_hours": null,
            "phone": null,
            "branch": null,
            "amenity": "carpet",
            "mobile": null,
            "addr:street": null,
            "cuisine": null,
            "name": "Efsane Halı",
            "name:en": null,
            "name:uk": null,
            "name:de": null,
            "name:tr": null,
            "name:ru": null,
            "name:ar": null
        }
    },
    {
        "lat": 40.9936005,
        "lon": 28.671836,
        "tags": {
            "addr:city": "İstanbul",
            "addr:district": "Beylikdüzü",
            "description": "",
            "opening_hours": "Mo-Fr 09:00-18:00",
            "phone": "0212 854 20 09",
            "branch": null,
            "amenity": "carpet",
            "mobile": null,
            "addr:street": "104. Sokak",
            "cuisine": null,
            "name": "Esse Dizayn",
            "name:en": null,
            "name:uk": null,
            "name:de": null,
            "name:tr": null,
            "name:ru": null,
            "name:ar": null
        }
    },
    {
        "lat": 41.0647688,
        "lon": 28.788869,
        "tags": {
            "addr:city": "İstanbul",
            "addr:district": null,
            "description": "",
            "opening_hours": null,
            "phone": null,
            "branch": null,
            "amenity": "carpet",
            "mobile": null,
            "addr:street": null,
            "cuisine": null,
            "name": "Alex Halı",
            "name:en": null,
            "name:uk": null,
            "name:de": null,
            "name:tr": null,
            "name:ru": null,
            "name:ar": null
        }
    },
    {
        "lat": 41.0269694,
        "lon": 29.0910943,
        "tags": {
            "addr:city": "İstanbul",
            "addr:district": null,
            "description": "",
            "opening_hours": null,
            "phone": null,
            "branch": null,
            "amenity": "carpet",
            "mobile": null,
            "addr:street": null,
            "cuisine": null,
            "name": "Gümüşsuyu",
            "name:en": null,
            "name:uk": null,
            "name:de": null,
            "name:tr": "Gümüşsuyu",
            "name:ru": null,
            "name:ar": null
        }
    },
    {
        "lat": 41.0666446,
        "lon": 28.7911829,
        "tags": {
            "addr:city": "İstanbul",
            "addr:district": null,
            "description": "",
            "opening_hours": null,
            "phone": null,
            "branch": null,
            "amenity": "carpet",
            "mobile": null,
            "addr:street": null,
            "cuisine": null,
            "name": "Ata Halı Exclusive",
            "name:en": null,
            "name:uk": null,
            "name:de": null,
            "name:tr": null,
            "name:ru": null,
            "name:ar": null
        }
    },
    {
        "lat": 40.9789629,
        "lon": 29.0450336,
        "tags": {
            "addr:city": "İstanbul",
            "addr:district": "Kadıköy",
            "description": "",
            "opening_hours": null,
            "phone": null,
            "branch": null,
            "amenity": "carpet",
            "mobile": null,
            "addr:street": "Bağdat Caddesi",
            "cuisine": null,
            "name": "Borr Halı",
            "name:en": null,
            "name:uk": null,
            "name:de": null,
            "name:tr": null,
            "name:ru": null,
            "name:ar": null
        }
    }
]