[
    {
        "lat": 41.0085722,
        "lon": 28.9773648,
        "tags": {
            "addr:city": "Istanbul",
            "addr:district": "Fatih",
            "description": "",
            "opening_hours": null,
            "phone": null,
            "branch": null,
            "amenity": "carpet_store",
            "mobile": null,
            "addr:street": "Yerebatan Caddesi",
            "cuisine": null,
            "name": "El Rincon De Fehmi",
            "name:en": null,
            "name:uk": null,
            "name:de": null,
            "name:tr": null,
            "name:ru": null,
            "name:ar": null
        }
    },
    {
        "lat": 41.0090307,
        "lon": 28.9741277,
        "tags": {
            "addr:city": "Istanbul",
            "addr:district": "Fatih",
            "description": "",
            "opening_hours": null,
            "phone": null,
            "branch": null,
            "amenity": "carpet_store",
            "mobile": null,
            "addr:street": "Baş Musahip Sokak",
            "cuisine": null,
            "name": "El Dokuma Halı Tamiri",
            "name:en": null,
            "name:uk": null,
            "name:de": null,
            "name:tr": null,
            "name:ru": null,
            "name:ar": null
        }
    },
    {
        "lat": 41.0089713,
        "lon": 28.9737579,
        "tags": {
            "addr:city": "Istanbul",
            "addr:district": "Fatih",
            "description": "",
            "opening_hours": null,
            "phone": null,
            "branch": null,
            "amenity": "carpet_store",
            "mobile": null,
            "addr:street": "Bab-ı Ali Caddesi",
            "cuisine": null,
            "name": "Bab-i Ali",
            "name:en": null,
            "name:uk": null,
            "name:de": null,
            "name:tr": null,
            "name:ru": null,
            "name:ar": "بابي علي للسجاد"
        }
    },
    {
        "lat": 41.0096663,
        "lon": 28.9716578,
        "tags": {
            "addr:city": "Istanbul",
            "addr:district": "Fatih",
            "description": "",
            "opening_hours": null,
            "phone": null,
            "branch": null,
            "amenity": "carpet_store",
            "mobile": null,
            "addr:street": "Gazi Sinan Paşa Sokak",
            "cuisine": null,
            "name": "Punto Halı",
            "name:en": null,
            "name:uk": null,
            "name:de": null,
            "name:tr": null,
            "name:ru": null,
            "name:ar": "بونتو هالي"
        }
    },
    {
        "lat": 41.0096503,
        "lon": 28.9725523,
        "tags": {
            "addr:city": "Istanbul",
            "addr:district": "Fatih",
            "description": "",
            "opening_hours": null,
            "phone": null,
            "branch": null,
            "amenity": "carpet_store",
            "mobile": null,
            "addr:street": "Gazi Sinan Paşa Sokak",
            "cuisine": null,
            "name": "Vezirhan Carpet",
            "name:en": null,
            "name:uk": null,
            "name:de": null,
            "name:tr": null,
            "name:ru": null,
            "name:ar": "وزيرهان كاربيت"
        }
    }
]