[
    {
        "lat": 41.0728977,
        "lon": 28.8874765,
        "tags": {
            "addr:city": "İstanbul",
            "addr:district": null,
            "description": "",
            "opening_hours": null,
            "phone": null,
            "branch": null,
            "amenity": "cheese",
            "mobile": null,
            "addr:street": null,
            "cuisine": null,
            "name": "Yayla Peynirci",
            "name:en": null,
            "name:uk": null,
            "name:de": null,
            "name:tr": null,
            "name:ru": null,
            "name:ar": null
        }
    },
    {
        "lat": 41.009898,
        "lon": 29.2159439,
        "tags": {
            "addr:city": "İstanbul",
            "addr:district": null,
            "description": "",
            "opening_hours": null,
            "phone": null,
            "branch": null,
            "amenity": "cheese",
            "mobile": null,
            "addr:street": null,
            "cuisine": null,
            "name": "Uludağ peynircilik",
            "name:en": null,
            "name:uk": null,
            "name:de": null,
            "name:tr": null,
            "name:ru": null,
            "name:ar": null
        }
    },
    {
        "lat": 40.9594263,
        "lon": 29.0926288,
        "tags": {
            "addr:city": "İstanbul",
            "addr:district": null,
            "description": "",
            "opening_hours": null,
            "phone": null,
            "branch": null,
            "amenity": "cheese",
            "mobile": null,
            "addr:street": null,
            "cuisine": null,
            "name": "Gemlikli Turşu ve Kahvaltılık",
            "name:en": null,
            "name:uk": null,
            "name:de": null,
            "name:tr": null,
            "name:ru": null,
            "name:ar": null
        }
    },
    {
        "lat": 41.0718305,
        "lon": 28.8892645,
        "tags": {
            "addr:city": "İstanbul",
            "addr:district": null,
            "description": "",
            "opening_hours": null,
            "phone": null,
            "branch": null,
            "amenity": "cheese",
            "mobile": null,
            "addr:street": null,
            "cuisine": null,
            "name": "Göner Peynircilik",
            "name:en": null,
            "name:uk": null,
            "name:de": null,
            "name:tr": null,
            "name:ru": null,
            "name:ar": null
        }
    },
    {
        "lat": 41.0248843,
        "lon": 28.952411,
        "tags": {
            "addr:city": "Istanbul",
            "addr:district": "Fatih",
            "description": "",
            "opening_hours": null,
            "phone": null,
            "branch": null,
            "amenity": "cheese",
            "mobile": null,
            "addr:street": "Haliç Caddesi",
            "cuisine": null,
            "name": "İskenderoğlu Süt Ürünleri",
            "name:en": null,
            "name:uk": null,
            "name:de": null,
            "name:tr": null,
            "name:ru": null,
            "name:ar": "اسكندر اوغلو لمنتجات الحليب"
        }
    },
    {
        "lat": 41.0204456,
        "lon": 28.9307812,
        "tags": {
            "addr:city": "Istanbul",
            "addr:district": "Fatih",
            "description": "",
            "opening_hours": null,
            "phone": "(0212) 631 20 79",
            "branch": null,
            "amenity": "cheese",
            "mobile": null,
            "addr:street": "Bican Bağcıoğlu Yokuşu",
            "cuisine": null,
            "name": "Cemalim peynirci",
            "name:en": null,
            "name:uk": null,
            "name:de": null,
            "name:tr": null,
            "name:ru": null,
            "name:ar": "أجبان جيماليم"
        }
    },
    {
        "lat": 40.9017351,
        "lon": 29.1668574,
        "tags": {
            "addr:city": "İstanbul",
            "addr:district": null,
            "description": "",
            "opening_hours": null,
            "phone": null,
            "branch": null,
            "amenity": "cheese",
            "mobile": null,
            "addr:street": null,
            "cuisine": null,
            "name": "Peynirci Baba",
            "name:en": null,
            "name:uk": null,
            "name:de": null,
            "name:tr": null,
            "name:ru": null,
            "name:ar": null
        }
    },
    {
        "lat": 40.9609881,
        "lon": 29.0930736,
        "tags": {
            "addr:city": "İstanbul",
            "addr:district": "Kadıköy",
            "description": "",
            "opening_hours": null,
            "phone": null,
            "branch": null,
            "amenity": "cheese",
            "mobile": null,
            "addr:street": "Şemsettin Günaltay Caddesi",
            "cuisine": null,
            "name": "Himzik Zeytin",
            "name:en": null,
            "name:uk": null,
            "name:de": null,
            "name:tr": null,
            "name:ru": null,
            "name:ar": null
        }
    },
    {
        "lat": 40.9685292,
        "lon": 29.2550428,
        "tags": {
            "addr:city": "Istanbul",
            "addr:district": "Sultanbeyli",
            "description": "",
            "opening_hours": "Mo-Fr 07:00-13:30; Mo-Fr 17:00-20:00",
            "phone": null,
            "branch": null,
            "amenity": "cheese",
            "mobile": null,
            "addr:street": "Fatih Bulvarı Caddesi",
            "cuisine": null,
            "name": "Peynirin kalbi",
            "name:en": null,
            "name:uk": null,
            "name:de": null,
            "name:tr": null,
            "name:ru": null,
            "name:ar": "مركز بينيرين كالبي"
        }
    },
    {
        "lat": 40.9700341,
        "lon": 29.250206,
        "tags": {
            "addr:city": "Istanbul",
            "addr:district": "Sultanbeyli",
            "description": "",
            "opening_hours": "Mo-Fr 07:00-13:30; Mo-Fr 17:00-20:00",
            "phone": null,
            "branch": null,
            "amenity": "cheese",
            "mobile": null,
            "addr:street": "fatih bulvarı",
            "cuisine": null,
            "name": "Padişah peynircilik",
            "name:en": null,
            "name:uk": null,
            "name:de": null,
            "name:tr": null,
            "name:ru": null,
            "name:ar": "اجبان بادشاه( عسل & لوازم فطور)"
        }
    },
    {
        "lat": 40.9678788,
        "lon": 29.2631618,
        "tags": {
            "addr:city": "Istanbul",
            "addr:district": "Sultanbeyli",
            "description": "",
            "opening_hours": "Mo-Fr 07:00-13:30; Mo-Fr 17:00-20:00",
            "phone": "02164440074",
            "branch": null,
            "amenity": "cheese",
            "mobile": null,
            "addr:street": "Fatih Bulvarı Caddesi",
            "cuisine": null,
            "name": "Peynirin Kalbi",
            "name:en": null,
            "name:uk": null,
            "name:de": null,
            "name:tr": null,
            "name:ru": null,
            "name:ar": "ماركت بينير"
        }
    },
    {
        "lat": 40.9848729,
        "lon": 28.8955112,
        "tags": {
            "addr:city": "Istanbul",
            "addr:district": "Zeytinburnu",
            "description": "",
            "opening_hours": null,
            "phone": null,
            "branch": null,
            "amenity": "cheese",
            "mobile": null,
            "addr:street": "8/3. sokak",
            "cuisine": null,
            "name": "naturel peynircilik",
            "name:en": null,
            "name:uk": null,
            "name:de": null,
            "name:tr": null,
            "name:ru": null,
            "name:ar": "ناتورال بينيرجيليك"
        }
    },
    {
        "lat": 41.0496542,
        "lon": 28.8495178,
        "tags": {
            "addr:city": "Istanbul",
            "addr:district": "Zeytinburnu",
            "description": "",
            "opening_hours": null,
            "phone": null,
            "branch": null,
            "amenity": "cheese",
            "mobile": null,
            "addr:street": null,
            "cuisine": null,
            "name": "Peynirci",
            "name:en": null,
            "name:uk": null,
            "name:de": null,
            "name:tr": null,
            "name:ru": null,
            "name:ar": "بائع جبن"
        }
    },
    {
        "lat": 41.0550762,
        "lon": 28.8464491,
        "tags": {
            "addr:city": "Istanbul",
            "addr:district": "Bağcılar",
            "description": "",
            "opening_hours": null,
            "phone": null,
            "branch": null,
            "amenity": "cheese",
            "mobile": null,
            "addr:street": null,
            "cuisine": null,
            "name": "Eminoğlu peynercilik",
            "name:en": null,
            "name:uk": null,
            "name:de": null,
            "name:tr": null,
            "name:ru": null,
            "name:ar": "اجبان امين اوغلو"
        }
    },
    {
        "lat": 41.0518968,
        "lon": 28.8350871,
        "tags": {
            "addr:city": "Istanbul",
            "addr:district": "Bağcılar",
            "description": "",
            "opening_hours": null,
            "phone": null,
            "branch": null,
            "amenity": "cheese",
            "mobile": null,
            "addr:street": "Osmanoğlu caddesi",
            "cuisine": null,
            "name": "Karataşoğlu",
            "name:en": null,
            "name:uk": null,
            "name:de": null,
            "name:tr": null,
            "name:ru": null,
            "name:ar": "كاراتاش اوغلو"
        }
    },
    {
        "lat": 41.0536373,
        "lon": 28.8346428,
        "tags": {
            "addr:city": "Istanbul",
            "addr:district": "Bağcılar",
            "description": "",
            "opening_hours": null,
            "phone": null,
            "branch": null,
            "amenity": "cheese",
            "mobile": null,
            "addr:street": "Maslak caddesi",
            "cuisine": null,
            "name": "Cemalim Peynirci",
            "name:en": null,
            "name:uk": null,
            "name:de": null,
            "name:tr": null,
            "name:ru": null,
            "name:ar": "أجبان جيماليم"
        }
    },
    {
        "lat": 41.0276018,
        "lon": 28.830825,
        "tags": {
            "addr:city": "Istanbul",
            "addr:district": "Bağcılar",
            "description": "",
            "opening_hours": null,
            "phone": null,
            "branch": null,
            "amenity": "cheese",
            "mobile": null,
            "addr:street": "Menderes Caddesi",
            "cuisine": "turkish",
            "name": "Trakya Peynircilik",
            "name:en": null,
            "name:uk": null,
            "name:de": null,
            "name:tr": null,
            "name:ru": null,
            "name:ar": "تراكيا للمواد الغذائية"
        }
    },
    {
        "lat": 41.0455016,
        "lon": 28.8330431,
        "tags": {
            "addr:city": "Istanbul",
            "addr:district": "Bağcılar",
            "description": "",
            "opening_hours": null,
            "phone": null,
            "branch": null,
            "amenity": "cheese",
            "mobile": null,
            "addr:street": "Bağcılar Asf. Caddesi",
            "cuisine": null,
            "name": "Peynir Evi",
            "name:en": null,
            "name:uk": null,
            "name:de": null,
            "name:tr": null,
            "name:ru": null,
            "name:ar": "بينير ايفي"
        }
    },
    {
        "lat": 41.024136,
        "lon": 28.8559625,
        "tags": {
            "addr:city": "Istanbul",
            "addr:district": "Bağcılar",
            "description": "",
            "opening_hours": null,
            "phone": null,
            "branch": null,
            "amenity": "cheese",
            "mobile": null,
            "addr:street": "Hasan Hüseyin Aksoy Caddesi",
            "cuisine": "turkish",
            "name": "Bizim Peynircilik",
            "name:en": null,
            "name:uk": null,
            "name:de": null,
            "name:tr": null,
            "name:ru": null,
            "name:ar": "ألبان وأجبان بيزيم"
        }
    },
    {
        "lat": 40.8683778,
        "lon": 29.324864,
        "tags": {
            "addr:city": "İstanbul",
            "addr:district": null,
            "description": "",
            "opening_hours": null,
            "phone": null,
            "branch": null,
            "amenity": "cheese",
            "mobile": null,
            "addr:street": null,
            "cuisine": null,
            "name": "Peynirci Baba",
            "name:en": null,
            "name:uk": null,
            "name:de": null,
            "name:tr": null,
            "name:ru": null,
            "name:ar": null
        }
    },
    {
        "lat": 40.9195064,
        "lon": 29.2246895,
        "tags": {
            "addr:city": "İstanbul",
            "addr:district": null,
            "description": "",
            "opening_hours": null,
            "phone": null,
            "branch": null,
            "amenity": "cheese",
            "mobile": null,
            "addr:street": null,
            "cuisine": null,
            "name": "Kervan Peynircilik",
            "name:en": null,
            "name:uk": null,
            "name:de": null,
            "name:tr": null,
            "name:ru": null,
            "name:ar": null
        }
    },
    {
        "lat": 40.9712548,
        "lon": 29.1356753,
        "tags": {
            "addr:city": "İstanbul",
            "addr:district": null,
            "description": "",
            "opening_hours": null,
            "phone": null,
            "branch": null,
            "amenity": "cheese",
            "mobile": null,
            "addr:street": null,
            "cuisine": null,
            "name": "Baranyum Çiftliği Peynirci",
            "name:en": null,
            "name:uk": null,
            "name:de": null,
            "name:tr": null,
            "name:ru": null,
            "name:ar": null
        }
    },
    {
        "lat": 41.0039404,
        "lon": 29.0853771,
        "tags": {
            "addr:city": "istanbul",
            "addr:district": "ataşehir",
            "description": "",
            "opening_hours": null,
            "phone": null,
            "branch": null,
            "amenity": "cheese",
            "mobile": null,
            "addr:street": "ziyapaşa",
            "cuisine": null,
            "name": "saray peynircilik",
            "name:en": null,
            "name:uk": null,
            "name:de": null,
            "name:tr": null,
            "name:ru": null,
            "name:ar": null
        }
    },
    {
        "lat": 40.9714376,
        "lon": 29.1364034,
        "tags": {
            "addr:city": "İstanbul",
            "addr:district": null,
            "description": "",
            "opening_hours": null,
            "phone": null,
            "branch": null,
            "amenity": "cheese",
            "mobile": null,
            "addr:street": null,
            "cuisine": null,
            "name": "Peynirin Kalbi",
            "name:en": null,
            "name:uk": null,
            "name:de": null,
            "name:tr": null,
            "name:ru": null,
            "name:ar": null
        }
    },
    {
        "lat": 40.9940918,
        "lon": 29.036724,
        "tags": {
            "addr:city": "İstanbul",
            "addr:district": "Kadıköy",
            "description": "",
            "opening_hours": null,
            "phone": null,
            "branch": null,
            "amenity": "cheese",
            "mobile": null,
            "addr:street": "Kurbağalıdere Caddesi",
            "cuisine": null,
            "name": "İtimat Fabrika Satış Mağazası",
            "name:en": null,
            "name:uk": null,
            "name:de": null,
            "name:tr": null,
            "name:ru": null,
            "name:ar": null
        }
    },
    {
        "lat": 40.969472,
        "lon": 29.0658086,
        "tags": {
            "addr:city": "İstanbul",
            "addr:district": "Kadıköy",
            "description": "",
            "opening_hours": "Mo-Fr 10:00-18:00",
            "phone": null,
            "branch": null,
            "amenity": "cheese",
            "mobile": null,
            "addr:street": "Ömerpaşa Sokak",
            "cuisine": null,
            "name": "Yalı Çiftliği",
            "name:en": null,
            "name:uk": null,
            "name:de": null,
            "name:tr": "Yalı Çifliği",
            "name:ru": null,
            "name:ar": null
        }
    },
    {
        "lat": 40.9147831,
        "lon": 29.2842249,
        "tags": {
            "addr:city": "İstanbul",
            "addr:district": null,
            "description": "",
            "opening_hours": null,
            "phone": null,
            "branch": null,
            "amenity": "cheese",
            "mobile": null,
            "addr:street": null,
            "cuisine": null,
            "name": "Peynir Diyarı",
            "name:en": null,
            "name:uk": null,
            "name:de": null,
            "name:tr": null,
            "name:ru": null,
            "name:ar": null
        }
    },
    {
        "lat": 40.9159704,
        "lon": 29.2851534,
        "tags": {
            "addr:city": "İstanbul",
            "addr:district": null,
            "description": "",
            "opening_hours": null,
            "phone": null,
            "branch": null,
            "amenity": "cheese",
            "mobile": null,
            "addr:street": null,
            "cuisine": null,
            "name": "Peynirci Baba",
            "name:en": null,
            "name:uk": null,
            "name:de": null,
            "name:tr": null,
            "name:ru": null,
            "name:ar": null
        }
    },
    {
        "lat": 40.8682504,
        "lon": 29.3087054,
        "tags": {
            "addr:city": "İstanbul",
            "addr:district": null,
            "description": "",
            "opening_hours": null,
            "phone": null,
            "branch": null,
            "amenity": "cheese",
            "mobile": null,
            "addr:street": null,
            "cuisine": null,
            "name": "Yonat Peynircilik",
            "name:en": null,
            "name:uk": null,
            "name:de": null,
            "name:tr": null,
            "name:ru": null,
            "name:ar": null
        }
    },
    {
        "lat": 40.8679854,
        "lon": 29.3067942,
        "tags": {
            "addr:city": "İstanbul",
            "addr:district": null,
            "description": "",
            "opening_hours": null,
            "phone": null,
            "branch": null,
            "amenity": "cheese",
            "mobile": null,
            "addr:street": null,
            "cuisine": null,
            "name": "Elif Peynircilik",
            "name:en": null,
            "name:uk": null,
            "name:de": null,
            "name:tr": null,
            "name:ru": null,
            "name:ar": null
        }
    },
    {
        "lat": 40.9136646,
        "lon": 29.2991165,
        "tags": {
            "addr:city": "İstanbul",
            "addr:district": null,
            "description": "",
            "opening_hours": null,
            "phone": null,
            "branch": null,
            "amenity": "cheese",
            "mobile": null,
            "addr:street": null,
            "cuisine": null,
            "name": "Peynir Diyarı",
            "name:en": null,
            "name:uk": null,
            "name:de": null,
            "name:tr": null,
            "name:ru": null,
            "name:ar": null
        }
    },
    {
        "lat": 41.1373693,
        "lon": 29.0864411,
        "tags": {
            "addr:city": "İstanbul",
            "addr:district": null,
            "description": "",
            "opening_hours": null,
            "phone": null,
            "branch": null,
            "amenity": "cheese",
            "mobile": null,
            "addr:street": null,
            "cuisine": null,
            "name": "Yalıköy Peynircilik",
            "name:en": null,
            "name:uk": null,
            "name:de": null,
            "name:tr": null,
            "name:ru": null,
            "name:ar": null
        }
    },
    {
        "lat": 40.9713975,
        "lon": 29.1434998,
        "tags": {
            "addr:city": "İstanbul",
            "addr:district": null,
            "description": "",
            "opening_hours": null,
            "phone": null,
            "branch": null,
            "amenity": "cheese",
            "mobile": null,
            "addr:street": null,
            "cuisine": null,
            "name": null,
            "name:en": null,
            "name:uk": null,
            "name:de": null,
            "name:tr": null,
            "name:ru": null,
            "name:ar": null
        }
    },
    {
        "lat": 40.985387,
        "lon": 29.1827719,
        "tags": {
            "addr:city": "İstanbul",
            "addr:district": null,
            "description": "",
            "opening_hours": null,
            "phone": null,
            "branch": null,
            "amenity": "cheese",
            "mobile": null,
            "addr:street": null,
            "cuisine": null,
            "name": "Yayla Peynircilik",
            "name:en": null,
            "name:uk": null,
            "name:de": null,
            "name:tr": null,
            "name:ru": null,
            "name:ar": null
        }
    },
    {
        "lat": 40.9172449,
        "lon": 29.1952912,
        "tags": {
            "addr:city": "istanbul",
            "addr:district": null,
            "description": "",
            "opening_hours": null,
            "phone": null,
            "branch": null,
            "amenity": "cheese",
            "mobile": null,
            "addr:street": null,
            "cuisine": null,
            "name": "Kaya Çiftliği",
            "name:en": null,
            "name:uk": null,
            "name:de": null,
            "name:tr": null,
            "name:ru": null,
            "name:ar": null
        }
    },
    {
        "lat": 40.9861765,
        "lon": 29.023929,
        "tags": {
            "addr:city": "İstanbul",
            "addr:district": null,
            "description": "Şarküteri, taze süt ve diğer ürünler.",
            "opening_hours": null,
            "phone": "02163386693",
            "branch": null,
            "amenity": "cheese",
            "mobile": null,
            "addr:street": "Gürbüztürk Sokak",
            "cuisine": null,
            "name": "Şark Çiftliği",
            "name:en": null,
            "name:uk": null,
            "name:de": null,
            "name:tr": null,
            "name:ru": null,
            "name:ar": null
        }
    },
    {
        "lat": 40.817807,
        "lon": 29.3026235,
        "tags": {
            "addr:city": "İstanbul",
            "addr:district": null,
            "description": "",
            "opening_hours": null,
            "phone": null,
            "branch": null,
            "amenity": "cheese",
            "mobile": null,
            "addr:street": null,
            "cuisine": null,
            "name": "Peynirci Baba",
            "name:en": null,
            "name:uk": null,
            "name:de": null,
            "name:tr": null,
            "name:ru": null,
            "name:ar": null
        }
    },
    {
        "lat": 40.8180304,
        "lon": 29.3015705,
        "tags": {
            "addr:city": "İstanbul",
            "addr:district": null,
            "description": "",
            "opening_hours": null,
            "phone": null,
            "branch": null,
            "amenity": "cheese",
            "mobile": null,
            "addr:street": null,
            "cuisine": null,
            "name": "Gurme Peynirci Murat",
            "name:en": null,
            "name:uk": null,
            "name:de": null,
            "name:tr": null,
            "name:ru": null,
            "name:ar": null
        }
    },
    {
        "lat": 41.1345234,
        "lon": 29.092495,
        "tags": {
            "addr:city": "İstanbul",
            "addr:district": null,
            "description": "",
            "opening_hours": null,
            "phone": null,
            "branch": null,
            "amenity": "cheese",
            "mobile": null,
            "addr:street": null,
            "cuisine": null,
            "name": "Tarihi Onçeşmeler Peynircisi",
            "name:en": null,
            "name:uk": null,
            "name:de": null,
            "name:tr": null,
            "name:ru": null,
            "name:ar": null
        }
    },
    {
        "lat": 41.0517729,
        "lon": 28.9179337,
        "tags": {
            "addr:city": "İstanbul",
            "addr:district": "Eyüpsultan",
            "description": "",
            "opening_hours": null,
            "phone": null,
            "branch": null,
            "amenity": "cheese",
            "mobile": null,
            "addr:street": "Mazharbey Caddesi",
            "cuisine": null,
            "name": "Peynir Evi",
            "name:en": null,
            "name:uk": null,
            "name:de": null,
            "name:tr": null,
            "name:ru": null,
            "name:ar": null
        }
    },
    {
        "lat": 41.0051989,
        "lon": 29.1347458,
        "tags": {
            "addr:city": "İstanbul",
            "addr:district": null,
            "description": "",
            "opening_hours": null,
            "phone": null,
            "branch": null,
            "amenity": "cheese",
            "mobile": null,
            "addr:street": null,
            "cuisine": null,
            "name": "Can Peynircilik",
            "name:en": null,
            "name:uk": null,
            "name:de": null,
            "name:tr": null,
            "name:ru": null,
            "name:ar": null
        }
    },
    {
        "lat": 41.014144,
        "lon": 28.5986517,
        "tags": {
            "addr:city": "İstanbul",
            "addr:district": null,
            "description": "",
            "opening_hours": null,
            "phone": null,
            "branch": null,
            "amenity": "cheese",
            "mobile": null,
            "addr:street": null,
            "cuisine": null,
            "name": "Yaren Peynircilik",
            "name:en": null,
            "name:uk": null,
            "name:de": null,
            "name:tr": null,
            "name:ru": null,
            "name:ar": null
        }
    },
    {
        "lat": 40.9805261,
        "lon": 29.1124047,
        "tags": {
            "addr:city": "İstanbul",
            "addr:district": null,
            "description": "",
            "opening_hours": null,
            "phone": null,
            "branch": null,
            "amenity": "cheese",
            "mobile": null,
            "addr:street": null,
            "cuisine": null,
            "name": "Öz Yörem Peynircilik",
            "name:en": null,
            "name:uk": null,
            "name:de": null,
            "name:tr": null,
            "name:ru": null,
            "name:ar": null
        }
    },
    {
        "lat": 41.1160441,
        "lon": 28.9979951,
        "tags": {
            "addr:city": "İstanbul",
            "addr:district": null,
            "description": "",
            "opening_hours": null,
            "phone": null,
            "branch": null,
            "amenity": "cheese",
            "mobile": null,
            "addr:street": null,
            "cuisine": null,
            "name": "Peynirci Ömer",
            "name:en": null,
            "name:uk": null,
            "name:de": null,
            "name:tr": null,
            "name:ru": null,
            "name:ar": null
        }
    },
    {
        "lat": 40.982472,
        "lon": 29.0657054,
        "tags": {
            "addr:city": "İstanbul",
            "addr:district": null,
            "description": "",
            "opening_hours": null,
            "phone": null,
            "branch": null,
            "amenity": "cheese",
            "mobile": null,
            "addr:street": null,
            "cuisine": null,
            "name": "Muratbey",
            "name:en": null,
            "name:uk": null,
            "name:de": null,
            "name:tr": null,
            "name:ru": null,
            "name:ar": null
        }
    },
    {
        "lat": 41.0821579,
        "lon": 28.9151245,
        "tags": {
            "addr:city": "İstanbul",
            "addr:district": null,
            "description": "",
            "opening_hours": null,
            "phone": null,
            "branch": null,
            "amenity": "cheese",
            "mobile": null,
            "addr:street": null,
            "cuisine": null,
            "name": "Kaya Çiftliği",
            "name:en": null,
            "name:uk": null,
            "name:de": null,
            "name:tr": null,
            "name:ru": null,
            "name:ar": null
        }
    },
    {
        "lat": 41.0822878,
        "lon": 28.9146511,
        "tags": {
            "addr:city": "İstanbul",
            "addr:district": null,
            "description": "",
            "opening_hours": null,
            "phone": null,
            "branch": null,
            "amenity": "cheese",
            "mobile": null,
            "addr:street": null,
            "cuisine": null,
            "name": "Kardeşler Peynircilik",
            "name:en": null,
            "name:uk": null,
            "name:de": null,
            "name:tr": null,
            "name:ru": null,
            "name:ar": null
        }
    },
    {
        "lat": 40.8718557,
        "lon": 29.3268143,
        "tags": {
            "addr:city": "İstanbul",
            "addr:district": null,
            "description": "",
            "opening_hours": null,
            "phone": null,
            "branch": null,
            "amenity": "cheese",
            "mobile": null,
            "addr:street": null,
            "cuisine": null,
            "name": null,
            "name:en": null,
            "name:uk": null,
            "name:de": null,
            "name:tr": null,
            "name:ru": null,
            "name:ar": null
        }
    },
    {
        "lat": 41.0740603,
        "lon": 29.0704934,
        "tags": {
            "addr:city": "İstanbul",
            "addr:district": null,
            "description": "",
            "opening_hours": null,
            "phone": null,
            "branch": null,
            "amenity": "cheese",
            "mobile": null,
            "addr:street": null,
            "cuisine": null,
            "name": "Karataş Peynircilik",
            "name:en": null,
            "name:uk": null,
            "name:de": null,
            "name:tr": null,
            "name:ru": null,
            "name:ar": null
        }
    },
    {
        "lat": 41.0737326,
        "lon": 29.0708456,
        "tags": {
            "addr:city": "İstanbul",
            "addr:district": null,
            "description": "",
            "opening_hours": null,
            "phone": null,
            "branch": null,
            "amenity": "cheese",
            "mobile": null,
            "addr:street": null,
            "cuisine": null,
            "name": "Benim Peynirim",
            "name:en": null,
            "name:uk": null,
            "name:de": null,
            "name:tr": null,
            "name:ru": null,
            "name:ar": null
        }
    },
    {
        "lat": 41.0032012,
        "lon": 28.6953887,
        "tags": {
            "addr:city": "İstanbul",
            "addr:district": "Esenyurt",
            "description": "",
            "opening_hours": null,
            "phone": null,
            "branch": null,
            "amenity": "cheese",
            "mobile": null,
            "addr:street": "Tonguç Baba Caddesi",
            "cuisine": null,
            "name": "Elif Yufka Şarküteri",
            "name:en": null,
            "name:uk": null,
            "name:de": null,
            "name:tr": null,
            "name:ru": null,
            "name:ar": null
        }
    },
    {
        "lat": 41.0152106,
        "lon": 28.8963688,
        "tags": {
            "addr:city": "İstanbul",
            "addr:district": null,
            "description": "",
            "opening_hours": null,
            "phone": null,
            "branch": null,
            "amenity": "cheese",
            "mobile": null,
            "addr:street": null,
            "cuisine": null,
            "name": "Peynircioğlu Ezine Çiftliği",
            "name:en": null,
            "name:uk": null,
            "name:de": null,
            "name:tr": null,
            "name:ru": null,
            "name:ar": null
        }
    },
    {
        "lat": 41.0687051,
        "lon": 28.9029664,
        "tags": {
            "addr:city": "İstanbul",
            "addr:district": "Gaziosmanpaşa",
            "description": "",
            "opening_hours": "10:00-19:00",
            "phone": null,
            "branch": null,
            "amenity": "cheese",
            "mobile": "+90 538 853 25 15",
            "addr:street": "Cengiz Topel Caddesi",
            "cuisine": null,
            "name": "Altıntaş Peynircilik",
            "name:en": null,
            "name:uk": null,
            "name:de": null,
            "name:tr": null,
            "name:ru": null,
            "name:ar": null
        }
    },
    {
        "lat": 41.0563777,
        "lon": 28.8058849,
        "tags": {
            "addr:city": "İstanbul",
            "addr:district": null,
            "description": "",
            "opening_hours": null,
            "phone": null,
            "branch": null,
            "amenity": "cheese",
            "mobile": null,
            "addr:street": null,
            "cuisine": null,
            "name": "Görgü Peynircilik",
            "name:en": null,
            "name:uk": null,
            "name:de": null,
            "name:tr": null,
            "name:ru": null,
            "name:ar": null
        }
    },
    {
        "lat": 41.0588676,
        "lon": 28.8060806,
        "tags": {
            "addr:city": "İstanbul",
            "addr:district": null,
            "description": "",
            "opening_hours": null,
            "phone": null,
            "branch": null,
            "amenity": "cheese",
            "mobile": null,
            "addr:street": null,
            "cuisine": null,
            "name": "Görgü Peynircilik",
            "name:en": null,
            "name:uk": null,
            "name:de": null,
            "name:tr": null,
            "name:ru": null,
            "name:ar": null
        }
    },
    {
        "lat": 41.0741863,
        "lon": 28.2483952,
        "tags": {
            "addr:city": "İstanbul",
            "addr:district": null,
            "description": "",
            "opening_hours": null,
            "phone": null,
            "branch": null,
            "amenity": "cheese",
            "mobile": null,
            "addr:street": null,
            "cuisine": null,
            "name": "Kaya Çiftliği Peynirin Kalbi",
            "name:en": null,
            "name:uk": null,
            "name:de": null,
            "name:tr": null,
            "name:ru": null,
            "name:ar": null
        }
    },
    {
        "lat": 40.8755887,
        "lon": 29.2689283,
        "tags": {
            "addr:city": "İstanbul",
            "addr:district": null,
            "description": "",
            "opening_hours": null,
            "phone": null,
            "branch": null,
            "amenity": "cheese",
            "mobile": null,
            "addr:street": null,
            "cuisine": null,
            "name": "Peynirci Ünsal",
            "name:en": null,
            "name:uk": null,
            "name:de": null,
            "name:tr": null,
            "name:ru": null,
            "name:ar": null
        }
    }
]