[
    {
        "lat": 41.0885835,
        "lon": 28.0112853,
        "tags": {
            "addr:city": "İstanbul",
            "addr:district": null,
            "description": "",
            "opening_hours": null,
            "phone": null,
            "branch": null,
            "amenity": "chocolate",
            "mobile": null,
            "addr:street": null,
            "cuisine": null,
            "name": "Bind Chocolate",
            "name:en": null,
            "name:uk": null,
            "name:de": null,
            "name:tr": null,
            "name:ru": null,
            "name:ar": null
        }
    },
    {
        "lat": 41.0163095,
        "lon": 28.9703432,
        "tags": {
            "addr:city": "Istanbul",
            "addr:district": "Fatih",
            "description": "",
            "opening_hours": null,
            "phone": null,
            "branch": null,
            "amenity": "chocolate",
            "mobile": null,
            "addr:street": "Tahmis Sokak",
            "cuisine": null,
            "name": "Tarihi Gold Çikolata",
            "name:en": null,
            "name:uk": null,
            "name:de": null,
            "name:tr": null,
            "name:ru": null,
            "name:ar": "تاريخي غولد شوكولاتا"
        }
    },
    {
        "lat": 41.0185303,
        "lon": 28.9662889,
        "tags": {
            "addr:city": "Istanbul",
            "addr:district": "Fatih",
            "description": "",
            "opening_hours": null,
            "phone": null,
            "branch": null,
            "amenity": "chocolate",
            "mobile": null,
            "addr:street": "Ragıp Gümüşpala Caddesi",
            "cuisine": null,
            "name": "Şarkı Çikolata",
            "name:en": null,
            "name:uk": null,
            "name:de": null,
            "name:tr": null,
            "name:ru": null,
            "name:ar": null
        }
    },
    {
        "lat": 41.0180637,
        "lon": 28.9683226,
        "tags": {
            "addr:city": "Istanbul",
            "addr:district": "Fatih",
            "description": "",
            "opening_hours": null,
            "phone": null,
            "branch": null,
            "amenity": "chocolate",
            "mobile": null,
            "addr:street": "Ragıp Gümüşpala Caddesi",
            "cuisine": null,
            "name": "ŞARKI",
            "name:en": null,
            "name:uk": null,
            "name:de": null,
            "name:tr": null,
            "name:ru": null,
            "name:ar": null
        }
    },
    {
        "lat": 41.1060122,
        "lon": 28.8609307,
        "tags": {
            "addr:city": "İstanbul",
            "addr:district": null,
            "description": "",
            "opening_hours": null,
            "phone": null,
            "branch": null,
            "amenity": "chocolate",
            "mobile": null,
            "addr:street": null,
            "cuisine": null,
            "name": "Koska",
            "name:en": null,
            "name:uk": null,
            "name:de": null,
            "name:tr": null,
            "name:ru": null,
            "name:ar": null
        }
    },
    {
        "lat": 40.8758604,
        "lon": 29.2501165,
        "tags": {
            "addr:city": "İstanbul",
            "addr:district": "Pendik",
            "description": "",
            "opening_hours": null,
            "phone": null,
            "branch": null,
            "amenity": "chocolate",
            "mobile": null,
            "addr:street": "Aydınlıyolu Caddesi",
            "cuisine": null,
            "name": "Chocolade Boutique Pendik",
            "name:en": null,
            "name:uk": null,
            "name:de": null,
            "name:tr": null,
            "name:ru": null,
            "name:ar": null
        }
    },
    {
        "lat": 41.0309221,
        "lon": 28.830671,
        "tags": {
            "addr:city": "Istanbul",
            "addr:district": "Bağcılar",
            "description": "",
            "opening_hours": null,
            "phone": null,
            "branch": null,
            "amenity": "chocolate",
            "mobile": null,
            "addr:street": "Cumhuriyet Caddesi",
            "cuisine": null,
            "name": "Enjoy Chocolate Shop",
            "name:en": null,
            "name:uk": null,
            "name:de": null,
            "name:tr": null,
            "name:ru": null,
            "name:ar": "شوكولا إينجوي"
        }
    },
    {
        "lat": 41.014581,
        "lon": 28.9761152,
        "tags": {
            "addr:city": "İstanbul",
            "addr:district": null,
            "description": "",
            "opening_hours": null,
            "phone": null,
            "branch": null,
            "amenity": "chocolate",
            "mobile": null,
            "addr:street": null,
            "cuisine": null,
            "name": "Choco Corner",
            "name:en": null,
            "name:uk": null,
            "name:de": null,
            "name:tr": null,
            "name:ru": null,
            "name:ar": null
        }
    },
    {
        "lat": 41.0324542,
        "lon": 28.9762854,
        "tags": {
            "addr:city": "İstanbul",
            "addr:district": null,
            "description": "",
            "opening_hours": null,
            "phone": null,
            "branch": null,
            "amenity": "chocolate",
            "mobile": null,
            "addr:street": "İstiklal Caddesi",
            "cuisine": null,
            "name": "Bolçi",
            "name:en": null,
            "name:uk": null,
            "name:de": null,
            "name:tr": null,
            "name:ru": null,
            "name:ar": null
        }
    },
    {
        "lat": 41.0027813,
        "lon": 28.6425088,
        "tags": {
            "addr:city": "İstanbul",
            "addr:district": null,
            "description": "",
            "opening_hours": null,
            "phone": null,
            "branch": null,
            "amenity": "chocolate",
            "mobile": null,
            "addr:street": null,
            "cuisine": null,
            "name": "Çikolata İstasyonu",
            "name:en": null,
            "name:uk": null,
            "name:de": null,
            "name:tr": null,
            "name:ru": null,
            "name:ar": null
        }
    },
    {
        "lat": 41.035307,
        "lon": 28.981921,
        "tags": {
            "addr:city": "İstanbul",
            "addr:district": null,
            "description": "",
            "opening_hours": null,
            "phone": "+90 (212) 249 53 64",
            "branch": null,
            "amenity": "chocolate",
            "mobile": null,
            "addr:street": null,
            "cuisine": null,
            "name": "Beyoğlu Cikolatasi",
            "name:en": null,
            "name:uk": null,
            "name:de": null,
            "name:tr": null,
            "name:ru": null,
            "name:ar": null
        }
    },
    {
        "lat": 40.9843819,
        "lon": 29.0277116,
        "tags": {
            "addr:city": "İstanbul",
            "addr:district": "Kadıköy",
            "description": "",
            "opening_hours": null,
            "phone": null,
            "branch": null,
            "amenity": "chocolate",
            "mobile": null,
            "addr:street": "General Asım Gündüz Caddesi",
            "cuisine": null,
            "name": "Moda Çikolatacısı",
            "name:en": null,
            "name:uk": null,
            "name:de": null,
            "name:tr": null,
            "name:ru": null,
            "name:ar": null
        }
    },
    {
        "lat": 40.9715805,
        "lon": 29.0748499,
        "tags": {
            "addr:city": "İstanbul",
            "addr:district": "Kadıköy",
            "description": "",
            "opening_hours": "Mo-Sa 10:00 - 19:00",
            "phone": "+90 216 467 0099",
            "branch": null,
            "amenity": "chocolate",
            "mobile": null,
            "addr:street": "Ülke Sokağı",
            "cuisine": null,
            "name": "Harem Chocolate",
            "name:en": null,
            "name:uk": null,
            "name:de": null,
            "name:tr": null,
            "name:ru": null,
            "name:ar": null
        }
    },
    {
        "lat": 40.9750661,
        "lon": 29.075346,
        "tags": {
            "addr:city": "İstanbul",
            "addr:district": "Kadıköy",
            "description": "",
            "opening_hours": null,
            "phone": null,
            "branch": null,
            "amenity": "chocolate",
            "mobile": null,
            "addr:street": "Ethem Efendi Caddesi",
            "cuisine": null,
            "name": "Melodi Çikolata",
            "name:en": null,
            "name:uk": null,
            "name:de": null,
            "name:tr": null,
            "name:ru": null,
            "name:ar": null
        }
    },
    {
        "lat": 41.0250701,
        "lon": 29.0846183,
        "tags": {
            "addr:city": "İstanbul",
            "addr:district": null,
            "description": "",
            "opening_hours": null,
            "phone": null,
            "branch": null,
            "amenity": "chocolate",
            "mobile": null,
            "addr:street": null,
            "cuisine": null,
            "name": "Paşabahçe Çikolatacısı",
            "name:en": null,
            "name:uk": null,
            "name:de": null,
            "name:tr": null,
            "name:ru": null,
            "name:ar": null
        }
    },
    {
        "lat": 40.9581619,
        "lon": 29.0846464,
        "tags": {
            "addr:city": "İstanbul",
            "addr:district": "Kadıköy",
            "description": "",
            "opening_hours": null,
            "phone": null,
            "branch": null,
            "amenity": "cafe",
            "mobile": null,
            "addr:street": "Bağdat Caddesi",
            "cuisine": null,
            "name": "Sagra",
            "name:en": null,
            "name:uk": null,
            "name:de": null,
            "name:tr": null,
            "name:ru": null,
            "name:ar": null
        }
    },
    {
        "lat": 41.0074242,
        "lon": 28.9676961,
        "tags": {
            "addr:city": "İstanbul",
            "addr:district": null,
            "description": "",
            "opening_hours": "Mo-Sa 08:00-18:00",
            "phone": null,
            "branch": null,
            "amenity": "chocolate",
            "mobile": null,
            "addr:street": "Emin Sinan Hamamı Sokağı",
            "cuisine": null,
            "name": "Icemen Güner Ayakkabı",
            "name:en": "Icemen Güner Shoes",
            "name:uk": null,
            "name:de": null,
            "name:tr": null,
            "name:ru": null,
            "name:ar": null
        }
    },
    {
        "lat": 40.9764146,
        "lon": 29.0489811,
        "tags": {
            "addr:city": "İstanbul",
            "addr:district": null,
            "description": "",
            "opening_hours": null,
            "phone": null,
            "branch": null,
            "amenity": "chocolate",
            "mobile": null,
            "addr:street": null,
            "cuisine": null,
            "name": "Gold Çikolata",
            "name:en": null,
            "name:uk": null,
            "name:de": null,
            "name:tr": null,
            "name:ru": null,
            "name:ar": null
        }
    }
]