[
    {
        "lat": 41.0144528,
        "lon": 28.9276438,
        "tags": {
            "addr:city": "İstanbul",
            "addr:district": null,
            "description": "",
            "opening_hours": null,
            "phone": null,
            "branch": null,
            "amenity": "computer",
            "mobile": null,
            "addr:street": null,
            "cuisine": null,
            "name": "Bilgisayarcı",
            "name:en": null,
            "name:uk": null,
            "name:de": null,
            "name:tr": null,
            "name:ru": null,
            "name:ar": "بيلجيسيارجي"
        }
    },
    {
        "lat": 41.0218084,
        "lon": 29.1934524,
        "tags": {
            "addr:city": "İstanbul",
            "addr:district": null,
            "description": "",
            "opening_hours": null,
            "phone": null,
            "branch": null,
            "amenity": "computer",
            "mobile": null,
            "addr:street": null,
            "cuisine": null,
            "name": "InfoCenter Bilgisayar",
            "name:en": null,
            "name:uk": null,
            "name:de": null,
            "name:tr": null,
            "name:ru": null,
            "name:ar": null
        }
    },
    {
        "lat": 40.9455491,
        "lon": 29.1276415,
        "tags": {
            "addr:city": "Maltepe / İstanbul",
            "addr:district": null,
            "description": "",
            "opening_hours": null,
            "phone": "0216 417 62 10",
            "branch": null,
            "amenity": "computer",
            "mobile": null,
            "addr:street": "Sanayi Caddesi",
            "cuisine": null,
            "name": "Netcad - İstanbul Bölge Müdürlüğü",
            "name:en": null,
            "name:uk": null,
            "name:de": null,
            "name:tr": null,
            "name:ru": null,
            "name:ar": null
        }
    },
    {
        "lat": 41.0677913,
        "lon": 29.0015835,
        "tags": {
            "addr:city": "İstanbul",
            "addr:district": null,
            "description": "",
            "opening_hours": "Mo-Sa 09:00-19:00",
            "phone": null,
            "branch": null,
            "amenity": "computer",
            "mobile": null,
            "addr:street": "Altan Erbulak Sokak",
            "cuisine": null,
            "name": "Eksen Bilgisayar",
            "name:en": null,
            "name:uk": null,
            "name:de": null,
            "name:tr": null,
            "name:ru": null,
            "name:ar": null
        }
    },
    {
        "lat": 41.0641705,
        "lon": 28.9939585,
        "tags": {
            "addr:city": "İstanbul",
            "addr:district": null,
            "description": "",
            "opening_hours": null,
            "phone": null,
            "branch": null,
            "amenity": "computer",
            "mobile": null,
            "addr:street": null,
            "cuisine": null,
            "name": "SDD Bilgisayar",
            "name:en": null,
            "name:uk": null,
            "name:de": null,
            "name:tr": null,
            "name:ru": null,
            "name:ar": null
        }
    },
    {
        "lat": 41.0350774,
        "lon": 28.987947,
        "tags": {
            "addr:city": "İstanbul",
            "addr:district": null,
            "description": "",
            "opening_hours": null,
            "phone": null,
            "branch": null,
            "amenity": "computer",
            "mobile": null,
            "addr:street": null,
            "cuisine": null,
            "name": null,
            "name:en": null,
            "name:uk": null,
            "name:de": null,
            "name:tr": null,
            "name:ru": null,
            "name:ar": null
        }
    },
    {
        "lat": 41.0276308,
        "lon": 29.0804774,
        "tags": {
            "addr:city": "İstanbul",
            "addr:district": null,
            "description": "",
            "opening_hours": null,
            "phone": null,
            "branch": null,
            "amenity": "computer",
            "mobile": null,
            "addr:street": null,
            "cuisine": null,
            "name": "Sentra AŞ",
            "name:en": null,
            "name:uk": null,
            "name:de": null,
            "name:tr": null,
            "name:ru": null,
            "name:ar": null
        }
    },
    {
        "lat": 41.004929,
        "lon": 28.7930978,
        "tags": {
            "addr:city": "İstanbul",
            "addr:district": null,
            "description": "",
            "opening_hours": null,
            "phone": null,
            "branch": null,
            "amenity": "computer",
            "mobile": null,
            "addr:street": null,
            "cuisine": null,
            "name": "teknoloji teknik servis ve Bakım",
            "name:en": null,
            "name:uk": null,
            "name:de": null,
            "name:tr": null,
            "name:ru": null,
            "name:ar": null
        }
    },
    {
        "lat": 41.0154477,
        "lon": 28.9749281,
        "tags": {
            "addr:city": "İstanbul",
            "addr:district": null,
            "description": "",
            "opening_hours": "Mo-Sa 08:30-19:00",
            "phone": null,
            "branch": null,
            "amenity": "computer",
            "mobile": null,
            "addr:street": "Hamidiye Caddesi",
            "cuisine": null,
            "name": "Doğubank İş Hanı",
            "name:en": null,
            "name:uk": null,
            "name:de": null,
            "name:tr": null,
            "name:ru": null,
            "name:ar": null
        }
    },
    {
        "lat": 41.0140914,
        "lon": 29.1319321,
        "tags": {
            "addr:city": "İstanbul",
            "addr:district": null,
            "description": "",
            "opening_hours": null,
            "phone": null,
            "branch": null,
            "amenity": "computer",
            "mobile": null,
            "addr:street": null,
            "cuisine": null,
            "name": "Electroplus",
            "name:en": null,
            "name:uk": null,
            "name:de": null,
            "name:tr": null,
            "name:ru": null,
            "name:ar": null
        }
    },
    {
        "lat": 41.0722211,
        "lon": 28.8915028,
        "tags": {
            "addr:city": "İstanbul",
            "addr:district": null,
            "description": "",
            "opening_hours": null,
            "phone": null,
            "branch": null,
            "amenity": "computer",
            "mobile": null,
            "addr:street": null,
            "cuisine": null,
            "name": "Network",
            "name:en": null,
            "name:uk": null,
            "name:de": null,
            "name:tr": null,
            "name:ru": null,
            "name:ar": null
        }
    },
    {
        "lat": 41.0939063,
        "lon": 29.0892707,
        "tags": {
            "addr:city": "İstanbul",
            "addr:district": null,
            "description": "",
            "opening_hours": null,
            "phone": null,
            "branch": null,
            "amenity": "computer",
            "mobile": null,
            "addr:street": "Özkan Sokağı",
            "cuisine": null,
            "name": "QANS Bilişim",
            "name:en": null,
            "name:uk": null,
            "name:de": null,
            "name:tr": null,
            "name:ru": null,
            "name:ar": null
        }
    },
    {
        "lat": 40.9486466,
        "lon": 29.1164333,
        "tags": {
            "addr:city": "İstanbul",
            "addr:district": "Maltepe",
            "description": "Bilişim sektörüne 1999 yılında katılan HAN Bilgisayar ve Danışmanlık Hizmetleri, ikinci el IT ekipmanları alış ve satışı konusunda sektördeki en önemli oyun kuruculardan biridir.",
            "opening_hours": null,
            "phone": null,
            "branch": null,
            "amenity": "computer",
            "mobile": null,
            "addr:street": "Y.Tahsin bey sokak",
            "cuisine": null,
            "name": "HAN Bilgisayar ve Danışmanlık Hizmetleri",
            "name:en": null,
            "name:uk": null,
            "name:de": null,
            "name:tr": null,
            "name:ru": null,
            "name:ar": null
        }
    },
    {
        "lat": 41.014183,
        "lon": 29.0783197,
        "tags": {
            "addr:city": "İstanbul",
            "addr:district": null,
            "description": "",
            "opening_hours": "Mo-Fr 09:00-18:00",
            "phone": "+908508408340",
            "branch": null,
            "amenity": "computer",
            "mobile": null,
            "addr:street": "Çınarlı Sk.",
            "cuisine": null,
            "name": "Naature Teknoloji",
            "name:en": "Naature Tech",
            "name:uk": null,
            "name:de": null,
            "name:tr": null,
            "name:ru": null,
            "name:ar": null
        }
    },
    {
        "lat": 40.9986427,
        "lon": 28.9283218,
        "tags": {
            "addr:city": "Istanbul",
            "addr:district": "Fatih",
            "description": "",
            "opening_hours": null,
            "phone": null,
            "branch": null,
            "amenity": "computer",
            "mobile": null,
            "addr:street": "Merhaba caddesi",
            "cuisine": null,
            "name": "Garden internet cafe",
            "name:en": null,
            "name:uk": null,
            "name:de": null,
            "name:tr": null,
            "name:ru": null,
            "name:ar": "غاردن كافي نت"
        }
    },
    {
        "lat": 40.9956072,
        "lon": 28.9266696,
        "tags": {
            "addr:city": "Istanbul",
            "addr:district": "Fatih",
            "description": "",
            "opening_hours": null,
            "phone": null,
            "branch": null,
            "amenity": "computer",
            "mobile": null,
            "addr:street": "İmrahor ilyasbey caddesi",
            "cuisine": null,
            "name": "Nara internet cafe",
            "name:en": null,
            "name:uk": null,
            "name:de": null,
            "name:tr": null,
            "name:ru": null,
            "name:ar": "كافي نت نارا"
        }
    },
    {
        "lat": 41.0073457,
        "lon": 28.9515483,
        "tags": {
            "addr:city": "Istanbul",
            "addr:district": "Fatih",
            "description": "",
            "opening_hours": null,
            "phone": null,
            "branch": null,
            "amenity": "computer",
            "mobile": null,
            "addr:street": "Valide cami sokak",
            "cuisine": null,
            "name": "Marmaray internet cafe",
            "name:en": null,
            "name:uk": null,
            "name:de": null,
            "name:tr": null,
            "name:ru": null,
            "name:ar": "مرمراي كافي نت"
        }
    },
    {
        "lat": 41.0075266,
        "lon": 28.9495977,
        "tags": {
            "addr:city": "Istanbul",
            "addr:district": "Fatih",
            "description": "",
            "opening_hours": null,
            "phone": null,
            "branch": null,
            "amenity": "computer",
            "mobile": null,
            "addr:street": "Manastırlı rıfat sokağı",
            "cuisine": null,
            "name": "Internet cafe",
            "name:en": null,
            "name:uk": null,
            "name:de": null,
            "name:tr": null,
            "name:ru": null,
            "name:ar": "كافي نت"
        }
    },
    {
        "lat": 41.0077551,
        "lon": 28.9443274,
        "tags": {
            "addr:city": "Istanbul",
            "addr:district": "Fatih",
            "description": "",
            "opening_hours": null,
            "phone": null,
            "branch": null,
            "amenity": "computer",
            "mobile": null,
            "addr:street": "Cerrahpaşa caddesi",
            "cuisine": null,
            "name": "Erce Bilgisayar",
            "name:en": null,
            "name:uk": null,
            "name:de": null,
            "name:tr": null,
            "name:ru": null,
            "name:ar": "أرجي للكومبيوترات"
        }
    },
    {
        "lat": 41.0072633,
        "lon": 28.9427355,
        "tags": {
            "addr:city": "Istanbul",
            "addr:district": "Fatih",
            "description": "",
            "opening_hours": null,
            "phone": null,
            "branch": null,
            "amenity": "computer",
            "mobile": null,
            "addr:street": "Kocamustafapaşa caddesi",
            "cuisine": null,
            "name": "Rodi internet cafe",
            "name:en": null,
            "name:uk": null,
            "name:de": null,
            "name:tr": null,
            "name:ru": null,
            "name:ar": "رودي كافي نت"
        }
    },
    {
        "lat": 41.0185989,
        "lon": 28.9320876,
        "tags": {
            "addr:city": "Istanbul",
            "addr:district": "Fatih",
            "description": "",
            "opening_hours": null,
            "phone": "(0212) 521 88 48",
            "branch": null,
            "amenity": "computer",
            "mobile": null,
            "addr:street": "Tatlıpınar Caddesi",
            "cuisine": null,
            "name": "Tr Bilgisayar",
            "name:en": null,
            "name:uk": null,
            "name:de": null,
            "name:tr": null,
            "name:ru": null,
            "name:ar": "تي آر للحواسيب"
        }
    },
    {
        "lat": 41.0175189,
        "lon": 28.931316,
        "tags": {
            "addr:city": "Istanbul",
            "addr:district": "Fatih",
            "description": "",
            "opening_hours": null,
            "phone": null,
            "branch": null,
            "amenity": "computer",
            "mobile": null,
            "addr:street": "Kürkçü Bostanı Sokağı",
            "cuisine": null,
            "name": "URS bilgisayar",
            "name:en": null,
            "name:uk": null,
            "name:de": null,
            "name:tr": null,
            "name:ru": null,
            "name:ar": "يو آر اس للكمبيوترات"
        }
    },
    {
        "lat": 41.0167986,
        "lon": 28.9307095,
        "tags": {
            "addr:city": "Istanbul",
            "addr:district": "Fatih",
            "description": "",
            "opening_hours": null,
            "phone": null,
            "branch": null,
            "amenity": "computer",
            "mobile": null,
            "addr:street": "Turgut özal millet caddesi",
            "cuisine": null,
            "name": "İnternet cafe",
            "name:en": null,
            "name:uk": null,
            "name:de": null,
            "name:tr": null,
            "name:ru": null,
            "name:ar": "كافي نت"
        }
    },
    {
        "lat": 41.0224886,
        "lon": 28.942083,
        "tags": {
            "addr:city": "Istanbul",
            "addr:district": "Turkey",
            "description": "",
            "opening_hours": "mo-su 09:00-23:00",
            "phone": null,
            "branch": null,
            "amenity": "computer",
            "mobile": null,
            "addr:street": "Eski Ali Paşa Caddesi",
            "cuisine": null,
            "name": "MCE",
            "name:en": null,
            "name:uk": null,
            "name:de": null,
            "name:tr": null,
            "name:ru": null,
            "name:ar": "الهندسية للحواسيب والاتصالات"
        }
    },
    {
        "lat": 41.0219541,
        "lon": 28.9442271,
        "tags": {
            "addr:city": "Istanbul",
            "addr:district": "Turkey",
            "description": "",
            "opening_hours": "mo-sa 09:00-22:00",
            "phone": null,
            "branch": null,
            "amenity": "computer",
            "mobile": null,
            "addr:street": "Akşemsettin Caddesi",
            "cuisine": null,
            "name": "Casper store",
            "name:en": null,
            "name:uk": null,
            "name:de": null,
            "name:tr": null,
            "name:ru": null,
            "name:ar": "متجر كاسبر"
        }
    },
    {
        "lat": 41.0124687,
        "lon": 28.9331362,
        "tags": {
            "addr:city": "Istanbul",
            "addr:district": "Turkey",
            "description": "",
            "opening_hours": "Mo-sa 09:00-22:00",
            "phone": null,
            "branch": null,
            "amenity": "computer",
            "mobile": null,
            "addr:street": "Ahmet Vefik Paşa Caddesi",
            "cuisine": null,
            "name": "Bilişim Teknoloji",
            "name:en": null,
            "name:uk": null,
            "name:de": null,
            "name:tr": "Bilişim Teknoloji",
            "name:ru": null,
            "name:ar": "بيليشم للتكنولوجيا"
        }
    },
    {
        "lat": 41.0143125,
        "lon": 28.9276028,
        "tags": {
            "addr:city": "Istanbul",
            "addr:district": "Turkey",
            "description": "",
            "opening_hours": "mo-sa 09:00-21:00",
            "phone": null,
            "branch": null,
            "amenity": "computer",
            "mobile": null,
            "addr:street": "Küçük Saray Meydanı Caddesi",
            "cuisine": null,
            "name": "Maviş Bilgisayar",
            "name:en": null,
            "name:uk": null,
            "name:de": null,
            "name:tr": null,
            "name:ru": null,
            "name:ar": "مافيش للكمبيوتر"
        }
    },
    {
        "lat": 41.015373,
        "lon": 28.9273614,
        "tags": {
            "addr:city": "Istanbul",
            "addr:district": "Turkey",
            "description": "",
            "opening_hours": "mo-sa 09:00-23:00",
            "phone": null,
            "branch": null,
            "amenity": "computer",
            "mobile": null,
            "addr:street": "Arma Sokağı",
            "cuisine": null,
            "name": "Ecem Bilgisayar",
            "name:en": null,
            "name:uk": null,
            "name:de": null,
            "name:tr": null,
            "name:ru": null,
            "name:ar": "ايجام للحواسيب"
        }
    },
    {
        "lat": 41.0059124,
        "lon": 28.9255742,
        "tags": {
            "addr:city": "Istanbul",
            "addr:district": "Fatih",
            "description": "",
            "opening_hours": null,
            "phone": null,
            "branch": null,
            "amenity": "computer",
            "mobile": null,
            "addr:street": "Meşeli Mescit Sokak",
            "cuisine": null,
            "name": "Akademi Elektronik",
            "name:en": null,
            "name:uk": null,
            "name:de": null,
            "name:tr": null,
            "name:ru": null,
            "name:ar": "اكاديمي الكترونيك"
        }
    },
    {
        "lat": 41.0069409,
        "lon": 28.9274568,
        "tags": {
            "addr:city": "Istanbul",
            "addr:district": "Fatih",
            "description": "",
            "opening_hours": null,
            "phone": null,
            "branch": null,
            "amenity": "computer",
            "mobile": null,
            "addr:street": "Silivrikapı Caddesi",
            "cuisine": null,
            "name": "A Plus Digital",
            "name:en": null,
            "name:uk": null,
            "name:de": null,
            "name:tr": null,
            "name:ru": null,
            "name:ar": "آي بلاس ديجيتال"
        }
    },
    {
        "lat": 41.0041404,
        "lon": 28.9305754,
        "tags": {
            "addr:city": "Istanbul",
            "addr:district": "Fatih",
            "description": "",
            "opening_hours": null,
            "phone": null,
            "branch": null,
            "amenity": "computer",
            "mobile": null,
            "addr:street": "Turan Topal Sokak",
            "cuisine": null,
            "name": "ADM Bilgisayar",
            "name:en": null,
            "name:uk": null,
            "name:de": null,
            "name:tr": null,
            "name:ru": null,
            "name:ar": "اي دي مي بيلغيسيار"
        }
    },
    {
        "lat": 41.0079561,
        "lon": 28.9492327,
        "tags": {
            "addr:city": "Istanbul",
            "addr:district": "Fatih",
            "description": "",
            "opening_hours": null,
            "phone": "0536 400 60 04",
            "branch": null,
            "amenity": "computer",
            "mobile": null,
            "addr:street": "Abdullah Çavuş Sokağı",
            "cuisine": null,
            "name": "Hilton Internet Cafe",
            "name:en": null,
            "name:uk": null,
            "name:de": null,
            "name:tr": null,
            "name:ru": null,
            "name:ar": "كافي نت هيلتون"
        }
    },
    {
        "lat": 41.0091798,
        "lon": 28.9493049,
        "tags": {
            "addr:city": "Istanbul",
            "addr:district": "Fatih",
            "description": "",
            "opening_hours": null,
            "phone": null,
            "branch": null,
            "amenity": "computer",
            "mobile": null,
            "addr:street": "Sorguççu Sokağı",
            "cuisine": null,
            "name": "Olimpiyat internet cafe",
            "name:en": null,
            "name:uk": null,
            "name:de": null,
            "name:tr": null,
            "name:ru": null,
            "name:ar": "كافي نت أولمبياد"
        }
    },
    {
        "lat": 41.0089013,
        "lon": 28.9498735,
        "tags": {
            "addr:city": "Istanbul",
            "addr:district": "Fatih",
            "description": "",
            "opening_hours": null,
            "phone": "02125841120",
            "branch": null,
            "amenity": "computer",
            "mobile": null,
            "addr:street": "Çakırağa Cami Sokağı",
            "cuisine": null,
            "name": "Deha bilgisayar",
            "name:en": null,
            "name:uk": null,
            "name:de": null,
            "name:tr": null,
            "name:ru": null,
            "name:ar": "ديها للكومبيوترات"
        }
    },
    {
        "lat": 41.0083442,
        "lon": 28.9495559,
        "tags": {
            "addr:city": "Istanbul",
            "addr:district": "Fatih",
            "description": "",
            "opening_hours": null,
            "phone": "(0212) 586 72 86",
            "branch": null,
            "amenity": "computer",
            "mobile": null,
            "addr:street": "Abdüllatif Paşa Sokağı",
            "cuisine": null,
            "name": "Köşk internet cafe",
            "name:en": null,
            "name:uk": null,
            "name:de": null,
            "name:tr": null,
            "name:ru": null,
            "name:ar": "كوشك كافي نت"
        }
    },
    {
        "lat": 41.0087034,
        "lon": 28.9479963,
        "tags": {
            "addr:city": "Istanbul",
            "addr:district": "Fatih",
            "description": "",
            "opening_hours": null,
            "phone": null,
            "branch": null,
            "amenity": "computer",
            "mobile": null,
            "addr:street": "Katip Muslahaddin Sokağı",
            "cuisine": null,
            "name": "Sur internet cafe",
            "name:en": null,
            "name:uk": null,
            "name:de": null,
            "name:tr": null,
            "name:ru": null,
            "name:ar": "سور كافي نت"
        }
    },
    {
        "lat": 41.0128531,
        "lon": 28.9749813,
        "tags": {
            "addr:city": "Istanbul",
            "addr:district": "Fatih",
            "description": "",
            "opening_hours": "Mo-Sa 08:30-19:30",
            "phone": "0850 840 0212",
            "branch": null,
            "amenity": "computer",
            "mobile": null,
            "addr:street": "Cağaloğlu Yokuşu",
            "cuisine": null,
            "name": "ORYOX",
            "name:en": null,
            "name:uk": null,
            "name:de": null,
            "name:tr": null,
            "name:ru": null,
            "name:ar": null
        }
    },
    {
        "lat": 41.0104252,
        "lon": 28.9753429,
        "tags": {
            "addr:city": "Istanbul",
            "addr:district": "Fatih",
            "description": "",
            "opening_hours": null,
            "phone": null,
            "branch": null,
            "amenity": "computer",
            "mobile": null,
            "addr:street": "Prof. Kazım İsmail Gürkan Caddesi",
            "cuisine": null,
            "name": "ML Bilgisayar Yazılım Donanım ve Danışmanlık Hizmetleri",
            "name:en": null,
            "name:uk": null,
            "name:de": null,
            "name:tr": null,
            "name:ru": null,
            "name:ar": "مي لي لصيانة الحاسوب"
        }
    },
    {
        "lat": 41.0220946,
        "lon": 28.9489211,
        "tags": {
            "addr:city": "Istanbul",
            "addr:district": null,
            "description": "",
            "opening_hours": null,
            "phone": null,
            "branch": null,
            "amenity": "computer",
            "mobile": null,
            "addr:street": "Darüşşafaka caddesi",
            "cuisine": null,
            "name": "İnternet cafe",
            "name:en": null,
            "name:uk": null,
            "name:de": null,
            "name:tr": null,
            "name:ru": null,
            "name:ar": "انترنت كوفى"
        }
    },
    {
        "lat": 41.0212701,
        "lon": 28.946739,
        "tags": {
            "addr:city": "Istanbul",
            "addr:district": "Fatih",
            "description": "",
            "opening_hours": null,
            "phone": null,
            "branch": null,
            "amenity": "computer",
            "mobile": null,
            "addr:street": "yedi emirler sokak",
            "cuisine": null,
            "name": "Meb",
            "name:en": null,
            "name:uk": null,
            "name:de": null,
            "name:tr": null,
            "name:ru": null,
            "name:ar": "ميب"
        }
    },
    {
        "lat": 41.0259412,
        "lon": 28.939548,
        "tags": {
            "addr:city": "Istanbul",
            "addr:district": "Fatih",
            "description": "",
            "opening_hours": null,
            "phone": null,
            "branch": null,
            "amenity": "computer",
            "mobile": null,
            "addr:street": "Küçük değirmen sokak",
            "cuisine": null,
            "name": "İnternet cafe",
            "name:en": null,
            "name:uk": null,
            "name:de": null,
            "name:tr": null,
            "name:ru": null,
            "name:ar": "انترنت كافى"
        }
    },
    {
        "lat": 41.02597,
        "lon": 28.9384543,
        "tags": {
            "addr:city": "Istanbul",
            "addr:district": "Fatih",
            "description": "",
            "opening_hours": null,
            "phone": null,
            "branch": null,
            "amenity": "computer",
            "mobile": null,
            "addr:street": "Prof. naci şensoy caddesi",
            "cuisine": null,
            "name": "Kral interner kafe",
            "name:en": null,
            "name:uk": null,
            "name:de": null,
            "name:tr": null,
            "name:ru": null,
            "name:ar": "كرال انترنيت كافيه"
        }
    },
    {
        "lat": 41.0260997,
        "lon": 28.9401032,
        "tags": {
            "addr:city": "Istanbul",
            "addr:district": "Fatih",
            "description": "",
            "opening_hours": null,
            "phone": null,
            "branch": null,
            "amenity": "computer",
            "mobile": null,
            "addr:street": "Fevzi paşa Caddesi",
            "cuisine": null,
            "name": "Etkin bilgisayar",
            "name:en": null,
            "name:uk": null,
            "name:de": null,
            "name:tr": null,
            "name:ru": null,
            "name:ar": "اتكين حاسوب"
        }
    },
    {
        "lat": 41.0292433,
        "lon": 28.9390634,
        "tags": {
            "addr:city": "Istanbul",
            "addr:district": "Fatih",
            "description": "",
            "opening_hours": null,
            "phone": null,
            "branch": null,
            "amenity": "computer",
            "mobile": null,
            "addr:street": "Slama tomruk Caddesi",
            "cuisine": null,
            "name": "Bilgisayar tamiri",
            "name:en": null,
            "name:uk": null,
            "name:de": null,
            "name:tr": null,
            "name:ru": null,
            "name:ar": "مصلح حواسيب"
        }
    },
    {
        "lat": 41.0309731,
        "lon": 28.9378027,
        "tags": {
            "addr:city": "Istanbul",
            "addr:district": "Fatih",
            "description": "",
            "opening_hours": null,
            "phone": null,
            "branch": null,
            "amenity": "computer",
            "mobile": null,
            "addr:street": "Şeyh Eyüp Sokak",
            "cuisine": null,
            "name": "Veriform bilgisayar",
            "name:en": null,
            "name:uk": null,
            "name:de": null,
            "name:tr": null,
            "name:ru": null,
            "name:ar": "فيري فور حاسوب"
        }
    },
    {
        "lat": 41.000807,
        "lon": 28.929608,
        "tags": {
            "addr:city": "Istanbul",
            "addr:district": "Fatih",
            "description": "",
            "opening_hours": null,
            "phone": "05352485132",
            "branch": null,
            "amenity": "computer",
            "mobile": null,
            "addr:street": "Hacı Kadın Caddesi",
            "cuisine": null,
            "name": "A.R.M Bilgisayar",
            "name:en": null,
            "name:uk": null,
            "name:de": null,
            "name:tr": null,
            "name:ru": null,
            "name:ar": "حواسيب آ ر م"
        }
    },
    {
        "lat": 41.0038404,
        "lon": 28.931843,
        "tags": {
            "addr:city": "Istanbul",
            "addr:district": "Fatih",
            "description": "",
            "opening_hours": null,
            "phone": null,
            "branch": null,
            "amenity": "computer",
            "mobile": null,
            "addr:street": "Kocamustafapaşa Caddesi",
            "cuisine": null,
            "name": "Casper",
            "name:en": null,
            "name:uk": null,
            "name:de": null,
            "name:tr": null,
            "name:ru": null,
            "name:ar": "كاسبر للحواسيب"
        }
    },
    {
        "lat": 41.0068499,
        "lon": 28.9250926,
        "tags": {
            "addr:city": "Istanbul",
            "addr:district": "Fatih",
            "description": "",
            "opening_hours": null,
            "phone": "02126720047",
            "branch": null,
            "amenity": "computer",
            "mobile": null,
            "addr:street": "Silivrikapı Caddesi",
            "cuisine": null,
            "name": "Bilgisayar Market",
            "name:en": null,
            "name:uk": null,
            "name:de": null,
            "name:tr": null,
            "name:ru": null,
            "name:ar": "بقالية بيلغيسايار"
        }
    },
    {
        "lat": 41.0079355,
        "lon": 28.9368903,
        "tags": {
            "addr:city": "Istanbul",
            "addr:district": "Fatih",
            "description": "",
            "opening_hours": null,
            "phone": null,
            "branch": null,
            "amenity": "computer",
            "mobile": null,
            "addr:street": "Kızılelma Caddesi",
            "cuisine": null,
            "name": "Corner Bilgisayar",
            "name:en": null,
            "name:uk": null,
            "name:de": null,
            "name:tr": null,
            "name:ru": null,
            "name:ar": "جومر للكمبيوتر"
        }
    },
    {
        "lat": 41.0027439,
        "lon": 28.9319889,
        "tags": {
            "addr:city": "Istanbul",
            "addr:district": "Fatih",
            "description": "",
            "opening_hours": null,
            "phone": "02124934142",
            "branch": null,
            "amenity": "computer",
            "mobile": null,
            "addr:street": "Demirci Osman Sokak",
            "cuisine": null,
            "name": "Kayra Bilişim",
            "name:en": null,
            "name:uk": null,
            "name:de": null,
            "name:tr": null,
            "name:ru": null,
            "name:ar": "كايرا بيليشم لتصليح اللابتوبات"
        }
    },
    {
        "lat": 41.000952,
        "lon": 28.9314574,
        "tags": {
            "addr:city": "Istanbul",
            "addr:district": "Fatih",
            "description": "",
            "opening_hours": null,
            "phone": "02125890559",
            "branch": null,
            "amenity": "computer",
            "mobile": null,
            "addr:street": "Marmara Caddesi",
            "cuisine": null,
            "name": "Şen Bilgisayar ve Elektronik",
            "name:en": null,
            "name:uk": null,
            "name:de": null,
            "name:tr": null,
            "name:ru": null,
            "name:ar": "شان لكمبيوترات"
        }
    },
    {
        "lat": 41.0587761,
        "lon": 28.9861001,
        "tags": {
            "addr:city": "İstanbul",
            "addr:district": null,
            "description": "",
            "opening_hours": null,
            "phone": null,
            "branch": null,
            "amenity": "computer",
            "mobile": null,
            "addr:street": null,
            "cuisine": null,
            "name": null,
            "name:en": null,
            "name:uk": null,
            "name:de": null,
            "name:tr": null,
            "name:ru": null,
            "name:ar": null
        }
    },
    {
        "lat": 41.0270688,
        "lon": 28.9468302,
        "tags": {
            "addr:city": "Istanbul",
            "addr:district": "Turkey",
            "description": "",
            "opening_hours": null,
            "phone": null,
            "branch": null,
            "amenity": "computer",
            "mobile": null,
            "addr:street": "Manyasizade Caddesi",
            "cuisine": null,
            "name": "Şahintürk",
            "name:en": null,
            "name:uk": null,
            "name:de": null,
            "name:tr": null,
            "name:ru": null,
            "name:ar": "شاهين ترك"
        }
    },
    {
        "lat": 41.016872,
        "lon": 28.9685918,
        "tags": {
            "addr:city": "Istanbul",
            "addr:district": "Fatih",
            "description": "",
            "opening_hours": null,
            "phone": null,
            "branch": null,
            "amenity": "computer",
            "mobile": null,
            "addr:street": "Balkapanı Sokak",
            "cuisine": null,
            "name": "Vega Bilgisayar",
            "name:en": null,
            "name:uk": null,
            "name:de": null,
            "name:tr": null,
            "name:ru": null,
            "name:ar": "فيغا بلغيسايار"
        }
    },
    {
        "lat": 41.0168723,
        "lon": 28.9694125,
        "tags": {
            "addr:city": "Istanbul",
            "addr:district": "Fatih",
            "description": "",
            "opening_hours": null,
            "phone": null,
            "branch": null,
            "amenity": "computer",
            "mobile": null,
            "addr:street": "Cömert Türk Sokak",
            "cuisine": null,
            "name": "Oztas Ithalat",
            "name:en": null,
            "name:uk": null,
            "name:de": null,
            "name:tr": null,
            "name:ru": null,
            "name:ar": "اوزتاش اتهالات"
        }
    },
    {
        "lat": 41.0154866,
        "lon": 28.9677239,
        "tags": {
            "addr:city": "Istanbul",
            "addr:district": "Fatih",
            "description": "",
            "opening_hours": null,
            "phone": null,
            "branch": null,
            "amenity": "computer",
            "mobile": null,
            "addr:street": "Uzun Çarşı Caddesi",
            "cuisine": null,
            "name": "BOĞAZ Bilgisayar",
            "name:en": null,
            "name:uk": null,
            "name:de": null,
            "name:tr": null,
            "name:ru": null,
            "name:ar": null
        }
    },
    {
        "lat": 41.0157161,
        "lon": 28.9698792,
        "tags": {
            "addr:city": "Istanbul",
            "addr:district": "Fatih",
            "description": "",
            "opening_hours": null,
            "phone": null,
            "branch": null,
            "amenity": "computer",
            "mobile": null,
            "addr:street": "Sabuncu Hanı Sokak",
            "cuisine": null,
            "name": "Global Bilgisayar Ofis",
            "name:en": null,
            "name:uk": null,
            "name:de": null,
            "name:tr": null,
            "name:ru": null,
            "name:ar": null
        }
    },
    {
        "lat": 41.0105397,
        "lon": 28.9714113,
        "tags": {
            "addr:city": "Istanbul",
            "addr:district": "Fatih",
            "description": "",
            "opening_hours": null,
            "phone": null,
            "branch": null,
            "amenity": "computer",
            "mobile": null,
            "addr:street": "Şeref Efendi Sokak",
            "cuisine": null,
            "name": "Teknosis Bilişim ve Yazıcı Bakım Onarım Hizmetleri",
            "name:en": null,
            "name:uk": null,
            "name:de": null,
            "name:tr": null,
            "name:ru": null,
            "name:ar": "تيكنوسيس بيليشيم و يزيجي باكم أونارم هيزميتليري"
        }
    },
    {
        "lat": 41.0095272,
        "lon": 29.0992419,
        "tags": {
            "addr:city": "İstanbul",
            "addr:district": null,
            "description": "",
            "opening_hours": null,
            "phone": null,
            "branch": null,
            "amenity": "computer",
            "mobile": null,
            "addr:street": null,
            "cuisine": null,
            "name": "Pchome Bilgisayar",
            "name:en": null,
            "name:uk": null,
            "name:de": null,
            "name:tr": null,
            "name:ru": null,
            "name:ar": null
        }
    },
    {
        "lat": 40.9646453,
        "lon": 29.2675733,
        "tags": {
            "addr:city": "Istanbul",
            "addr:district": "Sultanbeyli",
            "description": "",
            "opening_hours": "Mo-Fr 07:00-13:30; Mo-Fr 17:00-20:00",
            "phone": null,
            "branch": null,
            "amenity": "computer",
            "mobile": null,
            "addr:street": "Gül caddesi",
            "cuisine": null,
            "name": "Toner büro makinalari teknik servisi",
            "name:en": null,
            "name:uk": null,
            "name:de": null,
            "name:tr": null,
            "name:ru": null,
            "name:ar": "طابعات واحبار تونير"
        }
    },
    {
        "lat": 40.9543232,
        "lon": 29.2649125,
        "tags": {
            "addr:city": "Istanbul",
            "addr:district": "Sultanbeyli",
            "description": "",
            "opening_hours": "Mo-Fr 07:00-13:30; Mo-Fr 17:00-20:00",
            "phone": "02164191298",
            "branch": null,
            "amenity": "computer",
            "mobile": null,
            "addr:street": "Kuran kursu caddesi",
            "cuisine": null,
            "name": "Selam elektronik",
            "name:en": null,
            "name:uk": null,
            "name:de": null,
            "name:tr": null,
            "name:ru": null,
            "name:ar": "اجهزة كومبيوتر سلام"
        }
    },
    {
        "lat": 40.9663709,
        "lon": 29.2655563,
        "tags": {
            "addr:city": "Istanbul",
            "addr:district": "Sultanbeyli",
            "description": "",
            "opening_hours": "Mo-Fr 07:00-13:30; Mo-Fr 17:00-20:00",
            "phone": "02163984476",
            "branch": null,
            "amenity": "computer",
            "mobile": null,
            "addr:street": "Şen caddesi",
            "cuisine": null,
            "name": "TKA Bilişm yazilim donanim ve bilgi işlem sistemleri",
            "name:en": null,
            "name:uk": null,
            "name:de": null,
            "name:tr": null,
            "name:ru": null,
            "name:ar": "تي كي اي صيانة اجهزة الكومبيوتر"
        }
    },
    {
        "lat": 40.9666809,
        "lon": 29.267859,
        "tags": {
            "addr:city": "Istanbul",
            "addr:district": "Sultanbeyli",
            "description": "",
            "opening_hours": "Mo-Fr 07:00-13:30; Mo-Fr 17:00-20:00",
            "phone": null,
            "branch": null,
            "amenity": "computer",
            "mobile": null,
            "addr:street": "Fatih bulvarı",
            "cuisine": null,
            "name": "NT",
            "name:en": null,
            "name:uk": null,
            "name:de": null,
            "name:tr": null,
            "name:ru": null,
            "name:ar": "اجهزة كومبيوتر ان تي"
        }
    },
    {
        "lat": 40.9645805,
        "lon": 29.267187,
        "tags": {
            "addr:city": "Istanbul",
            "addr:district": "Sultanbeyli",
            "description": "",
            "opening_hours": "Mo-Fr 07:00-13:30; Mo-Fr 17:00-20:00",
            "phone": "05356853160",
            "branch": null,
            "amenity": "computer",
            "mobile": null,
            "addr:street": "Miraç caddesi",
            "cuisine": null,
            "name": "Polat bilgisayar",
            "name:en": null,
            "name:uk": null,
            "name:de": null,
            "name:tr": null,
            "name:ru": null,
            "name:ar": "محل كومبيوتر بولات"
        }
    },
    {
        "lat": 40.9477285,
        "lon": 29.2995812,
        "tags": {
            "addr:city": "Istanbul",
            "addr:district": "Sultanbeyli",
            "description": "",
            "opening_hours": null,
            "phone": "05324620290",
            "branch": null,
            "amenity": "computer",
            "mobile": null,
            "addr:street": "Akşemsettin Caddesi",
            "cuisine": null,
            "name": "hailoğlu",
            "name:en": null,
            "name:uk": null,
            "name:de": null,
            "name:tr": null,
            "name:ru": null,
            "name:ar": "هليل لغلو"
        }
    },
    {
        "lat": 40.9815909,
        "lon": 29.2666125,
        "tags": {
            "addr:city": "Istanbul",
            "addr:district": "Sultanbeyli",
            "description": "",
            "opening_hours": "Mo-Fr 07:00-13:30; Mo-Fr 17:00-20:00",
            "phone": "02165921006",
            "branch": null,
            "amenity": "computer",
            "mobile": null,
            "addr:street": "kubbe Caddesi",
            "cuisine": null,
            "name": "Asya Bilgisayar",
            "name:en": null,
            "name:uk": null,
            "name:de": null,
            "name:tr": null,
            "name:ru": null,
            "name:ar": "إلكترونيات آسيا بيلغيسايار"
        }
    },
    {
        "lat": 40.9897859,
        "lon": 28.8698125,
        "tags": {
            "addr:city": "Bakırköy/İstanbul",
            "addr:district": "Bakırköy",
            "description": "Bilgisayar, Notebook Tamir Bakım, Format, Virüs Temizleme, Veri Kurtarma",
            "opening_hours": null,
            "phone": "+90 212 642 93 93",
            "branch": null,
            "amenity": "computer",
            "mobile": null,
            "addr:street": "Yavuzevler Mektep Sokak",
            "cuisine": null,
            "name": "Stil Bilgisayar",
            "name:en": null,
            "name:uk": null,
            "name:de": null,
            "name:tr": null,
            "name:ru": null,
            "name:ar": null
        }
    },
    {
        "lat": 40.9988553,
        "lon": 28.9026851,
        "tags": {
            "addr:city": "Istanbul",
            "addr:district": "Zeytinburnu",
            "description": "",
            "opening_hours": "Mo-Fr 09:00-17:00",
            "phone": null,
            "branch": null,
            "amenity": "computer",
            "mobile": null,
            "addr:street": null,
            "cuisine": null,
            "name": "Akyüz Bilgisayar",
            "name:en": null,
            "name:uk": null,
            "name:de": null,
            "name:tr": null,
            "name:ru": null,
            "name:ar": "اكيوز بلچيسايار"
        }
    },
    {
        "lat": 41.0034596,
        "lon": 28.9041453,
        "tags": {
            "addr:city": "Istanbul",
            "addr:district": "Zeytinburnu",
            "description": "",
            "opening_hours": "Mo-Sa 09:00-18:00",
            "phone": null,
            "branch": null,
            "amenity": "computer",
            "mobile": null,
            "addr:street": null,
            "cuisine": null,
            "name": "Flash Bilgisayar",
            "name:en": null,
            "name:uk": null,
            "name:de": null,
            "name:tr": null,
            "name:ru": null,
            "name:ar": "فلاش للكمبيوتر"
        }
    },
    {
        "lat": 41.0013987,
        "lon": 28.9014455,
        "tags": {
            "addr:city": "Istanbul",
            "addr:district": "Zeytinburnu",
            "description": "",
            "opening_hours": "Mo-Fr 09:00-17:00",
            "phone": null,
            "branch": null,
            "amenity": "computer",
            "mobile": null,
            "addr:street": null,
            "cuisine": null,
            "name": "Alarrab laptop mobile",
            "name:en": null,
            "name:uk": null,
            "name:de": null,
            "name:tr": null,
            "name:ru": null,
            "name:ar": "العراب لابتوب وموبايل"
        }
    },
    {
        "lat": 40.9988119,
        "lon": 28.9027184,
        "tags": {
            "addr:city": "Istanbul",
            "addr:district": "Zeytinburnu",
            "description": "",
            "opening_hours": null,
            "phone": null,
            "branch": null,
            "amenity": "computer",
            "mobile": null,
            "addr:street": "114. sokak",
            "cuisine": null,
            "name": "Akyüz bilgisayar",
            "name:en": null,
            "name:uk": null,
            "name:de": null,
            "name:tr": null,
            "name:ru": null,
            "name:ar": "مصلح حواسيب"
        }
    },
    {
        "lat": 40.9969694,
        "lon": 28.9034299,
        "tags": {
            "addr:city": "Istanbul",
            "addr:district": "Zeytinburnu",
            "description": "",
            "opening_hours": null,
            "phone": null,
            "branch": null,
            "amenity": "computer",
            "mobile": null,
            "addr:street": "Semiha şakir caddesi",
            "cuisine": null,
            "name": "Bilgisayar hastanesi",
            "name:en": null,
            "name:uk": null,
            "name:de": null,
            "name:tr": null,
            "name:ru": null,
            "name:ar": "طبيب الحاسوب"
        }
    },
    {
        "lat": 40.9940354,
        "lon": 28.9028211,
        "tags": {
            "addr:city": "Istanbul",
            "addr:district": "Zeytinburnu",
            "description": "",
            "opening_hours": "Mo-Su 09:00-18:00",
            "phone": null,
            "branch": null,
            "amenity": "computer",
            "mobile": null,
            "addr:street": null,
            "cuisine": null,
            "name": "Hindawi Computer Telephone Teknik Servis",
            "name:en": null,
            "name:uk": null,
            "name:de": null,
            "name:tr": null,
            "name:ru": null,
            "name:ar": "هنداوي صيانه كمبيوتر وموبايل"
        }
    },
    {
        "lat": 40.9871344,
        "lon": 28.8954903,
        "tags": {
            "addr:city": "Istanbul",
            "addr:district": "Zeytinburnu",
            "description": "",
            "opening_hours": null,
            "phone": null,
            "branch": null,
            "amenity": "computer",
            "mobile": null,
            "addr:street": "Şht. Er Yavuz Bahar Sokak",
            "cuisine": null,
            "name": "casper",
            "name:en": null,
            "name:uk": null,
            "name:de": null,
            "name:tr": null,
            "name:ru": null,
            "name:ar": "كاسبر"
        }
    },
    {
        "lat": 40.985405,
        "lon": 28.8955112,
        "tags": {
            "addr:city": "Istanbul",
            "addr:district": "Zeytinburnu",
            "description": "",
            "opening_hours": null,
            "phone": null,
            "branch": null,
            "amenity": "computer",
            "mobile": null,
            "addr:street": "8/3. sokak",
            "cuisine": null,
            "name": "servis bilgisayar",
            "name:en": null,
            "name:uk": null,
            "name:de": null,
            "name:tr": null,
            "name:ru": null,
            "name:ar": "سيرفيس بلغيسليار"
        }
    },
    {
        "lat": 40.9920207,
        "lon": 28.9031135,
        "tags": {
            "addr:city": "Istanbul",
            "addr:district": "Zeytinburnu",
            "description": "",
            "opening_hours": "Mo-Su 09:00-18:00",
            "phone": null,
            "branch": null,
            "amenity": "computer",
            "mobile": null,
            "addr:street": null,
            "cuisine": null,
            "name": "Şafak Computer Bilişim Teknolojileri",
            "name:en": null,
            "name:uk": null,
            "name:de": null,
            "name:tr": null,
            "name:ru": null,
            "name:ar": "شفق للكمبيوتر وتقنية المعلومات"
        }
    },
    {
        "lat": 40.9920963,
        "lon": 28.9014973,
        "tags": {
            "addr:city": "Istanbul",
            "addr:district": "Zeytinburnu",
            "description": "",
            "opening_hours": "Mo-Su 09:00-18:00",
            "phone": null,
            "branch": null,
            "amenity": "computer",
            "mobile": null,
            "addr:street": null,
            "cuisine": null,
            "name": "Mercan Bilişim Bilgisayar ve Fatura Ödeme",
            "name:en": null,
            "name:uk": null,
            "name:de": null,
            "name:tr": null,
            "name:ru": null,
            "name:ar": "مركز مرجان للكمبيوتر ودفع الفواتير"
        }
    },
    {
        "lat": 41.0355416,
        "lon": 28.8342201,
        "tags": {
            "addr:city": "Istanbul",
            "addr:district": "Bağcılar",
            "description": "",
            "opening_hours": null,
            "phone": null,
            "branch": null,
            "amenity": "computer",
            "mobile": null,
            "addr:street": "Mahmutbey caddesi",
            "cuisine": null,
            "name": "Etka bilgisayar",
            "name:en": null,
            "name:uk": null,
            "name:de": null,
            "name:tr": null,
            "name:ru": null,
            "name:ar": "كمبيوترات ايتكا"
        }
    },
    {
        "lat": 41.0437335,
        "lon": 28.8474126,
        "tags": {
            "addr:city": "Istanbul",
            "addr:district": null,
            "description": "",
            "opening_hours": null,
            "phone": null,
            "branch": null,
            "amenity": "computer",
            "mobile": null,
            "addr:street": "Velioğlu Caddesi",
            "cuisine": null,
            "name": "CRYSTAL BİLGİSAYAR",
            "name:en": null,
            "name:uk": null,
            "name:de": null,
            "name:tr": null,
            "name:ru": null,
            "name:ar": "كريستال بلكيسايار"
        }
    },
    {
        "lat": 41.0359082,
        "lon": 28.8536083,
        "tags": {
            "addr:city": "Istanbul",
            "addr:district": "Bağcılar",
            "description": "",
            "opening_hours": null,
            "phone": null,
            "branch": null,
            "amenity": "computer",
            "mobile": null,
            "addr:street": "Birlik Caddesi",
            "cuisine": null,
            "name": "Bilgisayar",
            "name:en": null,
            "name:uk": null,
            "name:de": null,
            "name:tr": null,
            "name:ru": null,
            "name:ar": "بيلغيسارار"
        }
    },
    {
        "lat": 41.0411083,
        "lon": 28.859241,
        "tags": {
            "addr:city": "Istanbul",
            "addr:district": null,
            "description": "",
            "opening_hours": null,
            "phone": "05375033157",
            "branch": null,
            "amenity": "computer",
            "mobile": null,
            "addr:street": "Osmangazi Caddesi",
            "cuisine": null,
            "name": "KOŞAR",
            "name:en": null,
            "name:uk": null,
            "name:de": null,
            "name:tr": null,
            "name:ru": null,
            "name:ar": "كوشار"
        }
    },
    {
        "lat": 41.0422186,
        "lon": 28.8588185,
        "tags": {
            "addr:city": "Istanbul",
            "addr:district": null,
            "description": "",
            "opening_hours": null,
            "phone": "02124620896",
            "branch": null,
            "amenity": "computer",
            "mobile": null,
            "addr:street": "1993 Sokak",
            "cuisine": null,
            "name": "Berke",
            "name:en": null,
            "name:uk": null,
            "name:de": null,
            "name:tr": null,
            "name:ru": null,
            "name:ar": "باركة"
        }
    },
    {
        "lat": 41.0242155,
        "lon": 28.8567254,
        "tags": {
            "addr:city": "Istanbul",
            "addr:district": "Bağcılar",
            "description": "",
            "opening_hours": null,
            "phone": null,
            "branch": null,
            "amenity": "computer",
            "mobile": null,
            "addr:street": "Hasan Hüseyin Aksoy Caddesi",
            "cuisine": null,
            "name": "Malta Bilgisayar",
            "name:en": null,
            "name:uk": null,
            "name:de": null,
            "name:tr": null,
            "name:ru": null,
            "name:ar": "كمبيوترات مالطا"
        }
    },
    {
        "lat": 41.0647633,
        "lon": 29.00945,
        "tags": {
            "addr:city": "İstanbul",
            "addr:district": null,
            "description": "",
            "opening_hours": "Mo-Fr 09:00-18:00",
            "phone": "+902122750775",
            "branch": null,
            "amenity": "computer",
            "mobile": null,
            "addr:street": "Yıldız Posta Caddesi",
            "cuisine": null,
            "name": "Nebim",
            "name:en": null,
            "name:uk": null,
            "name:de": null,
            "name:tr": null,
            "name:ru": null,
            "name:ar": null
        }
    },
    {
        "lat": 40.9074964,
        "lon": 29.2238328,
        "tags": {
            "addr:city": "İstanbul",
            "addr:district": "Kartal",
            "description": "",
            "opening_hours": "Mo-Su 09:00-20:00",
            "phone": "+90 216 452 50 50",
            "branch": null,
            "amenity": "computer",
            "mobile": null,
            "addr:street": "İsmail Dede Caddesi",
            "cuisine": null,
            "name": "Umut Bilgisayar",
            "name:en": "Umut Computer Camera and Security Systems",
            "name:uk": null,
            "name:de": null,
            "name:tr": null,
            "name:ru": null,
            "name:ar": null
        }
    },
    {
        "lat": 40.8594944,
        "lon": 29.3397747,
        "tags": {
            "addr:city": "İstanbul",
            "addr:district": null,
            "description": "",
            "opening_hours": null,
            "phone": null,
            "branch": null,
            "amenity": "computer",
            "mobile": null,
            "addr:street": null,
            "cuisine": null,
            "name": "İm-Ko Bilgisayar",
            "name:en": null,
            "name:uk": null,
            "name:de": null,
            "name:tr": null,
            "name:ru": null,
            "name:ar": null
        }
    },
    {
        "lat": 40.895403,
        "lon": 29.3566939,
        "tags": {
            "addr:city": "İstanbul",
            "addr:district": null,
            "description": "Bilgisayar Teknik Servis",
            "opening_hours": null,
            "phone": null,
            "branch": null,
            "amenity": "computer",
            "mobile": null,
            "addr:street": null,
            "cuisine": null,
            "name": "Nova",
            "name:en": null,
            "name:uk": null,
            "name:de": null,
            "name:tr": null,
            "name:ru": null,
            "name:ar": null
        }
    },
    {
        "lat": 40.9194052,
        "lon": 29.2227887,
        "tags": {
            "addr:city": "İstanbul",
            "addr:district": null,
            "description": "",
            "opening_hours": null,
            "phone": null,
            "branch": null,
            "amenity": "computer",
            "mobile": null,
            "addr:street": null,
            "cuisine": null,
            "name": "Casper",
            "name:en": null,
            "name:uk": null,
            "name:de": null,
            "name:tr": null,
            "name:ru": null,
            "name:ar": null
        }
    },
    {
        "lat": 41.0476019,
        "lon": 28.8113321,
        "tags": {
            "addr:city": "İstanbul",
            "addr:district": null,
            "description": "",
            "opening_hours": null,
            "phone": null,
            "branch": null,
            "amenity": "computer",
            "mobile": null,
            "addr:street": null,
            "cuisine": null,
            "name": "Vatan",
            "name:en": null,
            "name:uk": null,
            "name:de": null,
            "name:tr": null,
            "name:ru": null,
            "name:ar": null
        }
    },
    {
        "lat": 41.1364279,
        "lon": 29.0875496,
        "tags": {
            "addr:city": "İstanbul",
            "addr:district": null,
            "description": "",
            "opening_hours": null,
            "phone": null,
            "branch": null,
            "amenity": "computer",
            "mobile": null,
            "addr:street": null,
            "cuisine": null,
            "name": "Casper",
            "name:en": null,
            "name:uk": null,
            "name:de": null,
            "name:tr": null,
            "name:ru": null,
            "name:ar": null
        }
    },
    {
        "lat": 41.0762225,
        "lon": 28.9437301,
        "tags": {
            "addr:city": "İstanbul",
            "addr:district": null,
            "description": "",
            "opening_hours": null,
            "phone": null,
            "branch": null,
            "amenity": "computer",
            "mobile": null,
            "addr:street": null,
            "cuisine": null,
            "name": "Vatan Computer",
            "name:en": null,
            "name:uk": null,
            "name:de": null,
            "name:tr": null,
            "name:ru": null,
            "name:ar": null
        }
    },
    {
        "lat": 41.1088402,
        "lon": 28.8029633,
        "tags": {
            "addr:city": "İstanbul",
            "addr:district": null,
            "description": "",
            "opening_hours": null,
            "phone": null,
            "branch": null,
            "amenity": "computer",
            "mobile": null,
            "addr:street": null,
            "cuisine": null,
            "name": "Kaya Bilişim",
            "name:en": null,
            "name:uk": null,
            "name:de": null,
            "name:tr": null,
            "name:ru": null,
            "name:ar": null
        }
    },
    {
        "lat": 41.0547993,
        "lon": 28.7987669,
        "tags": {
            "addr:city": "Küçükçekmece",
            "addr:district": "Küçükçekmece",
            "description": "",
            "opening_hours": "Mo-Sa 09:00-18:00",
            "phone": "+902125486113",
            "branch": null,
            "amenity": "computer",
            "mobile": null,
            "addr:street": "5. Sokak",
            "cuisine": null,
            "name": "Exeline Bilgisayar Teknik Servis",
            "name:en": null,
            "name:uk": null,
            "name:de": null,
            "name:tr": null,
            "name:ru": null,
            "name:ar": null
        }
    },
    {
        "lat": 40.9193154,
        "lon": 29.2251535,
        "tags": {
            "addr:city": "İstanbul",
            "addr:district": null,
            "description": "",
            "opening_hours": null,
            "phone": null,
            "branch": null,
            "amenity": "computer",
            "mobile": null,
            "addr:street": null,
            "cuisine": null,
            "name": "Casper",
            "name:en": null,
            "name:uk": null,
            "name:de": null,
            "name:tr": null,
            "name:ru": null,
            "name:ar": null
        }
    },
    {
        "lat": 40.9993744,
        "lon": 28.8501216,
        "tags": {
            "addr:city": "İstanbul",
            "addr:district": null,
            "description": "",
            "opening_hours": "24/7",
            "phone": "+902124424948",
            "branch": null,
            "amenity": "computer",
            "mobile": null,
            "addr:street": null,
            "cuisine": null,
            "name": "Balak Bilgisayar",
            "name:en": null,
            "name:uk": null,
            "name:de": null,
            "name:tr": null,
            "name:ru": null,
            "name:ar": null
        }
    },
    {
        "lat": 41.1345321,
        "lon": 29.0928994,
        "tags": {
            "addr:city": "İstanbul",
            "addr:district": null,
            "description": "",
            "opening_hours": null,
            "phone": null,
            "branch": null,
            "amenity": "computer",
            "mobile": null,
            "addr:street": null,
            "cuisine": null,
            "name": "Hollywood DVD",
            "name:en": null,
            "name:uk": null,
            "name:de": null,
            "name:tr": null,
            "name:ru": null,
            "name:ar": null
        }
    },
    {
        "lat": 40.979196,
        "lon": 29.1144797,
        "tags": {
            "addr:city": "İstanbul",
            "addr:district": null,
            "description": "",
            "opening_hours": null,
            "phone": null,
            "branch": null,
            "amenity": "computer",
            "mobile": null,
            "addr:street": null,
            "cuisine": null,
            "name": "Ayba Bilgisayar",
            "name:en": null,
            "name:uk": null,
            "name:de": null,
            "name:tr": null,
            "name:ru": null,
            "name:ar": null
        }
    },
    {
        "lat": 40.9792458,
        "lon": 29.1132153,
        "tags": {
            "addr:city": "İstanbul",
            "addr:district": null,
            "description": "",
            "opening_hours": null,
            "phone": null,
            "branch": null,
            "amenity": "computer",
            "mobile": null,
            "addr:street": null,
            "cuisine": null,
            "name": "Castek",
            "name:en": null,
            "name:uk": null,
            "name:de": null,
            "name:tr": null,
            "name:ru": null,
            "name:ar": null
        }
    },
    {
        "lat": 41.0125701,
        "lon": 29.1963191,
        "tags": {
            "addr:city": "İstanbul",
            "addr:district": null,
            "description": "",
            "opening_hours": null,
            "phone": null,
            "branch": null,
            "amenity": "computer",
            "mobile": null,
            "addr:street": null,
            "cuisine": null,
            "name": "Bilgisayarcı",
            "name:en": null,
            "name:uk": null,
            "name:de": null,
            "name:tr": null,
            "name:ru": null,
            "name:ar": null
        }
    },
    {
        "lat": 40.990157,
        "lon": 29.0409499,
        "tags": {
            "addr:city": "İstanbul",
            "addr:district": null,
            "description": "",
            "opening_hours": null,
            "phone": null,
            "branch": null,
            "amenity": "computer",
            "mobile": null,
            "addr:street": null,
            "cuisine": null,
            "name": "Turkuaz Toner",
            "name:en": null,
            "name:uk": null,
            "name:de": null,
            "name:tr": null,
            "name:ru": null,
            "name:ar": null
        }
    },
    {
        "lat": 40.9498935,
        "lon": 29.1054596,
        "tags": {
            "addr:city": "İstanbul",
            "addr:district": null,
            "description": "",
            "opening_hours": null,
            "phone": null,
            "branch": null,
            "amenity": "computer",
            "mobile": null,
            "addr:street": null,
            "cuisine": null,
            "name": "Mert Bilgisayar",
            "name:en": null,
            "name:uk": null,
            "name:de": null,
            "name:tr": null,
            "name:ru": null,
            "name:ar": null
        }
    },
    {
        "lat": 41.1077209,
        "lon": 29.0086167,
        "tags": {
            "addr:city": "İstanbul",
            "addr:district": null,
            "description": "",
            "opening_hours": null,
            "phone": null,
            "branch": null,
            "amenity": "computer",
            "mobile": null,
            "addr:street": null,
            "cuisine": null,
            "name": null,
            "name:en": null,
            "name:uk": null,
            "name:de": null,
            "name:tr": null,
            "name:ru": null,
            "name:ar": null
        }
    },
    {
        "lat": 41.107716,
        "lon": 29.0085454,
        "tags": {
            "addr:city": "İstanbul",
            "addr:district": null,
            "description": "",
            "opening_hours": null,
            "phone": null,
            "branch": null,
            "amenity": "computer",
            "mobile": null,
            "addr:street": null,
            "cuisine": null,
            "name": null,
            "name:en": null,
            "name:uk": null,
            "name:de": null,
            "name:tr": null,
            "name:ru": null,
            "name:ar": null
        }
    },
    {
        "lat": 41.1077169,
        "lon": 29.0085598,
        "tags": {
            "addr:city": "İstanbul",
            "addr:district": null,
            "description": "",
            "opening_hours": null,
            "phone": null,
            "branch": null,
            "amenity": "computer",
            "mobile": null,
            "addr:street": null,
            "cuisine": null,
            "name": null,
            "name:en": null,
            "name:uk": null,
            "name:de": null,
            "name:tr": null,
            "name:ru": null,
            "name:ar": null
        }
    },
    {
        "lat": 41.1077177,
        "lon": 29.0085741,
        "tags": {
            "addr:city": "İstanbul",
            "addr:district": null,
            "description": "",
            "opening_hours": null,
            "phone": null,
            "branch": null,
            "amenity": "computer",
            "mobile": null,
            "addr:street": null,
            "cuisine": null,
            "name": null,
            "name:en": null,
            "name:uk": null,
            "name:de": null,
            "name:tr": null,
            "name:ru": null,
            "name:ar": null
        }
    },
    {
        "lat": 41.1077187,
        "lon": 29.0085891,
        "tags": {
            "addr:city": "İstanbul",
            "addr:district": null,
            "description": "",
            "opening_hours": null,
            "phone": null,
            "branch": null,
            "amenity": "computer",
            "mobile": null,
            "addr:street": null,
            "cuisine": null,
            "name": null,
            "name:en": null,
            "name:uk": null,
            "name:de": null,
            "name:tr": null,
            "name:ru": null,
            "name:ar": null
        }
    },
    {
        "lat": 41.1077199,
        "lon": 29.0086031,
        "tags": {
            "addr:city": "İstanbul",
            "addr:district": null,
            "description": "",
            "opening_hours": null,
            "phone": null,
            "branch": null,
            "amenity": "computer",
            "mobile": null,
            "addr:street": null,
            "cuisine": null,
            "name": null,
            "name:en": null,
            "name:uk": null,
            "name:de": null,
            "name:tr": null,
            "name:ru": null,
            "name:ar": null
        }
    },
    {
        "lat": 40.9826708,
        "lon": 29.0643187,
        "tags": {
            "addr:city": "İstanbul",
            "addr:district": null,
            "description": "",
            "opening_hours": null,
            "phone": null,
            "branch": null,
            "amenity": "computer",
            "mobile": null,
            "addr:street": null,
            "cuisine": null,
            "name": "A1 Bilgisayar",
            "name:en": null,
            "name:uk": null,
            "name:de": null,
            "name:tr": null,
            "name:ru": null,
            "name:ar": null
        }
    },
    {
        "lat": 40.9802848,
        "lon": 29.1180761,
        "tags": {
            "addr:city": "İstanbul",
            "addr:district": null,
            "description": "",
            "opening_hours": null,
            "phone": null,
            "branch": null,
            "amenity": "computer",
            "mobile": null,
            "addr:street": null,
            "cuisine": null,
            "name": "Res Bilgisayar",
            "name:en": null,
            "name:uk": null,
            "name:de": null,
            "name:tr": null,
            "name:ru": null,
            "name:ar": null
        }
    },
    {
        "lat": 41.0428433,
        "lon": 29.0043955,
        "tags": {
            "addr:city": "İstanbul",
            "addr:district": null,
            "description": "",
            "opening_hours": null,
            "phone": null,
            "branch": null,
            "amenity": "computer",
            "mobile": null,
            "addr:street": null,
            "cuisine": null,
            "name": "Gratis",
            "name:en": null,
            "name:uk": null,
            "name:de": null,
            "name:tr": null,
            "name:ru": null,
            "name:ar": null
        }
    },
    {
        "lat": 41.0468083,
        "lon": 28.898241,
        "tags": {
            "addr:city": "İstanbul",
            "addr:district": null,
            "description": "",
            "opening_hours": null,
            "phone": null,
            "branch": null,
            "amenity": "computer",
            "mobile": null,
            "addr:street": null,
            "cuisine": null,
            "name": null,
            "name:en": "teknoza",
            "name:uk": null,
            "name:de": null,
            "name:tr": null,
            "name:ru": null,
            "name:ar": null
        }
    },
    {
        "lat": 41.0147036,
        "lon": 28.9753903,
        "tags": {
            "addr:city": "İstanbul",
            "addr:district": null,
            "description": "",
            "opening_hours": null,
            "phone": null,
            "branch": null,
            "amenity": "computer",
            "mobile": null,
            "addr:street": null,
            "cuisine": null,
            "name": null,
            "name:en": "yuvam foto",
            "name:uk": null,
            "name:de": null,
            "name:tr": null,
            "name:ru": null,
            "name:ar": null
        }
    },
    {
        "lat": 40.9924076,
        "lon": 28.8442529,
        "tags": {
            "addr:city": "İstanbul",
            "addr:district": null,
            "description": "",
            "opening_hours": null,
            "phone": null,
            "branch": null,
            "amenity": "computer",
            "mobile": null,
            "addr:street": null,
            "cuisine": null,
            "name": "Özaltın Bilgisayar",
            "name:en": null,
            "name:uk": null,
            "name:de": null,
            "name:tr": null,
            "name:ru": null,
            "name:ar": null
        }
    },
    {
        "lat": 41.1028335,
        "lon": 28.8691699,
        "tags": {
            "addr:city": "İstanbul",
            "addr:district": null,
            "description": "",
            "opening_hours": null,
            "phone": null,
            "branch": null,
            "amenity": "computer",
            "mobile": null,
            "addr:street": null,
            "cuisine": null,
            "name": "Roket Bilişim",
            "name:en": null,
            "name:uk": null,
            "name:de": null,
            "name:tr": null,
            "name:ru": null,
            "name:ar": null
        }
    },
    {
        "lat": 41.0813146,
        "lon": 28.9727815,
        "tags": {
            "addr:city": "İstanbul",
            "addr:district": null,
            "description": "",
            "opening_hours": null,
            "phone": null,
            "branch": null,
            "amenity": "computer",
            "mobile": null,
            "addr:street": null,
            "cuisine": null,
            "name": "Planet Bilgisayar Hastanesi",
            "name:en": null,
            "name:uk": null,
            "name:de": null,
            "name:tr": null,
            "name:ru": null,
            "name:ar": null
        }
    },
    {
        "lat": 41.1793365,
        "lon": 28.9920117,
        "tags": {
            "addr:city": "İstanbul",
            "addr:district": null,
            "description": "",
            "opening_hours": null,
            "phone": null,
            "branch": null,
            "amenity": "computer",
            "mobile": null,
            "addr:street": null,
            "cuisine": null,
            "name": "Tekno Bilişim",
            "name:en": null,
            "name:uk": null,
            "name:de": null,
            "name:tr": null,
            "name:ru": null,
            "name:ar": null
        }
    },
    {
        "lat": 40.8312374,
        "lon": 29.3081549,
        "tags": {
            "addr:city": "İstanbul",
            "addr:district": null,
            "description": "",
            "opening_hours": "Mo-Fr 09:00-18:00; Sa 09:00-15:00",
            "phone": "08502225040",
            "branch": null,
            "amenity": "computer",
            "mobile": null,
            "addr:street": "İhsan Emekçi Sokak",
            "cuisine": null,
            "name": "GO TRİBORD BİLİŞİM TEKNOLOJİLERi",
            "name:en": "GO TRIBORD INFORMATION TECHNOLOGIES",
            "name:uk": null,
            "name:de": null,
            "name:tr": null,
            "name:ru": null,
            "name:ar": null
        }
    },
    {
        "lat": 41.1432399,
        "lon": 28.461069,
        "tags": {
            "addr:city": "İstanbul",
            "addr:district": null,
            "description": "",
            "opening_hours": null,
            "phone": null,
            "branch": null,
            "amenity": "computer",
            "mobile": null,
            "addr:street": null,
            "cuisine": null,
            "name": "Casper",
            "name:en": null,
            "name:uk": null,
            "name:de": null,
            "name:tr": null,
            "name:ru": null,
            "name:ar": null
        }
    },
    {
        "lat": 41.0239314,
        "lon": 29.1090711,
        "tags": {
            "addr:city": "İstanbul",
            "addr:district": null,
            "description": "",
            "opening_hours": null,
            "phone": null,
            "branch": null,
            "amenity": "computer",
            "mobile": null,
            "addr:street": null,
            "cuisine": null,
            "name": "Esa Bilgisayar",
            "name:en": null,
            "name:uk": null,
            "name:de": null,
            "name:tr": null,
            "name:ru": null,
            "name:ar": null
        }
    },
    {
        "lat": 41.0031443,
        "lon": 28.6949393,
        "tags": {
            "addr:city": "İstanbul",
            "addr:district": "Esenyurt",
            "description": "",
            "opening_hours": null,
            "phone": null,
            "branch": null,
            "amenity": "computer",
            "mobile": null,
            "addr:street": "Tonguç Baba Caddesi",
            "cuisine": null,
            "name": "Özdeş Bilgisayar & Teknik Servis",
            "name:en": null,
            "name:uk": null,
            "name:de": null,
            "name:tr": null,
            "name:ru": null,
            "name:ar": null
        }
    },
    {
        "lat": 41.0145438,
        "lon": 28.9751699,
        "tags": {
            "addr:city": "İstanbul",
            "addr:district": null,
            "description": "",
            "opening_hours": null,
            "phone": null,
            "branch": null,
            "amenity": "computer",
            "mobile": null,
            "addr:street": null,
            "cuisine": null,
            "name": null,
            "name:en": "Teknik Foto",
            "name:uk": null,
            "name:de": null,
            "name:tr": null,
            "name:ru": null,
            "name:ar": null
        }
    },
    {
        "lat": 41.0140862,
        "lon": 28.9749512,
        "tags": {
            "addr:city": "İstanbul",
            "addr:district": null,
            "description": "",
            "opening_hours": null,
            "phone": null,
            "branch": null,
            "amenity": "computer",
            "mobile": null,
            "addr:street": null,
            "cuisine": null,
            "name": null,
            "name:en": "Nikon Servis Foto-Tech",
            "name:uk": null,
            "name:de": null,
            "name:tr": null,
            "name:ru": null,
            "name:ar": null
        }
    },
    {
        "lat": 41.0877909,
        "lon": 29.0061568,
        "tags": {
            "addr:city": "İstanbul",
            "addr:district": null,
            "description": "",
            "opening_hours": null,
            "phone": null,
            "branch": null,
            "amenity": "computer",
            "mobile": null,
            "addr:street": null,
            "cuisine": null,
            "name": "Vatan Bilgisayar",
            "name:en": null,
            "name:uk": null,
            "name:de": null,
            "name:tr": null,
            "name:ru": null,
            "name:ar": null
        }
    },
    {
        "lat": 41.0235711,
        "lon": 29.1316399,
        "tags": {
            "addr:city": "İstanbul",
            "addr:district": "Ümraniye",
            "description": "",
            "opening_hours": "10:00-22:00",
            "phone": "+90 850 840 5599",
            "branch": null,
            "amenity": "computer",
            "mobile": null,
            "addr:street": "Malazgirt Caddesi",
            "cuisine": null,
            "name": "Gaming.Gen.TR",
            "name:en": null,
            "name:uk": null,
            "name:de": null,
            "name:tr": null,
            "name:ru": null,
            "name:ar": null
        }
    },
    {
        "lat": 40.9246833,
        "lon": 29.1350236,
        "tags": {
            "addr:city": "İstanbul",
            "addr:district": null,
            "description": "",
            "opening_hours": null,
            "phone": null,
            "branch": null,
            "amenity": "computer",
            "mobile": null,
            "addr:street": null,
            "cuisine": null,
            "name": "Biltek Bilgisayar",
            "name:en": null,
            "name:uk": null,
            "name:de": null,
            "name:tr": null,
            "name:ru": null,
            "name:ar": null
        }
    },
    {
        "lat": 40.9300608,
        "lon": 29.1437522,
        "tags": {
            "addr:city": "İstanbul",
            "addr:district": null,
            "description": "",
            "opening_hours": null,
            "phone": null,
            "branch": null,
            "amenity": "computer",
            "mobile": null,
            "addr:street": null,
            "cuisine": null,
            "name": "Ataser Bilgisayar",
            "name:en": null,
            "name:uk": null,
            "name:de": null,
            "name:tr": null,
            "name:ru": null,
            "name:ar": null
        }
    },
    {
        "lat": 41.0271331,
        "lon": 28.9386551,
        "tags": {
            "addr:city": "İstanbul",
            "addr:district": null,
            "description": "",
            "opening_hours": "Su-Th 09:00-19:30",
            "phone": "05334173517",
            "branch": null,
            "amenity": "computer",
            "mobile": null,
            "addr:street": "Fevzipaşa Caddesi",
            "cuisine": null,
            "name": null,
            "name:en": null,
            "name:uk": null,
            "name:de": null,
            "name:tr": null,
            "name:ru": null,
            "name:ar": null
        }
    },
    {
        "lat": 40.9075023,
        "lon": 29.3908778,
        "tags": {
            "addr:city": "İstanbul",
            "addr:district": null,
            "description": "",
            "opening_hours": null,
            "phone": null,
            "branch": null,
            "amenity": "computer",
            "mobile": null,
            "addr:street": null,
            "cuisine": null,
            "name": null,
            "name:en": null,
            "name:uk": null,
            "name:de": null,
            "name:tr": null,
            "name:ru": null,
            "name:ar": null
        }
    }
]