[
    {
        "lat": 40.8947466,
        "lon": 29.2583225,
        "tags": {
            "addr:city": "İstanbul",
            "addr:district": null,
            "description": "",
            "opening_hours": null,
            "phone": null,
            "branch": null,
            "amenity": "confectionery",
            "mobile": null,
            "addr:street": "Hukukçular Cd",
            "cuisine": null,
            "name": "Tatbak",
            "name:en": null,
            "name:uk": null,
            "name:de": null,
            "name:tr": null,
            "name:ru": null,
            "name:ar": null
        }
    },
    {
        "lat": 41.0328963,
        "lon": 28.9765121,
        "tags": {
            "addr:city": "İstanbul",
            "addr:district": null,
            "description": "",
            "opening_hours": null,
            "phone": null,
            "branch": null,
            "amenity": "confectionery",
            "mobile": null,
            "addr:street": "İstiklal Caddesi",
            "cuisine": null,
            "name": "Koska Turkish Delight",
            "name:en": null,
            "name:uk": null,
            "name:de": null,
            "name:tr": null,
            "name:ru": null,
            "name:ar": null
        }
    },
    {
        "lat": 41.0224423,
        "lon": 28.9743728,
        "tags": {
            "addr:city": "İstanbul",
            "addr:district": null,
            "description": "",
            "opening_hours": null,
            "phone": null,
            "branch": null,
            "amenity": "confectionery",
            "mobile": null,
            "addr:street": null,
            "cuisine": null,
            "name": "Halis Bekrizade Effendi",
            "name:en": null,
            "name:uk": null,
            "name:de": null,
            "name:tr": null,
            "name:ru": null,
            "name:ar": null
        }
    },
    {
        "lat": 41.0255835,
        "lon": 28.9749857,
        "tags": {
            "addr:city": "İstanbul",
            "addr:district": null,
            "description": "",
            "opening_hours": null,
            "phone": null,
            "branch": null,
            "amenity": "confectionery",
            "mobile": null,
            "addr:street": null,
            "cuisine": null,
            "name": "Ottoman Lukum",
            "name:en": null,
            "name:uk": null,
            "name:de": null,
            "name:tr": null,
            "name:ru": null,
            "name:ar": null
        }
    },
    {
        "lat": 41.0066207,
        "lon": 28.9590166,
        "tags": {
            "addr:city": "İstanbul",
            "addr:district": null,
            "description": "",
            "opening_hours": null,
            "phone": null,
            "branch": null,
            "amenity": "confectionery",
            "mobile": null,
            "addr:street": null,
            "cuisine": null,
            "name": "Derya Pastanesi",
            "name:en": null,
            "name:uk": null,
            "name:de": null,
            "name:tr": null,
            "name:ru": null,
            "name:ar": null
        }
    },
    {
        "lat": 41.0835046,
        "lon": 28.0069832,
        "tags": {
            "addr:city": "İstanbul",
            "addr:district": null,
            "description": "",
            "opening_hours": null,
            "phone": null,
            "branch": null,
            "amenity": "confectionery",
            "mobile": null,
            "addr:street": null,
            "cuisine": null,
            "name": "Kiltaş Refrakter",
            "name:en": null,
            "name:uk": null,
            "name:de": null,
            "name:tr": null,
            "name:ru": null,
            "name:ar": null
        }
    },
    {
        "lat": 41.1506379,
        "lon": 28.6360825,
        "tags": {
            "addr:city": "İstanbul",
            "addr:district": null,
            "description": "",
            "opening_hours": null,
            "phone": null,
            "branch": null,
            "amenity": "confectionery",
            "mobile": null,
            "addr:street": null,
            "cuisine": null,
            "name": "Alfa Alüminyum",
            "name:en": null,
            "name:uk": null,
            "name:de": null,
            "name:tr": "Alfa Alüminyum",
            "name:ru": null,
            "name:ar": null
        }
    },
    {
        "lat": 41.0248853,
        "lon": 28.9809581,
        "tags": {
            "addr:city": "Istanbul",
            "addr:district": "Beyoğlu",
            "description": "",
            "opening_hours": "Mo-Sa 07:30-01:00; Su 08:00-01:00",
            "phone": "+90 850 308 45 45",
            "branch": null,
            "amenity": "confectionery",
            "mobile": null,
            "addr:street": "Kemankeş Caddesi",
            "cuisine": "coffee_shop;turkish",
            "name": "Karaköy Güllüoğlu",
            "name:en": "Karakoy Gulluoglu",
            "name:uk": null,
            "name:de": null,
            "name:tr": "Karaköy Güllüoğlu",
            "name:ru": null,
            "name:ar": "Karakoy Gulluoglu"
        }
    },
    {
        "lat": 41.0426854,
        "lon": 29.0024901,
        "tags": {
            "addr:city": "İstanbul",
            "addr:district": null,
            "description": "",
            "opening_hours": null,
            "phone": null,
            "branch": null,
            "amenity": "cafe",
            "mobile": null,
            "addr:street": null,
            "cuisine": null,
            "name": "Mathilda Profiterol",
            "name:en": null,
            "name:uk": null,
            "name:de": null,
            "name:tr": "Mathilda Profiterol",
            "name:ru": null,
            "name:ar": "شارع المقاهي و الشوكليت  بيشكتاش"
        }
    },
    {
        "lat": 41.0167195,
        "lon": 28.9701792,
        "tags": {
            "addr:city": "İstanbul",
            "addr:district": null,
            "description": "",
            "opening_hours": null,
            "phone": null,
            "branch": null,
            "amenity": "confectionery",
            "mobile": null,
            "addr:street": null,
            "cuisine": null,
            "name": "Tatlici Safa",
            "name:en": "كنافة safa",
            "name:uk": null,
            "name:de": null,
            "name:tr": null,
            "name:ru": null,
            "name:ar": null
        }
    },
    {
        "lat": 41.0088958,
        "lon": 28.9663545,
        "tags": {
            "addr:city": "İstanbul",
            "addr:district": null,
            "description": "",
            "opening_hours": null,
            "phone": null,
            "branch": null,
            "amenity": "confectionery",
            "mobile": null,
            "addr:street": null,
            "cuisine": null,
            "name": "Koska",
            "name:en": "Koska",
            "name:uk": null,
            "name:de": null,
            "name:tr": "Koska",
            "name:ru": null,
            "name:ar": null
        }
    },
    {
        "lat": 40.9921681,
        "lon": 28.8422517,
        "tags": {
            "addr:city": "İstanbul",
            "addr:district": null,
            "description": "",
            "opening_hours": null,
            "phone": null,
            "branch": null,
            "amenity": "confectionery",
            "mobile": null,
            "addr:street": null,
            "cuisine": null,
            "name": "Dal Teknik",
            "name:en": null,
            "name:uk": null,
            "name:de": null,
            "name:tr": null,
            "name:ru": null,
            "name:ar": null
        }
    },
    {
        "lat": 40.9962012,
        "lon": 28.9272975,
        "tags": {
            "addr:city": "İstanbul",
            "addr:district": null,
            "description": "",
            "opening_hours": null,
            "phone": null,
            "branch": null,
            "amenity": "confectionery",
            "mobile": null,
            "addr:street": null,
            "cuisine": null,
            "name": "Anteplizade",
            "name:en": "Anteplizade",
            "name:uk": null,
            "name:de": null,
            "name:tr": "Anteplizade",
            "name:ru": null,
            "name:ar": null
        }
    },
    {
        "lat": 41.015464,
        "lon": 28.9415541,
        "tags": {
            "addr:city": "Istanbul",
            "addr:district": "Fatih",
            "description": "",
            "opening_hours": null,
            "phone": null,
            "branch": null,
            "amenity": "confectionery",
            "mobile": null,
            "addr:street": "Vatan caddesi",
            "cuisine": null,
            "name": "Mişhur Safranbolu Lokumcusu Turkish Delight",
            "name:en": null,
            "name:uk": null,
            "name:de": null,
            "name:tr": null,
            "name:ru": null,
            "name:ar": "محل سافرانبالو للحلقوم"
        }
    },
    {
        "lat": 41.0093417,
        "lon": 28.9673139,
        "tags": {
            "addr:city": "Istanbul",
            "addr:district": "Fatih",
            "description": "",
            "opening_hours": null,
            "phone": "02125121636",
            "branch": null,
            "amenity": "confectionery",
            "mobile": null,
            "addr:street": "Yeniçeriler Caddesi",
            "cuisine": null,
            "name": "Paşazade Lokum",
            "name:en": "Pashazade",
            "name:uk": null,
            "name:de": null,
            "name:tr": null,
            "name:ru": "Пашазаде",
            "name:ar": "باشا زادة للحلقوم"
        }
    },
    {
        "lat": 41.0190076,
        "lon": 28.9530618,
        "tags": {
            "addr:city": "Istanbul",
            "addr:district": "Fatih",
            "description": "",
            "opening_hours": null,
            "phone": "05425400756",
            "branch": null,
            "amenity": "confectionery",
            "mobile": null,
            "addr:street": "Mihçılar Caddesi",
            "cuisine": null,
            "name": "Aslım Baklava",
            "name:en": null,
            "name:uk": null,
            "name:de": null,
            "name:tr": null,
            "name:ru": null,
            "name:ar": "اصليم للبقلاوة"
        }
    },
    {
        "lat": 41.0103362,
        "lon": 28.9773836,
        "tags": {
            "addr:city": "Istanbul",
            "addr:district": "Fatih",
            "description": "",
            "opening_hours": null,
            "phone": "0212 527 43 50",
            "branch": null,
            "amenity": "confectionery",
            "mobile": null,
            "addr:street": "Küçük Sokak",
            "cuisine": null,
            "name": "Özsoy Şekerleme",
            "name:en": null,
            "name:uk": null,
            "name:de": null,
            "name:tr": null,
            "name:ru": null,
            "name:ar": "سكاكر أوزسوي"
        }
    },
    {
        "lat": 41.0185277,
        "lon": 28.9658333,
        "tags": {
            "addr:city": "İstanbul",
            "addr:district": null,
            "description": "",
            "opening_hours": null,
            "phone": null,
            "branch": null,
            "amenity": "confectionery",
            "mobile": null,
            "addr:street": "Kıble Çeşme Caddesi",
            "cuisine": null,
            "name": "Altan Sekerleme",
            "name:en": null,
            "name:uk": null,
            "name:de": null,
            "name:tr": null,
            "name:ru": null,
            "name:ar": null
        }
    },
    {
        "lat": 41.0329642,
        "lon": 28.9762494,
        "tags": {
            "addr:city": "İstanbul",
            "addr:district": null,
            "description": "",
            "opening_hours": null,
            "phone": null,
            "branch": null,
            "amenity": "confectionery",
            "mobile": null,
            "addr:street": "Amir Nevruz Sokağı",
            "cuisine": null,
            "name": "j'adore",
            "name:en": null,
            "name:uk": null,
            "name:de": null,
            "name:tr": null,
            "name:ru": null,
            "name:ar": null
        }
    },
    {
        "lat": 41.0176374,
        "lon": 28.9676189,
        "tags": {
            "addr:city": "İstanbul",
            "addr:district": null,
            "description": "",
            "opening_hours": null,
            "phone": null,
            "branch": null,
            "amenity": "confectionery",
            "mobile": null,
            "addr:street": "Kantarcılar Caddesi",
            "cuisine": null,
            "name": "Altan Sekerleme",
            "name:en": null,
            "name:uk": null,
            "name:de": null,
            "name:tr": "Altan Şekerleme",
            "name:ru": null,
            "name:ar": null
        }
    },
    {
        "lat": 41.0182177,
        "lon": 28.9447267,
        "tags": {
            "addr:city": "Istanbul",
            "addr:district": "Turkey",
            "description": "",
            "opening_hours": null,
            "phone": null,
            "branch": null,
            "amenity": "confectionery",
            "mobile": null,
            "addr:street": "Akdeniz Caddesi",
            "cuisine": null,
            "name": "Belkıs",
            "name:en": null,
            "name:uk": null,
            "name:de": null,
            "name:tr": null,
            "name:ru": null,
            "name:ar": "بلقيس"
        }
    },
    {
        "lat": 41.0190169,
        "lon": 28.9465626,
        "tags": {
            "addr:city": "Istanbul",
            "addr:district": "Turkey",
            "description": "",
            "opening_hours": null,
            "phone": null,
            "branch": null,
            "amenity": "confectionery",
            "mobile": null,
            "addr:street": "Akdeniz Caddesi",
            "cuisine": null,
            "name": "Koska",
            "name:en": null,
            "name:uk": null,
            "name:de": null,
            "name:tr": null,
            "name:ru": null,
            "name:ar": "كوسكا"
        }
    },
    {
        "lat": 41.0182151,
        "lon": 28.9451275,
        "tags": {
            "addr:city": "Istanbul",
            "addr:district": "Turkey",
            "description": "",
            "opening_hours": null,
            "phone": null,
            "branch": null,
            "amenity": "confectionery",
            "mobile": null,
            "addr:street": "Akdeniz Caddesi",
            "cuisine": null,
            "name": "Uzay",
            "name:en": null,
            "name:uk": null,
            "name:de": null,
            "name:tr": null,
            "name:ru": null,
            "name:ar": "اوزاي"
        }
    },
    {
        "lat": 41.0208758,
        "lon": 28.9426742,
        "tags": {
            "addr:city": "Istanbul",
            "addr:district": "Turkey",
            "description": "",
            "opening_hours": null,
            "phone": null,
            "branch": null,
            "amenity": "confectionery",
            "mobile": null,
            "addr:street": "MÜTERCIM ASIM cadde",
            "cuisine": null,
            "name": "Nurettin tatlilari",
            "name:en": null,
            "name:uk": null,
            "name:de": null,
            "name:tr": null,
            "name:ru": null,
            "name:ar": "حلويات نور الدين"
        }
    },
    {
        "lat": 41.0212667,
        "lon": 28.9433632,
        "tags": {
            "addr:city": "Istanbul",
            "addr:district": "Turkey",
            "description": "",
            "opening_hours": null,
            "phone": null,
            "branch": null,
            "amenity": "confectionery",
            "mobile": null,
            "addr:street": "MÜTERCIM ASIM cadde",
            "cuisine": null,
            "name": "Nalakar muhallabicisi",
            "name:en": null,
            "name:uk": null,
            "name:de": null,
            "name:tr": null,
            "name:ru": null,
            "name:ar": "مهلبية بالاكار"
        }
    },
    {
        "lat": 41.0192071,
        "lon": 28.9459314,
        "tags": {
            "addr:city": "Istanbul",
            "addr:district": "Turkey",
            "description": "",
            "opening_hours": null,
            "phone": null,
            "branch": null,
            "amenity": "confectionery",
            "mobile": null,
            "addr:street": "SARIGUZEL cadde",
            "cuisine": null,
            "name": "Asel",
            "name:en": null,
            "name:uk": null,
            "name:de": null,
            "name:tr": null,
            "name:ru": null,
            "name:ar": "أسيل"
        }
    },
    {
        "lat": 41.0212761,
        "lon": 28.9434734,
        "tags": {
            "addr:city": "Istanbul",
            "addr:district": "Turkey",
            "description": "",
            "opening_hours": null,
            "phone": null,
            "branch": null,
            "amenity": "confectionery",
            "mobile": null,
            "addr:street": "mutercim Asim Cadde",
            "cuisine": null,
            "name": "chokkushak",
            "name:en": null,
            "name:uk": null,
            "name:de": null,
            "name:tr": null,
            "name:ru": null,
            "name:ar": "تشوكوشاك"
        }
    },
    {
        "lat": 41.0179229,
        "lon": 28.9478374,
        "tags": {
            "addr:city": "Istanbul",
            "addr:district": "Turkey",
            "description": "",
            "opening_hours": null,
            "phone": null,
            "branch": null,
            "amenity": "confectionery",
            "mobile": null,
            "addr:street": "Halicilar caddesi",
            "cuisine": null,
            "name": "Jahin & pakmey cafe",
            "name:en": null,
            "name:uk": null,
            "name:de": null,
            "name:tr": null,
            "name:ru": null,
            "name:ar": "جاهين و باكي كافيه"
        }
    },
    {
        "lat": 41.0203421,
        "lon": 28.942035,
        "tags": {
            "addr:city": "Istanbul",
            "addr:district": "Turkey",
            "description": "",
            "opening_hours": null,
            "phone": null,
            "branch": null,
            "amenity": "confectionery",
            "mobile": null,
            "addr:street": "PALIPASA caddesi",
            "cuisine": null,
            "name": "Alkaram",
            "name:en": null,
            "name:uk": null,
            "name:de": null,
            "name:tr": null,
            "name:ru": null,
            "name:ar": "حلويات الكرم"
        }
    },
    {
        "lat": 41.0163576,
        "lon": 28.9452799,
        "tags": {
            "addr:city": "Istanbul",
            "addr:district": "Turkey",
            "description": "",
            "opening_hours": null,
            "phone": null,
            "branch": null,
            "amenity": "confectionery",
            "mobile": null,
            "addr:street": "Halicilar caddesi",
            "cuisine": null,
            "name": "Tatli duragi",
            "name:en": null,
            "name:uk": null,
            "name:de": null,
            "name:tr": null,
            "name:ru": null,
            "name:ar": "تاتلي دراك"
        }
    },
    {
        "lat": 41.0157494,
        "lon": 28.9444909,
        "tags": {
            "addr:city": "Istanbul",
            "addr:district": "Turkey",
            "description": "",
            "opening_hours": null,
            "phone": null,
            "branch": null,
            "amenity": "confectionery",
            "mobile": null,
            "addr:street": "Halicilar caddesi",
            "cuisine": null,
            "name": "Kardeşler",
            "name:en": null,
            "name:uk": null,
            "name:de": null,
            "name:tr": null,
            "name:ru": null,
            "name:ar": "كاردشلار"
        }
    },
    {
        "lat": 41.0147658,
        "lon": 28.9442325,
        "tags": {
            "addr:city": "Istanbul",
            "addr:district": "Turkey",
            "description": "",
            "opening_hours": null,
            "phone": null,
            "branch": null,
            "amenity": "confectionery",
            "mobile": null,
            "addr:street": "VATAN caddesi",
            "cuisine": null,
            "name": "Pelit",
            "name:en": null,
            "name:uk": null,
            "name:de": null,
            "name:tr": null,
            "name:ru": null,
            "name:ar": "بليت"
        }
    },
    {
        "lat": 41.0146577,
        "lon": 28.9443209,
        "tags": {
            "addr:city": "Istanbul",
            "addr:district": "Turkey",
            "description": "",
            "opening_hours": null,
            "phone": null,
            "branch": null,
            "amenity": "confectionery",
            "mobile": null,
            "addr:street": "VATAN caddesi",
            "cuisine": null,
            "name": "Faruk Güllüoğlu",
            "name:en": null,
            "name:uk": null,
            "name:de": null,
            "name:tr": null,
            "name:ru": null,
            "name:ar": "فاروق غول أوغلو"
        }
    },
    {
        "lat": 41.0267585,
        "lon": 28.9473372,
        "tags": {
            "addr:city": "Istanbul",
            "addr:district": "Turkey",
            "description": "",
            "opening_hours": null,
            "phone": null,
            "branch": null,
            "amenity": "confectionery",
            "mobile": null,
            "addr:street": "Manyasizade Caddesi",
            "cuisine": null,
            "name": "Osmanlı",
            "name:en": null,
            "name:uk": null,
            "name:de": null,
            "name:tr": null,
            "name:ru": null,
            "name:ar": "اوسمانلي"
        }
    },
    {
        "lat": 41.0119452,
        "lon": 28.9591843,
        "tags": {
            "addr:city": "İstanbul",
            "addr:district": null,
            "description": "",
            "opening_hours": null,
            "phone": null,
            "branch": null,
            "amenity": "confectionery",
            "mobile": null,
            "addr:street": null,
            "cuisine": null,
            "name": null,
            "name:en": null,
            "name:uk": null,
            "name:de": null,
            "name:tr": null,
            "name:ru": null,
            "name:ar": "بورك ..."
        }
    },
    {
        "lat": 40.9659125,
        "lon": 29.2717269,
        "tags": {
            "addr:city": "Istanbul",
            "addr:district": "Sultanbeyli",
            "description": "",
            "opening_hours": "24/7",
            "phone": "3908666",
            "branch": null,
            "amenity": "confectionery",
            "mobile": null,
            "addr:street": "Faith Bulvarı",
            "cuisine": null,
            "name": "Gaziantep Baklava",
            "name:en": null,
            "name:uk": null,
            "name:de": null,
            "name:tr": null,
            "name:ru": null,
            "name:ar": "بقلاوة غازي عينتاب"
        }
    },
    {
        "lat": 41.0083554,
        "lon": 28.9709173,
        "tags": {
            "addr:city": "İstanbul",
            "addr:district": null,
            "description": "",
            "opening_hours": null,
            "phone": null,
            "branch": null,
            "amenity": "confectionery",
            "mobile": null,
            "addr:street": null,
            "cuisine": null,
            "name": "Kısmet Kuruyemiş",
            "name:en": null,
            "name:uk": null,
            "name:de": null,
            "name:tr": null,
            "name:ru": null,
            "name:ar": null
        }
    },
    {
        "lat": 41.0356427,
        "lon": 28.9846567,
        "tags": {
            "addr:city": "İstanbul",
            "addr:district": null,
            "description": "",
            "opening_hours": null,
            "phone": "02122434810",
            "branch": null,
            "amenity": "confectionery",
            "mobile": null,
            "addr:street": "Sıraselviler Caddesi",
            "cuisine": null,
            "name": "Seyidoğlu - Taksim",
            "name:en": null,
            "name:uk": null,
            "name:de": null,
            "name:tr": null,
            "name:ru": null,
            "name:ar": null
        }
    },
    {
        "lat": 40.980408,
        "lon": 29.2655807,
        "tags": {
            "addr:city": "Istanbul",
            "addr:district": "Sultanbeyli",
            "description": "",
            "opening_hours": "Mo-Fr 07:00-13:30; Mo-Fr 17:00-20:00",
            "phone": null,
            "branch": null,
            "amenity": "confectionery",
            "mobile": null,
            "addr:street": "kubbe Caddesi",
            "cuisine": "dessert",
            "name": "Gaziantepli Şalvarlıoğlu",
            "name:en": null,
            "name:uk": null,
            "name:de": null,
            "name:tr": null,
            "name:ru": null,
            "name:ar": "حلويات شالفارلي اوغلو"
        }
    },
    {
        "lat": 41.0085854,
        "lon": 28.9683485,
        "tags": {
            "addr:city": "İstanbul",
            "addr:district": null,
            "description": "",
            "opening_hours": null,
            "phone": null,
            "branch": null,
            "amenity": "confectionery",
            "mobile": null,
            "addr:street": null,
            "cuisine": null,
            "name": "Hakkızade Hafız Mustafa 1864",
            "name:en": null,
            "name:uk": null,
            "name:de": null,
            "name:tr": null,
            "name:ru": null,
            "name:ar": null
        }
    },
    {
        "lat": 41.0414673,
        "lon": 28.9007825,
        "tags": {
            "addr:city": "İstanbul",
            "addr:district": null,
            "description": "",
            "opening_hours": null,
            "phone": null,
            "branch": null,
            "amenity": "confectionery",
            "mobile": null,
            "addr:street": null,
            "cuisine": null,
            "name": null,
            "name:en": null,
            "name:uk": null,
            "name:de": null,
            "name:tr": null,
            "name:ru": null,
            "name:ar": null
        }
    },
    {
        "lat": 41.0146086,
        "lon": 28.9757022,
        "tags": {
            "addr:city": "İstanbul",
            "addr:district": null,
            "description": "",
            "opening_hours": null,
            "phone": null,
            "branch": null,
            "amenity": "confectionery",
            "mobile": null,
            "addr:street": null,
            "cuisine": null,
            "name": "Ali Usta",
            "name:en": null,
            "name:uk": null,
            "name:de": null,
            "name:tr": null,
            "name:ru": null,
            "name:ar": null
        }
    },
    {
        "lat": 41.0145879,
        "lon": 28.9755834,
        "tags": {
            "addr:city": "İstanbul",
            "addr:district": null,
            "description": "",
            "opening_hours": null,
            "phone": null,
            "branch": null,
            "amenity": "confectionery",
            "mobile": null,
            "addr:street": null,
            "cuisine": null,
            "name": "Koska",
            "name:en": null,
            "name:uk": null,
            "name:de": null,
            "name:tr": null,
            "name:ru": null,
            "name:ar": null
        }
    },
    {
        "lat": 41.0136105,
        "lon": 28.9002418,
        "tags": {
            "addr:city": "Istanbul",
            "addr:district": "Zeytinburnu",
            "description": "",
            "opening_hours": "Mo-Fr 08:00-17:00; Mo-Sa 07:30-15:00",
            "phone": "02124815485",
            "branch": null,
            "amenity": "confectionery",
            "mobile": null,
            "addr:street": "Cevizlibağ Sokağı",
            "cuisine": null,
            "name": "Koska Helvacısı",
            "name:en": null,
            "name:uk": null,
            "name:de": null,
            "name:tr": null,
            "name:ru": null,
            "name:ar": "ماركت كوسكا"
        }
    },
    {
        "lat": 40.9847235,
        "lon": 28.8955112,
        "tags": {
            "addr:city": "Istanbul",
            "addr:district": "Zeytinburnu",
            "description": "",
            "opening_hours": null,
            "phone": null,
            "branch": null,
            "amenity": "confectionery",
            "mobile": null,
            "addr:street": "Adnan Kahveci Sokak",
            "cuisine": null,
            "name": "müdür",
            "name:en": null,
            "name:uk": null,
            "name:de": null,
            "name:tr": null,
            "name:ru": null,
            "name:ar": "مودور"
        }
    },
    {
        "lat": 40.9935258,
        "lon": 28.9041051,
        "tags": {
            "addr:city": "Istanbul",
            "addr:district": "Zeytinburnu",
            "description": "",
            "opening_hours": null,
            "phone": null,
            "branch": null,
            "amenity": "confectionery",
            "mobile": null,
            "addr:street": "58.Blv Cd",
            "cuisine": null,
            "name": "Koska",
            "name:en": null,
            "name:uk": null,
            "name:de": null,
            "name:tr": null,
            "name:ru": null,
            "name:ar": "كوسكا"
        }
    },
    {
        "lat": 41.0497943,
        "lon": 28.8495426,
        "tags": {
            "addr:city": "Istanbul",
            "addr:district": "Zeytinburnu",
            "description": "",
            "opening_hours": null,
            "phone": null,
            "branch": null,
            "amenity": "confectionery",
            "mobile": null,
            "addr:street": null,
            "cuisine": null,
            "name": "Yazmira",
            "name:en": null,
            "name:uk": null,
            "name:de": null,
            "name:tr": null,
            "name:ru": null,
            "name:ar": "حلويات يازميرا"
        }
    },
    {
        "lat": 41.0312352,
        "lon": 28.8291135,
        "tags": {
            "addr:city": "Istanbul",
            "addr:district": "Bağcılar",
            "description": "",
            "opening_hours": null,
            "phone": null,
            "branch": null,
            "amenity": "confectionery",
            "mobile": null,
            "addr:street": "Cumhuriyet Caddesi",
            "cuisine": null,
            "name": "Koska",
            "name:en": null,
            "name:uk": null,
            "name:de": null,
            "name:tr": null,
            "name:ru": null,
            "name:ar": "كوسكا"
        }
    },
    {
        "lat": 41.0338494,
        "lon": 28.8619851,
        "tags": {
            "addr:city": "Istanbul",
            "addr:district": "Bağcılar",
            "description": "",
            "opening_hours": null,
            "phone": null,
            "branch": null,
            "amenity": "confectionery",
            "mobile": null,
            "addr:street": "Esenler Cd",
            "cuisine": null,
            "name": "Koska",
            "name:en": null,
            "name:uk": null,
            "name:de": null,
            "name:tr": null,
            "name:ru": null,
            "name:ar": "كوسكا"
        }
    },
    {
        "lat": 41.0517548,
        "lon": 28.9934426,
        "tags": {
            "addr:city": "İstanbul",
            "addr:district": null,
            "description": "",
            "opening_hours": null,
            "phone": null,
            "branch": null,
            "amenity": "confectionery",
            "mobile": null,
            "addr:street": "Şakayık Sokak",
            "cuisine": null,
            "name": "Dondurmacci",
            "name:en": null,
            "name:uk": null,
            "name:de": null,
            "name:tr": "Dondurmacci",
            "name:ru": null,
            "name:ar": null
        }
    },
    {
        "lat": 41.0525145,
        "lon": 28.9928626,
        "tags": {
            "addr:city": "İstanbul",
            "addr:district": null,
            "description": "",
            "opening_hours": null,
            "phone": null,
            "branch": null,
            "amenity": "confectionery",
            "mobile": null,
            "addr:street": null,
            "cuisine": null,
            "name": "Göreme Muhallebicisi",
            "name:en": null,
            "name:uk": null,
            "name:de": null,
            "name:tr": "Göreme Muhallebicisi",
            "name:ru": null,
            "name:ar": null
        }
    },
    {
        "lat": 40.983333,
        "lon": 29.0235138,
        "tags": {
            "addr:city": "İstanbul",
            "addr:district": null,
            "description": "",
            "opening_hours": "PH,Mo-Su 13:00-22:15",
            "phone": null,
            "branch": null,
            "amenity": "confectionery",
            "mobile": null,
            "addr:street": "Yeni Fikir Sokağı",
            "cuisine": null,
            "name": "Çikolata Dükkani Moda",
            "name:en": null,
            "name:uk": null,
            "name:de": null,
            "name:tr": null,
            "name:ru": null,
            "name:ar": null
        }
    },
    {
        "lat": 41.0151317,
        "lon": 28.9714373,
        "tags": {
            "addr:city": "İstanbul",
            "addr:district": null,
            "description": "",
            "opening_hours": null,
            "phone": null,
            "branch": null,
            "amenity": "confectionery",
            "mobile": null,
            "addr:street": null,
            "cuisine": null,
            "name": null,
            "name:en": "Haji Sharif Eminönü",
            "name:uk": null,
            "name:de": null,
            "name:tr": null,
            "name:ru": null,
            "name:ar": null
        }
    },
    {
        "lat": 40.9614866,
        "lon": 29.1027326,
        "tags": {
            "addr:city": "İstanbul",
            "addr:district": null,
            "description": "",
            "opening_hours": null,
            "phone": null,
            "branch": null,
            "amenity": "confectionery",
            "mobile": null,
            "addr:street": "Prof. Dr. Ali Nihat Tarlan Caddesi",
            "cuisine": null,
            "name": "Yaşar usta Dondurma",
            "name:en": null,
            "name:uk": null,
            "name:de": null,
            "name:tr": "Yaşar usta Dondurma",
            "name:ru": null,
            "name:ar": null
        }
    },
    {
        "lat": 41.0441613,
        "lon": 29.0036536,
        "tags": {
            "addr:city": "İstanbul",
            "addr:district": null,
            "description": "",
            "opening_hours": null,
            "phone": null,
            "branch": null,
            "amenity": "confectionery",
            "mobile": null,
            "addr:street": "Küçük Remzi Sok.",
            "cuisine": null,
            "name": null,
            "name:en": "Cokolada",
            "name:uk": null,
            "name:de": null,
            "name:tr": null,
            "name:ru": null,
            "name:ar": null
        }
    },
    {
        "lat": 41.0345896,
        "lon": 28.9840544,
        "tags": {
            "addr:city": "İstanbul",
            "addr:district": null,
            "description": "",
            "opening_hours": null,
            "phone": null,
            "branch": null,
            "amenity": "confectionery",
            "mobile": null,
            "addr:street": "Billurcu Sokak",
            "cuisine": null,
            "name": null,
            "name:en": "Cokolada",
            "name:uk": null,
            "name:de": null,
            "name:tr": null,
            "name:ru": null,
            "name:ar": null
        }
    },
    {
        "lat": 41.0427196,
        "lon": 29.0024641,
        "tags": {
            "addr:city": "İstanbul",
            "addr:district": null,
            "description": "",
            "opening_hours": null,
            "phone": null,
            "branch": null,
            "amenity": "confectionery",
            "mobile": null,
            "addr:street": null,
            "cuisine": null,
            "name": "Mendels Chocolatier",
            "name:en": null,
            "name:uk": null,
            "name:de": null,
            "name:tr": "Mendels Chocolatier",
            "name:ru": null,
            "name:ar": null
        }
    },
    {
        "lat": 40.9632891,
        "lon": 29.0751222,
        "tags": {
            "addr:city": "İstanbul",
            "addr:district": null,
            "description": "",
            "opening_hours": null,
            "phone": null,
            "branch": null,
            "amenity": "confectionery",
            "mobile": null,
            "addr:street": null,
            "cuisine": null,
            "name": "Abbas Waffle",
            "name:en": null,
            "name:uk": null,
            "name:de": null,
            "name:tr": "Abbas Waffle",
            "name:ru": null,
            "name:ar": null
        }
    },
    {
        "lat": 40.9684349,
        "lon": 29.0653377,
        "tags": {
            "addr:city": "İstanbul",
            "addr:district": null,
            "description": "",
            "opening_hours": null,
            "phone": null,
            "branch": null,
            "amenity": "confectionery",
            "mobile": null,
            "addr:street": null,
            "cuisine": null,
            "name": "Sweet & More Patisserie",
            "name:en": null,
            "name:uk": null,
            "name:de": null,
            "name:tr": "Sweet & More Patisserie",
            "name:ru": null,
            "name:ar": null
        }
    },
    {
        "lat": 41.0525407,
        "lon": 28.9844497,
        "tags": {
            "addr:city": "İstanbul",
            "addr:district": null,
            "description": "",
            "opening_hours": null,
            "phone": null,
            "branch": null,
            "amenity": "confectionery",
            "mobile": null,
            "addr:street": "Kurtuluş Caddesi",
            "cuisine": null,
            "name": "Damla Dondurma",
            "name:en": null,
            "name:uk": null,
            "name:de": null,
            "name:tr": null,
            "name:ru": null,
            "name:ar": null
        }
    },
    {
        "lat": 40.9745163,
        "lon": 29.1128243,
        "tags": {
            "addr:city": "İstanbul",
            "addr:district": null,
            "description": "",
            "opening_hours": null,
            "phone": null,
            "branch": null,
            "amenity": "confectionery",
            "mobile": null,
            "addr:street": null,
            "cuisine": null,
            "name": "Gaziantep Baklavacısı",
            "name:en": null,
            "name:uk": null,
            "name:de": null,
            "name:tr": null,
            "name:ru": null,
            "name:ar": null
        }
    },
    {
        "lat": 41.0089644,
        "lon": 28.9660123,
        "tags": {
            "addr:city": "İstanbul",
            "addr:district": null,
            "description": "",
            "opening_hours": null,
            "phone": null,
            "branch": null,
            "amenity": "confectionery",
            "mobile": null,
            "addr:street": null,
            "cuisine": null,
            "name": "Tugbe",
            "name:en": null,
            "name:uk": null,
            "name:de": null,
            "name:tr": null,
            "name:ru": "Тюгбе",
            "name:ar": null
        }
    },
    {
        "lat": 40.9907961,
        "lon": 29.0247609,
        "tags": {
            "addr:city": "İstanbul",
            "addr:district": null,
            "description": "",
            "opening_hours": null,
            "phone": null,
            "branch": null,
            "amenity": "confectionery",
            "mobile": null,
            "addr:street": "Yasa Caddesi",
            "cuisine": null,
            "name": "Şekerci Cafer Erol",
            "name:en": "Sekerci Cafer Erol",
            "name:uk": null,
            "name:de": null,
            "name:tr": null,
            "name:ru": "Кафе-кондитерская",
            "name:ar": null
        }
    },
    {
        "lat": 41.0082642,
        "lon": 28.9743192,
        "tags": {
            "addr:city": "İstanbul",
            "addr:district": null,
            "description": "",
            "opening_hours": null,
            "phone": null,
            "branch": null,
            "amenity": "confectionery",
            "mobile": null,
            "addr:street": null,
            "cuisine": null,
            "name": "Koska",
            "name:en": null,
            "name:uk": null,
            "name:de": null,
            "name:tr": null,
            "name:ru": null,
            "name:ar": null
        }
    },
    {
        "lat": 41.0360983,
        "lon": 28.9817401,
        "tags": {
            "addr:city": "İstanbul",
            "addr:district": null,
            "description": "",
            "opening_hours": "Mo-Su 07:00-00:00",
            "phone": null,
            "branch": null,
            "amenity": "confectionery",
            "mobile": null,
            "addr:street": "Mis Sokağı",
            "cuisine": null,
            "name": "Inci Pastanesi",
            "name:en": "Inci",
            "name:uk": null,
            "name:de": null,
            "name:tr": null,
            "name:ru": null,
            "name:ar": null
        }
    },
    {
        "lat": 41.0245148,
        "lon": 29.0159118,
        "tags": {
            "addr:city": "İstanbul",
            "addr:district": null,
            "description": "",
            "opening_hours": null,
            "phone": null,
            "branch": null,
            "amenity": "confectionery",
            "mobile": null,
            "addr:street": null,
            "cuisine": null,
            "name": "Hakkı Zade",
            "name:en": null,
            "name:uk": null,
            "name:de": null,
            "name:tr": null,
            "name:ru": null,
            "name:ar": null
        }
    },
    {
        "lat": 41.0096402,
        "lon": 28.9577556,
        "tags": {
            "addr:city": "İstanbul",
            "addr:district": null,
            "description": "",
            "opening_hours": null,
            "phone": null,
            "branch": null,
            "amenity": "confectionery",
            "mobile": null,
            "addr:street": null,
            "cuisine": null,
            "name": null,
            "name:en": null,
            "name:uk": null,
            "name:de": null,
            "name:tr": null,
            "name:ru": null,
            "name:ar": null
        }
    },
    {
        "lat": 41.01251,
        "lon": 28.9583416,
        "tags": {
            "addr:city": "İstanbul",
            "addr:district": null,
            "description": "",
            "opening_hours": null,
            "phone": null,
            "branch": null,
            "amenity": "confectionery",
            "mobile": null,
            "addr:street": null,
            "cuisine": null,
            "name": "Izol Börek",
            "name:en": null,
            "name:uk": null,
            "name:de": null,
            "name:tr": null,
            "name:ru": null,
            "name:ar": null
        }
    },
    {
        "lat": 41.0148116,
        "lon": 28.9754625,
        "tags": {
            "addr:city": "İstanbul",
            "addr:district": null,
            "description": "",
            "opening_hours": null,
            "phone": null,
            "branch": null,
            "amenity": "confectionery",
            "mobile": null,
            "addr:street": null,
            "cuisine": null,
            "name": null,
            "name:en": "Safa",
            "name:uk": null,
            "name:de": null,
            "name:tr": null,
            "name:ru": null,
            "name:ar": null
        }
    },
    {
        "lat": 40.9905238,
        "lon": 29.0284163,
        "tags": {
            "addr:city": "İstanbul",
            "addr:district": "Kadıköy",
            "description": "",
            "opening_hours": null,
            "phone": null,
            "branch": null,
            "amenity": "confectionery",
            "mobile": null,
            "addr:street": "Söğütlüçeşme Caddesi",
            "cuisine": null,
            "name": "Tuğba Kuruyemiş",
            "name:en": null,
            "name:uk": null,
            "name:de": null,
            "name:tr": null,
            "name:ru": null,
            "name:ar": null
        }
    },
    {
        "lat": 41.032764,
        "lon": 28.9686917,
        "tags": {
            "addr:city": "İstanbul",
            "addr:district": null,
            "description": "",
            "opening_hours": null,
            "phone": null,
            "branch": null,
            "amenity": "confectionery",
            "mobile": null,
            "addr:street": null,
            "cuisine": null,
            "name": "Пахлава,",
            "name:en": "Baklava, sutlac",
            "name:uk": null,
            "name:de": null,
            "name:tr": null,
            "name:ru": "Пахлава, сютлач, печеньки",
            "name:ar": null
        }
    },
    {
        "lat": 41.0472166,
        "lon": 28.9331405,
        "tags": {
            "addr:city": "İstanbul",
            "addr:district": null,
            "description": "",
            "opening_hours": null,
            "phone": null,
            "branch": null,
            "amenity": "confectionery",
            "mobile": null,
            "addr:street": null,
            "cuisine": null,
            "name": "Hanzade",
            "name:en": null,
            "name:uk": null,
            "name:de": null,
            "name:tr": null,
            "name:ru": null,
            "name:ar": null
        }
    },
    {
        "lat": 41.0115132,
        "lon": 28.9558011,
        "tags": {
            "addr:city": "İstanbul",
            "addr:district": null,
            "description": "",
            "opening_hours": null,
            "phone": null,
            "branch": null,
            "amenity": "confectionery",
            "mobile": null,
            "addr:street": null,
            "cuisine": null,
            "name": null,
            "name:en": null,
            "name:uk": null,
            "name:de": null,
            "name:tr": null,
            "name:ru": null,
            "name:ar": null
        }
    },
    {
        "lat": 41.0168251,
        "lon": 28.9706946,
        "tags": {
            "addr:city": "İstanbul",
            "addr:district": null,
            "description": "",
            "opening_hours": null,
            "phone": null,
            "branch": null,
            "amenity": "confectionery",
            "mobile": null,
            "addr:street": null,
            "cuisine": null,
            "name": "Emir Bazaar",
            "name:en": null,
            "name:uk": null,
            "name:de": null,
            "name:tr": null,
            "name:ru": null,
            "name:ar": null
        }
    },
    {
        "lat": 41.0168556,
        "lon": 28.9707162,
        "tags": {
            "addr:city": "İstanbul",
            "addr:district": null,
            "description": "",
            "opening_hours": null,
            "phone": null,
            "branch": null,
            "amenity": "confectionery",
            "mobile": null,
            "addr:street": null,
            "cuisine": null,
            "name": null,
            "name:en": null,
            "name:uk": null,
            "name:de": null,
            "name:tr": null,
            "name:ru": null,
            "name:ar": null
        }
    },
    {
        "lat": 41.0167779,
        "lon": 28.9706572,
        "tags": {
            "addr:city": "İstanbul",
            "addr:district": null,
            "description": "",
            "opening_hours": null,
            "phone": null,
            "branch": null,
            "amenity": "confectionery",
            "mobile": null,
            "addr:street": null,
            "cuisine": null,
            "name": "Alipasazade",
            "name:en": null,
            "name:uk": null,
            "name:de": null,
            "name:tr": null,
            "name:ru": null,
            "name:ar": null
        }
    },
    {
        "lat": 41.0168854,
        "lon": 28.9707421,
        "tags": {
            "addr:city": "İstanbul",
            "addr:district": null,
            "description": "",
            "opening_hours": null,
            "phone": null,
            "branch": null,
            "amenity": "confectionery",
            "mobile": null,
            "addr:street": null,
            "cuisine": null,
            "name": "Sükrü Efendi",
            "name:en": null,
            "name:uk": null,
            "name:de": null,
            "name:tr": null,
            "name:ru": null,
            "name:ar": null
        }
    },
    {
        "lat": 41.0157908,
        "lon": 28.973523,
        "tags": {
            "addr:city": "İstanbul",
            "addr:district": null,
            "description": "",
            "opening_hours": null,
            "phone": null,
            "branch": null,
            "amenity": "confectionery",
            "mobile": null,
            "addr:street": null,
            "cuisine": null,
            "name": "Ali Muhiddin Hacı Bekir",
            "name:en": null,
            "name:uk": null,
            "name:de": null,
            "name:tr": null,
            "name:ru": null,
            "name:ar": null
        }
    },
    {
        "lat": 40.9165013,
        "lon": 29.1984985,
        "tags": {
            "addr:city": "istanbul",
            "addr:district": null,
            "description": "",
            "opening_hours": null,
            "phone": null,
            "branch": null,
            "amenity": "confectionery",
            "mobile": null,
            "addr:street": null,
            "cuisine": null,
            "name": "Tatbak",
            "name:en": null,
            "name:uk": null,
            "name:de": null,
            "name:tr": null,
            "name:ru": null,
            "name:ar": null
        }
    },
    {
        "lat": 41.0081313,
        "lon": 29.2145292,
        "tags": {
            "addr:city": "İstanbul",
            "addr:district": null,
            "description": "",
            "opening_hours": null,
            "phone": null,
            "branch": null,
            "amenity": "confectionery",
            "mobile": null,
            "addr:street": null,
            "cuisine": null,
            "name": "Tatbak",
            "name:en": null,
            "name:uk": null,
            "name:de": null,
            "name:tr": null,
            "name:ru": null,
            "name:ar": null
        }
    },
    {
        "lat": 41.0776039,
        "lon": 29.0437053,
        "tags": {
            "addr:city": "İstanbul",
            "addr:district": null,
            "description": "",
            "opening_hours": null,
            "phone": null,
            "branch": null,
            "amenity": "confectionery",
            "mobile": null,
            "addr:street": null,
            "cuisine": null,
            "name": "Meşhur Bebek",
            "name:en": null,
            "name:uk": null,
            "name:de": null,
            "name:tr": "Meşhur Bebek Badem Ezmesi 1904",
            "name:ru": null,
            "name:ar": null
        }
    },
    {
        "lat": 41.0082729,
        "lon": 28.6240678,
        "tags": {
            "addr:city": "İstanbul",
            "addr:district": null,
            "description": "",
            "opening_hours": null,
            "phone": null,
            "branch": null,
            "amenity": "confectionery",
            "mobile": null,
            "addr:street": "Avrupa Caddesi",
            "cuisine": null,
            "name": "Öz Ikizler Künefe",
            "name:en": null,
            "name:uk": null,
            "name:de": null,
            "name:tr": null,
            "name:ru": null,
            "name:ar": null
        }
    },
    {
        "lat": 41.0252557,
        "lon": 28.9796335,
        "tags": {
            "addr:city": "İstanbul",
            "addr:district": null,
            "description": "",
            "opening_hours": null,
            "phone": null,
            "branch": null,
            "amenity": "confectionery",
            "mobile": null,
            "addr:street": null,
            "cuisine": null,
            "name": "Osmanlizadeler",
            "name:en": null,
            "name:uk": null,
            "name:de": null,
            "name:tr": null,
            "name:ru": null,
            "name:ar": null
        }
    },
    {
        "lat": 41.0086052,
        "lon": 29.1350061,
        "tags": {
            "addr:city": "İstanbul",
            "addr:district": null,
            "description": "",
            "opening_hours": null,
            "phone": null,
            "branch": null,
            "amenity": "confectionery",
            "mobile": null,
            "addr:street": null,
            "cuisine": null,
            "name": "Profiterol",
            "name:en": null,
            "name:uk": null,
            "name:de": null,
            "name:tr": null,
            "name:ru": null,
            "name:ar": null
        }
    },
    {
        "lat": 41.015554,
        "lon": 28.9294723,
        "tags": {
            "addr:city": "İstanbul",
            "addr:district": null,
            "description": "",
            "opening_hours": null,
            "phone": null,
            "branch": null,
            "amenity": "confectionery",
            "mobile": null,
            "addr:street": "Büyük Saray Meydanı Caddesi",
            "cuisine": null,
            "name": "Sutlava",
            "name:en": "Milk baklava",
            "name:uk": null,
            "name:de": null,
            "name:tr": null,
            "name:ru": "Пахлава с молоком",
            "name:ar": null
        }
    },
    {
        "lat": 40.9899312,
        "lon": 29.0248867,
        "tags": {
            "addr:city": "İstanbul",
            "addr:district": null,
            "description": "",
            "opening_hours": null,
            "phone": null,
            "branch": null,
            "amenity": "confectionery",
            "mobile": null,
            "addr:street": null,
            "cuisine": null,
            "name": "Altindoga",
            "name:en": null,
            "name:uk": null,
            "name:de": null,
            "name:tr": null,
            "name:ru": null,
            "name:ar": null
        }
    },
    {
        "lat": 41.0165156,
        "lon": 28.9703734,
        "tags": {
            "addr:city": "İstanbul",
            "addr:district": null,
            "description": "",
            "opening_hours": null,
            "phone": null,
            "branch": null,
            "amenity": "confectionery",
            "mobile": null,
            "addr:street": "Tahmis Sokağı",
            "cuisine": null,
            "name": "Osmanlioglu Baklavalari",
            "name:en": null,
            "name:uk": null,
            "name:de": null,
            "name:tr": null,
            "name:ru": null,
            "name:ar": null
        }
    },
    {
        "lat": 41.0036149,
        "lon": 28.9736418,
        "tags": {
            "addr:city": "İstanbul",
            "addr:district": null,
            "description": "",
            "opening_hours": "Mo-Su 09:30-23:00",
            "phone": null,
            "branch": null,
            "amenity": "confectionery",
            "mobile": null,
            "addr:street": "Kaleci Sokağı",
            "cuisine": null,
            "name": "Delighturca",
            "name:en": null,
            "name:uk": null,
            "name:de": null,
            "name:tr": null,
            "name:ru": null,
            "name:ar": null
        }
    },
    {
        "lat": 41.0302589,
        "lon": 28.9754573,
        "tags": {
            "addr:city": "İstanbul",
            "addr:district": null,
            "description": "",
            "opening_hours": "Mo-Su 09:00-01:30",
            "phone": "+90 505 396 81 27",
            "branch": null,
            "amenity": "confectionery",
            "mobile": null,
            "addr:street": "İstiklal Caddesi",
            "cuisine": null,
            "name": "Safa",
            "name:en": null,
            "name:uk": null,
            "name:de": null,
            "name:tr": null,
            "name:ru": null,
            "name:ar": null
        }
    },
    {
        "lat": 41.0196052,
        "lon": 28.9615763,
        "tags": {
            "addr:city": "İstanbul",
            "addr:district": null,
            "description": "",
            "opening_hours": null,
            "phone": null,
            "branch": null,
            "amenity": "confectionery",
            "mobile": null,
            "addr:street": null,
            "cuisine": null,
            "name": "Baklava",
            "name:en": null,
            "name:uk": null,
            "name:de": null,
            "name:tr": null,
            "name:ru": null,
            "name:ar": null
        }
    },
    {
        "lat": 41.0046522,
        "lon": 28.9662192,
        "tags": {
            "addr:city": "İstanbul",
            "addr:district": null,
            "description": "",
            "opening_hours": null,
            "phone": null,
            "branch": null,
            "amenity": "confectionery",
            "mobile": null,
            "addr:street": null,
            "cuisine": null,
            "name": null,
            "name:en": "Turkish Sweets",
            "name:uk": null,
            "name:de": null,
            "name:tr": null,
            "name:ru": null,
            "name:ar": null
        }
    },
    {
        "lat": 41.0403688,
        "lon": 28.9860741,
        "tags": {
            "addr:city": "İstanbul",
            "addr:district": null,
            "description": "",
            "opening_hours": null,
            "phone": null,
            "branch": null,
            "amenity": "confectionery",
            "mobile": null,
            "addr:street": null,
            "cuisine": null,
            "name": null,
            "name:en": "Turkish Lukum",
            "name:uk": null,
            "name:de": null,
            "name:tr": null,
            "name:ru": null,
            "name:ar": null
        }
    },
    {
        "lat": 41.0466044,
        "lon": 29.0023702,
        "tags": {
            "addr:city": "İstanbul",
            "addr:district": null,
            "description": "",
            "opening_hours": null,
            "phone": null,
            "branch": null,
            "amenity": "confectionery",
            "mobile": null,
            "addr:street": "Ihlamurdere Caddesi",
            "cuisine": null,
            "name": "Osmanli tulumbacisi",
            "name:en": null,
            "name:uk": null,
            "name:de": null,
            "name:tr": null,
            "name:ru": null,
            "name:ar": null
        }
    },
    {
        "lat": 40.9892339,
        "lon": 29.0323155,
        "tags": {
            "addr:city": "İstanbul",
            "addr:district": null,
            "description": "",
            "opening_hours": null,
            "phone": null,
            "branch": null,
            "amenity": "confectionery",
            "mobile": null,
            "addr:street": null,
            "cuisine": null,
            "name": "Firinci",
            "name:en": null,
            "name:uk": null,
            "name:de": null,
            "name:tr": null,
            "name:ru": null,
            "name:ar": null
        }
    },
    {
        "lat": 41.0352144,
        "lon": 28.9732948,
        "tags": {
            "addr:city": "İstanbul",
            "addr:district": null,
            "description": "",
            "opening_hours": "Mo-Su 05:00-21:00",
            "phone": null,
            "branch": null,
            "amenity": "confectionery",
            "mobile": null,
            "addr:street": "Aynalı Çeşme Caddesi",
            "cuisine": null,
            "name": null,
            "name:en": "Beyoglu Sariyer Borek & Pasta",
            "name:uk": null,
            "name:de": null,
            "name:tr": null,
            "name:ru": null,
            "name:ar": null
        }
    },
    {
        "lat": 41.0214656,
        "lon": 28.9479291,
        "tags": {
            "addr:city": "İstanbul",
            "addr:district": null,
            "description": "",
            "opening_hours": null,
            "phone": null,
            "branch": null,
            "amenity": "confectionery",
            "mobile": null,
            "addr:street": "Fatih Caddesi",
            "cuisine": null,
            "name": "Efe Kuruyemis",
            "name:en": null,
            "name:uk": null,
            "name:de": null,
            "name:tr": null,
            "name:ru": null,
            "name:ar": null
        }
    },
    {
        "lat": 41.0364613,
        "lon": 28.9852057,
        "tags": {
            "addr:city": "İstanbul",
            "addr:district": null,
            "description": "",
            "opening_hours": "24/7",
            "phone": "+902122520528",
            "branch": null,
            "amenity": "confectionery",
            "mobile": null,
            "addr:street": "Sıraselviler Caddesi",
            "cuisine": null,
            "name": null,
            "name:en": "Hafiz Mustafa 1864 Meydan",
            "name:uk": null,
            "name:de": null,
            "name:tr": null,
            "name:ru": null,
            "name:ar": null
        }
    },
    {
        "lat": 41.0670441,
        "lon": 29.0417979,
        "tags": {
            "addr:city": "İstanbul",
            "addr:district": null,
            "description": "",
            "opening_hours": "Mo-Su 09:00-22:00",
            "phone": null,
            "branch": null,
            "amenity": "confectionery",
            "mobile": null,
            "addr:street": "Tayyareci Suphi Sokağı",
            "cuisine": null,
            "name": null,
            "name:en": "Cutie cake",
            "name:uk": null,
            "name:de": null,
            "name:tr": null,
            "name:ru": null,
            "name:ar": null
        }
    },
    {
        "lat": 41.0343272,
        "lon": 29.0310004,
        "tags": {
            "addr:city": "İstanbul",
            "addr:district": null,
            "description": "",
            "opening_hours": "Mo-Su 10:00-23:00",
            "phone": "+90 541 712 10 25",
            "branch": null,
            "amenity": "confectionery",
            "mobile": null,
            "addr:street": "İcadiye Caddesi",
            "cuisine": null,
            "name": null,
            "name:en": "Chocolatier Aziz Bey",
            "name:uk": null,
            "name:de": null,
            "name:tr": null,
            "name:ru": null,
            "name:ar": null
        }
    },
    {
        "lat": 40.9856137,
        "lon": 29.0481328,
        "tags": {
            "addr:city": "İstanbul",
            "addr:district": null,
            "description": "",
            "opening_hours": null,
            "phone": null,
            "branch": null,
            "amenity": "confectionery",
            "mobile": null,
            "addr:street": null,
            "cuisine": null,
            "name": "Faruk Güllüoğlu",
            "name:en": null,
            "name:uk": null,
            "name:de": null,
            "name:tr": null,
            "name:ru": null,
            "name:ar": null
        }
    },
    {
        "lat": 40.9779099,
        "lon": 29.1221906,
        "tags": {
            "addr:city": "İstanbul",
            "addr:district": null,
            "description": "",
            "opening_hours": null,
            "phone": null,
            "branch": null,
            "amenity": "confectionery",
            "mobile": null,
            "addr:street": null,
            "cuisine": null,
            "name": "Mugab Gaziantep Baklavacısı",
            "name:en": null,
            "name:uk": null,
            "name:de": null,
            "name:tr": null,
            "name:ru": null,
            "name:ar": null
        }
    },
    {
        "lat": 41.0376914,
        "lon": 28.9086583,
        "tags": {
            "addr:city": "İstanbul",
            "addr:district": null,
            "description": "",
            "opening_hours": null,
            "phone": null,
            "branch": null,
            "amenity": "confectionery",
            "mobile": null,
            "addr:street": null,
            "cuisine": null,
            "name": "Ekler Şehri",
            "name:en": null,
            "name:uk": null,
            "name:de": null,
            "name:tr": null,
            "name:ru": null,
            "name:ar": null
        }
    },
    {
        "lat": 41.1148992,
        "lon": 28.9984859,
        "tags": {
            "addr:city": "İstanbul",
            "addr:district": null,
            "description": "",
            "opening_hours": null,
            "phone": null,
            "branch": null,
            "amenity": "confectionery",
            "mobile": null,
            "addr:street": null,
            "cuisine": null,
            "name": "Tosun Paşa Baklavaları",
            "name:en": null,
            "name:uk": null,
            "name:de": null,
            "name:tr": null,
            "name:ru": null,
            "name:ar": null
        }
    },
    {
        "lat": 41.1148171,
        "lon": 28.9981006,
        "tags": {
            "addr:city": "İstanbul",
            "addr:district": null,
            "description": "",
            "opening_hours": null,
            "phone": null,
            "branch": null,
            "amenity": "confectionery",
            "mobile": null,
            "addr:street": null,
            "cuisine": null,
            "name": "Anteplioğlu",
            "name:en": null,
            "name:uk": null,
            "name:de": null,
            "name:tr": null,
            "name:ru": null,
            "name:ar": null
        }
    },
    {
        "lat": 40.9739067,
        "lon": 29.048024,
        "tags": {
            "addr:city": "İstanbul",
            "addr:district": null,
            "description": "",
            "opening_hours": null,
            "phone": null,
            "branch": null,
            "amenity": "confectionery",
            "mobile": null,
            "addr:street": null,
            "cuisine": null,
            "name": "Cemilzade",
            "name:en": null,
            "name:uk": null,
            "name:de": null,
            "name:tr": null,
            "name:ru": null,
            "name:ar": null
        }
    },
    {
        "lat": 41.0272239,
        "lon": 28.97219,
        "tags": {
            "addr:city": "İstanbul",
            "addr:district": null,
            "description": "",
            "opening_hours": "Mo-Su 10:00-00:00",
            "phone": "+90 534 510 44 49",
            "branch": null,
            "amenity": "confectionery",
            "mobile": null,
            "addr:street": "Büyük Hendek Caddesi",
            "cuisine": null,
            "name": "Helvaci Ali Galata",
            "name:en": null,
            "name:uk": null,
            "name:de": null,
            "name:tr": null,
            "name:ru": null,
            "name:ar": null
        }
    },
    {
        "lat": 41.0427425,
        "lon": 29.0064758,
        "tags": {
            "addr:city": "İstanbul",
            "addr:district": null,
            "description": "",
            "opening_hours": null,
            "phone": null,
            "branch": null,
            "amenity": "confectionery",
            "mobile": null,
            "addr:street": null,
            "cuisine": null,
            "name": "Lokmayla",
            "name:en": null,
            "name:uk": null,
            "name:de": null,
            "name:tr": null,
            "name:ru": null,
            "name:ar": null
        }
    },
    {
        "lat": 41.0429958,
        "lon": 29.0063665,
        "tags": {
            "addr:city": "İstanbul",
            "addr:district": null,
            "description": "",
            "opening_hours": null,
            "phone": null,
            "branch": null,
            "amenity": "confectionery",
            "mobile": null,
            "addr:street": null,
            "cuisine": null,
            "name": "Helvacı Ali",
            "name:en": null,
            "name:uk": null,
            "name:de": null,
            "name:tr": null,
            "name:ru": null,
            "name:ar": null
        }
    },
    {
        "lat": 41.0167113,
        "lon": 28.6175379,
        "tags": {
            "addr:city": "İstanbul",
            "addr:district": null,
            "description": "",
            "opening_hours": null,
            "phone": null,
            "branch": null,
            "amenity": "confectionery",
            "mobile": null,
            "addr:street": null,
            "cuisine": null,
            "name": null,
            "name:en": null,
            "name:uk": null,
            "name:de": null,
            "name:tr": null,
            "name:ru": "магазин сладостей",
            "name:ar": null
        }
    },
    {
        "lat": 41.0472746,
        "lon": 28.9330838,
        "tags": {
            "addr:city": "İstanbul",
            "addr:district": null,
            "description": "",
            "opening_hours": null,
            "phone": null,
            "branch": null,
            "amenity": "confectionery",
            "mobile": null,
            "addr:street": null,
            "cuisine": null,
            "name": "Helvacı Yakub",
            "name:en": null,
            "name:uk": null,
            "name:de": null,
            "name:tr": null,
            "name:ru": null,
            "name:ar": null
        }
    },
    {
        "lat": 40.9715981,
        "lon": 29.0981507,
        "tags": {
            "addr:city": "İstanbul",
            "addr:district": null,
            "description": "",
            "opening_hours": null,
            "phone": null,
            "branch": null,
            "amenity": "confectionery",
            "mobile": null,
            "addr:street": null,
            "cuisine": null,
            "name": "Payidar Gaziantep Baklavacısı",
            "name:en": null,
            "name:uk": null,
            "name:de": null,
            "name:tr": null,
            "name:ru": null,
            "name:ar": null
        }
    },
    {
        "lat": 40.9819093,
        "lon": 29.13185,
        "tags": {
            "addr:city": "İstanbul",
            "addr:district": null,
            "description": "",
            "opening_hours": null,
            "phone": null,
            "branch": null,
            "amenity": "confectionery",
            "mobile": null,
            "addr:street": null,
            "cuisine": null,
            "name": "Haribo",
            "name:en": null,
            "name:uk": null,
            "name:de": null,
            "name:tr": null,
            "name:ru": null,
            "name:ar": null
        }
    },
    {
        "lat": 40.9817287,
        "lon": 29.1322672,
        "tags": {
            "addr:city": "İstanbul",
            "addr:district": null,
            "description": "",
            "opening_hours": null,
            "phone": null,
            "branch": null,
            "amenity": "confectionery",
            "mobile": null,
            "addr:street": null,
            "cuisine": null,
            "name": "Baklavacı Güllüoğlu",
            "name:en": null,
            "name:uk": null,
            "name:de": null,
            "name:tr": null,
            "name:ru": null,
            "name:ar": null
        }
    },
    {
        "lat": 41.001298,
        "lon": 28.7973253,
        "tags": {
            "addr:city": "İstanbul",
            "addr:district": null,
            "description": "",
            "opening_hours": null,
            "phone": null,
            "branch": null,
            "amenity": "confectionery",
            "mobile": null,
            "addr:street": null,
            "cuisine": null,
            "name": "Musluoğlu Baklava",
            "name:en": null,
            "name:uk": null,
            "name:de": null,
            "name:tr": null,
            "name:ru": null,
            "name:ar": null
        }
    },
    {
        "lat": 40.9921723,
        "lon": 28.8449258,
        "tags": {
            "addr:city": "İstanbul",
            "addr:district": null,
            "description": "",
            "opening_hours": null,
            "phone": null,
            "branch": null,
            "amenity": "confectionery",
            "mobile": null,
            "addr:street": null,
            "cuisine": null,
            "name": "Helvacı Ali",
            "name:en": null,
            "name:uk": null,
            "name:de": null,
            "name:tr": null,
            "name:ru": null,
            "name:ar": null
        }
    },
    {
        "lat": 41.0225792,
        "lon": 28.9771052,
        "tags": {
            "addr:city": "İstanbul",
            "addr:district": null,
            "description": "",
            "opening_hours": null,
            "phone": null,
            "branch": null,
            "amenity": "confectionery",
            "mobile": null,
            "addr:street": null,
            "cuisine": null,
            "name": "Tuğba",
            "name:en": null,
            "name:uk": null,
            "name:de": null,
            "name:tr": null,
            "name:ru": null,
            "name:ar": null
        }
    },
    {
        "lat": 40.9718832,
        "lon": 29.0837488,
        "tags": {
            "addr:city": "İstanbul",
            "addr:district": null,
            "description": "",
            "opening_hours": null,
            "phone": null,
            "branch": null,
            "amenity": "confectionery",
            "mobile": null,
            "addr:street": null,
            "cuisine": null,
            "name": "Faruk Güllüoğlu",
            "name:en": null,
            "name:uk": null,
            "name:de": null,
            "name:tr": null,
            "name:ru": null,
            "name:ar": null
        }
    },
    {
        "lat": 40.9846468,
        "lon": 29.0248286,
        "tags": {
            "addr:city": "İstanbul",
            "addr:district": null,
            "description": "",
            "opening_hours": null,
            "phone": null,
            "branch": null,
            "amenity": "confectionery",
            "mobile": null,
            "addr:street": null,
            "cuisine": null,
            "name": "Bade chocolatier",
            "name:en": null,
            "name:uk": null,
            "name:de": null,
            "name:tr": null,
            "name:ru": null,
            "name:ar": null
        }
    },
    {
        "lat": 40.8174594,
        "lon": 29.3040848,
        "tags": {
            "addr:city": "İstanbul",
            "addr:district": null,
            "description": "",
            "opening_hours": null,
            "phone": null,
            "branch": null,
            "amenity": "confectionery",
            "mobile": null,
            "addr:street": null,
            "cuisine": null,
            "name": "Ramazan Canhaz",
            "name:en": null,
            "name:uk": null,
            "name:de": null,
            "name:tr": null,
            "name:ru": null,
            "name:ar": null
        }
    },
    {
        "lat": 41.0208812,
        "lon": 28.5781421,
        "tags": {
            "addr:city": "İstanbul",
            "addr:district": null,
            "description": "",
            "opening_hours": null,
            "phone": null,
            "branch": null,
            "amenity": "confectionery",
            "mobile": null,
            "addr:street": null,
            "cuisine": null,
            "name": "Baklavacı Nebi",
            "name:en": null,
            "name:uk": null,
            "name:de": null,
            "name:tr": null,
            "name:ru": null,
            "name:ar": null
        }
    },
    {
        "lat": 41.0171814,
        "lon": 28.9710863,
        "tags": {
            "addr:city": "İstanbul",
            "addr:district": null,
            "description": "",
            "opening_hours": null,
            "phone": null,
            "branch": null,
            "amenity": "confectionery",
            "mobile": null,
            "addr:street": null,
            "cuisine": null,
            "name": "Malatya pazari",
            "name:en": null,
            "name:uk": null,
            "name:de": null,
            "name:tr": null,
            "name:ru": null,
            "name:ar": null
        }
    },
    {
        "lat": 41.0164043,
        "lon": 28.9703906,
        "tags": {
            "addr:city": "İstanbul",
            "addr:district": null,
            "description": "",
            "opening_hours": null,
            "phone": null,
            "branch": null,
            "amenity": "confectionery",
            "mobile": null,
            "addr:street": null,
            "cuisine": null,
            "name": "Malatya pazari",
            "name:en": null,
            "name:uk": null,
            "name:de": null,
            "name:tr": null,
            "name:ru": null,
            "name:ar": null
        }
    },
    {
        "lat": 41.0429573,
        "lon": 29.0063183,
        "tags": {
            "addr:city": "İstanbul",
            "addr:district": null,
            "description": "",
            "opening_hours": null,
            "phone": null,
            "branch": null,
            "amenity": "confectionery",
            "mobile": null,
            "addr:street": null,
            "cuisine": null,
            "name": "Helvaci Ali usta",
            "name:en": null,
            "name:uk": null,
            "name:de": null,
            "name:tr": null,
            "name:ru": null,
            "name:ar": null
        }
    },
    {
        "lat": 41.0156823,
        "lon": 28.9736532,
        "tags": {
            "addr:city": "İstanbul",
            "addr:district": null,
            "description": "",
            "opening_hours": null,
            "phone": null,
            "branch": null,
            "amenity": "confectionery",
            "mobile": null,
            "addr:street": null,
            "cuisine": null,
            "name": "Capitain candy",
            "name:en": null,
            "name:uk": null,
            "name:de": null,
            "name:tr": null,
            "name:ru": null,
            "name:ar": null
        }
    },
    {
        "lat": 41.0356924,
        "lon": 28.9829351,
        "tags": {
            "addr:city": "İstanbul",
            "addr:district": null,
            "description": "",
            "opening_hours": null,
            "phone": null,
            "branch": null,
            "amenity": "confectionery",
            "mobile": null,
            "addr:street": null,
            "cuisine": null,
            "name": "Safi",
            "name:en": null,
            "name:uk": null,
            "name:de": null,
            "name:tr": null,
            "name:ru": null,
            "name:ar": null
        }
    },
    {
        "lat": 41.0017002,
        "lon": 28.8572872,
        "tags": {
            "addr:city": "İstanbul",
            "addr:district": null,
            "description": "",
            "opening_hours": null,
            "phone": null,
            "branch": null,
            "amenity": "confectionery",
            "mobile": null,
            "addr:street": null,
            "cuisine": null,
            "name": "Maden Baklava",
            "name:en": null,
            "name:uk": null,
            "name:de": null,
            "name:tr": null,
            "name:ru": null,
            "name:ar": null
        }
    },
    {
        "lat": 40.9987304,
        "lon": 28.8579405,
        "tags": {
            "addr:city": "İstanbul",
            "addr:district": null,
            "description": "",
            "opening_hours": null,
            "phone": null,
            "branch": null,
            "amenity": "confectionery",
            "mobile": null,
            "addr:street": null,
            "cuisine": null,
            "name": "Gaziantepli Baklavacı Altın Oklava",
            "name:en": null,
            "name:uk": null,
            "name:de": null,
            "name:tr": null,
            "name:ru": null,
            "name:ar": null
        }
    },
    {
        "lat": 41.0342039,
        "lon": 28.902714,
        "tags": {
            "addr:city": "İstanbul",
            "addr:district": null,
            "description": "",
            "opening_hours": null,
            "phone": null,
            "branch": null,
            "amenity": "confectionery",
            "mobile": null,
            "addr:street": null,
            "cuisine": null,
            "name": "Anteplioğlu Tatlı & Baklava",
            "name:en": null,
            "name:uk": null,
            "name:de": null,
            "name:tr": null,
            "name:ru": null,
            "name:ar": null
        }
    },
    {
        "lat": 40.9922115,
        "lon": 29.1179279,
        "tags": {
            "addr:city": "İstanbul",
            "addr:district": "Ataşehir",
            "description": "",
            "opening_hours": null,
            "phone": null,
            "branch": null,
            "amenity": "confectionery",
            "mobile": null,
            "addr:street": "Ataşehir Bulvarı",
            "cuisine": null,
            "name": "Diyar Burma Tatlıcısı",
            "name:en": null,
            "name:uk": null,
            "name:de": null,
            "name:tr": null,
            "name:ru": null,
            "name:ar": null
        }
    },
    {
        "lat": 41.1411357,
        "lon": 28.4633046,
        "tags": {
            "addr:city": "İstanbul",
            "addr:district": null,
            "description": "",
            "opening_hours": null,
            "phone": null,
            "branch": null,
            "amenity": "confectionery",
            "mobile": null,
            "addr:street": null,
            "cuisine": null,
            "name": "Tatlıköy",
            "name:en": null,
            "name:uk": null,
            "name:de": null,
            "name:tr": null,
            "name:ru": null,
            "name:ar": null
        }
    },
    {
        "lat": 41.0819386,
        "lon": 28.9159325,
        "tags": {
            "addr:city": "İstanbul",
            "addr:district": null,
            "description": "",
            "opening_hours": null,
            "phone": null,
            "branch": null,
            "amenity": "confectionery",
            "mobile": null,
            "addr:street": null,
            "cuisine": null,
            "name": "Ekler King Profiterol",
            "name:en": null,
            "name:uk": null,
            "name:de": null,
            "name:tr": null,
            "name:ru": null,
            "name:ar": null
        }
    },
    {
        "lat": 41.0819461,
        "lon": 28.9158956,
        "tags": {
            "addr:city": "İstanbul",
            "addr:district": null,
            "description": "",
            "opening_hours": null,
            "phone": null,
            "branch": null,
            "amenity": "confectionery",
            "mobile": null,
            "addr:street": null,
            "cuisine": null,
            "name": "Ali Usta Burma Kadayıf Baklavaları",
            "name:en": null,
            "name:uk": null,
            "name:de": null,
            "name:tr": null,
            "name:ru": null,
            "name:ar": null
        }
    },
    {
        "lat": 41.0819643,
        "lon": 28.9158218,
        "tags": {
            "addr:city": "İstanbul",
            "addr:district": null,
            "description": "",
            "opening_hours": null,
            "phone": null,
            "branch": null,
            "amenity": "confectionery",
            "mobile": null,
            "addr:street": null,
            "cuisine": null,
            "name": "Makbul",
            "name:en": null,
            "name:uk": null,
            "name:de": null,
            "name:tr": null,
            "name:ru": null,
            "name:ar": null
        }
    },
    {
        "lat": 41.0831557,
        "lon": 28.9133012,
        "tags": {
            "addr:city": "İstanbul",
            "addr:district": null,
            "description": "",
            "opening_hours": null,
            "phone": null,
            "branch": null,
            "amenity": "confectionery",
            "mobile": null,
            "addr:street": null,
            "cuisine": null,
            "name": "Maksul",
            "name:en": null,
            "name:uk": null,
            "name:de": null,
            "name:tr": null,
            "name:ru": null,
            "name:ar": null
        }
    },
    {
        "lat": 41.083285,
        "lon": 28.9126682,
        "tags": {
            "addr:city": "İstanbul",
            "addr:district": null,
            "description": "",
            "opening_hours": null,
            "phone": null,
            "branch": null,
            "amenity": "confectionery",
            "mobile": null,
            "addr:street": null,
            "cuisine": null,
            "name": "Tatlıköy",
            "name:en": null,
            "name:uk": null,
            "name:de": null,
            "name:tr": null,
            "name:ru": null,
            "name:ar": null
        }
    },
    {
        "lat": 41.0762571,
        "lon": 28.9257836,
        "tags": {
            "addr:city": "İstanbul",
            "addr:district": null,
            "description": "",
            "opening_hours": null,
            "phone": null,
            "branch": null,
            "amenity": "confectionery",
            "mobile": null,
            "addr:street": null,
            "cuisine": null,
            "name": "Tatlı Sarayı",
            "name:en": null,
            "name:uk": null,
            "name:de": null,
            "name:tr": null,
            "name:ru": null,
            "name:ar": null
        }
    },
    {
        "lat": 40.9679607,
        "lon": 29.0635454,
        "tags": {
            "addr:city": "İstanbul",
            "addr:district": "Kadıköy",
            "description": "",
            "opening_hours": null,
            "phone": null,
            "branch": null,
            "amenity": "confectionery",
            "mobile": null,
            "addr:street": "Plaj Yolu Sokağı",
            "cuisine": null,
            "name": "Nutshop",
            "name:en": null,
            "name:uk": null,
            "name:de": null,
            "name:tr": null,
            "name:ru": null,
            "name:ar": null
        }
    },
    {
        "lat": 41.0274134,
        "lon": 28.9736845,
        "tags": {
            "addr:city": "İstanbul",
            "addr:district": null,
            "description": "",
            "opening_hours": null,
            "phone": null,
            "branch": null,
            "amenity": "confectionery",
            "mobile": null,
            "addr:street": null,
            "cuisine": null,
            "name": null,
            "name:en": null,
            "name:uk": null,
            "name:de": null,
            "name:tr": null,
            "name:ru": null,
            "name:ar": null
        }
    },
    {
        "lat": 41.0216509,
        "lon": 29.1153722,
        "tags": {
            "addr:city": "İstanbul",
            "addr:district": null,
            "description": "",
            "opening_hours": null,
            "phone": null,
            "branch": null,
            "amenity": "confectionery",
            "mobile": null,
            "addr:street": null,
            "cuisine": null,
            "name": "Tatbak",
            "name:en": null,
            "name:uk": null,
            "name:de": null,
            "name:tr": null,
            "name:ru": null,
            "name:ar": null
        }
    },
    {
        "lat": 41.0801366,
        "lon": 28.9388452,
        "tags": {
            "addr:city": "İstanbul",
            "addr:district": null,
            "description": "",
            "opening_hours": null,
            "phone": null,
            "branch": null,
            "amenity": "confectionery",
            "mobile": null,
            "addr:street": null,
            "cuisine": null,
            "name": "Şekerbey",
            "name:en": null,
            "name:uk": null,
            "name:de": null,
            "name:tr": null,
            "name:ru": null,
            "name:ar": null
        }
    },
    {
        "lat": 41.0051846,
        "lon": 28.9799604,
        "tags": {
            "addr:city": "İstanbul",
            "addr:district": null,
            "description": "",
            "opening_hours": null,
            "phone": null,
            "branch": null,
            "amenity": "confectionery",
            "mobile": null,
            "addr:street": null,
            "cuisine": null,
            "name": "Bazaar Abdülhamid",
            "name:en": null,
            "name:uk": null,
            "name:de": null,
            "name:tr": null,
            "name:ru": null,
            "name:ar": null
        }
    },
    {
        "lat": 41.0049489,
        "lon": 28.9796676,
        "tags": {
            "addr:city": "İstanbul",
            "addr:district": null,
            "description": "",
            "opening_hours": null,
            "phone": null,
            "branch": null,
            "amenity": "confectionery",
            "mobile": null,
            "addr:street": null,
            "cuisine": null,
            "name": "Cennet Tatlısı",
            "name:en": null,
            "name:uk": null,
            "name:de": null,
            "name:tr": null,
            "name:ru": null,
            "name:ar": null
        }
    },
    {
        "lat": 41.0067327,
        "lon": 28.9708133,
        "tags": {
            "addr:city": "İstanbul",
            "addr:district": null,
            "description": "",
            "opening_hours": null,
            "phone": null,
            "branch": null,
            "amenity": "confectionery",
            "mobile": null,
            "addr:street": null,
            "cuisine": null,
            "name": "Şazhade",
            "name:en": null,
            "name:uk": null,
            "name:de": null,
            "name:tr": null,
            "name:ru": null,
            "name:ar": null
        }
    },
    {
        "lat": 41.0058207,
        "lon": 28.9735252,
        "tags": {
            "addr:city": "İstanbul",
            "addr:district": null,
            "description": "",
            "opening_hours": null,
            "phone": null,
            "branch": null,
            "amenity": "confectionery",
            "mobile": null,
            "addr:street": null,
            "cuisine": null,
            "name": "Kumru",
            "name:en": null,
            "name:uk": null,
            "name:de": null,
            "name:tr": null,
            "name:ru": null,
            "name:ar": null
        }
    },
    {
        "lat": 41.0046502,
        "lon": 28.9669566,
        "tags": {
            "addr:city": "İstanbul",
            "addr:district": null,
            "description": "",
            "opening_hours": null,
            "phone": null,
            "branch": null,
            "amenity": "confectionery",
            "mobile": null,
            "addr:street": "Kadırga Limanı Caddesi",
            "cuisine": null,
            "name": "Cennet",
            "name:en": null,
            "name:uk": null,
            "name:de": null,
            "name:tr": null,
            "name:ru": null,
            "name:ar": null
        }
    },
    {
        "lat": 41.0054542,
        "lon": 28.9739038,
        "tags": {
            "addr:city": "İstanbul",
            "addr:district": null,
            "description": "",
            "opening_hours": null,
            "phone": null,
            "branch": null,
            "amenity": "confectionery",
            "mobile": null,
            "addr:street": null,
            "cuisine": null,
            "name": null,
            "name:en": null,
            "name:uk": null,
            "name:de": null,
            "name:tr": null,
            "name:ru": null,
            "name:ar": null
        }
    },
    {
        "lat": 40.9637868,
        "lon": 29.0801944,
        "tags": {
            "addr:city": "İstanbul",
            "addr:district": "Kadıköy",
            "description": "",
            "opening_hours": "Mo-Sa 10:00-19:00",
            "phone": null,
            "branch": null,
            "amenity": "confectionery",
            "mobile": null,
            "addr:street": "Halim Ağa Sokağı",
            "cuisine": null,
            "name": "Josephine Cookies",
            "name:en": null,
            "name:uk": null,
            "name:de": null,
            "name:tr": null,
            "name:ru": null,
            "name:ar": null
        }
    },
    {
        "lat": 41.0165344,
        "lon": 28.9697802,
        "tags": {
            "addr:city": "İstanbul",
            "addr:district": null,
            "description": "",
            "opening_hours": null,
            "phone": null,
            "branch": null,
            "amenity": "confectionery",
            "mobile": null,
            "addr:street": null,
            "cuisine": null,
            "name": null,
            "name:en": "Beta Yeni Han",
            "name:uk": null,
            "name:de": null,
            "name:tr": null,
            "name:ru": null,
            "name:ar": null
        }
    },
    {
        "lat": 41.1102476,
        "lon": 28.8492219,
        "tags": {
            "addr:city": "İstanbul",
            "addr:district": null,
            "description": "",
            "opening_hours": null,
            "phone": null,
            "branch": null,
            "amenity": "confectionery",
            "mobile": null,
            "addr:street": null,
            "cuisine": null,
            "name": "Murad Fıstıkçı Baklava",
            "name:en": null,
            "name:uk": null,
            "name:de": null,
            "name:tr": null,
            "name:ru": null,
            "name:ar": null
        }
    },
    {
        "lat": 41.0886111,
        "lon": 28.866901,
        "tags": {
            "addr:city": "İstanbul",
            "addr:district": null,
            "description": "",
            "opening_hours": null,
            "phone": null,
            "branch": null,
            "amenity": "confectionery",
            "mobile": null,
            "addr:street": null,
            "cuisine": null,
            "name": "Dudu Çerez",
            "name:en": null,
            "name:uk": null,
            "name:de": null,
            "name:tr": null,
            "name:ru": null,
            "name:ar": null
        }
    },
    {
        "lat": 41.0201075,
        "lon": 28.578764,
        "tags": {
            "addr:city": "İstanbul",
            "addr:district": null,
            "description": "",
            "opening_hours": null,
            "phone": null,
            "branch": null,
            "amenity": "confectionery",
            "mobile": null,
            "addr:street": null,
            "cuisine": null,
            "name": "Koska Fabrika Satış Mağazası",
            "name:en": null,
            "name:uk": null,
            "name:de": null,
            "name:tr": null,
            "name:ru": null,
            "name:ar": null
        }
    },
    {
        "lat": 41.136458,
        "lon": 28.8205867,
        "tags": {
            "addr:city": "İstanbul",
            "addr:district": null,
            "description": "",
            "opening_hours": null,
            "phone": null,
            "branch": null,
            "amenity": "confectionery",
            "mobile": null,
            "addr:street": null,
            "cuisine": null,
            "name": "Kızıldağ Baklava",
            "name:en": null,
            "name:uk": null,
            "name:de": null,
            "name:tr": null,
            "name:ru": null,
            "name:ar": null
        }
    },
    {
        "lat": 40.9920276,
        "lon": 29.2308134,
        "tags": {
            "addr:city": "İstanbul",
            "addr:district": null,
            "description": "",
            "opening_hours": null,
            "phone": null,
            "branch": null,
            "amenity": "confectionery",
            "mobile": null,
            "addr:street": null,
            "cuisine": null,
            "name": "Dragos",
            "name:en": null,
            "name:uk": null,
            "name:de": null,
            "name:tr": null,
            "name:ru": null,
            "name:ar": null
        }
    },
    {
        "lat": 41.1089752,
        "lon": 29.0404693,
        "tags": {
            "addr:city": "İstanbul",
            "addr:district": null,
            "description": "",
            "opening_hours": null,
            "phone": null,
            "branch": null,
            "amenity": "confectionery",
            "mobile": null,
            "addr:street": null,
            "cuisine": null,
            "name": "Gattenio Artisan Chocolate & Bakery",
            "name:en": null,
            "name:uk": null,
            "name:de": null,
            "name:tr": null,
            "name:ru": null,
            "name:ar": null
        }
    },
    {
        "lat": 41.0929749,
        "lon": 29.0033815,
        "tags": {
            "addr:city": "İstanbul",
            "addr:district": null,
            "description": "",
            "opening_hours": null,
            "phone": null,
            "branch": null,
            "amenity": "confectionery",
            "mobile": null,
            "addr:street": null,
            "cuisine": null,
            "name": "YUKI MOCHI",
            "name:en": null,
            "name:uk": null,
            "name:de": null,
            "name:tr": null,
            "name:ru": null,
            "name:ar": null
        }
    },
    {
        "lat": 41.0481925,
        "lon": 29.0056929,
        "tags": {
            "addr:city": "İstanbul",
            "addr:district": null,
            "description": "",
            "opening_hours": null,
            "phone": null,
            "branch": null,
            "amenity": "confectionery",
            "mobile": null,
            "addr:street": null,
            "cuisine": null,
            "name": "YUKI MOCHI",
            "name:en": null,
            "name:uk": null,
            "name:de": null,
            "name:tr": null,
            "name:ru": null,
            "name:ar": null
        }
    },
    {
        "lat": 41.0054291,
        "lon": 28.9814887,
        "tags": {
            "addr:city": "İstanbul",
            "addr:district": null,
            "description": "",
            "opening_hours": null,
            "phone": null,
            "branch": null,
            "amenity": "confectionery",
            "mobile": null,
            "addr:street": null,
            "cuisine": null,
            "name": "Sultanahmet Bazaar Turkish Delight",
            "name:en": null,
            "name:uk": null,
            "name:de": null,
            "name:tr": null,
            "name:ru": null,
            "name:ar": null
        }
    },
    {
        "lat": 41.0084892,
        "lon": 28.971694,
        "tags": {
            "addr:city": "İstanbul",
            "addr:district": null,
            "description": "",
            "opening_hours": null,
            "phone": null,
            "branch": null,
            "amenity": "confectionery",
            "mobile": null,
            "addr:street": null,
            "cuisine": null,
            "name": "Cennet Baklava-Turkish Delight-Spice-Tea",
            "name:en": null,
            "name:uk": null,
            "name:de": null,
            "name:tr": null,
            "name:ru": null,
            "name:ar": null
        }
    },
    {
        "lat": 41.0102994,
        "lon": 28.9788771,
        "tags": {
            "addr:city": "İstanbul",
            "addr:district": null,
            "description": "",
            "opening_hours": null,
            "phone": null,
            "branch": null,
            "amenity": "confectionery",
            "mobile": null,
            "addr:street": null,
            "cuisine": null,
            "name": "Şayan Baklava Ayasofya",
            "name:en": null,
            "name:uk": null,
            "name:de": null,
            "name:tr": null,
            "name:ru": null,
            "name:ar": null
        }
    },
    {
        "lat": 41.0138832,
        "lon": 28.9749132,
        "tags": {
            "addr:city": "İstanbul",
            "addr:district": null,
            "description": "",
            "opening_hours": null,
            "phone": null,
            "branch": null,
            "amenity": "confectionery",
            "mobile": null,
            "addr:street": null,
            "cuisine": null,
            "name": "DİLŞEKER Turkish Delight-Baklava-Coffe-Nuts",
            "name:en": null,
            "name:uk": null,
            "name:de": null,
            "name:tr": null,
            "name:ru": null,
            "name:ar": null
        }
    },
    {
        "lat": 41.013977,
        "lon": 28.9765112,
        "tags": {
            "addr:city": "İstanbul",
            "addr:district": null,
            "description": "",
            "opening_hours": null,
            "phone": null,
            "branch": null,
            "amenity": "confectionery",
            "mobile": null,
            "addr:street": null,
            "cuisine": null,
            "name": "DENKLI TURKISH DELIGHT ORGANIC STORE 1",
            "name:en": null,
            "name:uk": null,
            "name:de": null,
            "name:tr": null,
            "name:ru": null,
            "name:ar": null
        }
    },
    {
        "lat": 40.9796757,
        "lon": 29.0670551,
        "tags": {
            "addr:city": "İstanbul",
            "addr:district": "Kadıköy",
            "description": "",
            "opening_hours": null,
            "phone": null,
            "branch": null,
            "amenity": "confectionery",
            "mobile": null,
            "addr:street": "Tütüncü Mehmet Efendi Caddesi",
            "cuisine": null,
            "name": "Şekerci Cafer Erol",
            "name:en": null,
            "name:uk": null,
            "name:de": null,
            "name:tr": null,
            "name:ru": null,
            "name:ar": null
        }
    },
    {
        "lat": 41.0339544,
        "lon": 28.9464826,
        "tags": {
            "addr:city": "İstanbul",
            "addr:district": null,
            "description": "",
            "opening_hours": null,
            "phone": null,
            "branch": null,
            "amenity": "confectionery",
            "mobile": null,
            "addr:street": null,
            "cuisine": null,
            "name": "Mavera Chocolates",
            "name:en": null,
            "name:uk": null,
            "name:de": null,
            "name:tr": null,
            "name:ru": null,
            "name:ar": null
        }
    },
    {
        "lat": 41.0563573,
        "lon": 29.0029304,
        "tags": {
            "addr:city": "İstanbul",
            "addr:district": null,
            "description": "",
            "opening_hours": null,
            "phone": null,
            "branch": null,
            "amenity": "confectionery",
            "mobile": null,
            "addr:street": null,
            "cuisine": null,
            "name": "Burmalım Gaziantep Kadayıfları",
            "name:en": null,
            "name:uk": null,
            "name:de": null,
            "name:tr": null,
            "name:ru": null,
            "name:ar": null
        }
    },
    {
        "lat": 41.0261404,
        "lon": 28.974667,
        "tags": {
            "addr:city": "İstanbul",
            "addr:district": null,
            "description": "",
            "opening_hours": null,
            "phone": null,
            "branch": null,
            "amenity": "confectionery",
            "mobile": null,
            "addr:street": null,
            "cuisine": null,
            "name": "Candy shop",
            "name:en": null,
            "name:uk": null,
            "name:de": null,
            "name:tr": null,
            "name:ru": null,
            "name:ar": null
        }
    },
    {
        "lat": 40.9893815,
        "lon": 29.0286889,
        "tags": {
            "addr:city": "İstanbul",
            "addr:district": null,
            "description": "",
            "opening_hours": null,
            "phone": null,
            "branch": null,
            "amenity": "confectionery",
            "mobile": null,
            "addr:street": null,
            "cuisine": null,
            "name": "Ecleristan",
            "name:en": null,
            "name:uk": null,
            "name:de": null,
            "name:tr": null,
            "name:ru": null,
            "name:ar": null
        }
    },
    {
        "lat": 41.0245552,
        "lon": 29.0158924,
        "tags": {
            "addr:city": "İstanbul",
            "addr:district": null,
            "description": "",
            "opening_hours": "Mo-Su 08:00-02:00",
            "phone": "+90 216 334 10 20",
            "branch": null,
            "amenity": "confectionery",
            "mobile": null,
            "addr:street": "Atlas Çıkmazı Sokağı",
            "cuisine": null,
            "name": "Hafiz Mustafa 1864 Üsküdar",
            "name:en": null,
            "name:uk": null,
            "name:de": null,
            "name:tr": null,
            "name:ru": null,
            "name:ar": null
        }
    },
    {
        "lat": 40.9315197,
        "lon": 29.1356669,
        "tags": {
            "addr:city": "İstanbul",
            "addr:district": null,
            "description": "",
            "opening_hours": null,
            "phone": null,
            "branch": null,
            "amenity": "confectionery",
            "mobile": null,
            "addr:street": null,
            "cuisine": null,
            "name": "Beylerbeyi Profiterol",
            "name:en": null,
            "name:uk": null,
            "name:de": null,
            "name:tr": null,
            "name:ru": null,
            "name:ar": null
        }
    },
    {
        "lat": 41.0080951,
        "lon": 28.965573,
        "tags": {
            "addr:city": "İstanbul",
            "addr:district": null,
            "description": "",
            "opening_hours": null,
            "phone": null,
            "branch": null,
            "amenity": "confectionery",
            "mobile": null,
            "addr:street": null,
            "cuisine": null,
            "name": null,
            "name:en": "bags",
            "name:uk": null,
            "name:de": null,
            "name:tr": null,
            "name:ru": null,
            "name:ar": null
        }
    },
    {
        "lat": 41.0307774,
        "lon": 29.1078523,
        "tags": {
            "addr:city": "İstanbul",
            "addr:district": null,
            "description": "",
            "opening_hours": "Su-Fr 09:00-19:00",
            "phone": "+905431668791",
            "branch": null,
            "amenity": "confectionery",
            "mobile": null,
            "addr:street": null,
            "cuisine": null,
            "name": "Merry Dolci Tasarım Pasta Dükkanı",
            "name:en": "Merry Dolci Cake Design Shop",
            "name:uk": null,
            "name:de": null,
            "name:tr": null,
            "name:ru": null,
            "name:ar": null
        }
    },
    {
        "lat": 40.9063614,
        "lon": 29.3142855,
        "tags": {
            "addr:city": "İstanbul",
            "addr:district": null,
            "description": "after security check",
            "opening_hours": null,
            "phone": null,
            "branch": null,
            "amenity": "confectionery",
            "mobile": null,
            "addr:street": null,
            "cuisine": null,
            "name": "ikbal",
            "name:en": null,
            "name:uk": null,
            "name:de": null,
            "name:tr": null,
            "name:ru": null,
            "name:ar": null
        }
    },
    {
        "lat": 40.9906895,
        "lon": 29.0592294,
        "tags": {
            "addr:city": "İstanbul",
            "addr:district": "Kadıköy",
            "description": "",
            "opening_hours": null,
            "phone": null,
            "branch": null,
            "amenity": "confectionery",
            "mobile": null,
            "addr:street": "Mandıra Caddesi",
            "cuisine": null,
            "name": "Tatbak",
            "name:en": null,
            "name:uk": null,
            "name:de": null,
            "name:tr": null,
            "name:ru": null,
            "name:ar": null
        }
    },
    {
        "lat": 40.9277572,
        "lon": 29.3076001,
        "tags": {
            "addr:city": "İstanbul",
            "addr:district": "Pendik",
            "description": "",
            "opening_hours": null,
            "phone": null,
            "branch": null,
            "amenity": "confectionery",
            "mobile": null,
            "addr:street": "Mustafa Akyol Sokağı",
            "cuisine": null,
            "name": "Tatbak",
            "name:en": null,
            "name:uk": null,
            "name:de": null,
            "name:tr": null,
            "name:ru": null,
            "name:ar": null
        }
    },
    {
        "lat": 40.925809,
        "lon": 29.3120746,
        "tags": {
            "addr:city": "İstanbul",
            "addr:district": "Pendik",
            "description": "",
            "opening_hours": null,
            "phone": null,
            "branch": null,
            "amenity": "confectionery",
            "mobile": null,
            "addr:street": null,
            "cuisine": null,
            "name": "Meşhur Safranbolu Lokumcusu",
            "name:en": null,
            "name:uk": null,
            "name:de": null,
            "name:tr": null,
            "name:ru": null,
            "name:ar": null
        }
    },
    {
        "lat": 41.029861,
        "lon": 28.9753287,
        "tags": {
            "addr:city": "İstanbul",
            "addr:district": null,
            "description": "",
            "opening_hours": null,
            "phone": null,
            "branch": null,
            "amenity": "confectionery",
            "mobile": null,
            "addr:street": "İstiklal Caddesi",
            "cuisine": null,
            "name": "Wowmix",
            "name:en": null,
            "name:uk": null,
            "name:de": null,
            "name:tr": null,
            "name:ru": null,
            "name:ar": null
        }
    },
    {
        "lat": 40.876773,
        "lon": 29.2343905,
        "tags": {
            "addr:city": "İstanbul",
            "addr:district": null,
            "description": "",
            "opening_hours": null,
            "phone": null,
            "branch": null,
            "amenity": "confectionery",
            "mobile": null,
            "addr:street": "Erol Kaya Caddesi",
            "cuisine": null,
            "name": "Cemilusta Tatli & Sarküteri",
            "name:en": null,
            "name:uk": null,
            "name:de": null,
            "name:tr": null,
            "name:ru": null,
            "name:ar": null
        }
    },
    {
        "lat": 41.0810803,
        "lon": 28.2506984,
        "tags": {
            "addr:city": "İstanbul",
            "addr:district": null,
            "description": "",
            "opening_hours": null,
            "phone": null,
            "branch": null,
            "amenity": "confectionery",
            "mobile": null,
            "addr:street": null,
            "cuisine": null,
            "name": "Bayramoğlu",
            "name:en": null,
            "name:uk": null,
            "name:de": null,
            "name:tr": null,
            "name:ru": null,
            "name:ar": null
        }
    },
    {
        "lat": 41.0438438,
        "lon": 28.9578765,
        "tags": {
            "addr:city": "İstanbul",
            "addr:district": null,
            "description": "",
            "opening_hours": null,
            "phone": null,
            "branch": null,
            "amenity": "confectionery",
            "mobile": null,
            "addr:street": null,
            "cuisine": null,
            "name": "Osmanlı tatlıcılık",
            "name:en": null,
            "name:uk": null,
            "name:de": null,
            "name:tr": null,
            "name:ru": null,
            "name:ar": null
        }
    },
    {
        "lat": 41.0271958,
        "lon": 28.9849177,
        "tags": {
            "addr:city": "İstanbul",
            "addr:district": null,
            "description": "",
            "opening_hours": null,
            "phone": null,
            "branch": null,
            "amenity": "confectionery",
            "mobile": null,
            "addr:street": null,
            "cuisine": null,
            "name": "Hafız Mustafa 1864",
            "name:en": null,
            "name:uk": null,
            "name:de": null,
            "name:tr": "Hafız Mustafa 1864",
            "name:ru": null,
            "name:ar": null
        }
    },
    {
        "lat": 40.9827128,
        "lon": 28.8764959,
        "tags": {
            "addr:city": "İstanbul",
            "addr:district": null,
            "description": "",
            "opening_hours": null,
            "phone": null,
            "branch": null,
            "amenity": "confectionery",
            "mobile": null,
            "addr:street": null,
            "cuisine": null,
            "name": "Boşnak Börekçi",
            "name:en": null,
            "name:uk": null,
            "name:de": null,
            "name:tr": "Boşnak Börekçi",
            "name:ru": null,
            "name:ar": null
        }
    },
    {
        "lat": 41.0712418,
        "lon": 28.1129321,
        "tags": {
            "addr:city": "İstanbul",
            "addr:district": null,
            "description": "",
            "opening_hours": null,
            "phone": null,
            "branch": null,
            "amenity": "confectionery",
            "mobile": null,
            "addr:street": null,
            "cuisine": null,
            "name": "Lokumcuzade Fabrika Satış Mağazası",
            "name:en": null,
            "name:uk": null,
            "name:de": null,
            "name:tr": null,
            "name:ru": null,
            "name:ar": null
        }
    },
    {
        "lat": 41.0308593,
        "lon": 28.975676,
        "tags": {
            "addr:city": "İstanbul",
            "addr:district": null,
            "description": "",
            "opening_hours": null,
            "phone": null,
            "branch": null,
            "amenity": "confectionery",
            "mobile": null,
            "addr:street": "İstiklal Caddesi",
            "cuisine": null,
            "name": "Captain Candy Shop",
            "name:en": null,
            "name:uk": null,
            "name:de": null,
            "name:tr": null,
            "name:ru": null,
            "name:ar": null
        }
    },
    {
        "lat": 41.0307966,
        "lon": 28.9756576,
        "tags": {
            "addr:city": "İstanbul",
            "addr:district": null,
            "description": "",
            "opening_hours": null,
            "phone": null,
            "branch": null,
            "amenity": "confectionery",
            "mobile": null,
            "addr:street": "İstiklal Caddesi",
            "cuisine": null,
            "name": "İstiklal Kuruyemiş",
            "name:en": null,
            "name:uk": null,
            "name:de": null,
            "name:tr": null,
            "name:ru": null,
            "name:ar": null
        }
    },
    {
        "lat": 41.0401093,
        "lon": 28.9838394,
        "tags": {
            "addr:city": "İstanbul",
            "addr:district": null,
            "description": "",
            "opening_hours": null,
            "phone": null,
            "branch": null,
            "amenity": "confectionery",
            "mobile": null,
            "addr:street": null,
            "cuisine": null,
            "name": null,
            "name:en": null,
            "name:uk": null,
            "name:de": null,
            "name:tr": null,
            "name:ru": null,
            "name:ar": null
        }
    },
    {
        "lat": 41.0395504,
        "lon": 28.9838988,
        "tags": {
            "addr:city": "İstanbul",
            "addr:district": null,
            "description": "",
            "opening_hours": null,
            "phone": null,
            "branch": null,
            "amenity": "confectionery",
            "mobile": null,
            "addr:street": null,
            "cuisine": null,
            "name": "Aya Sofya",
            "name:en": null,
            "name:uk": null,
            "name:de": null,
            "name:tr": null,
            "name:ru": null,
            "name:ar": null
        }
    },
    {
        "lat": 41.0379181,
        "lon": 28.9841489,
        "tags": {
            "addr:city": "İstanbul",
            "addr:district": null,
            "description": "",
            "opening_hours": null,
            "phone": null,
            "branch": null,
            "amenity": "confectionery",
            "mobile": null,
            "addr:street": "Abdülhak Hamit Caddesi",
            "cuisine": null,
            "name": "Meydan Market",
            "name:en": null,
            "name:uk": null,
            "name:de": null,
            "name:tr": null,
            "name:ru": null,
            "name:ar": null
        }
    },
    {
        "lat": 41.0387605,
        "lon": 28.9843894,
        "tags": {
            "addr:city": "İstanbul",
            "addr:district": null,
            "description": "",
            "opening_hours": null,
            "phone": null,
            "branch": null,
            "amenity": "confectionery",
            "mobile": null,
            "addr:street": null,
            "cuisine": null,
            "name": "Lokum City",
            "name:en": null,
            "name:uk": null,
            "name:de": null,
            "name:tr": null,
            "name:ru": null,
            "name:ar": null
        }
    },
    {
        "lat": 41.0357089,
        "lon": 28.984665,
        "tags": {
            "addr:city": "İstanbul",
            "addr:district": null,
            "description": "",
            "opening_hours": null,
            "phone": null,
            "branch": null,
            "amenity": "confectionery",
            "mobile": null,
            "addr:street": "Sıraselviler Caddesi",
            "cuisine": null,
            "name": "Dilekli Kuruyemiş",
            "name:en": null,
            "name:uk": null,
            "name:de": null,
            "name:tr": null,
            "name:ru": null,
            "name:ar": null
        }
    },
    {
        "lat": 41.035787,
        "lon": 28.984877,
        "tags": {
            "addr:city": "İstanbul",
            "addr:district": null,
            "description": "",
            "opening_hours": null,
            "phone": null,
            "branch": null,
            "amenity": "confectionery",
            "mobile": null,
            "addr:street": "Sıraselviler Caddesi",
            "cuisine": null,
            "name": "Nevi Turkish Delight",
            "name:en": null,
            "name:uk": null,
            "name:de": null,
            "name:tr": null,
            "name:ru": null,
            "name:ar": null
        }
    },
    {
        "lat": 41.0360322,
        "lon": 28.9847268,
        "tags": {
            "addr:city": "İstanbul",
            "addr:district": null,
            "description": "",
            "opening_hours": null,
            "phone": null,
            "branch": null,
            "amenity": "confectionery",
            "mobile": null,
            "addr:street": "Sıraselveler Caddesi",
            "cuisine": null,
            "name": "Bambi Kuruyemiş",
            "name:en": null,
            "name:uk": null,
            "name:de": null,
            "name:tr": null,
            "name:ru": null,
            "name:ar": null
        }
    }
]