[
    {
        "lat": 40.9123113,
        "lon": 29.2181032,
        "tags": {
            "addr:city": "İstanbul",
            "addr:district": null,
            "description": "",
            "opening_hours": null,
            "phone": null,
            "branch": null,
            "amenity": "copyshop",
            "mobile": null,
            "addr:street": null,
            "cuisine": null,
            "name": "artikus ajans",
            "name:en": null,
            "name:uk": null,
            "name:de": null,
            "name:tr": null,
            "name:ru": null,
            "name:ar": null
        }
    },
    {
        "lat": 41.0162804,
        "lon": 28.6517008,
        "tags": {
            "addr:city": "İstanbul",
            "addr:district": null,
            "description": "",
            "opening_hours": null,
            "phone": null,
            "branch": null,
            "amenity": "copyshop",
            "mobile": null,
            "addr:street": null,
            "cuisine": null,
            "name": "Avrupa Kırtasiye Fotokopi",
            "name:en": null,
            "name:uk": null,
            "name:de": null,
            "name:tr": null,
            "name:ru": null,
            "name:ar": null
        }
    },
    {
        "lat": 41.0347954,
        "lon": 28.9215006,
        "tags": {
            "addr:city": "İstanbul",
            "addr:district": "Eyüpsultan",
            "description": "",
            "opening_hours": "Mo-Fr 06:30-23:00; Sa,Su 09:00-20:00",
            "phone": "+90 850 241 30 00",
            "branch": "Axis İstanbul",
            "amenity": "copyshop",
            "mobile": null,
            "addr:street": "Osmangazi Caddesi",
            "cuisine": null,
            "name": "MACFit",
            "name:en": null,
            "name:uk": null,
            "name:de": null,
            "name:tr": null,
            "name:ru": null,
            "name:ar": null
        }
    },
    {
        "lat": 41.0300812,
        "lon": 28.8904214,
        "tags": {
            "addr:city": "İstanbul",
            "addr:district": null,
            "description": "",
            "opening_hours": null,
            "phone": null,
            "branch": null,
            "amenity": "copyshop",
            "mobile": null,
            "addr:street": null,
            "cuisine": null,
            "name": null,
            "name:en": null,
            "name:uk": null,
            "name:de": null,
            "name:tr": null,
            "name:ru": null,
            "name:ar": null
        }
    },
    {
        "lat": 41.0933713,
        "lon": 29.0871721,
        "tags": {
            "addr:city": "İstanbul",
            "addr:district": null,
            "description": "Tel :+90 216 580 18 50",
            "opening_hours": null,
            "phone": null,
            "branch": null,
            "amenity": "copyshop",
            "mobile": null,
            "addr:street": null,
            "cuisine": null,
            "name": "NSC Copy Center",
            "name:en": null,
            "name:uk": null,
            "name:de": null,
            "name:tr": null,
            "name:ru": null,
            "name:ar": null
        }
    },
    {
        "lat": 40.9611525,
        "lon": 29.0895421,
        "tags": {
            "addr:city": "İstanbul",
            "addr:district": null,
            "description": "",
            "opening_hours": null,
            "phone": null,
            "branch": null,
            "amenity": "copyshop",
            "mobile": null,
            "addr:street": null,
            "cuisine": null,
            "name": "Suadiye Copy Center",
            "name:en": null,
            "name:uk": null,
            "name:de": null,
            "name:tr": null,
            "name:ru": null,
            "name:ar": null
        }
    },
    {
        "lat": 41.0085938,
        "lon": 29.2105805,
        "tags": {
            "addr:city": "İstanbul",
            "addr:district": null,
            "description": "",
            "opening_hours": null,
            "phone": null,
            "branch": null,
            "amenity": "copyshop",
            "mobile": null,
            "addr:street": null,
            "cuisine": null,
            "name": "Asya Ozalit",
            "name:en": null,
            "name:uk": null,
            "name:de": null,
            "name:tr": null,
            "name:ru": null,
            "name:ar": null
        }
    },
    {
        "lat": 41.0940424,
        "lon": 29.089299,
        "tags": {
            "addr:city": "İstanbul",
            "addr:district": null,
            "description": "",
            "opening_hours": null,
            "phone": null,
            "branch": null,
            "amenity": "copyshop",
            "mobile": null,
            "addr:street": null,
            "cuisine": null,
            "name": "Karakuş Fotokopi",
            "name:en": null,
            "name:uk": null,
            "name:de": null,
            "name:tr": null,
            "name:ru": null,
            "name:ar": null
        }
    },
    {
        "lat": 41.0681044,
        "lon": 28.9430178,
        "tags": {
            "addr:city": "İstanbul",
            "addr:district": null,
            "description": "",
            "opening_hours": null,
            "phone": null,
            "branch": null,
            "amenity": "copyshop",
            "mobile": null,
            "addr:street": null,
            "cuisine": null,
            "name": "Ilgi Ozalit",
            "name:en": null,
            "name:uk": null,
            "name:de": null,
            "name:tr": null,
            "name:ru": null,
            "name:ar": null
        }
    },
    {
        "lat": 41.0008768,
        "lon": 28.799288,
        "tags": {
            "addr:city": "İstanbul",
            "addr:district": null,
            "description": "",
            "opening_hours": null,
            "phone": null,
            "branch": null,
            "amenity": "copyshop",
            "mobile": null,
            "addr:street": null,
            "cuisine": null,
            "name": null,
            "name:en": null,
            "name:uk": null,
            "name:de": null,
            "name:tr": null,
            "name:ru": null,
            "name:ar": null
        }
    },
    {
        "lat": 41.000393,
        "lon": 28.7991412,
        "tags": {
            "addr:city": "İstanbul",
            "addr:district": null,
            "description": "",
            "opening_hours": null,
            "phone": null,
            "branch": null,
            "amenity": "vending_machine",
            "mobile": null,
            "addr:street": null,
            "cuisine": null,
            "name": null,
            "name:en": null,
            "name:uk": null,
            "name:de": null,
            "name:tr": null,
            "name:ru": null,
            "name:ar": null
        }
    },
    {
        "lat": 40.9918134,
        "lon": 29.0261222,
        "tags": {
            "addr:city": "İstanbul",
            "addr:district": "Kadıköy",
            "description": "",
            "opening_hours": null,
            "phone": "0216 336 39 24 - 450 10 59",
            "branch": null,
            "amenity": "copyshop",
            "mobile": null,
            "addr:street": "Mühürdar Fuat Sokak",
            "cuisine": null,
            "name": "Cemil Baskı - Kadıköy",
            "name:en": null,
            "name:uk": null,
            "name:de": null,
            "name:tr": null,
            "name:ru": null,
            "name:ar": null
        }
    },
    {
        "lat": 41.0251472,
        "lon": 28.9581595,
        "tags": {
            "addr:city": "Istanbul",
            "addr:district": "Fatih",
            "description": "",
            "opening_hours": null,
            "phone": null,
            "branch": null,
            "amenity": "copyshop",
            "mobile": null,
            "addr:street": "Nalıncı Kasım Sokak",
            "cuisine": null,
            "name": "Kampüs Fotokopi",
            "name:en": null,
            "name:uk": null,
            "name:de": null,
            "name:tr": null,
            "name:ru": null,
            "name:ar": "كامبوس للطباعة"
        }
    },
    {
        "lat": 40.9976965,
        "lon": 28.9240671,
        "tags": {
            "addr:city": "Istanbul",
            "addr:district": "Fatih",
            "description": "",
            "opening_hours": null,
            "phone": "0543 421 89 65",
            "branch": null,
            "amenity": "copyshop",
            "mobile": null,
            "addr:street": "Hacı evhaddin caddesi",
            "cuisine": null,
            "name": "Nisa kırtasiye",
            "name:en": null,
            "name:uk": null,
            "name:de": null,
            "name:tr": null,
            "name:ru": null,
            "name:ar": "قرطاسية نسا"
        }
    },
    {
        "lat": 40.9975396,
        "lon": 28.9240041,
        "tags": {
            "addr:city": "Istanbul",
            "addr:district": "Fatih",
            "description": "",
            "opening_hours": null,
            "phone": "(0212) 587 12 24",
            "branch": null,
            "amenity": "copyshop",
            "mobile": null,
            "addr:street": "Hacı evhaddin caddesi",
            "cuisine": null,
            "name": "Kaymaz Kirtasiye",
            "name:en": null,
            "name:uk": null,
            "name:de": null,
            "name:tr": null,
            "name:ru": null,
            "name:ar": "قرطاسية كمس كارغو"
        }
    },
    {
        "lat": 40.9959018,
        "lon": 28.92668,
        "tags": {
            "addr:city": "Istanbul",
            "addr:district": "Fatih",
            "description": "",
            "opening_hours": null,
            "phone": null,
            "branch": null,
            "amenity": "copyshop",
            "mobile": null,
            "addr:street": "İmrahor ilyasbey caddesi",
            "cuisine": null,
            "name": "Matbaa",
            "name:en": null,
            "name:uk": null,
            "name:de": null,
            "name:tr": null,
            "name:ru": null,
            "name:ar": "مطبعة"
        }
    },
    {
        "lat": 40.9975208,
        "lon": 28.9291913,
        "tags": {
            "addr:city": "Istanbul",
            "addr:district": "Fatih",
            "description": "",
            "opening_hours": null,
            "phone": "(0212) 587 07 57",
            "branch": null,
            "amenity": "copyshop",
            "mobile": null,
            "addr:street": "İmrahor ilyasbey caddesi",
            "cuisine": null,
            "name": "Karadeniz kırtasiye",
            "name:en": null,
            "name:uk": null,
            "name:de": null,
            "name:tr": null,
            "name:ru": null,
            "name:ar": "قرطاسية كارادينيز"
        }
    },
    {
        "lat": 41.0074624,
        "lon": 28.9440121,
        "tags": {
            "addr:city": "Istanbul",
            "addr:district": "Fatih",
            "description": "",
            "opening_hours": null,
            "phone": "(0212) 585 16 91",
            "branch": null,
            "amenity": "copyshop",
            "mobile": null,
            "addr:street": "Seyit Yakuphan Sokağı",
            "cuisine": null,
            "name": "Sonsuz Reklam",
            "name:en": null,
            "name:uk": null,
            "name:de": null,
            "name:tr": null,
            "name:ru": null,
            "name:ar": "إنفينيتي للإعلان"
        }
    },
    {
        "lat": 41.0076904,
        "lon": 28.9500755,
        "tags": {
            "addr:city": "Istanbul",
            "addr:district": "Fatih",
            "description": "",
            "opening_hours": null,
            "phone": null,
            "branch": null,
            "amenity": "copyshop",
            "mobile": null,
            "addr:street": "Namık kemal caddesi",
            "cuisine": null,
            "name": "Hakan kırtasiye",
            "name:en": null,
            "name:uk": null,
            "name:de": null,
            "name:tr": null,
            "name:ru": null,
            "name:ar": "قرطاسية هاكان"
        }
    },
    {
        "lat": 41.0086024,
        "lon": 28.9470701,
        "tags": {
            "addr:city": "Istanbul",
            "addr:district": "Fatih",
            "description": "",
            "opening_hours": null,
            "phone": null,
            "branch": null,
            "amenity": "copyshop",
            "mobile": null,
            "addr:street": "Cerrahpaşa caddesi",
            "cuisine": null,
            "name": "Nazar Kırtasiye",
            "name:en": null,
            "name:uk": null,
            "name:de": null,
            "name:tr": null,
            "name:ru": null,
            "name:ar": "قرطاسية نازار"
        }
    },
    {
        "lat": 41.0202176,
        "lon": 28.9322452,
        "tags": {
            "addr:city": "Istanbul",
            "addr:district": "Fatih",
            "description": "",
            "opening_hours": null,
            "phone": "(0212) 621 53 63",
            "branch": null,
            "amenity": "copyshop",
            "mobile": null,
            "addr:street": "Tatlıpınar Caddesi",
            "cuisine": null,
            "name": "Fikir Copy Center ve Kırtasiye",
            "name:en": null,
            "name:uk": null,
            "name:de": null,
            "name:tr": null,
            "name:ru": null,
            "name:ar": "قرطاسية فيكير"
        }
    },
    {
        "lat": 41.0198637,
        "lon": 28.9320491,
        "tags": {
            "addr:city": "Istanbul",
            "addr:district": "Fatih",
            "description": "",
            "opening_hours": null,
            "phone": "(0212) 521 86 19",
            "branch": null,
            "amenity": "copyshop",
            "mobile": null,
            "addr:street": "Tatlıpınar Caddesi",
            "cuisine": null,
            "name": "Kaya Kırtasiye Fotokopi Çekim Merkezi",
            "name:en": null,
            "name:uk": null,
            "name:de": null,
            "name:tr": null,
            "name:ru": null,
            "name:ar": "قرطاسية كايا"
        }
    },
    {
        "lat": 41.0196583,
        "lon": 28.9321927,
        "tags": {
            "addr:city": "Istanbul",
            "addr:district": "Fatih",
            "description": "",
            "opening_hours": null,
            "phone": "05455880304",
            "branch": null,
            "amenity": "copyshop",
            "mobile": null,
            "addr:street": "Tatlıpınar Caddesi",
            "cuisine": null,
            "name": "Red copy center",
            "name:en": null,
            "name:uk": null,
            "name:de": null,
            "name:tr": null,
            "name:ru": null,
            "name:ar": "مركز نيت للنسخ"
        }
    },
    {
        "lat": 41.0207175,
        "lon": 28.9270077,
        "tags": {
            "addr:city": "Istanbul",
            "addr:district": "Fatih",
            "description": "",
            "opening_hours": null,
            "phone": null,
            "branch": null,
            "amenity": "copyshop",
            "mobile": null,
            "addr:street": "Aydın sokak",
            "cuisine": null,
            "name": "Kırtasiye",
            "name:en": null,
            "name:uk": null,
            "name:de": null,
            "name:tr": null,
            "name:ru": null,
            "name:ar": "قرطاسية"
        }
    },
    {
        "lat": 41.0179991,
        "lon": 28.954067,
        "tags": {
            "addr:city": "Istanbul",
            "addr:district": "Fatih",
            "description": "",
            "opening_hours": null,
            "phone": null,
            "branch": null,
            "amenity": "copyshop",
            "mobile": null,
            "addr:street": "Ömer Efendi Sokak",
            "cuisine": null,
            "name": "Bir Milyoncu Kırtasiye",
            "name:en": null,
            "name:uk": null,
            "name:de": null,
            "name:tr": null,
            "name:ru": null,
            "name:ar": "قرطاسية المليونجي"
        }
    },
    {
        "lat": 41.0207514,
        "lon": 28.9535624,
        "tags": {
            "addr:city": "Istanbul",
            "addr:district": "Fatih",
            "description": "",
            "opening_hours": null,
            "phone": "02125212611",
            "branch": null,
            "amenity": "copyshop",
            "mobile": null,
            "addr:street": "Nevşehirli Ibrahim Paşa Caddesi",
            "cuisine": null,
            "name": "Fatih Kırtasiye",
            "name:en": null,
            "name:uk": null,
            "name:de": null,
            "name:tr": null,
            "name:ru": null,
            "name:ar": "الفاتح للقرطاسية"
        }
    },
    {
        "lat": 41.0134391,
        "lon": 28.9752012,
        "tags": {
            "addr:city": "Istanbul",
            "addr:district": "Fatih",
            "description": "",
            "opening_hours": null,
            "phone": "+90 212 514 37 88",
            "branch": null,
            "amenity": "copyshop",
            "mobile": null,
            "addr:street": "Ebussuut Caddesi",
            "cuisine": null,
            "name": "Final fotoğrafçılık",
            "name:en": null,
            "name:uk": null,
            "name:de": null,
            "name:tr": null,
            "name:ru": null,
            "name:ar": null
        }
    },
    {
        "lat": 41.0095565,
        "lon": 28.9751526,
        "tags": {
            "addr:city": "Istanbul",
            "addr:district": "Fatih",
            "description": "",
            "opening_hours": null,
            "phone": null,
            "branch": null,
            "amenity": "copyshop",
            "mobile": null,
            "addr:street": "Molla Feneri Sokak",
            "cuisine": null,
            "name": "Huzur Matbaacılık",
            "name:en": null,
            "name:uk": null,
            "name:de": null,
            "name:tr": null,
            "name:ru": null,
            "name:ar": "هوزور مطبعجيليك للطباعة"
        }
    },
    {
        "lat": 41.0093189,
        "lon": 28.9742867,
        "tags": {
            "addr:city": "Istanbul",
            "addr:district": "Fatih",
            "description": "",
            "opening_hours": null,
            "phone": null,
            "branch": null,
            "amenity": "copyshop",
            "mobile": null,
            "addr:street": "Baş Musahip Sokak",
            "cuisine": null,
            "name": "Seyhan Ajans",
            "name:en": null,
            "name:uk": null,
            "name:de": null,
            "name:tr": null,
            "name:ru": null,
            "name:ar": "سيهان أجانس للطباعة"
        }
    },
    {
        "lat": 41.0092828,
        "lon": 28.9738297,
        "tags": {
            "addr:city": "Istanbul",
            "addr:district": "Fatih",
            "description": "",
            "opening_hours": null,
            "phone": "0212 511 59 80",
            "branch": null,
            "amenity": "copyshop",
            "mobile": null,
            "addr:street": "Bab-ı Ali Caddesi",
            "cuisine": null,
            "name": "Miray Fest",
            "name:en": null,
            "name:uk": null,
            "name:de": null,
            "name:tr": null,
            "name:ru": null,
            "name:ar": "ميراي فيست للطباعة"
        }
    },
    {
        "lat": 41.0093131,
        "lon": 28.9738364,
        "tags": {
            "addr:city": "Istanbul",
            "addr:district": "Fatih",
            "description": "",
            "opening_hours": null,
            "phone": "0212 513 06 08",
            "branch": null,
            "amenity": "copyshop",
            "mobile": null,
            "addr:street": "Bab-ı Ali Caddesi",
            "cuisine": null,
            "name": "İkizler Matbaası",
            "name:en": null,
            "name:uk": null,
            "name:de": null,
            "name:tr": null,
            "name:ru": null,
            "name:ar": "إكيزلار مطبعة سي للطباعة"
        }
    },
    {
        "lat": 41.0184154,
        "lon": 28.9581096,
        "tags": {
            "addr:city": "Istanbul",
            "addr:district": "Turkey",
            "description": "",
            "opening_hours": null,
            "phone": null,
            "branch": null,
            "amenity": "copyshop",
            "mobile": null,
            "addr:street": "Atatürk bulvarı",
            "cuisine": null,
            "name": "Baran duvar kağıdı",
            "name:en": null,
            "name:uk": null,
            "name:de": null,
            "name:tr": null,
            "name:ru": null,
            "name:ar": "باران"
        }
    },
    {
        "lat": 41.0156198,
        "lon": 28.9590712,
        "tags": {
            "addr:city": "Istanbul",
            "addr:district": "Turkey",
            "description": "",
            "opening_hours": null,
            "phone": null,
            "branch": null,
            "amenity": "copyshop",
            "mobile": null,
            "addr:street": "üzümçü sokak",
            "cuisine": null,
            "name": "Özen fotokopi",
            "name:en": null,
            "name:uk": null,
            "name:de": null,
            "name:tr": null,
            "name:ru": null,
            "name:ar": "اوزين فوتوكوبي"
        }
    },
    {
        "lat": 41.015505,
        "lon": 28.9592572,
        "tags": {
            "addr:city": "Istanbul",
            "addr:district": "Turkey",
            "description": "",
            "opening_hours": null,
            "phone": null,
            "branch": null,
            "amenity": "copyshop",
            "mobile": null,
            "addr:street": "Müşküle soak",
            "cuisine": null,
            "name": "nil kırtasiye",
            "name:en": null,
            "name:uk": null,
            "name:de": null,
            "name:tr": null,
            "name:ru": null,
            "name:ar": "نيل كورتاسية"
        }
    },
    {
        "lat": 41.0142985,
        "lon": 28.9599398,
        "tags": {
            "addr:city": "Istanbul",
            "addr:district": "Turkey",
            "description": "",
            "opening_hours": null,
            "phone": null,
            "branch": null,
            "amenity": "copyshop",
            "mobile": null,
            "addr:street": "Kalender mektebi sokak",
            "cuisine": null,
            "name": "not and copy",
            "name:en": null,
            "name:uk": null,
            "name:de": null,
            "name:tr": null,
            "name:ru": null,
            "name:ar": "نوت اند كوبي"
        }
    },
    {
        "lat": 41.0147555,
        "lon": 28.9611879,
        "tags": {
            "addr:city": "Istanbul",
            "addr:district": "Turkey",
            "description": "",
            "opening_hours": null,
            "phone": null,
            "branch": null,
            "amenity": "copyshop",
            "mobile": null,
            "addr:street": "Kirazlı mescit sokak",
            "cuisine": null,
            "name": "mordem",
            "name:en": null,
            "name:uk": null,
            "name:de": null,
            "name:tr": null,
            "name:ru": null,
            "name:ar": "موردم"
        }
    },
    {
        "lat": 41.017636,
        "lon": 28.9670818,
        "tags": {
            "addr:city": "Istanbul",
            "addr:district": "Fatih",
            "description": "",
            "opening_hours": null,
            "phone": null,
            "branch": null,
            "amenity": "copyshop",
            "mobile": null,
            "addr:street": "Cemil birsel caddesi",
            "cuisine": null,
            "name": "Deniz kırtasiye",
            "name:en": null,
            "name:uk": null,
            "name:de": null,
            "name:tr": null,
            "name:ru": null,
            "name:ar": "دينيز كرتاسية"
        }
    },
    {
        "lat": 41.0180363,
        "lon": 28.9650893,
        "tags": {
            "addr:city": "Istanbul",
            "addr:district": "Fatih",
            "description": "",
            "opening_hours": null,
            "phone": null,
            "branch": null,
            "amenity": "copyshop",
            "mobile": null,
            "addr:street": "Hariye hanım Sokağı",
            "cuisine": null,
            "name": "klasik kırtasiye",
            "name:en": null,
            "name:uk": null,
            "name:de": null,
            "name:tr": null,
            "name:ru": null,
            "name:ar": "كلاسيك كرتاسية"
        }
    },
    {
        "lat": 41.0131834,
        "lon": 28.9747862,
        "tags": {
            "addr:city": "Istanbul",
            "addr:district": "Fatih",
            "description": "",
            "opening_hours": null,
            "phone": null,
            "branch": null,
            "amenity": "copyshop",
            "mobile": null,
            "addr:street": "Çakaloğlu ykş",
            "cuisine": null,
            "name": "Ozalp kırtasiye",
            "name:en": null,
            "name:uk": null,
            "name:de": null,
            "name:tr": null,
            "name:ru": null,
            "name:ar": "اوزالب كرتاسية"
        }
    },
    {
        "lat": 41.0137769,
        "lon": 28.9749009,
        "tags": {
            "addr:city": "Istanbul",
            "addr:district": "Fatih",
            "description": "",
            "opening_hours": null,
            "phone": null,
            "branch": null,
            "amenity": "copyshop",
            "mobile": null,
            "addr:street": "Çakaloğlu ykş",
            "cuisine": null,
            "name": "Serve",
            "name:en": null,
            "name:uk": null,
            "name:de": null,
            "name:tr": null,
            "name:ru": null,
            "name:ar": "سيرف"
        }
    },
    {
        "lat": 41.0120416,
        "lon": 28.9749842,
        "tags": {
            "addr:city": "Istanbul",
            "addr:district": "Fatih",
            "description": "",
            "opening_hours": null,
            "phone": null,
            "branch": null,
            "amenity": "copyshop",
            "mobile": null,
            "addr:street": "Çakaloğlu ykş",
            "cuisine": null,
            "name": "Deniz kitap kırtasiye",
            "name:en": null,
            "name:uk": null,
            "name:de": null,
            "name:tr": null,
            "name:ru": null,
            "name:ar": "دينيز كتاب كرتاسية"
        }
    },
    {
        "lat": 41.0118461,
        "lon": 28.9749024,
        "tags": {
            "addr:city": "Istanbul",
            "addr:district": "Fatih",
            "description": "",
            "opening_hours": null,
            "phone": null,
            "branch": null,
            "amenity": "copyshop",
            "mobile": null,
            "addr:street": "Çakaloğlu ykş",
            "cuisine": null,
            "name": "Öz çıpa fotokopi",
            "name:en": null,
            "name:uk": null,
            "name:de": null,
            "name:tr": null,
            "name:ru": null,
            "name:ar": "اوز جبا فوتوكوبي"
        }
    },
    {
        "lat": 41.0117638,
        "lon": 28.9749569,
        "tags": {
            "addr:city": "Istanbul",
            "addr:district": "Fatih",
            "description": "",
            "opening_hours": null,
            "phone": null,
            "branch": null,
            "amenity": "copyshop",
            "mobile": null,
            "addr:street": "Çakaloğlu ykş",
            "cuisine": null,
            "name": "Paper and print",
            "name:en": null,
            "name:uk": null,
            "name:de": null,
            "name:tr": null,
            "name:ru": null,
            "name:ar": "بيبر اند برينت"
        }
    },
    {
        "lat": 41.0117844,
        "lon": 28.9752433,
        "tags": {
            "addr:city": "Istanbul",
            "addr:district": "Fatih",
            "description": "",
            "opening_hours": null,
            "phone": null,
            "branch": null,
            "amenity": "copyshop",
            "mobile": null,
            "addr:street": "Ankara caddesi",
            "cuisine": null,
            "name": "karon digital",
            "name:en": null,
            "name:uk": null,
            "name:de": null,
            "name:tr": null,
            "name:ru": null,
            "name:ar": "كارون ديجيتال"
        }
    },
    {
        "lat": 41.007087,
        "lon": 28.9416683,
        "tags": {
            "addr:city": "Istanbul",
            "addr:district": "Fatih",
            "description": "",
            "opening_hours": null,
            "phone": null,
            "branch": null,
            "amenity": "copyshop",
            "mobile": null,
            "addr:street": "Kasabpasa sokak",
            "cuisine": null,
            "name": "Nar",
            "name:en": null,
            "name:uk": null,
            "name:de": null,
            "name:tr": null,
            "name:ru": null,
            "name:ar": "نار"
        }
    },
    {
        "lat": 41.0056863,
        "lon": 28.9372909,
        "tags": {
            "addr:city": "Istanbul",
            "addr:district": "Fatih",
            "description": "",
            "opening_hours": null,
            "phone": null,
            "branch": null,
            "amenity": "copyshop",
            "mobile": null,
            "addr:street": "koca mustafapasa caddesi",
            "cuisine": null,
            "name": "Metcopy",
            "name:en": null,
            "name:uk": null,
            "name:de": null,
            "name:tr": null,
            "name:ru": null,
            "name:ar": "ميت كوبي"
        }
    },
    {
        "lat": 41.0041904,
        "lon": 28.9348099,
        "tags": {
            "addr:city": "Istanbul",
            "addr:district": "Fatih",
            "description": "",
            "opening_hours": null,
            "phone": null,
            "branch": null,
            "amenity": "copyshop",
            "mobile": null,
            "addr:street": "Sancaktar Tekkesi Sokağı",
            "cuisine": null,
            "name": "Alfa Kırtasiyesi",
            "name:en": null,
            "name:uk": null,
            "name:de": null,
            "name:tr": null,
            "name:ru": null,
            "name:ar": "الفا قرطاسيسي"
        }
    },
    {
        "lat": 41.0117533,
        "lon": 28.959214,
        "tags": {
            "addr:city": "Istanbul",
            "addr:district": "Fatih",
            "description": "",
            "opening_hours": null,
            "phone": null,
            "branch": null,
            "amenity": "copyshop",
            "mobile": null,
            "addr:street": "Büyük Reşitpaşa Caddesi",
            "cuisine": null,
            "name": "Ofis Turka Kırtasiye",
            "name:en": null,
            "name:uk": null,
            "name:de": null,
            "name:tr": null,
            "name:ru": null,
            "name:ar": null
        }
    },
    {
        "lat": 41.0105126,
        "lon": 28.9592328,
        "tags": {
            "addr:city": "Istanbul",
            "addr:district": "Fatih",
            "description": "",
            "opening_hours": null,
            "phone": null,
            "branch": null,
            "amenity": "copyshop",
            "mobile": null,
            "addr:street": "Büyük Reşitpaşa Caddesi",
            "cuisine": null,
            "name": "Çantay Kırtasiye Fotokopi",
            "name:en": null,
            "name:uk": null,
            "name:de": null,
            "name:tr": null,
            "name:ru": null,
            "name:ar": "قرطاسية تشانتاي"
        }
    },
    {
        "lat": 41.0116407,
        "lon": 28.96008,
        "tags": {
            "addr:city": "Istanbul",
            "addr:district": "Fatih",
            "description": "",
            "opening_hours": null,
            "phone": null,
            "branch": null,
            "amenity": "copyshop",
            "mobile": null,
            "addr:street": "Darülfünun Caddesi",
            "cuisine": null,
            "name": "Kampüs Fotokopi Kırtasiye",
            "name:en": null,
            "name:uk": null,
            "name:de": null,
            "name:tr": null,
            "name:ru": null,
            "name:ar": "قرطاسية كامبوس"
        }
    },
    {
        "lat": 41.0214441,
        "lon": 28.947773,
        "tags": {
            "addr:city": "Istanbul",
            "addr:district": "Fatih",
            "description": "",
            "opening_hours": null,
            "phone": null,
            "branch": null,
            "amenity": "copyshop",
            "mobile": null,
            "addr:street": "Başmüezzin sokak",
            "cuisine": null,
            "name": "Sahra fotokopi",
            "name:en": null,
            "name:uk": null,
            "name:de": null,
            "name:tr": null,
            "name:ru": null,
            "name:ar": "صحرا فوتوكوبي"
        }
    },
    {
        "lat": 41.0093817,
        "lon": 28.942964,
        "tags": {
            "addr:city": "Istanbul",
            "addr:district": "Fatih",
            "description": "",
            "opening_hours": "Mo-Sa 09:00-18:00",
            "phone": "05522222900",
            "branch": null,
            "amenity": "copyshop",
            "mobile": null,
            "addr:street": "Selçuk Sultan Sokağı",
            "cuisine": null,
            "name": "istanbul consulting ofis",
            "name:en": "istanbul consulting office",
            "name:uk": null,
            "name:de": null,
            "name:tr": null,
            "name:ru": null,
            "name:ar": "مكتب اسطنبول الاستشاري"
        }
    },
    {
        "lat": 41.0090697,
        "lon": 28.9426713,
        "tags": {
            "addr:city": "Istanbul",
            "addr:district": "Fatih",
            "description": "",
            "opening_hours": null,
            "phone": null,
            "branch": null,
            "amenity": "copyshop",
            "mobile": null,
            "addr:street": "Selçuk Sultan Sokak",
            "cuisine": null,
            "name": "Fikir",
            "name:en": null,
            "name:uk": null,
            "name:de": null,
            "name:tr": null,
            "name:ru": null,
            "name:ar": "فكرة"
        }
    },
    {
        "lat": 41.0104503,
        "lon": 28.9408356,
        "tags": {
            "addr:city": "Istanbul",
            "addr:district": "Fatih",
            "description": "",
            "opening_hours": null,
            "phone": null,
            "branch": null,
            "amenity": "copyshop",
            "mobile": null,
            "addr:street": "Özbek Süleyman Efendi Sokak",
            "cuisine": null,
            "name": "NabulsiCO",
            "name:en": null,
            "name:uk": null,
            "name:de": null,
            "name:tr": null,
            "name:ru": null,
            "name:ar": "شركة النابلسي"
        }
    },
    {
        "lat": 41.0301881,
        "lon": 28.9371609,
        "tags": {
            "addr:city": "Istanbul",
            "addr:district": "Fatih",
            "description": "",
            "opening_hours": null,
            "phone": null,
            "branch": null,
            "amenity": "copyshop",
            "mobile": null,
            "addr:street": "Fevzi paşa Caddesi",
            "cuisine": null,
            "name": "Artman Reklam",
            "name:en": null,
            "name:uk": null,
            "name:de": null,
            "name:tr": null,
            "name:ru": null,
            "name:ar": "ارتمان دعاية"
        }
    },
    {
        "lat": 41.0175046,
        "lon": 28.9684494,
        "tags": {
            "addr:city": "Istanbul",
            "addr:district": "Fatih",
            "description": "",
            "opening_hours": null,
            "phone": null,
            "branch": null,
            "amenity": "copyshop",
            "mobile": null,
            "addr:street": "Hasırcılar Caddesi",
            "cuisine": null,
            "name": "Eminönü Tişört Baskı",
            "name:en": null,
            "name:uk": null,
            "name:de": null,
            "name:tr": null,
            "name:ru": null,
            "name:ar": "ايمينونو تيشورت باسكي"
        }
    },
    {
        "lat": 41.0171658,
        "lon": 28.9690627,
        "tags": {
            "addr:city": "Istanbul",
            "addr:district": "Fatih",
            "description": "",
            "opening_hours": null,
            "phone": null,
            "branch": null,
            "amenity": "copyshop",
            "mobile": null,
            "addr:street": "Hasırcılar Caddesi",
            "cuisine": null,
            "name": "Ucuzluk Pazarı Kirtasiye",
            "name:en": null,
            "name:uk": null,
            "name:de": null,
            "name:tr": null,
            "name:ru": null,
            "name:ar": "اوجوزلوك بازارو كرتاسية"
        }
    },
    {
        "lat": 41.0163509,
        "lon": 28.9702394,
        "tags": {
            "addr:city": "Istanbul",
            "addr:district": "Fatih",
            "description": "",
            "opening_hours": null,
            "phone": null,
            "branch": null,
            "amenity": "copyshop",
            "mobile": null,
            "addr:street": "Tahmis Sokak",
            "cuisine": null,
            "name": "Furkan Kirtasiye",
            "name:en": null,
            "name:uk": null,
            "name:de": null,
            "name:tr": null,
            "name:ru": null,
            "name:ar": "فوركان كورتاسيي"
        }
    },
    {
        "lat": 41.0110969,
        "lon": 28.974268,
        "tags": {
            "addr:city": "Istanbul",
            "addr:district": "Fatih",
            "description": "",
            "opening_hours": null,
            "phone": null,
            "branch": null,
            "amenity": "copyshop",
            "mobile": null,
            "addr:street": "Türk Ocağı Caddesi",
            "cuisine": null,
            "name": "Metin Copy Plus",
            "name:en": null,
            "name:uk": null,
            "name:de": null,
            "name:tr": null,
            "name:ru": null,
            "name:ar": "متين كوبي بلس"
        }
    },
    {
        "lat": 41.0105309,
        "lon": 28.973546,
        "tags": {
            "addr:city": "Istanbul",
            "addr:district": "Fatih",
            "description": "",
            "opening_hours": null,
            "phone": null,
            "branch": null,
            "amenity": "copyshop",
            "mobile": null,
            "addr:street": "Şeref Efendi Sokak",
            "cuisine": null,
            "name": "Camlibel Matbaacilik",
            "name:en": null,
            "name:uk": null,
            "name:de": null,
            "name:tr": null,
            "name:ru": null,
            "name:ar": "جامليبل مطلبعجيلك"
        }
    },
    {
        "lat": 40.9895562,
        "lon": 29.0634181,
        "tags": {
            "addr:city": "İstanbul",
            "addr:district": null,
            "description": "",
            "opening_hours": null,
            "phone": null,
            "branch": null,
            "amenity": "copyshop",
            "mobile": null,
            "addr:street": null,
            "cuisine": null,
            "name": null,
            "name:en": null,
            "name:uk": null,
            "name:de": null,
            "name:tr": null,
            "name:ru": null,
            "name:ar": null
        }
    },
    {
        "lat": 40.9896349,
        "lon": 29.0626223,
        "tags": {
            "addr:city": "İstanbul",
            "addr:district": null,
            "description": "",
            "opening_hours": null,
            "phone": null,
            "branch": null,
            "amenity": "copyshop",
            "mobile": null,
            "addr:street": null,
            "cuisine": null,
            "name": null,
            "name:en": null,
            "name:uk": null,
            "name:de": null,
            "name:tr": null,
            "name:ru": null,
            "name:ar": null
        }
    },
    {
        "lat": 40.9567159,
        "lon": 29.0967074,
        "tags": {
            "addr:city": "İstanbul",
            "addr:district": "Kadıköy",
            "description": "",
            "opening_hours": null,
            "phone": null,
            "branch": null,
            "amenity": "copyshop",
            "mobile": null,
            "addr:street": "Prof. Dr. Ali Nihat Tarlan Caddesi",
            "cuisine": null,
            "name": "Akademi Kırtasiye",
            "name:en": null,
            "name:uk": null,
            "name:de": null,
            "name:tr": null,
            "name:ru": null,
            "name:ar": null
        }
    },
    {
        "lat": 40.8969235,
        "lon": 29.1833886,
        "tags": {
            "addr:city": "İstanbul",
            "addr:district": null,
            "description": "",
            "opening_hours": null,
            "phone": null,
            "branch": null,
            "amenity": "copyshop",
            "mobile": null,
            "addr:street": null,
            "cuisine": null,
            "name": null,
            "name:en": null,
            "name:uk": null,
            "name:de": null,
            "name:tr": null,
            "name:ru": null,
            "name:ar": null
        }
    },
    {
        "lat": 41.0141906,
        "lon": 29.1965764,
        "tags": {
            "addr:city": "İstanbul",
            "addr:district": null,
            "description": "",
            "opening_hours": "Mo-Fr 09:00-18:00",
            "phone": "+90 216 520 07 34",
            "branch": null,
            "amenity": "copyshop",
            "mobile": null,
            "addr:street": null,
            "cuisine": null,
            "name": "Ser Basım Matbaa Baskı Hizmetleri",
            "name:en": null,
            "name:uk": null,
            "name:de": null,
            "name:tr": null,
            "name:ru": null,
            "name:ar": null
        }
    },
    {
        "lat": 41.0414036,
        "lon": 28.9354274,
        "tags": {
            "addr:city": "İstanbul",
            "addr:district": null,
            "description": "",
            "opening_hours": null,
            "phone": null,
            "branch": null,
            "amenity": "copyshop",
            "mobile": null,
            "addr:street": null,
            "cuisine": null,
            "name": "Fatih Kırtasiye",
            "name:en": null,
            "name:uk": null,
            "name:de": null,
            "name:tr": null,
            "name:ru": null,
            "name:ar": null
        }
    },
    {
        "lat": 40.8986043,
        "lon": 29.1704926,
        "tags": {
            "addr:city": "İstanbul",
            "addr:district": null,
            "description": "",
            "opening_hours": null,
            "phone": null,
            "branch": null,
            "amenity": "copyshop",
            "mobile": null,
            "addr:street": null,
            "cuisine": null,
            "name": "Kırtasiye",
            "name:en": null,
            "name:uk": null,
            "name:de": null,
            "name:tr": null,
            "name:ru": null,
            "name:ar": null
        }
    },
    {
        "lat": 40.8802726,
        "lon": 29.2418617,
        "tags": {
            "addr:city": "İstanbul",
            "addr:district": null,
            "description": "",
            "opening_hours": null,
            "phone": null,
            "branch": null,
            "amenity": "copyshop",
            "mobile": null,
            "addr:street": null,
            "cuisine": null,
            "name": "Yeğin Kırtasiye",
            "name:en": null,
            "name:uk": null,
            "name:de": null,
            "name:tr": null,
            "name:ru": null,
            "name:ar": null
        }
    },
    {
        "lat": 40.9627755,
        "lon": 29.1000176,
        "tags": {
            "addr:city": "İstanbul",
            "addr:district": "Kadıköy",
            "description": "",
            "opening_hours": null,
            "phone": null,
            "branch": null,
            "amenity": "copyshop",
            "mobile": null,
            "addr:street": "Prof. Dr. Kemal Akgüder Caddesi",
            "cuisine": null,
            "name": "Hercai Kırtasiye",
            "name:en": null,
            "name:uk": null,
            "name:de": null,
            "name:tr": null,
            "name:ru": null,
            "name:ar": null
        }
    },
    {
        "lat": 40.9035442,
        "lon": 29.1694733,
        "tags": {
            "addr:city": "İstanbul",
            "addr:district": null,
            "description": "",
            "opening_hours": null,
            "phone": null,
            "branch": null,
            "amenity": "copyshop",
            "mobile": null,
            "addr:street": null,
            "cuisine": null,
            "name": "Damla Kırtasiye",
            "name:en": null,
            "name:uk": null,
            "name:de": null,
            "name:tr": null,
            "name:ru": null,
            "name:ar": null
        }
    },
    {
        "lat": 40.9626129,
        "lon": 29.0853239,
        "tags": {
            "addr:city": "İstanbul",
            "addr:district": "Kadıköy",
            "description": "",
            "opening_hours": null,
            "phone": null,
            "branch": null,
            "amenity": "copyshop",
            "mobile": null,
            "addr:street": "Ayşe Çavuş Caddesi",
            "cuisine": null,
            "name": "Nedret Kırtasiye",
            "name:en": null,
            "name:uk": null,
            "name:de": null,
            "name:tr": null,
            "name:ru": null,
            "name:ar": null
        }
    },
    {
        "lat": 40.9598418,
        "lon": 29.0832695,
        "tags": {
            "addr:city": "İstanbul",
            "addr:district": "Kadıköy",
            "description": "",
            "opening_hours": null,
            "phone": null,
            "branch": null,
            "amenity": "copyshop",
            "mobile": null,
            "addr:street": "Ayşe Çavuş Sokak",
            "cuisine": null,
            "name": "Necip Kırtasiye",
            "name:en": null,
            "name:uk": null,
            "name:de": null,
            "name:tr": null,
            "name:ru": null,
            "name:ar": null
        }
    },
    {
        "lat": 40.9354981,
        "lon": 29.2151039,
        "tags": {
            "addr:city": "İstanbul",
            "addr:district": null,
            "description": "",
            "opening_hours": null,
            "phone": null,
            "branch": null,
            "amenity": "copyshop",
            "mobile": null,
            "addr:street": null,
            "cuisine": null,
            "name": "Volkan Kirtasiye",
            "name:en": null,
            "name:uk": null,
            "name:de": null,
            "name:tr": null,
            "name:ru": null,
            "name:ar": null
        }
    },
    {
        "lat": 41.0094221,
        "lon": 29.0991382,
        "tags": {
            "addr:city": "İstanbul",
            "addr:district": null,
            "description": "",
            "opening_hours": null,
            "phone": null,
            "branch": null,
            "amenity": "copyshop",
            "mobile": null,
            "addr:street": null,
            "cuisine": null,
            "name": "Mavi Kırtasiye",
            "name:en": null,
            "name:uk": null,
            "name:de": null,
            "name:tr": null,
            "name:ru": null,
            "name:ar": null
        }
    },
    {
        "lat": 40.8206626,
        "lon": 29.3081729,
        "tags": {
            "addr:city": "İstanbul",
            "addr:district": null,
            "description": "",
            "opening_hours": null,
            "phone": null,
            "branch": null,
            "amenity": "copyshop",
            "mobile": null,
            "addr:street": null,
            "cuisine": null,
            "name": null,
            "name:en": null,
            "name:uk": null,
            "name:de": null,
            "name:tr": null,
            "name:ru": null,
            "name:ar": null
        }
    },
    {
        "lat": 40.8902714,
        "lon": 29.1899184,
        "tags": {
            "addr:city": "İstanbul",
            "addr:district": null,
            "description": "",
            "opening_hours": null,
            "phone": null,
            "branch": null,
            "amenity": "copyshop",
            "mobile": null,
            "addr:street": null,
            "cuisine": null,
            "name": "Hayat",
            "name:en": null,
            "name:uk": null,
            "name:de": null,
            "name:tr": null,
            "name:ru": null,
            "name:ar": null
        }
    },
    {
        "lat": 40.9790481,
        "lon": 29.2639662,
        "tags": {
            "addr:city": "Istanbul",
            "addr:district": "Sultanbeyli",
            "description": "",
            "opening_hours": "Mo-Fr 07:00-13:30; Mo-Fr 17:00-20:00",
            "phone": null,
            "branch": null,
            "amenity": "copyshop",
            "mobile": null,
            "addr:street": "Vahdet Caddesi",
            "cuisine": null,
            "name": "Faber Castell",
            "name:en": null,
            "name:uk": null,
            "name:de": null,
            "name:tr": null,
            "name:ru": null,
            "name:ar": "قرطاسية فابير جاستيل"
        }
    },
    {
        "lat": 40.980871,
        "lon": 29.263079,
        "tags": {
            "addr:city": "Istanbul",
            "addr:district": "Sultanbeyli",
            "description": "",
            "opening_hours": null,
            "phone": null,
            "branch": null,
            "amenity": "copyshop",
            "mobile": null,
            "addr:street": "Pelit SOKAĞI",
            "cuisine": null,
            "name": "Faber Castell",
            "name:en": null,
            "name:uk": null,
            "name:de": null,
            "name:tr": null,
            "name:ru": null,
            "name:ar": "فابير كاستال قرطاسية"
        }
    },
    {
        "lat": 40.9813877,
        "lon": 29.2552541,
        "tags": {
            "addr:city": "Istanbul",
            "addr:district": "Sultanbeyli",
            "description": "",
            "opening_hours": null,
            "phone": null,
            "branch": null,
            "amenity": "copyshop",
            "mobile": null,
            "addr:street": "Polenez Caddesi",
            "cuisine": null,
            "name": "Kırtasiye",
            "name:en": null,
            "name:uk": null,
            "name:de": null,
            "name:tr": null,
            "name:ru": null,
            "name:ar": "محل قرطاسية"
        }
    },
    {
        "lat": 40.9632356,
        "lon": 29.2701053,
        "tags": {
            "addr:city": "Istanbul",
            "addr:district": "Sultanbeyli",
            "description": "",
            "opening_hours": "Mo-Fr 07:00-13:30; Mo-Fr 17:00-20:00",
            "phone": "02163987601",
            "branch": null,
            "amenity": "copyshop",
            "mobile": null,
            "addr:street": "Ziya-ül hak caddesi",
            "cuisine": null,
            "name": "Sistem ofis",
            "name:en": null,
            "name:uk": null,
            "name:de": null,
            "name:tr": null,
            "name:ru": null,
            "name:ar": "مكتبة النظام"
        }
    },
    {
        "lat": 40.9678931,
        "lon": 29.2663995,
        "tags": {
            "addr:city": "Istanbul",
            "addr:district": "Sultanbeyli",
            "description": "",
            "opening_hours": "Mo-Fr 07:00-13:30; Mo-Fr 17:00-20:00",
            "phone": "02164966820",
            "branch": null,
            "amenity": "copyshop",
            "mobile": null,
            "addr:street": "Kadıköy sokağı",
            "cuisine": null,
            "name": "Hayat basim",
            "name:en": null,
            "name:uk": null,
            "name:de": null,
            "name:tr": null,
            "name:ru": null,
            "name:ar": "حياة باسم للطباعة والنسخ"
        }
    },
    {
        "lat": 40.9683071,
        "lon": 29.26723,
        "tags": {
            "addr:city": "Istanbul",
            "addr:district": "Sultanbeyli",
            "description": "",
            "opening_hours": "Mo-Fr 07:00-13:30; Mo-Fr 17:00-20:00",
            "phone": null,
            "branch": null,
            "amenity": "copyshop",
            "mobile": null,
            "addr:street": "Çilek sokağı",
            "cuisine": null,
            "name": "Ali duru kitap evi",
            "name:en": null,
            "name:uk": null,
            "name:de": null,
            "name:tr": null,
            "name:ru": null,
            "name:ar": "مستلزمات مكتبية علي دورو"
        }
    },
    {
        "lat": 40.9723455,
        "lon": 29.2486817,
        "tags": {
            "addr:city": "Istanbul",
            "addr:district": "Sultanbeyli",
            "description": "",
            "opening_hours": "Mo-Fr 07:00-13:30; Mo-Fr 17:00-20:00",
            "phone": "05322230549",
            "branch": null,
            "amenity": "copyshop",
            "mobile": null,
            "addr:street": "Akdera sokakشارع اكديري",
            "cuisine": null,
            "name": "Tabela",
            "name:en": null,
            "name:uk": null,
            "name:de": null,
            "name:tr": null,
            "name:ru": null,
            "name:ar": "تابيلا لتخطيط وصناعه الآرمات الاعلانية"
        }
    },
    {
        "lat": 40.962992,
        "lon": 29.2869973,
        "tags": {
            "addr:city": "Istanbul",
            "addr:district": "Sultanbeyli",
            "description": "",
            "opening_hours": "Mo-Fr 07:00-13:30; Mo-Fr 17:00-20:00",
            "phone": "02164191419",
            "branch": null,
            "amenity": "copyshop",
            "mobile": null,
            "addr:street": "Fatih Bulvarı Caddesi",
            "cuisine": null,
            "name": "Arba Matbaa",
            "name:en": null,
            "name:uk": null,
            "name:de": null,
            "name:tr": null,
            "name:ru": null,
            "name:ar": "مطبعة اربا"
        }
    },
    {
        "lat": 40.968565,
        "lon": 29.2530677,
        "tags": {
            "addr:city": "Istanbul",
            "addr:district": "Sultanbeyli",
            "description": "",
            "opening_hours": null,
            "phone": null,
            "branch": null,
            "amenity": "copyshop",
            "mobile": null,
            "addr:street": "fatih bulvarı فاتح بولفاري",
            "cuisine": null,
            "name": "Anadolu reklam tabela",
            "name:en": null,
            "name:uk": null,
            "name:de": null,
            "name:tr": null,
            "name:ru": null,
            "name:ar": "اناضولو ريكلام تابيلا( اعلانات)"
        }
    },
    {
        "lat": 40.9783272,
        "lon": 28.7296371,
        "tags": {
            "addr:city": "İstanbul",
            "addr:district": null,
            "description": "",
            "opening_hours": null,
            "phone": null,
            "branch": null,
            "amenity": "copyshop",
            "mobile": null,
            "addr:street": null,
            "cuisine": null,
            "name": null,
            "name:en": null,
            "name:uk": null,
            "name:de": null,
            "name:tr": null,
            "name:ru": null,
            "name:ar": null
        }
    },
    {
        "lat": 41.0364754,
        "lon": 28.9220964,
        "tags": {
            "addr:city": "Istanbul",
            "addr:district": "Zeytinburnu",
            "description": "",
            "opening_hours": "Mo-Fr 08:00-17:00; Mo-Sa 07:30-15:00",
            "phone": "02126135504",
            "branch": null,
            "amenity": "copyshop",
            "mobile": null,
            "addr:street": "Litros Yolu Sk.",
            "cuisine": null,
            "name": "Emirler Matbaası",
            "name:en": null,
            "name:uk": null,
            "name:de": null,
            "name:tr": null,
            "name:ru": null,
            "name:ar": "مجمع المطابع الثاني-مطبعة اميرلر"
        }
    },
    {
        "lat": 41.0360833,
        "lon": 28.9214185,
        "tags": {
            "addr:city": "Istanbul",
            "addr:district": "Zeytinburnu",
            "description": "",
            "opening_hours": "Mo-Fr 08:00-17:00; Mo-Sa 07:30-15:00",
            "phone": "4443039",
            "branch": null,
            "amenity": "copyshop",
            "mobile": null,
            "addr:street": "Litros Yolu Sk.",
            "cuisine": null,
            "name": "Yavuz Dijital Baskısı",
            "name:en": null,
            "name:uk": null,
            "name:de": null,
            "name:tr": null,
            "name:ru": null,
            "name:ar": "مطبعة يافوز"
        }
    },
    {
        "lat": 41.0361654,
        "lon": 28.92197,
        "tags": {
            "addr:city": "Istanbul",
            "addr:district": "Zeytinburnu",
            "description": "",
            "opening_hours": "Mo-Fr 08:00-17:00; Mo-Sa 07:30-15:00",
            "phone": "02124441130",
            "branch": null,
            "amenity": "copyshop",
            "mobile": null,
            "addr:street": "Litros Yolu Sk.",
            "cuisine": null,
            "name": "Türmatsan Matbaa",
            "name:en": null,
            "name:uk": null,
            "name:de": null,
            "name:tr": null,
            "name:ru": null,
            "name:ar": "مطبعة تورماتسان"
        }
    },
    {
        "lat": 41.0358243,
        "lon": 28.9211817,
        "tags": {
            "addr:city": "Istanbul",
            "addr:district": "Zeytinburnu",
            "description": "",
            "opening_hours": "Mo-Fr 08:00-17:00; Mo-Sa 07:30-15:00",
            "phone": "02124935070",
            "branch": null,
            "amenity": "copyshop",
            "mobile": null,
            "addr:street": "Topkapı Cd.",
            "cuisine": null,
            "name": "Adam Matbaacılık",
            "name:en": null,
            "name:uk": null,
            "name:de": null,
            "name:tr": null,
            "name:ru": null,
            "name:ar": "مجمع المطابع الثاني-مطبعة ادم"
        }
    },
    {
        "lat": 41.0366336,
        "lon": 28.9219026,
        "tags": {
            "addr:city": "Istanbul",
            "addr:district": "Zeytinburnu",
            "description": "",
            "opening_hours": "Mo-Fr 08:00-17:00; Mo-Sa 07:30-15:00",
            "phone": "02125018135",
            "branch": null,
            "amenity": "copyshop",
            "mobile": null,
            "addr:street": "Litros Yolu Sk.",
            "cuisine": null,
            "name": "Egehan Serigrafı Matbaası",
            "name:en": null,
            "name:uk": null,
            "name:de": null,
            "name:tr": null,
            "name:ru": null,
            "name:ar": "مجمع المطابع الثاني/مطبعة ايجيهان الليزرية"
        }
    },
    {
        "lat": 41.0201138,
        "lon": 28.9074151,
        "tags": {
            "addr:city": "Istanbul",
            "addr:district": "Zeytinburnu",
            "description": "",
            "opening_hours": "Mo-Fr 08:00-17:00; Mo-Sa 07:30-15:00",
            "phone": null,
            "branch": null,
            "amenity": "copyshop",
            "mobile": null,
            "addr:street": "Davutpaşa Caddesi",
            "cuisine": null,
            "name": "Üçgül Kağıtçılık",
            "name:en": null,
            "name:uk": null,
            "name:de": null,
            "name:tr": null,
            "name:ru": null,
            "name:ar": "مطبعة اوج غول"
        }
    },
    {
        "lat": 41.0243155,
        "lon": 28.9182018,
        "tags": {
            "addr:city": "Istanbul",
            "addr:district": "Zeytinburnu",
            "description": "",
            "opening_hours": "Mo-Fr 08:00-17:00; Mo-Sa 07:30-15:00",
            "phone": "02124935070",
            "branch": null,
            "amenity": "copyshop",
            "mobile": null,
            "addr:street": "Topkapı Caddesi",
            "cuisine": null,
            "name": "Adam Matbaacılık",
            "name:en": null,
            "name:uk": null,
            "name:de": null,
            "name:tr": null,
            "name:ru": null,
            "name:ar": "مجمع المطابع الثاني-مطبعة ادم"
        }
    },
    {
        "lat": 41.0277334,
        "lon": 28.905993,
        "tags": {
            "addr:city": "Istanbul",
            "addr:district": "Zeytinburnu",
            "description": "",
            "opening_hours": "Mo-Fr 08:00-17:00; Mo-Sa 07:30-15:00",
            "phone": "02125764866",
            "branch": null,
            "amenity": "copyshop",
            "mobile": null,
            "addr:street": "Çiftehavuzlar Sokak",
            "cuisine": null,
            "name": "A dört Matbaası",
            "name:en": null,
            "name:uk": null,
            "name:de": null,
            "name:tr": null,
            "name:ru": null,
            "name:ar": "مجمع المطابع الأول- مطبعة اي دورت"
        }
    },
    {
        "lat": 41.019382,
        "lon": 28.9146839,
        "tags": {
            "addr:city": "Istanbul",
            "addr:district": "Zeytinburnu",
            "description": "",
            "opening_hours": "Mo-Fr 08:00-17:00; Mo-Sa 07:30-15:00",
            "phone": null,
            "branch": null,
            "amenity": "copyshop",
            "mobile": null,
            "addr:street": "Davutpaşa Caddesi",
            "cuisine": null,
            "name": "Rebil Design",
            "name:en": null,
            "name:uk": null,
            "name:de": null,
            "name:tr": null,
            "name:ru": null,
            "name:ar": "مجمع مطابع داوودباشا-مطبعة ريبل"
        }
    },
    {
        "lat": 41.02774,
        "lon": 28.9057333,
        "tags": {
            "addr:city": "Istanbul",
            "addr:district": "Zeytinburnu",
            "description": "",
            "opening_hours": "Mo-Fr 08:00-17:00; Mo-Sa 07:30-15:00",
            "phone": null,
            "branch": null,
            "amenity": "copyshop",
            "mobile": null,
            "addr:street": "Çiftehavuzlar Sokak",
            "cuisine": null,
            "name": "İde Ofset",
            "name:en": null,
            "name:uk": null,
            "name:de": null,
            "name:tr": null,
            "name:ru": null,
            "name:ar": "مجمع المطابع الأول-مطبعة ايده"
        }
    },
    {
        "lat": 41.0232954,
        "lon": 28.9106236,
        "tags": {
            "addr:city": "Istanbul",
            "addr:district": "Zeytinburnu",
            "description": "",
            "opening_hours": "Mo-Fr 08:00-17:00; Mo-Sa 07:30-15:00",
            "phone": "02126747161",
            "branch": null,
            "amenity": "copyshop",
            "mobile": null,
            "addr:street": "Gümüşsuyu Caddesi",
            "cuisine": null,
            "name": "Türkmenler Matbaacılık",
            "name:en": null,
            "name:uk": null,
            "name:de": null,
            "name:tr": null,
            "name:ru": null,
            "name:ar": "مطبعة توركمانلار"
        }
    },
    {
        "lat": 41.0194648,
        "lon": 28.9143049,
        "tags": {
            "addr:city": "Istanbul",
            "addr:district": "Zeytinburnu",
            "description": "",
            "opening_hours": "Mo-Fr 08:00-17:00; Mo-Sa 07:30-15:00",
            "phone": "02124933810",
            "branch": null,
            "amenity": "copyshop",
            "mobile": null,
            "addr:street": "Davutpaşa Caddesi",
            "cuisine": null,
            "name": "Davutpaşa Matbaacılar Sitesi-Egen Matbaacılık",
            "name:en": null,
            "name:uk": null,
            "name:de": null,
            "name:tr": null,
            "name:ru": null,
            "name:ar": "مجمع مطابع داوودباشا-مطبعة ايجين"
        }
    },
    {
        "lat": 41.025125,
        "lon": 28.9189228,
        "tags": {
            "addr:city": "Istanbul",
            "addr:district": "Zeytinburnu",
            "description": "",
            "opening_hours": "Mo-Fr 08:00-17:00; Mo-Sa 07:30-15:00",
            "phone": "02125018135",
            "branch": null,
            "amenity": "copyshop",
            "mobile": null,
            "addr:street": "Litros Yolu Sokağı",
            "cuisine": null,
            "name": "Egehan Serigrafı Matbaası",
            "name:en": null,
            "name:uk": null,
            "name:de": null,
            "name:tr": null,
            "name:ru": null,
            "name:ar": "مجمع المطابع الثاني/مطبعة ايجيهان الليزرية"
        }
    },
    {
        "lat": 41.020378,
        "lon": 28.9140953,
        "tags": {
            "addr:city": "Istanbul",
            "addr:district": "Zeytinburnu",
            "description": "",
            "opening_hours": "Mo-Fr 08:00-17:00; Mo-Sa 07:30-15:00",
            "phone": "(0212) 613 95 58",
            "branch": null,
            "amenity": "copyshop",
            "mobile": null,
            "addr:street": "Davutpaşa Caddesi",
            "cuisine": null,
            "name": "Özerler Matbaacılık",
            "name:en": null,
            "name:uk": null,
            "name:de": null,
            "name:tr": null,
            "name:ru": null,
            "name:ar": "مجمع مطابع داوودباشا-مطبعة اوزرلر"
        }
    },
    {
        "lat": 41.0249667,
        "lon": 28.9191166,
        "tags": {
            "addr:city": "Istanbul",
            "addr:district": "Zeytinburnu",
            "description": "",
            "opening_hours": "Mo-Fr 08:00-17:00; Mo-Sa 07:30-15:00",
            "phone": "02126135504",
            "branch": null,
            "amenity": "copyshop",
            "mobile": null,
            "addr:street": "Litros Yolu Sk.",
            "cuisine": null,
            "name": "Emirler Matbaası",
            "name:en": null,
            "name:uk": null,
            "name:de": null,
            "name:tr": null,
            "name:ru": null,
            "name:ar": "مجمع المطابع الثاني-مطبعة اميرلر"
        }
    },
    {
        "lat": 41.0204826,
        "lon": 28.90293,
        "tags": {
            "addr:city": "Istanbul",
            "addr:district": "Zeytinburnu",
            "description": "",
            "opening_hours": "Mo-Fr 09:00-17:00; Mo-Sa 07:30-15:00",
            "phone": "(0212) 483 22 77",
            "branch": null,
            "amenity": "copyshop",
            "mobile": null,
            "addr:street": "Davutpaşa Caddesi",
            "cuisine": null,
            "name": "Yazmat Matbaacılık",
            "name:en": null,
            "name:uk": null,
            "name:de": null,
            "name:tr": null,
            "name:ru": null,
            "name:ar": "مطبعة يازمات"
        }
    },
    {
        "lat": 41.0277834,
        "lon": 28.9061827,
        "tags": {
            "addr:city": "Istanbul",
            "addr:district": "Zeytinburnu",
            "description": "",
            "opening_hours": "Mo-Su 07:00-20:00",
            "phone": "02125442583",
            "branch": null,
            "amenity": "copyshop",
            "mobile": null,
            "addr:street": "Çiftehavuzlar Sk.",
            "cuisine": null,
            "name": "Yüksel Matbaası",
            "name:en": null,
            "name:uk": null,
            "name:de": null,
            "name:tr": null,
            "name:ru": null,
            "name:ar": "مجمع المطابع الأول-مطبعة يوكسل"
        }
    },
    {
        "lat": 41.019926,
        "lon": 28.9141861,
        "tags": {
            "addr:city": "Istanbul",
            "addr:district": "Zeytinburnu",
            "description": "",
            "opening_hours": "Mo-Fr 08:00-17:00; Mo-Sa 07:30-15:00",
            "phone": "(0212) 501 55 51",
            "branch": null,
            "amenity": "copyshop",
            "mobile": null,
            "addr:street": "Davutpaşa Caddesi",
            "cuisine": null,
            "name": "Budak Matbaa",
            "name:en": null,
            "name:uk": null,
            "name:de": null,
            "name:tr": null,
            "name:ru": null,
            "name:ar": "مجمع مطابع داوودباشا-مطبعة بوداك"
        }
    },
    {
        "lat": 41.0245745,
        "lon": 28.9184387,
        "tags": {
            "addr:city": "Istanbul",
            "addr:district": "Zeytinburnu",
            "description": "",
            "opening_hours": "Mo-Fr 08:00-17:00; Mo-Sa 07:30-15:00",
            "phone": "4443039",
            "branch": null,
            "amenity": "copyshop",
            "mobile": null,
            "addr:street": "Litros Yolu Sk.",
            "cuisine": null,
            "name": "Yavuz Dijital Baskısı",
            "name:en": null,
            "name:uk": null,
            "name:de": null,
            "name:tr": null,
            "name:ru": null,
            "name:ar": "مطبعة يافوز"
        }
    },
    {
        "lat": 41.0246566,
        "lon": 28.9189901,
        "tags": {
            "addr:city": "Istanbul",
            "addr:district": "Zeytinburnu",
            "description": "",
            "opening_hours": "Mo-Fr 08:00-17:00; Mo-Sa 07:30-15:00",
            "phone": "02124441130",
            "branch": null,
            "amenity": "copyshop",
            "mobile": null,
            "addr:street": "Litros Yolu Sk.",
            "cuisine": null,
            "name": "Türmatsan Matbaa",
            "name:en": null,
            "name:uk": null,
            "name:de": null,
            "name:tr": null,
            "name:ru": null,
            "name:ar": "مطبعة تورماتسان"
        }
    },
    {
        "lat": 41.0193896,
        "lon": 28.9141054,
        "tags": {
            "addr:city": "Istanbul",
            "addr:district": "Zeytinburnu",
            "description": "",
            "opening_hours": "Mo-Fr 08:00-17:00; Mo-Sa 07:30-15:00",
            "phone": "02125012062",
            "branch": null,
            "amenity": "copyshop",
            "mobile": null,
            "addr:street": "Davutpaşa Caddesi",
            "cuisine": null,
            "name": "Hanaylı Matbaacılık",
            "name:en": null,
            "name:uk": null,
            "name:de": null,
            "name:tr": null,
            "name:ru": null,
            "name:ar": "مطبعة هانايلي"
        }
    },
    {
        "lat": 41.0277857,
        "lon": 28.9063738,
        "tags": {
            "addr:city": "Istanbul",
            "addr:district": "Zeytinburnu",
            "description": "",
            "opening_hours": "Mo-Fr 08:00-17:00; Mo-Sa 07:30-15:00",
            "phone": null,
            "branch": null,
            "amenity": "copyshop",
            "mobile": null,
            "addr:street": "Çiftehavuzlar Sk.",
            "cuisine": null,
            "name": "Seren Ofset",
            "name:en": null,
            "name:uk": null,
            "name:de": null,
            "name:tr": null,
            "name:ru": null,
            "name:ar": "مجمع المطابع الأول-مطبعة سيرين"
        }
    },
    {
        "lat": 41.0057612,
        "lon": 28.9073766,
        "tags": {
            "addr:city": "Istanbul",
            "addr:district": "Zeytinburnu",
            "description": "",
            "opening_hours": null,
            "phone": null,
            "branch": null,
            "amenity": "copyshop",
            "mobile": null,
            "addr:street": "G-13 Sk",
            "cuisine": null,
            "name": "elif kırtasiye",
            "name:en": null,
            "name:uk": null,
            "name:de": null,
            "name:tr": null,
            "name:ru": null,
            "name:ar": "اليف للقرطاسية"
        }
    },
    {
        "lat": 40.9986447,
        "lon": 28.9029268,
        "tags": {
            "addr:city": "Istanbul",
            "addr:district": "Zeytinburnu",
            "description": "",
            "opening_hours": null,
            "phone": null,
            "branch": null,
            "amenity": "copyshop",
            "mobile": null,
            "addr:street": "114. sokak",
            "cuisine": null,
            "name": "Burak kırtasiye",
            "name:en": null,
            "name:uk": null,
            "name:de": null,
            "name:tr": null,
            "name:ru": null,
            "name:ar": "قرطاسية براق"
        }
    },
    {
        "lat": 40.9988413,
        "lon": 28.9103543,
        "tags": {
            "addr:city": "Istanbul",
            "addr:district": "Zeytinburnu",
            "description": "",
            "opening_hours": null,
            "phone": null,
            "branch": null,
            "amenity": "copyshop",
            "mobile": null,
            "addr:street": null,
            "cuisine": null,
            "name": "Alhariri matbaa",
            "name:en": null,
            "name:uk": null,
            "name:de": null,
            "name:tr": null,
            "name:ru": null,
            "name:ar": "مطبعة الحريري"
        }
    },
    {
        "lat": 40.9904347,
        "lon": 28.9052589,
        "tags": {
            "addr:city": "Istanbul",
            "addr:district": "Zeytinburnu",
            "description": "",
            "opening_hours": null,
            "phone": null,
            "branch": null,
            "amenity": "copyshop",
            "mobile": null,
            "addr:street": "48 Sokak",
            "cuisine": null,
            "name": "Marka",
            "name:en": null,
            "name:uk": null,
            "name:de": null,
            "name:tr": null,
            "name:ru": null,
            "name:ar": "ماركا"
        }
    },
    {
        "lat": 40.9907667,
        "lon": 28.9034159,
        "tags": {
            "addr:city": "Istanbul",
            "addr:district": "Zeytinburnu",
            "description": "",
            "opening_hours": "Mo-Su 09:00-18:00",
            "phone": null,
            "branch": null,
            "amenity": "copyshop",
            "mobile": null,
            "addr:street": null,
            "cuisine": null,
            "name": "Mupa Matbaa",
            "name:en": null,
            "name:uk": null,
            "name:de": null,
            "name:tr": null,
            "name:ru": null,
            "name:ar": "مطبعة موبا"
        }
    },
    {
        "lat": 40.989744,
        "lon": 28.9059125,
        "tags": {
            "addr:city": "Istanbul",
            "addr:district": "Zeytinburnu",
            "description": "",
            "opening_hours": null,
            "phone": null,
            "branch": null,
            "amenity": "copyshop",
            "mobile": null,
            "addr:street": "Sht komseri Gunaydin caddesi",
            "cuisine": null,
            "name": "Fotokopi",
            "name:en": null,
            "name:uk": null,
            "name:de": null,
            "name:tr": null,
            "name:ru": null,
            "name:ar": "فوتوكوبي"
        }
    },
    {
        "lat": 40.9912425,
        "lon": 28.9028781,
        "tags": {
            "addr:city": "Istanbul",
            "addr:district": "Zeytinburnu",
            "description": "",
            "opening_hours": "Mo-Su 09:00-18:00",
            "phone": null,
            "branch": null,
            "amenity": "copyshop",
            "mobile": null,
            "addr:street": null,
            "cuisine": null,
            "name": "Yaşar Ofset Matbaa-Kaşe",
            "name:en": null,
            "name:uk": null,
            "name:de": null,
            "name:tr": null,
            "name:ru": null,
            "name:ar": "مطبعة وختم يشار"
        }
    },
    {
        "lat": 40.9883204,
        "lon": 28.9071905,
        "tags": {
            "addr:city": "Istanbul",
            "addr:district": "Zeytinburnu",
            "description": "",
            "opening_hours": null,
            "phone": null,
            "branch": null,
            "amenity": "copyshop",
            "mobile": null,
            "addr:street": "45/2 Sokak",
            "cuisine": null,
            "name": "Aslan",
            "name:en": null,
            "name:uk": null,
            "name:de": null,
            "name:tr": null,
            "name:ru": null,
            "name:ar": "اصلان"
        }
    },
    {
        "lat": 41.0299887,
        "lon": 28.827909,
        "tags": {
            "addr:city": "Istanbul",
            "addr:district": "Bağcılar",
            "description": "",
            "opening_hours": null,
            "phone": null,
            "branch": null,
            "amenity": "copyshop",
            "mobile": null,
            "addr:street": "Ataturk caddesi",
            "cuisine": null,
            "name": "Ofiser",
            "name:en": null,
            "name:uk": null,
            "name:de": null,
            "name:tr": null,
            "name:ru": null,
            "name:ar": "اوفيسر"
        }
    },
    {
        "lat": 41.030472,
        "lon": 28.8274322,
        "tags": {
            "addr:city": "Istanbul",
            "addr:district": "Bağcılar",
            "description": "",
            "opening_hours": null,
            "phone": null,
            "branch": null,
            "amenity": "copyshop",
            "mobile": null,
            "addr:street": "Ataturk caddesi",
            "cuisine": null,
            "name": "Derpa",
            "name:en": null,
            "name:uk": null,
            "name:de": null,
            "name:tr": null,
            "name:ru": null,
            "name:ar": "دربا"
        }
    },
    {
        "lat": 41.044938,
        "lon": 28.8379289,
        "tags": {
            "addr:city": "Istanbul",
            "addr:district": "Bağcılar",
            "description": "",
            "opening_hours": null,
            "phone": null,
            "branch": null,
            "amenity": "copyshop",
            "mobile": null,
            "addr:street": "Sht.Guntay polat sokak",
            "cuisine": null,
            "name": "Mugahi",
            "name:en": null,
            "name:uk": null,
            "name:de": null,
            "name:tr": null,
            "name:ru": null,
            "name:ar": "موجاهي"
        }
    },
    {
        "lat": 41.0446153,
        "lon": 28.8386337,
        "tags": {
            "addr:city": "Istanbul",
            "addr:district": "Bağcılar",
            "description": "",
            "opening_hours": null,
            "phone": null,
            "branch": null,
            "amenity": "copyshop",
            "mobile": null,
            "addr:street": "Mevlana caddesi",
            "cuisine": null,
            "name": "Akcay",
            "name:en": null,
            "name:uk": null,
            "name:de": null,
            "name:tr": null,
            "name:ru": null,
            "name:ar": "اكجاي"
        }
    },
    {
        "lat": 41.0444128,
        "lon": 28.8388519,
        "tags": {
            "addr:city": "Istanbul",
            "addr:district": "Bağcılar",
            "description": "",
            "opening_hours": null,
            "phone": null,
            "branch": null,
            "amenity": "copyshop",
            "mobile": null,
            "addr:street": "Mevlana caddesi",
            "cuisine": null,
            "name": "Öğretmenler",
            "name:en": null,
            "name:uk": null,
            "name:de": null,
            "name:tr": null,
            "name:ru": null,
            "name:ar": "اورتمانلار"
        }
    },
    {
        "lat": 41.0246196,
        "lon": 28.8579543,
        "tags": {
            "addr:city": "Istanbul",
            "addr:district": "Zeytinburnu",
            "description": "",
            "opening_hours": null,
            "phone": null,
            "branch": null,
            "amenity": "copyshop",
            "mobile": null,
            "addr:street": null,
            "cuisine": null,
            "name": "Amade reklam",
            "name:en": null,
            "name:uk": null,
            "name:de": null,
            "name:tr": null,
            "name:ru": null,
            "name:ar": "عمادة للإعلان"
        }
    },
    {
        "lat": 40.9775594,
        "lon": 29.2651468,
        "tags": {
            "addr:city": "İstanbul",
            "addr:district": null,
            "description": "",
            "opening_hours": null,
            "phone": null,
            "branch": null,
            "amenity": "copyshop",
            "mobile": null,
            "addr:street": null,
            "cuisine": null,
            "name": "Ufuk Reklam",
            "name:en": null,
            "name:uk": null,
            "name:de": null,
            "name:tr": null,
            "name:ru": null,
            "name:ar": null
        }
    },
    {
        "lat": 40.8813122,
        "lon": 29.3454611,
        "tags": {
            "addr:city": "İstanbul",
            "addr:district": null,
            "description": "",
            "opening_hours": null,
            "phone": null,
            "branch": null,
            "amenity": "copyshop",
            "mobile": null,
            "addr:street": null,
            "cuisine": null,
            "name": "Arı Ofis Kırtasiye",
            "name:en": null,
            "name:uk": null,
            "name:de": null,
            "name:tr": null,
            "name:ru": null,
            "name:ar": null
        }
    },
    {
        "lat": 40.9011748,
        "lon": 29.226716,
        "tags": {
            "addr:city": "İstanbul",
            "addr:district": null,
            "description": "",
            "opening_hours": null,
            "phone": null,
            "branch": null,
            "amenity": "copyshop",
            "mobile": null,
            "addr:street": "Adnan Kahveci Caddesi",
            "cuisine": null,
            "name": "Aryuva Kırtasiye",
            "name:en": null,
            "name:uk": null,
            "name:de": null,
            "name:tr": null,
            "name:ru": null,
            "name:ar": null
        }
    },
    {
        "lat": 40.9747892,
        "lon": 29.0985285,
        "tags": {
            "addr:city": "İstanbul",
            "addr:district": "Kadıköy",
            "description": "",
            "opening_hours": null,
            "phone": "0216 372 84 47",
            "branch": null,
            "amenity": "copyshop",
            "mobile": null,
            "addr:street": "Değirmen Sokak",
            "cuisine": null,
            "name": "Cemil Baskı - Kozyatağı",
            "name:en": null,
            "name:uk": null,
            "name:de": null,
            "name:tr": null,
            "name:ru": null,
            "name:ar": null
        }
    },
    {
        "lat": 41.0050642,
        "lon": 29.1569762,
        "tags": {
            "addr:city": "İstanbul",
            "addr:district": "Ümraniye",
            "description": "",
            "opening_hours": null,
            "phone": "0216 313 13 39",
            "branch": null,
            "amenity": "copyshop",
            "mobile": null,
            "addr:street": "Bostancı Yolu",
            "cuisine": null,
            "name": "Cemil Baskı - Dudullu",
            "name:en": null,
            "name:uk": null,
            "name:de": null,
            "name:tr": null,
            "name:ru": null,
            "name:ar": null
        }
    },
    {
        "lat": 40.9741754,
        "lon": 29.0979378,
        "tags": {
            "addr:city": "İstanbul",
            "addr:district": "Kadıköy",
            "description": "",
            "opening_hours": null,
            "phone": null,
            "branch": null,
            "amenity": "copyshop",
            "mobile": null,
            "addr:street": null,
            "cuisine": null,
            "name": "Cemil Baskı - Genel Müdürlük",
            "name:en": null,
            "name:uk": null,
            "name:de": null,
            "name:tr": null,
            "name:ru": null,
            "name:ar": null
        }
    },
    {
        "lat": 41.0205985,
        "lon": 29.035295,
        "tags": {
            "addr:city": "İstanbul",
            "addr:district": null,
            "description": "",
            "opening_hours": null,
            "phone": null,
            "branch": null,
            "amenity": "copyshop",
            "mobile": null,
            "addr:street": null,
            "cuisine": null,
            "name": "Cemil Baskı - Altunizade",
            "name:en": null,
            "name:uk": null,
            "name:de": null,
            "name:tr": null,
            "name:ru": null,
            "name:ar": null
        }
    },
    {
        "lat": 40.9520658,
        "lon": 29.3032616,
        "tags": {
            "addr:city": "İstanbul",
            "addr:district": "Sultanbeyli",
            "description": "",
            "opening_hours": null,
            "phone": null,
            "branch": null,
            "amenity": "copyshop",
            "mobile": null,
            "addr:street": "Demokrasi Cad.",
            "cuisine": null,
            "name": "Cemil Baskı - Sultanbeyli",
            "name:en": null,
            "name:uk": null,
            "name:de": null,
            "name:tr": null,
            "name:ru": null,
            "name:ar": null
        }
    },
    {
        "lat": 41.0704304,
        "lon": 28.9968537,
        "tags": {
            "addr:city": "İstanbul",
            "addr:district": "Şişli",
            "description": "",
            "opening_hours": null,
            "phone": null,
            "branch": null,
            "amenity": "copyshop",
            "mobile": null,
            "addr:street": "Şehit Er Cihan Namlı Cad.",
            "cuisine": null,
            "name": "Aria Reklam",
            "name:en": null,
            "name:uk": null,
            "name:de": null,
            "name:tr": null,
            "name:ru": null,
            "name:ar": null
        }
    },
    {
        "lat": 41.0520592,
        "lon": 28.9460189,
        "tags": {
            "addr:city": "İstanbul",
            "addr:district": "Beyoğlu",
            "description": "",
            "opening_hours": null,
            "phone": null,
            "branch": null,
            "amenity": "copyshop",
            "mobile": null,
            "addr:street": "Talip Paşa Arkası Sk.",
            "cuisine": null,
            "name": "Barkolog",
            "name:en": null,
            "name:uk": null,
            "name:de": null,
            "name:tr": null,
            "name:ru": null,
            "name:ar": null
        }
    },
    {
        "lat": 40.9191803,
        "lon": 29.224161,
        "tags": {
            "addr:city": "İstanbul",
            "addr:district": null,
            "description": "",
            "opening_hours": null,
            "phone": null,
            "branch": null,
            "amenity": "copyshop",
            "mobile": null,
            "addr:street": null,
            "cuisine": null,
            "name": "Yakacık Kırtasiye",
            "name:en": null,
            "name:uk": null,
            "name:de": null,
            "name:tr": null,
            "name:ru": null,
            "name:ar": null
        }
    },
    {
        "lat": 40.9714735,
        "lon": 29.1343197,
        "tags": {
            "addr:city": "İstanbul",
            "addr:district": null,
            "description": "",
            "opening_hours": null,
            "phone": null,
            "branch": null,
            "amenity": "copyshop",
            "mobile": null,
            "addr:street": null,
            "cuisine": null,
            "name": null,
            "name:en": null,
            "name:uk": null,
            "name:de": null,
            "name:tr": null,
            "name:ru": null,
            "name:ar": null
        }
    },
    {
        "lat": 41.0287831,
        "lon": 29.0304768,
        "tags": {
            "addr:city": "İstanbul",
            "addr:district": "Üsküdar",
            "description": "",
            "opening_hours": null,
            "phone": null,
            "branch": null,
            "amenity": "copyshop",
            "mobile": null,
            "addr:street": "Müneccimbaşı sokak",
            "cuisine": null,
            "name": "Ersin Kırtasiye",
            "name:en": null,
            "name:uk": null,
            "name:de": null,
            "name:tr": null,
            "name:ru": null,
            "name:ar": null
        }
    },
    {
        "lat": 41.0861205,
        "lon": 28.8714361,
        "tags": {
            "addr:city": "İstanbul",
            "addr:district": null,
            "description": "",
            "opening_hours": null,
            "phone": null,
            "branch": null,
            "amenity": "copyshop",
            "mobile": null,
            "addr:street": null,
            "cuisine": null,
            "name": "Sağlam Ozalit",
            "name:en": null,
            "name:uk": null,
            "name:de": null,
            "name:tr": null,
            "name:ru": null,
            "name:ar": null
        }
    },
    {
        "lat": 40.993853,
        "lon": 29.0364176,
        "tags": {
            "addr:city": "İstanbul",
            "addr:district": "Kadıköy",
            "description": "",
            "opening_hours": null,
            "phone": null,
            "branch": null,
            "amenity": "copyshop",
            "mobile": null,
            "addr:street": "Kurbağalıdere Caddesi",
            "cuisine": null,
            "name": "Maya Copy",
            "name:en": null,
            "name:uk": null,
            "name:de": null,
            "name:tr": null,
            "name:ru": null,
            "name:ar": null
        }
    },
    {
        "lat": 41.0601673,
        "lon": 28.9138225,
        "tags": {
            "addr:city": "İstanbul",
            "addr:district": "Gaziosmanpaşa",
            "description": "WhatsApp 05383272866",
            "opening_hours": "Mo-Sa 09:00-20:00; Su 13:00-20:00",
            "phone": "+90 212 418 46 82",
            "branch": null,
            "amenity": "copyshop",
            "mobile": null,
            "addr:street": "Bağlarbaşı Street",
            "cuisine": null,
            "name": "Erol Kırtasiye",
            "name:en": null,
            "name:uk": null,
            "name:de": null,
            "name:tr": null,
            "name:ru": null,
            "name:ar": null
        }
    },
    {
        "lat": 40.905409,
        "lon": 29.2841771,
        "tags": {
            "addr:city": "İstanbul",
            "addr:district": null,
            "description": "",
            "opening_hours": null,
            "phone": null,
            "branch": null,
            "amenity": "copyshop",
            "mobile": null,
            "addr:street": null,
            "cuisine": null,
            "name": "Salman Baskı Merkezi",
            "name:en": null,
            "name:uk": null,
            "name:de": null,
            "name:tr": null,
            "name:ru": null,
            "name:ar": null
        }
    },
    {
        "lat": 41.0151522,
        "lon": 28.8961349,
        "tags": {
            "addr:city": "İstanbul",
            "addr:district": null,
            "description": "",
            "opening_hours": null,
            "phone": null,
            "branch": null,
            "amenity": "copyshop",
            "mobile": null,
            "addr:street": null,
            "cuisine": null,
            "name": "Kardelen Kırtasiye",
            "name:en": null,
            "name:uk": null,
            "name:de": null,
            "name:tr": null,
            "name:ru": null,
            "name:ar": null
        }
    },
    {
        "lat": 41.1344124,
        "lon": 29.0944925,
        "tags": {
            "addr:city": "İstanbul",
            "addr:district": null,
            "description": "",
            "opening_hours": null,
            "phone": null,
            "branch": null,
            "amenity": "copyshop",
            "mobile": null,
            "addr:street": null,
            "cuisine": null,
            "name": "Matbaa Copy Center",
            "name:en": null,
            "name:uk": null,
            "name:de": null,
            "name:tr": null,
            "name:ru": null,
            "name:ar": null
        }
    },
    {
        "lat": 41.1352204,
        "lon": 29.0895029,
        "tags": {
            "addr:city": "İstanbul",
            "addr:district": null,
            "description": "",
            "opening_hours": null,
            "phone": null,
            "branch": null,
            "amenity": "copyshop",
            "mobile": null,
            "addr:street": null,
            "cuisine": null,
            "name": "Tuna Matbaası",
            "name:en": null,
            "name:uk": null,
            "name:de": null,
            "name:tr": null,
            "name:ru": null,
            "name:ar": null
        }
    },
    {
        "lat": 41.0393546,
        "lon": 28.9760327,
        "tags": {
            "addr:city": "İstanbul",
            "addr:district": null,
            "description": "",
            "opening_hours": null,
            "phone": null,
            "branch": null,
            "amenity": "copyshop",
            "mobile": null,
            "addr:street": null,
            "cuisine": null,
            "name": null,
            "name:en": null,
            "name:uk": null,
            "name:de": null,
            "name:tr": null,
            "name:ru": null,
            "name:ar": null
        }
    },
    {
        "lat": 40.9759775,
        "lon": 29.1540578,
        "tags": {
            "addr:city": "İstanbul",
            "addr:district": null,
            "description": "",
            "opening_hours": null,
            "phone": null,
            "branch": null,
            "amenity": "copyshop",
            "mobile": null,
            "addr:street": null,
            "cuisine": null,
            "name": "Yeditepe Copy Center",
            "name:en": null,
            "name:uk": null,
            "name:de": null,
            "name:tr": null,
            "name:ru": null,
            "name:ar": null
        }
    },
    {
        "lat": 40.9263879,
        "lon": 29.1311719,
        "tags": {
            "addr:city": "İstanbul",
            "addr:district": null,
            "description": "",
            "opening_hours": "Mo-Sa 09:00-18:00",
            "phone": "02163056421",
            "branch": null,
            "amenity": "copyshop",
            "mobile": null,
            "addr:street": "Çağlayan Sokak",
            "cuisine": null,
            "name": "Kartal Ozalit Dijital Kopya Merkezi Kırtasiye",
            "name:en": "Kartal Copy Center",
            "name:uk": null,
            "name:de": null,
            "name:tr": null,
            "name:ru": null,
            "name:ar": null
        }
    },
    {
        "lat": 40.9025749,
        "lon": 29.2311122,
        "tags": {
            "addr:city": "İstanbul",
            "addr:district": null,
            "description": "",
            "opening_hours": null,
            "phone": null,
            "branch": null,
            "amenity": "copyshop",
            "mobile": null,
            "addr:street": null,
            "cuisine": null,
            "name": "Çatla Emmi Kırtasiye",
            "name:en": null,
            "name:uk": null,
            "name:de": null,
            "name:tr": null,
            "name:ru": null,
            "name:ar": null
        }
    },
    {
        "lat": 40.9958511,
        "lon": 28.7062317,
        "tags": {
            "addr:city": "Istanbul",
            "addr:district": "avcılar",
            "description": "",
            "opening_hours": "Mo-Su 08:00-22:00",
            "phone": null,
            "branch": null,
            "amenity": "copyshop",
            "mobile": null,
            "addr:street": "Hilal Sokağı",
            "cuisine": null,
            "name": "Nida Kırtasiye",
            "name:en": null,
            "name:uk": null,
            "name:de": null,
            "name:tr": null,
            "name:ru": null,
            "name:ar": null
        }
    },
    {
        "lat": 40.9990381,
        "lon": 28.7090395,
        "tags": {
            "addr:city": "istanbul",
            "addr:district": "avcılar",
            "description": "",
            "opening_hours": null,
            "phone": null,
            "branch": null,
            "amenity": "copyshop",
            "mobile": null,
            "addr:street": "İstiklal Caddesi",
            "cuisine": null,
            "name": "Uludağ Kırtasiye",
            "name:en": null,
            "name:uk": null,
            "name:de": null,
            "name:tr": null,
            "name:ru": null,
            "name:ar": null
        }
    },
    {
        "lat": 41.0282073,
        "lon": 29.0785228,
        "tags": {
            "addr:city": "İstanbul",
            "addr:district": null,
            "description": "",
            "opening_hours": "Mo-Fr 09:00-18:00",
            "phone": null,
            "branch": null,
            "amenity": "copyshop",
            "mobile": null,
            "addr:street": "Abdipaşa Sokağı",
            "cuisine": null,
            "name": "Fotografika Görsel Sanatlar",
            "name:en": "Fotografika Advertisement and visual arts Co.",
            "name:uk": null,
            "name:de": null,
            "name:tr": null,
            "name:ru": null,
            "name:ar": null
        }
    },
    {
        "lat": 41.0211272,
        "lon": 28.5856899,
        "tags": {
            "addr:city": "İstanbul",
            "addr:district": null,
            "description": "",
            "opening_hours": null,
            "phone": null,
            "branch": null,
            "amenity": "copyshop",
            "mobile": null,
            "addr:street": null,
            "cuisine": null,
            "name": "Uçar Ozalit",
            "name:en": null,
            "name:uk": null,
            "name:de": null,
            "name:tr": null,
            "name:ru": null,
            "name:ar": null
        }
    },
    {
        "lat": 40.9796119,
        "lon": 29.1051465,
        "tags": {
            "addr:city": "İstanbul",
            "addr:district": null,
            "description": "",
            "opening_hours": null,
            "phone": null,
            "branch": null,
            "amenity": "copyshop",
            "mobile": null,
            "addr:street": null,
            "cuisine": null,
            "name": "İsmet Digital",
            "name:en": null,
            "name:uk": null,
            "name:de": null,
            "name:tr": null,
            "name:ru": null,
            "name:ar": null
        }
    },
    {
        "lat": 41.098292,
        "lon": 28.8048458,
        "tags": {
            "addr:city": "İstanbul",
            "addr:district": null,
            "description": "",
            "opening_hours": null,
            "phone": null,
            "branch": null,
            "amenity": "copyshop",
            "mobile": null,
            "addr:street": null,
            "cuisine": null,
            "name": "bilge kırtasiye",
            "name:en": null,
            "name:uk": null,
            "name:de": null,
            "name:tr": null,
            "name:ru": null,
            "name:ar": null
        }
    },
    {
        "lat": 41.0030787,
        "lon": 28.6380092,
        "tags": {
            "addr:city": "İstanbul",
            "addr:district": null,
            "description": "",
            "opening_hours": null,
            "phone": null,
            "branch": null,
            "amenity": "copyshop",
            "mobile": null,
            "addr:street": null,
            "cuisine": null,
            "name": "Kırtasiye dünyası",
            "name:en": null,
            "name:uk": null,
            "name:de": null,
            "name:tr": null,
            "name:ru": null,
            "name:ar": null
        }
    },
    {
        "lat": 40.9819871,
        "lon": 29.1156173,
        "tags": {
            "addr:city": "İstanbul",
            "addr:district": null,
            "description": "",
            "opening_hours": null,
            "phone": null,
            "branch": null,
            "amenity": "copyshop",
            "mobile": null,
            "addr:street": "Merdivenköy Yolu Caddesi",
            "cuisine": null,
            "name": "Doğan Ajans Matbaacılık",
            "name:en": null,
            "name:uk": null,
            "name:de": null,
            "name:tr": null,
            "name:ru": null,
            "name:ar": null
        }
    },
    {
        "lat": 40.9095743,
        "lon": 29.227037,
        "tags": {
            "addr:city": "İstanbul",
            "addr:district": null,
            "description": "",
            "opening_hours": null,
            "phone": null,
            "branch": null,
            "amenity": "copyshop",
            "mobile": null,
            "addr:street": null,
            "cuisine": null,
            "name": "Yılmaz Gıda Kırtasiye",
            "name:en": null,
            "name:uk": null,
            "name:de": null,
            "name:tr": null,
            "name:ru": null,
            "name:ar": null
        }
    },
    {
        "lat": 40.9097826,
        "lon": 29.2265992,
        "tags": {
            "addr:city": "İstanbul",
            "addr:district": null,
            "description": "",
            "opening_hours": null,
            "phone": null,
            "branch": null,
            "amenity": "copyshop",
            "mobile": null,
            "addr:street": null,
            "cuisine": null,
            "name": "ABC Kırtasiye",
            "name:en": null,
            "name:uk": null,
            "name:de": null,
            "name:tr": null,
            "name:ru": null,
            "name:ar": null
        }
    },
    {
        "lat": 40.9093303,
        "lon": 29.225027,
        "tags": {
            "addr:city": "İstanbul",
            "addr:district": null,
            "description": "",
            "opening_hours": null,
            "phone": null,
            "branch": null,
            "amenity": "copyshop",
            "mobile": null,
            "addr:street": null,
            "cuisine": null,
            "name": "Kardeşler Kırtasiye & Ofis Malzemeleri",
            "name:en": null,
            "name:uk": null,
            "name:de": null,
            "name:tr": null,
            "name:ru": null,
            "name:ar": null
        }
    },
    {
        "lat": 40.9028741,
        "lon": 29.2322097,
        "tags": {
            "addr:city": "İstanbul",
            "addr:district": null,
            "description": "",
            "opening_hours": null,
            "phone": null,
            "branch": null,
            "amenity": "copyshop",
            "mobile": null,
            "addr:street": null,
            "cuisine": null,
            "name": "Yok Yok Ucuzluk Pazarı",
            "name:en": null,
            "name:uk": null,
            "name:de": null,
            "name:tr": null,
            "name:ru": null,
            "name:ar": null
        }
    },
    {
        "lat": 40.9954405,
        "lon": 29.0377154,
        "tags": {
            "addr:city": "İstanbul",
            "addr:district": null,
            "description": "",
            "opening_hours": null,
            "phone": null,
            "branch": null,
            "amenity": "copyshop",
            "mobile": null,
            "addr:street": null,
            "cuisine": null,
            "name": "tabelanoktasi.com",
            "name:en": null,
            "name:uk": null,
            "name:de": null,
            "name:tr": null,
            "name:ru": null,
            "name:ar": null
        }
    },
    {
        "lat": 40.9879171,
        "lon": 29.0240589,
        "tags": {
            "addr:city": "İstanbul",
            "addr:district": null,
            "description": "",
            "opening_hours": null,
            "phone": null,
            "branch": null,
            "amenity": "copyshop",
            "mobile": null,
            "addr:street": null,
            "cuisine": null,
            "name": "Kadikoy Copy",
            "name:en": null,
            "name:uk": null,
            "name:de": null,
            "name:tr": null,
            "name:ru": null,
            "name:ar": null
        }
    },
    {
        "lat": 40.9921814,
        "lon": 28.8447216,
        "tags": {
            "addr:city": "İstanbul",
            "addr:district": null,
            "description": "",
            "opening_hours": null,
            "phone": null,
            "branch": null,
            "amenity": "copyshop",
            "mobile": null,
            "addr:street": null,
            "cuisine": null,
            "name": "Tomruk Copy Center",
            "name:en": null,
            "name:uk": null,
            "name:de": null,
            "name:tr": null,
            "name:ru": null,
            "name:ar": null
        }
    },
    {
        "lat": 41.0294397,
        "lon": 28.9754285,
        "tags": {
            "addr:city": "İstanbul",
            "addr:district": null,
            "description": "",
            "opening_hours": null,
            "phone": null,
            "branch": null,
            "amenity": "copyshop",
            "mobile": null,
            "addr:street": null,
            "cuisine": null,
            "name": "Kopyaevi",
            "name:en": null,
            "name:uk": null,
            "name:de": null,
            "name:tr": null,
            "name:ru": null,
            "name:ar": null
        }
    },
    {
        "lat": 40.9704438,
        "lon": 29.0801023,
        "tags": {
            "addr:city": "İstanbul",
            "addr:district": null,
            "description": "",
            "opening_hours": null,
            "phone": null,
            "branch": null,
            "amenity": "copyshop",
            "mobile": null,
            "addr:street": null,
            "cuisine": null,
            "name": "BRK Kırtasiye",
            "name:en": null,
            "name:uk": null,
            "name:de": null,
            "name:tr": null,
            "name:ru": null,
            "name:ar": null
        }
    },
    {
        "lat": 40.9779114,
        "lon": 28.8765696,
        "tags": {
            "addr:city": "İstanbul",
            "addr:district": null,
            "description": "",
            "opening_hours": null,
            "phone": null,
            "branch": null,
            "amenity": "copyshop",
            "mobile": null,
            "addr:street": null,
            "cuisine": null,
            "name": null,
            "name:en": null,
            "name:uk": null,
            "name:de": null,
            "name:tr": null,
            "name:ru": null,
            "name:ar": null
        }
    },
    {
        "lat": 40.9779885,
        "lon": 28.8758025,
        "tags": {
            "addr:city": "İstanbul",
            "addr:district": null,
            "description": "",
            "opening_hours": null,
            "phone": null,
            "branch": null,
            "amenity": "copyshop",
            "mobile": null,
            "addr:street": null,
            "cuisine": null,
            "name": null,
            "name:en": null,
            "name:uk": null,
            "name:de": null,
            "name:tr": null,
            "name:ru": null,
            "name:ar": null
        }
    },
    {
        "lat": 40.987267,
        "lon": 29.0312951,
        "tags": {
            "addr:city": "İstanbul",
            "addr:district": null,
            "description": "",
            "opening_hours": null,
            "phone": null,
            "branch": null,
            "amenity": "copyshop",
            "mobile": null,
            "addr:street": null,
            "cuisine": null,
            "name": "Fotokopi",
            "name:en": null,
            "name:uk": null,
            "name:de": null,
            "name:tr": null,
            "name:ru": null,
            "name:ar": null
        }
    },
    {
        "lat": 40.9971035,
        "lon": 29.029162,
        "tags": {
            "addr:city": "İstanbul",
            "addr:district": "Kadıköy",
            "description": "",
            "opening_hours": null,
            "phone": "+902164499686",
            "branch": null,
            "amenity": "copyshop",
            "mobile": null,
            "addr:street": "Macit Erbudak Sokağı",
            "cuisine": null,
            "name": "Kadıköy Reklam",
            "name:en": null,
            "name:uk": null,
            "name:de": null,
            "name:tr": null,
            "name:ru": null,
            "name:ar": null
        }
    },
    {
        "lat": 40.9862819,
        "lon": 29.0222074,
        "tags": {
            "addr:city": "İstanbul",
            "addr:district": "Kadıköy",
            "description": "",
            "opening_hours": null,
            "phone": "+902163377297",
            "branch": null,
            "amenity": "copyshop",
            "mobile": null,
            "addr:street": "Tuğlacı Eminbey Sokağı",
            "cuisine": null,
            "name": "Plaket Etkiket-Kupa",
            "name:en": null,
            "name:uk": null,
            "name:de": null,
            "name:tr": null,
            "name:ru": null,
            "name:ar": null
        }
    },
    {
        "lat": 41.0322941,
        "lon": 28.9900474,
        "tags": {
            "addr:city": "İstanbul",
            "addr:district": null,
            "description": "",
            "opening_hours": null,
            "phone": null,
            "branch": null,
            "amenity": "copyshop",
            "mobile": null,
            "addr:street": null,
            "cuisine": null,
            "name": "Kayaozalit",
            "name:en": null,
            "name:uk": null,
            "name:de": null,
            "name:tr": null,
            "name:ru": null,
            "name:ar": null
        }
    },
    {
        "lat": 41.032969,
        "lon": 28.987606,
        "tags": {
            "addr:city": "İstanbul",
            "addr:district": null,
            "description": "",
            "opening_hours": null,
            "phone": null,
            "branch": null,
            "amenity": "copyshop",
            "mobile": null,
            "addr:street": null,
            "cuisine": null,
            "name": "Efect",
            "name:en": null,
            "name:uk": null,
            "name:de": null,
            "name:tr": null,
            "name:ru": null,
            "name:ar": null
        }
    },
    {
        "lat": 41.0807008,
        "lon": 28.9729031,
        "tags": {
            "addr:city": "İstanbul",
            "addr:district": null,
            "description": "",
            "opening_hours": null,
            "phone": null,
            "branch": null,
            "amenity": "copyshop",
            "mobile": null,
            "addr:street": null,
            "cuisine": null,
            "name": "Volkan Ofset",
            "name:en": null,
            "name:uk": null,
            "name:de": null,
            "name:tr": null,
            "name:ru": null,
            "name:ar": null
        }
    },
    {
        "lat": 41.0395333,
        "lon": 28.9762684,
        "tags": {
            "addr:city": "İstanbul",
            "addr:district": null,
            "description": "",
            "opening_hours": null,
            "phone": null,
            "branch": null,
            "amenity": "copyshop",
            "mobile": null,
            "addr:street": null,
            "cuisine": null,
            "name": "Vize Asistanı",
            "name:en": null,
            "name:uk": null,
            "name:de": null,
            "name:tr": null,
            "name:ru": null,
            "name:ar": null
        }
    },
    {
        "lat": 41.0338097,
        "lon": 28.9840999,
        "tags": {
            "addr:city": "İstanbul",
            "addr:district": null,
            "description": "",
            "opening_hours": null,
            "phone": null,
            "branch": null,
            "amenity": "copyshop",
            "mobile": null,
            "addr:street": null,
            "cuisine": null,
            "name": null,
            "name:en": null,
            "name:uk": null,
            "name:de": null,
            "name:tr": null,
            "name:ru": null,
            "name:ar": null
        }
    },
    {
        "lat": 40.9246281,
        "lon": 29.1322838,
        "tags": {
            "addr:city": "İstanbul",
            "addr:district": null,
            "description": "",
            "opening_hours": null,
            "phone": null,
            "branch": null,
            "amenity": "copyshop",
            "mobile": null,
            "addr:street": null,
            "cuisine": null,
            "name": null,
            "name:en": null,
            "name:uk": null,
            "name:de": null,
            "name:tr": null,
            "name:ru": null,
            "name:ar": null
        }
    },
    {
        "lat": 40.9920158,
        "lon": 29.1175431,
        "tags": {
            "addr:city": "İstanbul",
            "addr:district": null,
            "description": "",
            "opening_hours": null,
            "phone": null,
            "branch": null,
            "amenity": "copyshop",
            "mobile": null,
            "addr:street": null,
            "cuisine": null,
            "name": "Clas Copy",
            "name:en": null,
            "name:uk": null,
            "name:de": null,
            "name:tr": null,
            "name:ru": null,
            "name:ar": null
        }
    },
    {
        "lat": 40.9471737,
        "lon": 29.1129918,
        "tags": {
            "addr:city": "İstanbul",
            "addr:district": "Maltepe",
            "description": "",
            "opening_hours": null,
            "phone": "+905353967319",
            "branch": null,
            "amenity": "copyshop",
            "mobile": null,
            "addr:street": "Atatürk Caddesi",
            "cuisine": null,
            "name": "Küçükyalı Dijital Kopyalama Merkezi",
            "name:en": null,
            "name:uk": null,
            "name:de": null,
            "name:tr": null,
            "name:ru": null,
            "name:ar": null
        }
    },
    {
        "lat": 40.9634005,
        "lon": 29.0843572,
        "tags": {
            "addr:city": "İstanbul",
            "addr:district": "Kadıköy",
            "description": "",
            "opening_hours": null,
            "phone": null,
            "branch": null,
            "amenity": "copyshop",
            "mobile": null,
            "addr:street": "Emin Ali Paşa Caddesi",
            "cuisine": null,
            "name": "Suadiye Copy Center",
            "name:en": null,
            "name:uk": null,
            "name:de": null,
            "name:tr": null,
            "name:ru": null,
            "name:ar": null
        }
    },
    {
        "lat": 40.9932095,
        "lon": 29.2314229,
        "tags": {
            "addr:city": "İstanbul",
            "addr:district": null,
            "description": "",
            "opening_hours": null,
            "phone": "+90 0216 311 09 56",
            "branch": null,
            "amenity": "copyshop",
            "mobile": null,
            "addr:street": "Ebubekir Caddesi",
            "cuisine": null,
            "name": "BCB Ozalit",
            "name:en": null,
            "name:uk": null,
            "name:de": null,
            "name:tr": null,
            "name:ru": null,
            "name:ar": null
        }
    },
    {
        "lat": 41.0490202,
        "lon": 29.025612,
        "tags": {
            "addr:city": "İstanbul",
            "addr:district": null,
            "description": "",
            "opening_hours": null,
            "phone": null,
            "branch": null,
            "amenity": "copyshop",
            "mobile": null,
            "addr:street": null,
            "cuisine": null,
            "name": "Kaptan Kırtasiye",
            "name:en": null,
            "name:uk": null,
            "name:de": null,
            "name:tr": null,
            "name:ru": null,
            "name:ar": null
        }
    },
    {
        "lat": 41.0700119,
        "lon": 28.9457306,
        "tags": {
            "addr:city": "İstanbul",
            "addr:district": null,
            "description": "",
            "opening_hours": null,
            "phone": null,
            "branch": "Ozalit",
            "amenity": "copyshop",
            "mobile": null,
            "addr:street": null,
            "cuisine": null,
            "name": "Evrim Ozalit",
            "name:en": null,
            "name:uk": null,
            "name:de": null,
            "name:tr": null,
            "name:ru": null,
            "name:ar": null
        }
    },
    {
        "lat": 41.0377704,
        "lon": 28.9832394,
        "tags": {
            "addr:city": "İstanbul",
            "addr:district": null,
            "description": "",
            "opening_hours": null,
            "phone": null,
            "branch": null,
            "amenity": "copyshop",
            "mobile": null,
            "addr:street": "Yoğurtçu Faik Sokağı",
            "cuisine": null,
            "name": "Hedef Copy",
            "name:en": null,
            "name:uk": null,
            "name:de": null,
            "name:tr": null,
            "name:ru": null,
            "name:ar": null
        }
    }
]