[
    {
        "lat": 40.973727,
        "lon": 29.0550177,
        "tags": {
            "addr:city": "İstanbul",
            "addr:district": null,
            "description": "",
            "opening_hours": null,
            "phone": null,
            "branch": null,
            "amenity": "cosmetics",
            "mobile": null,
            "addr:street": null,
            "cuisine": null,
            "name": "Gratis",
            "name:en": null,
            "name:uk": null,
            "name:de": null,
            "name:tr": null,
            "name:ru": null,
            "name:ar": null
        }
    },
    {
        "lat": 41.0494034,
        "lon": 29.0258145,
        "tags": {
            "addr:city": "İstanbul",
            "addr:district": null,
            "description": "",
            "opening_hours": null,
            "phone": null,
            "branch": null,
            "amenity": "cosmetics",
            "mobile": null,
            "addr:street": null,
            "cuisine": null,
            "name": "Gratis",
            "name:en": null,
            "name:uk": null,
            "name:de": null,
            "name:tr": null,
            "name:ru": null,
            "name:ar": null
        }
    },
    {
        "lat": 40.9824647,
        "lon": 29.039231,
        "tags": {
            "addr:city": "İstanbul",
            "addr:district": null,
            "description": "Cilt bakımı, Saç Bakımı, Mavala, J.F.Lazartigue, Mary Cohr",
            "opening_hours": "Mo-Sa 09:00-19:00",
            "phone": "02163365671",
            "branch": null,
            "amenity": "cosmetics",
            "mobile": null,
            "addr:street": "Rüştiye Sokak",
            "cuisine": null,
            "name": "Sante Enstitü",
            "name:en": null,
            "name:uk": null,
            "name:de": null,
            "name:tr": "Sante Enstitü",
            "name:ru": null,
            "name:ar": null
        }
    },
    {
        "lat": 41.051268,
        "lon": 28.9921806,
        "tags": {
            "addr:city": "İstanbul",
            "addr:district": null,
            "description": "",
            "opening_hours": "Mo-Su 10:00-22:00",
            "phone": null,
            "branch": null,
            "amenity": "cosmetics",
            "mobile": null,
            "addr:street": null,
            "cuisine": null,
            "name": "MAC Cosmetics",
            "name:en": "MAC",
            "name:uk": null,
            "name:de": null,
            "name:tr": null,
            "name:ru": null,
            "name:ar": null
        }
    },
    {
        "lat": 40.9242299,
        "lon": 29.1324509,
        "tags": {
            "addr:city": "İstanbul",
            "addr:district": null,
            "description": "",
            "opening_hours": null,
            "phone": null,
            "branch": null,
            "amenity": "cosmetics",
            "mobile": null,
            "addr:street": null,
            "cuisine": null,
            "name": "D&P Parfümeri",
            "name:en": null,
            "name:uk": null,
            "name:de": null,
            "name:tr": null,
            "name:ru": null,
            "name:ar": null
        }
    },
    {
        "lat": 41.0714553,
        "lon": 28.889446,
        "tags": {
            "addr:city": "İstanbul",
            "addr:district": null,
            "description": "",
            "opening_hours": null,
            "phone": null,
            "branch": null,
            "amenity": "cosmetics",
            "mobile": null,
            "addr:street": null,
            "cuisine": null,
            "name": "Gratis",
            "name:en": null,
            "name:uk": null,
            "name:de": null,
            "name:tr": null,
            "name:ru": null,
            "name:ar": null
        }
    },
    {
        "lat": 40.9228212,
        "lon": 29.1340294,
        "tags": {
            "addr:city": "İstanbul",
            "addr:district": null,
            "description": "",
            "opening_hours": null,
            "phone": null,
            "branch": null,
            "amenity": "cosmetics",
            "mobile": null,
            "addr:street": null,
            "cuisine": null,
            "name": "Gratis",
            "name:en": null,
            "name:uk": null,
            "name:de": null,
            "name:tr": null,
            "name:ru": null,
            "name:ar": null
        }
    },
    {
        "lat": 41.094656,
        "lon": 29.0923301,
        "tags": {
            "addr:city": "İstanbul",
            "addr:district": null,
            "description": "",
            "opening_hours": null,
            "phone": null,
            "branch": null,
            "amenity": "cosmetics",
            "mobile": null,
            "addr:street": null,
            "cuisine": null,
            "name": "Gratis",
            "name:en": null,
            "name:uk": null,
            "name:de": null,
            "name:tr": null,
            "name:ru": null,
            "name:ar": null
        }
    },
    {
        "lat": 41.0931288,
        "lon": 29.0880833,
        "tags": {
            "addr:city": "İstanbul",
            "addr:district": null,
            "description": "",
            "opening_hours": null,
            "phone": null,
            "branch": null,
            "amenity": "cosmetics",
            "mobile": null,
            "addr:street": null,
            "cuisine": null,
            "name": "eve kozmetik",
            "name:en": null,
            "name:uk": null,
            "name:de": null,
            "name:tr": null,
            "name:ru": null,
            "name:ar": null
        }
    },
    {
        "lat": 41.2131178,
        "lon": 28.7500054,
        "tags": {
            "addr:city": "İstanbul",
            "addr:district": null,
            "description": "",
            "opening_hours": null,
            "phone": null,
            "branch": null,
            "amenity": "cosmetics",
            "mobile": null,
            "addr:street": null,
            "cuisine": null,
            "name": "Rebul kozmetik",
            "name:en": "Rebul",
            "name:uk": null,
            "name:de": null,
            "name:tr": "Rebul kozmetik",
            "name:ru": null,
            "name:ar": null
        }
    },
    {
        "lat": 41.0195345,
        "lon": 28.599733,
        "tags": {
            "addr:city": "İstanbul",
            "addr:district": null,
            "description": "",
            "opening_hours": null,
            "phone": null,
            "branch": null,
            "amenity": "cosmetics",
            "mobile": null,
            "addr:street": null,
            "cuisine": null,
            "name": "SEMA BAYAN KUAFÖRÜ",
            "name:en": null,
            "name:uk": null,
            "name:de": null,
            "name:tr": "SEMA BAYAN KUAFÖRÜ",
            "name:ru": null,
            "name:ar": null
        }
    },
    {
        "lat": 41.0069687,
        "lon": 28.9499391,
        "tags": {
            "addr:city": "Istanbul",
            "addr:district": "Fatih",
            "description": "",
            "opening_hours": null,
            "phone": null,
            "branch": null,
            "amenity": "cosmetics",
            "mobile": null,
            "addr:street": "Küçük langa caddesi",
            "cuisine": null,
            "name": "A.semetay Temizlik ve kozmetik",
            "name:en": null,
            "name:uk": null,
            "name:de": null,
            "name:tr": null,
            "name:ru": null,
            "name:ar": "سيميتاي للمنظفات و مواد التجميل"
        }
    },
    {
        "lat": 41.0085346,
        "lon": 28.946838,
        "tags": {
            "addr:city": "Istanbul",
            "addr:district": "Fatih",
            "description": "",
            "opening_hours": null,
            "phone": "0506 143 85 34",
            "branch": null,
            "amenity": "cosmetics",
            "mobile": null,
            "addr:street": "Cerrahpaşa caddesi",
            "cuisine": null,
            "name": "Öznur Tuhafiye",
            "name:en": null,
            "name:uk": null,
            "name:de": null,
            "name:tr": null,
            "name:ru": null,
            "name:ar": "أوزنور لأدوات التجميل"
        }
    },
    {
        "lat": 41.0222941,
        "lon": 28.9445704,
        "tags": {
            "addr:city": "Istanbul",
            "addr:district": "Fatih",
            "description": "",
            "opening_hours": "mo-sa 09:00-21:00",
            "phone": null,
            "branch": null,
            "amenity": "cosmetics",
            "mobile": null,
            "addr:street": "Fevzi Paşa Caddesi",
            "cuisine": null,
            "name": "Gratis",
            "name:en": null,
            "name:uk": null,
            "name:de": null,
            "name:tr": null,
            "name:ru": null,
            "name:ar": "غراتيس"
        }
    },
    {
        "lat": 41.0082177,
        "lon": 28.9481167,
        "tags": {
            "addr:city": "Istanbul",
            "addr:district": "Fatih",
            "description": "",
            "opening_hours": null,
            "phone": null,
            "branch": null,
            "amenity": "cosmetics",
            "mobile": null,
            "addr:street": "Abdüllatif Paşa Sokağı",
            "cuisine": null,
            "name": "Aksaray kozmetik",
            "name:en": null,
            "name:uk": null,
            "name:de": null,
            "name:tr": null,
            "name:ru": null,
            "name:ar": "أكسراي لمواد التجميل"
        }
    },
    {
        "lat": 41.0046054,
        "lon": 28.9361,
        "tags": {
            "addr:city": "Istanbul",
            "addr:district": "Fatih",
            "description": "",
            "opening_hours": null,
            "phone": null,
            "branch": null,
            "amenity": "cosmetics",
            "mobile": null,
            "addr:street": "Etyemez tekkesi sokak",
            "cuisine": null,
            "name": "Lastik servis",
            "name:en": null,
            "name:uk": null,
            "name:de": null,
            "name:tr": null,
            "name:ru": null,
            "name:ar": "لاستيك سيرفس"
        }
    },
    {
        "lat": 41.0066093,
        "lon": 28.9358103,
        "tags": {
            "addr:city": "Istanbul",
            "addr:district": "Fatih",
            "description": "",
            "opening_hours": null,
            "phone": null,
            "branch": null,
            "amenity": "cosmetics",
            "mobile": null,
            "addr:street": "Yapagi sokak",
            "cuisine": null,
            "name": "Palanc",
            "name:en": null,
            "name:uk": null,
            "name:de": null,
            "name:tr": null,
            "name:ru": null,
            "name:ar": "بالانس"
        }
    },
    {
        "lat": 41.0114197,
        "lon": 28.9577526,
        "tags": {
            "addr:city": "Istanbul",
            "addr:district": "Fatih",
            "description": "",
            "opening_hours": null,
            "phone": null,
            "branch": null,
            "amenity": "cosmetics",
            "mobile": null,
            "addr:street": "Vidinli Tevfik Paşa Caddesi",
            "cuisine": null,
            "name": "Roma Cosmetic",
            "name:en": null,
            "name:uk": null,
            "name:de": null,
            "name:tr": null,
            "name:ru": null,
            "name:ar": "روما لمستحضرات التجميل"
        }
    },
    {
        "lat": 41.008402,
        "lon": 28.9531302,
        "tags": {
            "addr:city": "Istanbul",
            "addr:district": "Fatih",
            "description": "",
            "opening_hours": null,
            "phone": null,
            "branch": null,
            "amenity": "cosmetics",
            "mobile": null,
            "addr:street": "Gazi kemalpaşa caddesi",
            "cuisine": null,
            "name": "T shop",
            "name:en": null,
            "name:uk": null,
            "name:de": null,
            "name:tr": null,
            "name:ru": null,
            "name:ar": "تي شوب لمواد التجميل"
        }
    },
    {
        "lat": 41.0042249,
        "lon": 28.9308272,
        "tags": {
            "addr:city": "Istanbul",
            "addr:district": "Fatih",
            "description": "",
            "opening_hours": null,
            "phone": null,
            "branch": null,
            "amenity": "cosmetics",
            "mobile": null,
            "addr:street": "Kuvayi Milliye Caddesi",
            "cuisine": null,
            "name": "Naz",
            "name:en": null,
            "name:uk": null,
            "name:de": null,
            "name:tr": null,
            "name:ru": null,
            "name:ar": "احذية ناز"
        }
    },
    {
        "lat": 41.008283,
        "lon": 28.9715182,
        "tags": {
            "addr:city": "Istanbul",
            "addr:district": "Fatih",
            "description": "",
            "opening_hours": null,
            "phone": null,
            "branch": null,
            "amenity": "cosmetics",
            "mobile": null,
            "addr:street": "Divan yolu caddesi",
            "cuisine": null,
            "name": "T Shop",
            "name:en": null,
            "name:uk": null,
            "name:de": null,
            "name:tr": null,
            "name:ru": null,
            "name:ar": null
        }
    },
    {
        "lat": 41.0114833,
        "lon": 28.9389171,
        "tags": {
            "addr:city": "Istanbul",
            "addr:district": "Turkey",
            "description": "",
            "opening_hours": null,
            "phone": null,
            "branch": null,
            "amenity": "cosmetics",
            "mobile": null,
            "addr:street": "KIZILELMA CADDESİ",
            "cuisine": null,
            "name": "DR.ARIS ISTANBUL",
            "name:en": null,
            "name:uk": null,
            "name:de": null,
            "name:tr": null,
            "name:ru": null,
            "name:ar": "دوكتور اريس استانبول"
        }
    },
    {
        "lat": 41.0115216,
        "lon": 28.9403782,
        "tags": {
            "addr:city": "Istanbul",
            "addr:district": "Turkey",
            "description": "",
            "opening_hours": null,
            "phone": null,
            "branch": null,
            "amenity": "cosmetics",
            "mobile": null,
            "addr:street": "Turgut özal millet caddesi",
            "cuisine": null,
            "name": "cossta cosmetic station",
            "name:en": null,
            "name:uk": null,
            "name:de": null,
            "name:tr": null,
            "name:ru": null,
            "name:ar": "كوستا كوزميتيك ستاشيون"
        }
    },
    {
        "lat": 41.0100525,
        "lon": 28.9384169,
        "tags": {
            "addr:city": "Istanbul",
            "addr:district": "Fatih",
            "description": "",
            "opening_hours": null,
            "phone": null,
            "branch": null,
            "amenity": "cosmetics",
            "mobile": null,
            "addr:street": "Hatip naci sokak",
            "cuisine": null,
            "name": "Mila kozmetik",
            "name:en": null,
            "name:uk": null,
            "name:de": null,
            "name:tr": null,
            "name:ru": null,
            "name:ar": "ميلا كوزماتيك"
        }
    },
    {
        "lat": 41.00935,
        "lon": 28.9390048,
        "tags": {
            "addr:city": "Istanbul",
            "addr:district": "Fatih",
            "description": "",
            "opening_hours": null,
            "phone": null,
            "branch": null,
            "amenity": "cosmetics",
            "mobile": null,
            "addr:street": "Cevdet Paşa Caddesi",
            "cuisine": null,
            "name": "Oskar kozmetik",
            "name:en": null,
            "name:uk": null,
            "name:de": null,
            "name:tr": null,
            "name:ru": null,
            "name:ar": "اوسكار كوزماتيك"
        }
    },
    {
        "lat": 41.0021806,
        "lon": 28.930147,
        "tags": {
            "addr:city": "Istanbul",
            "addr:district": "Fatih",
            "description": "",
            "opening_hours": null,
            "phone": null,
            "branch": null,
            "amenity": "cosmetics",
            "mobile": null,
            "addr:street": "Hacı Kadın Caddesi",
            "cuisine": null,
            "name": "Melisa Temizlik",
            "name:en": null,
            "name:uk": null,
            "name:de": null,
            "name:tr": null,
            "name:ru": null,
            "name:ar": "ميليسا للمنظفات"
        }
    },
    {
        "lat": 41.0086836,
        "lon": 28.9313773,
        "tags": {
            "addr:city": "Istanbul",
            "addr:district": "Fatih",
            "description": "",
            "opening_hours": null,
            "phone": null,
            "branch": null,
            "amenity": "cosmetics",
            "mobile": null,
            "addr:street": "Altımermer Caddesi",
            "cuisine": null,
            "name": "Golden Fingers",
            "name:en": null,
            "name:uk": null,
            "name:de": null,
            "name:tr": null,
            "name:ru": null,
            "name:ar": "غولدن فنغرز"
        }
    },
    {
        "lat": 41.0089491,
        "lon": 28.9314086,
        "tags": {
            "addr:city": "Istanbul",
            "addr:district": "Fatih",
            "description": "",
            "opening_hours": null,
            "phone": null,
            "branch": null,
            "amenity": "cosmetics",
            "mobile": null,
            "addr:street": "Altımermer Caddesi",
            "cuisine": null,
            "name": "Vatan Kozmetik",
            "name:en": null,
            "name:uk": null,
            "name:de": null,
            "name:tr": null,
            "name:ru": null,
            "name:ar": "وطن كوزموتيك"
        }
    },
    {
        "lat": 41.0104412,
        "lon": 28.9315506,
        "tags": {
            "addr:city": "Istanbul",
            "addr:district": "Fatih",
            "description": "",
            "opening_hours": null,
            "phone": "05355681570",
            "branch": null,
            "amenity": "cosmetics",
            "mobile": null,
            "addr:street": "Vezir Caddesi",
            "cuisine": null,
            "name": "Romans Bijuteri",
            "name:en": null,
            "name:uk": null,
            "name:de": null,
            "name:tr": null,
            "name:ru": null,
            "name:ar": "رومانس للهدايا والساعات"
        }
    },
    {
        "lat": 41.0073506,
        "lon": 28.9309779,
        "tags": {
            "addr:city": "Istanbul",
            "addr:district": "Fatih",
            "description": "",
            "opening_hours": null,
            "phone": null,
            "branch": null,
            "amenity": "cosmetics",
            "mobile": null,
            "addr:street": "Silivrikapı Caddesi",
            "cuisine": null,
            "name": "Aksoy Aktar Sağlıklı yaşam merkezi",
            "name:en": null,
            "name:uk": null,
            "name:de": null,
            "name:tr": null,
            "name:ru": null,
            "name:ar": "أكسزي أكتر للمنتجات الصحية"
        }
    },
    {
        "lat": 41.0070081,
        "lon": 28.9352274,
        "tags": {
            "addr:city": "Istanbul",
            "addr:district": "Fatih",
            "description": "",
            "opening_hours": null,
            "phone": null,
            "branch": null,
            "amenity": "cosmetics",
            "mobile": null,
            "addr:street": "Hekimoğlu Alipaşa Caddesi",
            "cuisine": null,
            "name": "Duru Kozmetik Dünyasi",
            "name:en": null,
            "name:uk": null,
            "name:de": null,
            "name:tr": null,
            "name:ru": null,
            "name:ar": "دورو كوزميتيك دونياسي"
        }
    },
    {
        "lat": 41.0182273,
        "lon": 28.948758,
        "tags": {
            "addr:city": "Istanbul",
            "addr:district": "Turkey",
            "description": "",
            "opening_hours": null,
            "phone": null,
            "branch": null,
            "amenity": "cosmetics",
            "mobile": null,
            "addr:street": "Fevzi Paşa Caddesi",
            "cuisine": null,
            "name": "T.shop",
            "name:en": null,
            "name:uk": null,
            "name:de": null,
            "name:tr": null,
            "name:ru": null,
            "name:ar": "تي شوب"
        }
    },
    {
        "lat": 41.0164474,
        "lon": 28.9688281,
        "tags": {
            "addr:city": "Istanbul",
            "addr:district": "Fatih",
            "description": "",
            "opening_hours": null,
            "phone": null,
            "branch": null,
            "amenity": "cosmetics",
            "mobile": null,
            "addr:street": "Tahtakale Caddesi",
            "cuisine": null,
            "name": "Özkan Kozmetik",
            "name:en": null,
            "name:uk": null,
            "name:de": null,
            "name:tr": null,
            "name:ru": null,
            "name:ar": "اوزكان كوزميتيك"
        }
    },
    {
        "lat": 41.0160689,
        "lon": 28.9691552,
        "tags": {
            "addr:city": "Istanbul",
            "addr:district": "Fatih",
            "description": "",
            "opening_hours": null,
            "phone": null,
            "branch": null,
            "amenity": "cosmetics",
            "mobile": null,
            "addr:street": "Tahtakale Caddesi",
            "cuisine": null,
            "name": "Filiz Kozmetik",
            "name:en": null,
            "name:uk": null,
            "name:de": null,
            "name:tr": null,
            "name:ru": null,
            "name:ar": "فيليز كوزميتيك"
        }
    },
    {
        "lat": 41.0161328,
        "lon": 28.9692644,
        "tags": {
            "addr:city": "Istanbul",
            "addr:district": "Fatih",
            "description": "",
            "opening_hours": null,
            "phone": null,
            "branch": null,
            "amenity": "cosmetics",
            "mobile": null,
            "addr:street": "Tahtakale Caddesi",
            "cuisine": null,
            "name": "Kozmar Kozmetik",
            "name:en": null,
            "name:uk": null,
            "name:de": null,
            "name:tr": null,
            "name:ru": null,
            "name:ar": "كوزمار كوزميتيك"
        }
    },
    {
        "lat": 41.0163988,
        "lon": 28.968969,
        "tags": {
            "addr:city": "Istanbul",
            "addr:district": "Fatih",
            "description": "",
            "opening_hours": null,
            "phone": null,
            "branch": null,
            "amenity": "cosmetics",
            "mobile": null,
            "addr:street": "Cömert Türk Sokak",
            "cuisine": null,
            "name": "Yıldız Kozmetik",
            "name:en": null,
            "name:uk": null,
            "name:de": null,
            "name:tr": null,
            "name:ru": null,
            "name:ar": "يلديز كوزميتيك"
        }
    },
    {
        "lat": 41.0171621,
        "lon": 28.9680599,
        "tags": {
            "addr:city": "Istanbul",
            "addr:district": "Fatih",
            "description": "",
            "opening_hours": null,
            "phone": null,
            "branch": null,
            "amenity": "cosmetics",
            "mobile": null,
            "addr:street": "Uzun Çarşı Caddesi",
            "cuisine": null,
            "name": "Beren",
            "name:en": null,
            "name:uk": null,
            "name:de": null,
            "name:tr": null,
            "name:ru": null,
            "name:ar": "بيرين"
        }
    },
    {
        "lat": 41.0177309,
        "lon": 28.9682288,
        "tags": {
            "addr:city": "Istanbul",
            "addr:district": "Fatih",
            "description": "",
            "opening_hours": null,
            "phone": null,
            "branch": null,
            "amenity": "cosmetics",
            "mobile": null,
            "addr:street": "Uzun Çarşı Caddesi",
            "cuisine": null,
            "name": "Karatekin Kozmetik",
            "name:en": null,
            "name:uk": null,
            "name:de": null,
            "name:tr": null,
            "name:ru": null,
            "name:ar": "كاراتيكين كوزميتيك"
        }
    },
    {
        "lat": 41.0664424,
        "lon": 28.8980439,
        "tags": {
            "addr:city": "İstanbul",
            "addr:district": null,
            "description": "",
            "opening_hours": null,
            "phone": null,
            "branch": null,
            "amenity": "cosmetics",
            "mobile": null,
            "addr:street": null,
            "cuisine": null,
            "name": "Gratis",
            "name:en": null,
            "name:uk": null,
            "name:de": null,
            "name:tr": null,
            "name:ru": null,
            "name:ar": null
        }
    },
    {
        "lat": 40.9545835,
        "lon": 29.0947039,
        "tags": {
            "addr:city": "İstanbul",
            "addr:district": "Kadıköy",
            "description": "",
            "opening_hours": null,
            "phone": null,
            "branch": null,
            "amenity": "cosmetics",
            "mobile": null,
            "addr:street": "Prof. Dr. Ali Nihat Tarlan Caddesi",
            "cuisine": null,
            "name": "Tekin Kozmetik",
            "name:en": null,
            "name:uk": null,
            "name:de": null,
            "name:tr": null,
            "name:ru": null,
            "name:ar": null
        }
    },
    {
        "lat": 41.0584038,
        "lon": 28.9140794,
        "tags": {
            "addr:city": "İstanbul",
            "addr:district": null,
            "description": "",
            "opening_hours": null,
            "phone": null,
            "branch": null,
            "amenity": "cosmetics",
            "mobile": null,
            "addr:street": null,
            "cuisine": null,
            "name": "Gratis",
            "name:en": null,
            "name:uk": null,
            "name:de": null,
            "name:tr": null,
            "name:ru": null,
            "name:ar": null
        }
    },
    {
        "lat": 41.0597077,
        "lon": 28.913646,
        "tags": {
            "addr:city": "İstanbul",
            "addr:district": null,
            "description": "",
            "opening_hours": null,
            "phone": null,
            "branch": null,
            "amenity": "cosmetics",
            "mobile": null,
            "addr:street": null,
            "cuisine": null,
            "name": "T-Shop",
            "name:en": null,
            "name:uk": null,
            "name:de": null,
            "name:tr": null,
            "name:ru": null,
            "name:ar": null
        }
    },
    {
        "lat": 41.0605583,
        "lon": 28.9136233,
        "tags": {
            "addr:city": "İstanbul",
            "addr:district": null,
            "description": "",
            "opening_hours": null,
            "phone": null,
            "branch": null,
            "amenity": "cosmetics",
            "mobile": null,
            "addr:street": null,
            "cuisine": null,
            "name": "Gratis",
            "name:en": null,
            "name:uk": null,
            "name:de": null,
            "name:tr": null,
            "name:ru": null,
            "name:ar": null
        }
    },
    {
        "lat": 41.0607229,
        "lon": 28.913832,
        "tags": {
            "addr:city": "İstanbul",
            "addr:district": null,
            "description": "",
            "opening_hours": null,
            "phone": null,
            "branch": null,
            "amenity": "cosmetics",
            "mobile": null,
            "addr:street": null,
            "cuisine": null,
            "name": "Size Özel Takı ve Aksesuar",
            "name:en": null,
            "name:uk": null,
            "name:de": null,
            "name:tr": null,
            "name:ru": null,
            "name:ar": null
        }
    },
    {
        "lat": 41.0317191,
        "lon": 29.1825002,
        "tags": {
            "addr:city": "İstanbul",
            "addr:district": null,
            "description": "",
            "opening_hours": null,
            "phone": null,
            "branch": null,
            "amenity": "cosmetics",
            "mobile": null,
            "addr:street": null,
            "cuisine": null,
            "name": "Gratis",
            "name:en": null,
            "name:uk": null,
            "name:de": null,
            "name:tr": null,
            "name:ru": null,
            "name:ar": null
        }
    },
    {
        "lat": 40.9623178,
        "lon": 29.0763546,
        "tags": {
            "addr:city": "İstanbul",
            "addr:district": "Kadıköy",
            "description": "",
            "opening_hours": null,
            "phone": null,
            "branch": null,
            "amenity": "cosmetics",
            "mobile": null,
            "addr:street": "Bağdat Caddesi",
            "cuisine": null,
            "name": "Yves Rocher",
            "name:en": null,
            "name:uk": null,
            "name:de": null,
            "name:tr": null,
            "name:ru": null,
            "name:ar": null
        }
    },
    {
        "lat": 40.9696034,
        "lon": 29.0850515,
        "tags": {
            "addr:city": "istanbul",
            "addr:district": "kadıköy",
            "description": "",
            "opening_hours": null,
            "phone": null,
            "branch": null,
            "amenity": "cosmetics",
            "mobile": null,
            "addr:street": "Şemsettin Günaltay Caddesi",
            "cuisine": null,
            "name": "Gratis",
            "name:en": null,
            "name:uk": null,
            "name:de": null,
            "name:tr": null,
            "name:ru": null,
            "name:ar": null
        }
    },
    {
        "lat": 41.0590653,
        "lon": 28.9841903,
        "tags": {
            "addr:city": "İstanbul",
            "addr:district": null,
            "description": "",
            "opening_hours": null,
            "phone": null,
            "branch": null,
            "amenity": "cosmetics",
            "mobile": null,
            "addr:street": null,
            "cuisine": null,
            "name": "Cevher Kozmetik",
            "name:en": null,
            "name:uk": null,
            "name:de": null,
            "name:tr": null,
            "name:ru": null,
            "name:ar": null
        }
    },
    {
        "lat": 40.9666136,
        "lon": 29.2681031,
        "tags": {
            "addr:city": "Istanbul",
            "addr:district": "Sultanbeyli",
            "description": "",
            "opening_hours": "Mo-Fr 07:00-13:30; Mo-Fr 17:00-20:00",
            "phone": "02164194402",
            "branch": null,
            "amenity": "cosmetics",
            "mobile": null,
            "addr:street": "Fatih bulvarı",
            "cuisine": null,
            "name": "Tunç kozmetik",
            "name:en": null,
            "name:uk": null,
            "name:de": null,
            "name:tr": null,
            "name:ru": null,
            "name:ar": "مستحضرات تجميل تونتش"
        }
    },
    {
        "lat": 40.9670435,
        "lon": 29.2665204,
        "tags": {
            "addr:city": "Istanbul",
            "addr:district": "Sultanbeyli",
            "description": "",
            "opening_hours": "Mo-Fr 07:00-13:30; Mo-Fr 17:00-20:00",
            "phone": "08502106900",
            "branch": null,
            "amenity": "cosmetics",
            "mobile": null,
            "addr:street": "Fatih bulvarı",
            "cuisine": null,
            "name": "Gratis",
            "name:en": null,
            "name:uk": null,
            "name:de": null,
            "name:tr": null,
            "name:ru": null,
            "name:ar": "مستحضرات تجميل غراتيس"
        }
    },
    {
        "lat": 41.0797086,
        "lon": 29.0071729,
        "tags": {
            "addr:city": "İstanbul",
            "addr:district": null,
            "description": "",
            "opening_hours": null,
            "phone": null,
            "branch": null,
            "amenity": "cosmetics",
            "mobile": null,
            "addr:street": null,
            "cuisine": null,
            "name": "BB Hair Salon",
            "name:en": null,
            "name:uk": null,
            "name:de": null,
            "name:tr": null,
            "name:ru": null,
            "name:ar": null
        }
    },
    {
        "lat": 41.0798665,
        "lon": 29.0073406,
        "tags": {
            "addr:city": "İstanbul",
            "addr:district": null,
            "description": "",
            "opening_hours": null,
            "phone": null,
            "branch": null,
            "amenity": "cosmetics",
            "mobile": null,
            "addr:street": "Talatpaşa Caddesi",
            "cuisine": null,
            "name": "Öner Kuaför",
            "name:en": null,
            "name:uk": null,
            "name:de": null,
            "name:tr": null,
            "name:ru": null,
            "name:ar": null
        }
    },
    {
        "lat": 41.0022692,
        "lon": 28.9564346,
        "tags": {
            "addr:city": "İstanbul",
            "addr:district": null,
            "description": "",
            "opening_hours": null,
            "phone": null,
            "branch": null,
            "amenity": "cosmetics",
            "mobile": null,
            "addr:street": null,
            "cuisine": null,
            "name": "Atölye sabun",
            "name:en": null,
            "name:uk": null,
            "name:de": null,
            "name:tr": null,
            "name:ru": null,
            "name:ar": null
        }
    },
    {
        "lat": 40.9684893,
        "lon": 29.26103,
        "tags": {
            "addr:city": "Istanbul",
            "addr:district": "Sultanbeyli",
            "description": "",
            "opening_hours": "Mo-Fr 07:00-13:30; Mo-Fr 17:00-20:00",
            "phone": null,
            "branch": null,
            "amenity": "cosmetics",
            "mobile": null,
            "addr:street": "Fatih Bulvarı Caddesi",
            "cuisine": null,
            "name": "Forton",
            "name:en": null,
            "name:uk": null,
            "name:de": null,
            "name:tr": null,
            "name:ru": null,
            "name:ar": "مواد تجميل فورتون"
        }
    },
    {
        "lat": 40.9675855,
        "lon": 29.2642736,
        "tags": {
            "addr:city": "Istanbul",
            "addr:district": "Sultanbeyli",
            "description": "",
            "opening_hours": "Mo-Fr 07:00-13:30; Mo-Fr 17:00-20:00",
            "phone": null,
            "branch": null,
            "amenity": "cosmetics",
            "mobile": null,
            "addr:street": "Fatih Bulvarı Caddesi",
            "cuisine": null,
            "name": "Meģa",
            "name:en": null,
            "name:uk": null,
            "name:de": null,
            "name:tr": null,
            "name:ru": null,
            "name:ar": "أدوات تجميل ميغا"
        }
    },
    {
        "lat": 40.9688331,
        "lon": 29.2771912,
        "tags": {
            "addr:city": "Istanbul",
            "addr:district": "Sultanbeyli",
            "description": "",
            "opening_hours": "Mo-Fr 07:00-13:30; Mo-Fr 17:00-20:00",
            "phone": "05325404819",
            "branch": null,
            "amenity": "cosmetics",
            "mobile": null,
            "addr:street": "çamlik Caddesi",
            "cuisine": null,
            "name": "Timizlik center",
            "name:en": null,
            "name:uk": null,
            "name:de": null,
            "name:tr": null,
            "name:ru": null,
            "name:ar": "مواد تجميل تيميزلك"
        }
    },
    {
        "lat": 40.9680683,
        "lon": 29.2626402,
        "tags": {
            "addr:city": "Istanbul",
            "addr:district": "Sultanbeyli",
            "description": "",
            "opening_hours": "Mo-Fr 07:00-13:30; Mo-Fr 17:00-20:00",
            "phone": null,
            "branch": null,
            "amenity": "cosmetics",
            "mobile": null,
            "addr:street": "Fatih Bulvarı Caddesi",
            "cuisine": null,
            "name": "Fatih Kozmetik",
            "name:en": null,
            "name:uk": null,
            "name:de": null,
            "name:tr": null,
            "name:ru": null,
            "name:ar": "البسة فاتح كوزماتيك"
        }
    },
    {
        "lat": 40.9965999,
        "lon": 28.9101701,
        "tags": {
            "addr:city": "Istanbul",
            "addr:district": "Zeytinburnu",
            "description": "",
            "opening_hours": null,
            "phone": null,
            "branch": null,
            "amenity": "cosmetics",
            "mobile": null,
            "addr:street": null,
            "cuisine": null,
            "name": "Ar Al kozmetik",
            "name:en": null,
            "name:uk": null,
            "name:de": null,
            "name:tr": null,
            "name:ru": null,
            "name:ar": null
        }
    },
    {
        "lat": 40.9874435,
        "lon": 28.8957544,
        "tags": {
            "addr:city": "Istanbul",
            "addr:district": "Zeytinburnu",
            "description": "",
            "opening_hours": null,
            "phone": null,
            "branch": null,
            "amenity": "cosmetics",
            "mobile": null,
            "addr:street": "Merv Caddesi",
            "cuisine": null,
            "name": "Tarıkcan Kozmetik",
            "name:en": null,
            "name:uk": null,
            "name:de": null,
            "name:tr": null,
            "name:ru": null,
            "name:ar": "طارقجان كوزميتيك"
        }
    },
    {
        "lat": 40.9853338,
        "lon": 28.8949452,
        "tags": {
            "addr:city": "Istanbul",
            "addr:district": "Zeytinburnu",
            "description": "",
            "opening_hours": null,
            "phone": null,
            "branch": null,
            "amenity": "cosmetics",
            "mobile": null,
            "addr:street": "Adnan Kahveci Sokak",
            "cuisine": null,
            "name": "nazli gürbüz",
            "name:en": null,
            "name:uk": null,
            "name:de": null,
            "name:tr": null,
            "name:ru": null,
            "name:ar": "نازلي غوربوز"
        }
    },
    {
        "lat": 40.9855655,
        "lon": 28.8997932,
        "tags": {
            "addr:city": "Istanbul",
            "addr:district": "Zeytinburnu",
            "description": "",
            "opening_hours": null,
            "phone": null,
            "branch": null,
            "amenity": "cosmetics",
            "mobile": null,
            "addr:street": "14. Sokak",
            "cuisine": null,
            "name": "Has",
            "name:en": null,
            "name:uk": null,
            "name:de": null,
            "name:tr": null,
            "name:ru": null,
            "name:ar": "هاس"
        }
    },
    {
        "lat": 41.0675342,
        "lon": 28.8312377,
        "tags": {
            "addr:city": "Istanbul",
            "addr:district": "Bağcılar",
            "description": "",
            "opening_hours": null,
            "phone": null,
            "branch": null,
            "amenity": "cosmetics",
            "mobile": null,
            "addr:street": "41.Yol sokak",
            "cuisine": null,
            "name": "Osem",
            "name:en": null,
            "name:uk": null,
            "name:de": null,
            "name:tr": null,
            "name:ru": null,
            "name:ar": "اوسم"
        }
    },
    {
        "lat": 41.0650872,
        "lon": 28.8289206,
        "tags": {
            "addr:city": "Istanbul",
            "addr:district": "Bağcılar",
            "description": "",
            "opening_hours": null,
            "phone": null,
            "branch": null,
            "amenity": "cosmetics",
            "mobile": null,
            "addr:street": "4.Yol sokak",
            "cuisine": null,
            "name": "Maciter group",
            "name:en": null,
            "name:uk": null,
            "name:de": null,
            "name:tr": null,
            "name:ru": null,
            "name:ar": "ماجيتر غروب"
        }
    },
    {
        "lat": 41.0674879,
        "lon": 28.826723,
        "tags": {
            "addr:city": "Istanbul",
            "addr:district": "Bağcılar",
            "description": "",
            "opening_hours": null,
            "phone": null,
            "branch": null,
            "amenity": "cosmetics",
            "mobile": null,
            "addr:street": "3.Yol sokak",
            "cuisine": null,
            "name": "Efendiler",
            "name:en": null,
            "name:uk": null,
            "name:de": null,
            "name:tr": null,
            "name:ru": null,
            "name:ar": "افنديلار"
        }
    },
    {
        "lat": 41.0500931,
        "lon": 28.849493,
        "tags": {
            "addr:city": "Istanbul",
            "addr:district": "Zeytinburnu",
            "description": "",
            "opening_hours": null,
            "phone": null,
            "branch": null,
            "amenity": "cosmetics",
            "mobile": null,
            "addr:street": null,
            "cuisine": null,
            "name": "Deniz Kozmetik",
            "name:en": null,
            "name:uk": null,
            "name:de": null,
            "name:tr": null,
            "name:ru": null,
            "name:ar": "دينيز"
        }
    },
    {
        "lat": 41.0394382,
        "lon": 28.8647082,
        "tags": {
            "addr:city": "Istanbul",
            "addr:district": "Bağcılar",
            "description": "",
            "opening_hours": null,
            "phone": null,
            "branch": null,
            "amenity": "cosmetics",
            "mobile": null,
            "addr:street": "fatih Caddesi",
            "cuisine": null,
            "name": "Kalin Gallery",
            "name:en": null,
            "name:uk": null,
            "name:de": null,
            "name:tr": null,
            "name:ru": null,
            "name:ar": "معرض كالين"
        }
    },
    {
        "lat": 41.030086,
        "lon": 28.855876,
        "tags": {
            "addr:city": "Istanbul",
            "addr:district": "Bağcılar",
            "description": "",
            "opening_hours": null,
            "phone": null,
            "branch": null,
            "amenity": "cosmetics",
            "mobile": null,
            "addr:street": "Şehit Yılmaz Kaan Caddesi",
            "cuisine": null,
            "name": "Mimoze Kozmetik",
            "name:en": null,
            "name:uk": null,
            "name:de": null,
            "name:tr": null,
            "name:ru": null,
            "name:ar": "نوفوتيه ميموزا"
        }
    },
    {
        "lat": 41.0305611,
        "lon": 28.8563546,
        "tags": {
            "addr:city": "Istanbul",
            "addr:district": "Bağcılar",
            "description": "",
            "opening_hours": null,
            "phone": null,
            "branch": null,
            "amenity": "cosmetics",
            "mobile": null,
            "addr:street": "Bağcılar caddesi",
            "cuisine": null,
            "name": "Gratis",
            "name:en": null,
            "name:uk": null,
            "name:de": null,
            "name:tr": null,
            "name:ru": null,
            "name:ar": "غراتيس"
        }
    },
    {
        "lat": 41.0306628,
        "lon": 28.8563277,
        "tags": {
            "addr:city": "Istanbul",
            "addr:district": "Bağcılar",
            "description": "",
            "opening_hours": null,
            "phone": null,
            "branch": null,
            "amenity": "cosmetics",
            "mobile": null,
            "addr:street": "Bağcılar caddesi",
            "cuisine": null,
            "name": "Çirkin kozmetik",
            "name:en": null,
            "name:uk": null,
            "name:de": null,
            "name:tr": null,
            "name:ru": null,
            "name:ar": "نوفوتيه تشيركين"
        }
    },
    {
        "lat": 41.0358269,
        "lon": 28.9826021,
        "tags": {
            "addr:city": "İstanbul",
            "addr:district": null,
            "description": "",
            "opening_hours": null,
            "phone": null,
            "branch": null,
            "amenity": "cosmetics",
            "mobile": null,
            "addr:street": null,
            "cuisine": null,
            "name": "Golden Rose",
            "name:en": null,
            "name:uk": null,
            "name:de": null,
            "name:tr": null,
            "name:ru": null,
            "name:ar": null
        }
    },
    {
        "lat": 41.0301183,
        "lon": 28.9756194,
        "tags": {
            "addr:city": "İstanbul",
            "addr:district": null,
            "description": "",
            "opening_hours": null,
            "phone": null,
            "branch": null,
            "amenity": "cosmetics",
            "mobile": null,
            "addr:street": null,
            "cuisine": null,
            "name": "Golden Rose",
            "name:en": null,
            "name:uk": null,
            "name:de": null,
            "name:tr": null,
            "name:ru": null,
            "name:ar": null
        }
    },
    {
        "lat": 41.0134265,
        "lon": 28.971596,
        "tags": {
            "addr:city": "İstanbul",
            "addr:district": null,
            "description": "",
            "opening_hours": null,
            "phone": null,
            "branch": null,
            "amenity": "cosmetics",
            "mobile": null,
            "addr:street": null,
            "cuisine": null,
            "name": null,
            "name:en": null,
            "name:uk": null,
            "name:de": null,
            "name:tr": null,
            "name:ru": null,
            "name:ar": null
        }
    },
    {
        "lat": 41.0786097,
        "lon": 29.0009635,
        "tags": {
            "addr:city": "İstanbul",
            "addr:district": "Kağıthane",
            "description": "",
            "opening_hours": null,
            "phone": null,
            "branch": null,
            "amenity": "cosmetics",
            "mobile": null,
            "addr:street": "Talatpaşa Caddesi",
            "cuisine": null,
            "name": "Gratis",
            "name:en": null,
            "name:uk": null,
            "name:de": null,
            "name:tr": null,
            "name:ru": null,
            "name:ar": null
        }
    },
    {
        "lat": 41.0301971,
        "lon": 28.9756343,
        "tags": {
            "addr:city": "İstanbul",
            "addr:district": null,
            "description": "",
            "opening_hours": null,
            "phone": null,
            "branch": null,
            "amenity": "cosmetics",
            "mobile": null,
            "addr:street": null,
            "cuisine": null,
            "name": "DP Parfum",
            "name:en": null,
            "name:uk": null,
            "name:de": null,
            "name:tr": null,
            "name:ru": null,
            "name:ar": null
        }
    },
    {
        "lat": 41.0290087,
        "lon": 28.9730094,
        "tags": {
            "addr:city": "İstanbul",
            "addr:district": null,
            "description": "",
            "opening_hours": null,
            "phone": null,
            "branch": null,
            "amenity": "cosmetics",
            "mobile": null,
            "addr:street": null,
            "cuisine": null,
            "name": "L'Occitane",
            "name:en": null,
            "name:uk": null,
            "name:de": null,
            "name:tr": null,
            "name:ru": null,
            "name:ar": null
        }
    },
    {
        "lat": 41.036058,
        "lon": 28.9839342,
        "tags": {
            "addr:city": "İstanbul",
            "addr:district": null,
            "description": "",
            "opening_hours": null,
            "phone": null,
            "branch": null,
            "amenity": "cosmetics",
            "mobile": null,
            "addr:street": null,
            "cuisine": null,
            "name": "Kiehl's",
            "name:en": null,
            "name:uk": null,
            "name:de": null,
            "name:tr": null,
            "name:ru": null,
            "name:ar": null
        }
    },
    {
        "lat": 41.0327557,
        "lon": 28.9766408,
        "tags": {
            "addr:city": "İstanbul",
            "addr:district": null,
            "description": "",
            "opening_hours": "Mo-Su 09:00-03:00",
            "phone": null,
            "branch": null,
            "amenity": "cosmetics",
            "mobile": null,
            "addr:street": "İstiklal Caddesi",
            "cuisine": null,
            "name": "Gratis",
            "name:en": null,
            "name:uk": null,
            "name:de": null,
            "name:tr": null,
            "name:ru": null,
            "name:ar": null
        }
    },
    {
        "lat": 41.0272117,
        "lon": 28.9745479,
        "tags": {
            "addr:city": "İstanbul",
            "addr:district": null,
            "description": "",
            "opening_hours": null,
            "phone": null,
            "branch": null,
            "amenity": "cosmetics",
            "mobile": null,
            "addr:street": null,
            "cuisine": null,
            "name": "Home SPA",
            "name:en": null,
            "name:uk": null,
            "name:de": null,
            "name:tr": null,
            "name:ru": null,
            "name:ar": null
        }
    },
    {
        "lat": 41.0215963,
        "lon": 28.5803406,
        "tags": {
            "addr:city": "İstanbul",
            "addr:district": null,
            "description": "",
            "opening_hours": null,
            "phone": null,
            "branch": null,
            "amenity": "cosmetics",
            "mobile": null,
            "addr:street": null,
            "cuisine": null,
            "name": "Gratis",
            "name:en": null,
            "name:uk": null,
            "name:de": null,
            "name:tr": null,
            "name:ru": null,
            "name:ar": null
        }
    },
    {
        "lat": 40.9894192,
        "lon": 29.0237192,
        "tags": {
            "addr:city": "İstanbul",
            "addr:district": null,
            "description": "",
            "opening_hours": null,
            "phone": null,
            "branch": null,
            "amenity": "cosmetics",
            "mobile": null,
            "addr:street": null,
            "cuisine": null,
            "name": "Flormar",
            "name:en": null,
            "name:uk": null,
            "name:de": null,
            "name:tr": null,
            "name:ru": null,
            "name:ar": null
        }
    },
    {
        "lat": 40.9785846,
        "lon": 28.8760656,
        "tags": {
            "addr:city": "İstanbul",
            "addr:district": null,
            "description": "",
            "opening_hours": null,
            "phone": null,
            "branch": null,
            "amenity": "cosmetics",
            "mobile": null,
            "addr:street": null,
            "cuisine": null,
            "name": "Gratis",
            "name:en": null,
            "name:uk": null,
            "name:de": null,
            "name:tr": null,
            "name:ru": null,
            "name:ar": null
        }
    },
    {
        "lat": 41.0347767,
        "lon": 28.9801421,
        "tags": {
            "addr:city": "İstanbul",
            "addr:district": null,
            "description": "",
            "opening_hours": "Mo-Su 10:00-22:00",
            "phone": "0212 292 9029",
            "branch": null,
            "amenity": "cosmetics",
            "mobile": null,
            "addr:street": "İstiklal Cad",
            "cuisine": null,
            "name": "Sephora",
            "name:en": "Sephora",
            "name:uk": null,
            "name:de": null,
            "name:tr": null,
            "name:ru": null,
            "name:ar": null
        }
    },
    {
        "lat": 40.9921766,
        "lon": 28.9039976,
        "tags": {
            "addr:city": "İstanbul",
            "addr:district": null,
            "description": "",
            "opening_hours": null,
            "phone": null,
            "branch": null,
            "amenity": "cosmetics",
            "mobile": null,
            "addr:street": null,
            "cuisine": null,
            "name": "Merve",
            "name:en": null,
            "name:uk": null,
            "name:de": null,
            "name:tr": null,
            "name:ru": null,
            "name:ar": null
        }
    },
    {
        "lat": 41.0188253,
        "lon": 29.1920018,
        "tags": {
            "addr:city": "İstanbul",
            "addr:district": null,
            "description": "",
            "opening_hours": null,
            "phone": null,
            "branch": null,
            "amenity": "cosmetics",
            "mobile": null,
            "addr:street": null,
            "cuisine": null,
            "name": "Gratis",
            "name:en": null,
            "name:uk": null,
            "name:de": null,
            "name:tr": null,
            "name:ru": null,
            "name:ar": null
        }
    },
    {
        "lat": 40.9905508,
        "lon": 29.0246394,
        "tags": {
            "addr:city": "İstanbul",
            "addr:district": null,
            "description": "",
            "opening_hours": null,
            "phone": null,
            "branch": null,
            "amenity": "cosmetics",
            "mobile": null,
            "addr:street": null,
            "cuisine": null,
            "name": "Eve",
            "name:en": null,
            "name:uk": null,
            "name:de": null,
            "name:tr": null,
            "name:ru": null,
            "name:ar": null
        }
    },
    {
        "lat": 41.0323505,
        "lon": 28.9832003,
        "tags": {
            "addr:city": "İstanbul",
            "addr:district": null,
            "description": "",
            "opening_hours": null,
            "phone": null,
            "branch": null,
            "amenity": "cosmetics",
            "mobile": null,
            "addr:street": null,
            "cuisine": null,
            "name": "Queen's Nail Studio",
            "name:en": null,
            "name:uk": null,
            "name:de": null,
            "name:tr": null,
            "name:ru": null,
            "name:ar": null
        }
    },
    {
        "lat": 40.9901545,
        "lon": 29.0239104,
        "tags": {
            "addr:city": "İstanbul",
            "addr:district": null,
            "description": "",
            "opening_hours": null,
            "phone": null,
            "branch": null,
            "amenity": "cosmetics",
            "mobile": null,
            "addr:street": null,
            "cuisine": null,
            "name": "Gratis",
            "name:en": null,
            "name:uk": null,
            "name:de": null,
            "name:tr": null,
            "name:ru": null,
            "name:ar": null
        }
    },
    {
        "lat": 40.9856622,
        "lon": 29.0275974,
        "tags": {
            "addr:city": "İstanbul",
            "addr:district": null,
            "description": "",
            "opening_hours": null,
            "phone": null,
            "branch": null,
            "amenity": "cosmetics",
            "mobile": null,
            "addr:street": null,
            "cuisine": null,
            "name": "Euroderm",
            "name:en": null,
            "name:uk": null,
            "name:de": null,
            "name:tr": null,
            "name:ru": null,
            "name:ar": null
        }
    },
    {
        "lat": 40.9835052,
        "lon": 29.0237217,
        "tags": {
            "addr:city": "İstanbul",
            "addr:district": null,
            "description": "",
            "opening_hours": "PH,Mo-Su 09:00-22:00",
            "phone": null,
            "branch": null,
            "amenity": "cosmetics",
            "mobile": null,
            "addr:street": null,
            "cuisine": null,
            "name": "Gratis",
            "name:en": null,
            "name:uk": null,
            "name:de": null,
            "name:tr": null,
            "name:ru": null,
            "name:ar": null
        }
    },
    {
        "lat": 41.0378952,
        "lon": 28.9827741,
        "tags": {
            "addr:city": "İstanbul",
            "addr:district": null,
            "description": "",
            "opening_hours": null,
            "phone": null,
            "branch": null,
            "amenity": "cosmetics",
            "mobile": null,
            "addr:street": null,
            "cuisine": null,
            "name": null,
            "name:en": null,
            "name:uk": null,
            "name:de": null,
            "name:tr": null,
            "name:ru": null,
            "name:ar": null
        }
    },
    {
        "lat": 41.1037552,
        "lon": 28.7918483,
        "tags": {
            "addr:city": "İstanbul",
            "addr:district": null,
            "description": "",
            "opening_hours": null,
            "phone": null,
            "branch": null,
            "amenity": "cosmetics",
            "mobile": null,
            "addr:street": null,
            "cuisine": null,
            "name": "حلاقي السوري",
            "name:en": null,
            "name:uk": null,
            "name:de": null,
            "name:tr": null,
            "name:ru": null,
            "name:ar": null
        }
    },
    {
        "lat": 41.25917,
        "lon": 28.748406,
        "tags": {
            "addr:city": "İstanbul",
            "addr:district": null,
            "description": "",
            "opening_hours": "24/7",
            "phone": null,
            "branch": null,
            "amenity": "cosmetics",
            "mobile": null,
            "addr:street": null,
            "cuisine": null,
            "name": null,
            "name:en": null,
            "name:uk": null,
            "name:de": null,
            "name:tr": null,
            "name:ru": "Duty Free Cosmetics",
            "name:ar": null
        }
    },
    {
        "lat": 41.1348517,
        "lon": 29.0909047,
        "tags": {
            "addr:city": "İstanbul",
            "addr:district": null,
            "description": "",
            "opening_hours": null,
            "phone": null,
            "branch": null,
            "amenity": "cosmetics",
            "mobile": null,
            "addr:street": null,
            "cuisine": null,
            "name": "Gratis",
            "name:en": null,
            "name:uk": null,
            "name:de": null,
            "name:tr": null,
            "name:ru": null,
            "name:ar": null
        }
    },
    {
        "lat": 41.0210216,
        "lon": 28.5816638,
        "tags": {
            "addr:city": "İstanbul",
            "addr:district": null,
            "description": "",
            "opening_hours": null,
            "phone": null,
            "branch": null,
            "amenity": "cosmetics",
            "mobile": null,
            "addr:street": null,
            "cuisine": null,
            "name": "Hazal Kozmetik",
            "name:en": null,
            "name:uk": null,
            "name:de": null,
            "name:tr": null,
            "name:ru": null,
            "name:ar": null
        }
    },
    {
        "lat": 41.1078317,
        "lon": 28.8031488,
        "tags": {
            "addr:city": "İstanbul",
            "addr:district": null,
            "description": "",
            "opening_hours": null,
            "phone": null,
            "branch": null,
            "amenity": "cosmetics",
            "mobile": null,
            "addr:street": null,
            "cuisine": null,
            "name": "Gratis",
            "name:en": null,
            "name:uk": null,
            "name:de": null,
            "name:tr": null,
            "name:ru": null,
            "name:ar": null
        }
    },
    {
        "lat": 40.9623643,
        "lon": 29.0762967,
        "tags": {
            "addr:city": "İstanbul",
            "addr:district": "Kadıköy",
            "description": "",
            "opening_hours": "Mo-Su 10:00-22:00",
            "phone": null,
            "branch": null,
            "amenity": "cosmetics",
            "mobile": null,
            "addr:street": "Kazım Özalp Sokağı",
            "cuisine": null,
            "name": "MAC Cosmetics",
            "name:en": null,
            "name:uk": null,
            "name:de": null,
            "name:tr": null,
            "name:ru": null,
            "name:ar": null
        }
    },
    {
        "lat": 40.877747,
        "lon": 29.2313216,
        "tags": {
            "addr:city": "İstanbul",
            "addr:district": "Pendik",
            "description": "",
            "opening_hours": null,
            "phone": null,
            "branch": null,
            "amenity": "cosmetics",
            "mobile": null,
            "addr:street": "19 Mayıs Caddesi",
            "cuisine": null,
            "name": "Gratis",
            "name:en": null,
            "name:uk": null,
            "name:de": null,
            "name:tr": null,
            "name:ru": null,
            "name:ar": null
        }
    },
    {
        "lat": 40.8776531,
        "lon": 29.2315697,
        "tags": {
            "addr:city": "İstanbul",
            "addr:district": "Pendik",
            "description": "",
            "opening_hours": "Mo-Su 09:00-21:30",
            "phone": null,
            "branch": null,
            "amenity": "cosmetics",
            "mobile": null,
            "addr:street": "19 Mayıs Caddesi",
            "cuisine": null,
            "name": "Flormar",
            "name:en": null,
            "name:uk": null,
            "name:de": null,
            "name:tr": null,
            "name:ru": null,
            "name:ar": null
        }
    },
    {
        "lat": 40.8783578,
        "lon": 29.2302166,
        "tags": {
            "addr:city": "İstanbul",
            "addr:district": "Pendik",
            "description": "",
            "opening_hours": null,
            "phone": null,
            "branch": null,
            "amenity": "cosmetics",
            "mobile": null,
            "addr:street": "Ihlamur Sokağı",
            "cuisine": null,
            "name": "Genç Kozmetik",
            "name:en": null,
            "name:uk": null,
            "name:de": null,
            "name:tr": null,
            "name:ru": null,
            "name:ar": null
        }
    },
    {
        "lat": 41.0365766,
        "lon": 28.9855973,
        "tags": {
            "addr:city": "İstanbul",
            "addr:district": null,
            "description": "",
            "opening_hours": null,
            "phone": null,
            "branch": null,
            "amenity": "cosmetics",
            "mobile": null,
            "addr:street": "Sıraselveler Caddesi",
            "cuisine": null,
            "name": "Gratis",
            "name:en": null,
            "name:uk": null,
            "name:de": null,
            "name:tr": null,
            "name:ru": null,
            "name:ar": null
        }
    },
    {
        "lat": 40.9842485,
        "lon": 29.0591449,
        "tags": {
            "addr:city": "İstanbul",
            "addr:district": null,
            "description": "",
            "opening_hours": null,
            "phone": null,
            "branch": null,
            "amenity": "cosmetics",
            "mobile": null,
            "addr:street": null,
            "cuisine": null,
            "name": "Gratis",
            "name:en": null,
            "name:uk": null,
            "name:de": null,
            "name:tr": null,
            "name:ru": null,
            "name:ar": null
        }
    },
    {
        "lat": 40.9835911,
        "lon": 29.0402403,
        "tags": {
            "addr:city": "İstanbul",
            "addr:district": null,
            "description": "",
            "opening_hours": null,
            "phone": null,
            "branch": null,
            "amenity": "cosmetics",
            "mobile": null,
            "addr:street": null,
            "cuisine": null,
            "name": "Gratis",
            "name:en": null,
            "name:uk": null,
            "name:de": null,
            "name:tr": null,
            "name:ru": null,
            "name:ar": null
        }
    },
    {
        "lat": 40.9435537,
        "lon": 29.113061,
        "tags": {
            "addr:city": "İstanbul",
            "addr:district": null,
            "description": "",
            "opening_hours": null,
            "phone": null,
            "branch": null,
            "amenity": "cosmetics",
            "mobile": null,
            "addr:street": null,
            "cuisine": null,
            "name": "Gratis",
            "name:en": null,
            "name:uk": null,
            "name:de": null,
            "name:tr": null,
            "name:ru": null,
            "name:ar": null
        }
    },
    {
        "lat": 40.9512081,
        "lon": 29.1021796,
        "tags": {
            "addr:city": "İstanbul",
            "addr:district": null,
            "description": "",
            "opening_hours": null,
            "phone": null,
            "branch": null,
            "amenity": "cosmetics",
            "mobile": null,
            "addr:street": null,
            "cuisine": null,
            "name": "Gratis",
            "name:en": null,
            "name:uk": null,
            "name:de": null,
            "name:tr": null,
            "name:ru": null,
            "name:ar": null
        }
    },
    {
        "lat": 40.991883,
        "lon": 29.0291253,
        "tags": {
            "addr:city": "İstanbul",
            "addr:district": null,
            "description": "",
            "opening_hours": null,
            "phone": null,
            "branch": null,
            "amenity": "cosmetics",
            "mobile": null,
            "addr:street": null,
            "cuisine": null,
            "name": "Gratis",
            "name:en": null,
            "name:uk": null,
            "name:de": null,
            "name:tr": null,
            "name:ru": null,
            "name:ar": null
        }
    },
    {
        "lat": 41.0243339,
        "lon": 29.0154551,
        "tags": {
            "addr:city": "İstanbul",
            "addr:district": null,
            "description": "",
            "opening_hours": null,
            "phone": null,
            "branch": null,
            "amenity": "cosmetics",
            "mobile": null,
            "addr:street": null,
            "cuisine": null,
            "name": "Gratis",
            "name:en": null,
            "name:uk": null,
            "name:de": null,
            "name:tr": null,
            "name:ru": null,
            "name:ar": null
        }
    },
    {
        "lat": 41.0191093,
        "lon": 28.9646396,
        "tags": {
            "addr:city": "İstanbul",
            "addr:district": null,
            "description": "",
            "opening_hours": null,
            "phone": null,
            "branch": null,
            "amenity": "cosmetics",
            "mobile": null,
            "addr:street": null,
            "cuisine": null,
            "name": "Sabuncu Mustafa",
            "name:en": "Handmade soap",
            "name:uk": null,
            "name:de": null,
            "name:tr": null,
            "name:ru": "Мыло ручной работы",
            "name:ar": null
        }
    },
    {
        "lat": 41.0032901,
        "lon": 29.043516,
        "tags": {
            "addr:city": "İstanbul",
            "addr:district": "Kadıköy",
            "description": "",
            "opening_hours": "10:00 - 22:00",
            "phone": null,
            "branch": null,
            "amenity": "cosmetics",
            "mobile": null,
            "addr:street": "Acıbadem Caddesi",
            "cuisine": null,
            "name": "Gratis",
            "name:en": null,
            "name:uk": null,
            "name:de": null,
            "name:tr": null,
            "name:ru": null,
            "name:ar": null
        }
    },
    {
        "lat": 41.0031698,
        "lon": 28.6339711,
        "tags": {
            "addr:city": "İstanbul",
            "addr:district": null,
            "description": "",
            "opening_hours": null,
            "phone": null,
            "branch": null,
            "amenity": "cosmetics",
            "mobile": null,
            "addr:street": null,
            "cuisine": null,
            "name": "Gratis",
            "name:en": null,
            "name:uk": null,
            "name:de": null,
            "name:tr": null,
            "name:ru": null,
            "name:ar": null
        }
    },
    {
        "lat": 40.9275416,
        "lon": 29.2242199,
        "tags": {
            "addr:city": "İstanbul",
            "addr:district": null,
            "description": "",
            "opening_hours": "24/7",
            "phone": "02164730888",
            "branch": null,
            "amenity": "cosmetics",
            "mobile": null,
            "addr:street": "Balsuyu Sokağı",
            "cuisine": null,
            "name": "Kartal Arçelik Servisi",
            "name:en": null,
            "name:uk": null,
            "name:de": null,
            "name:tr": null,
            "name:ru": null,
            "name:ar": null
        }
    },
    {
        "lat": 40.9249617,
        "lon": 29.2212067,
        "tags": {
            "addr:city": "İstanbul",
            "addr:district": null,
            "description": "",
            "opening_hours": "24/7",
            "phone": "02164730888",
            "branch": null,
            "amenity": "cosmetics",
            "mobile": null,
            "addr:street": "Lüle Sokağı",
            "cuisine": null,
            "name": "Kartal Arçelik Servisi",
            "name:en": null,
            "name:uk": null,
            "name:de": null,
            "name:tr": null,
            "name:ru": null,
            "name:ar": null
        }
    },
    {
        "lat": 40.8977795,
        "lon": 29.1944031,
        "tags": {
            "addr:city": "İstanbul",
            "addr:district": null,
            "description": "",
            "opening_hours": "24/7",
            "phone": "02164447069",
            "branch": null,
            "amenity": "cosmetics",
            "mobile": null,
            "addr:street": "Fahri Korutürk Caddesi",
            "cuisine": null,
            "name": "Kartal Beyaz Eşya Servisi",
            "name:en": null,
            "name:uk": null,
            "name:de": null,
            "name:tr": null,
            "name:ru": null,
            "name:ar": null
        }
    },
    {
        "lat": 40.891034,
        "lon": 29.1924835,
        "tags": {
            "addr:city": "İstanbul",
            "addr:district": null,
            "description": "",
            "opening_hours": "24/7",
            "phone": "4447069",
            "branch": null,
            "amenity": "cosmetics",
            "mobile": null,
            "addr:street": "Yakacık Caddesi",
            "cuisine": null,
            "name": "Kartal Arçelik Servisi",
            "name:en": null,
            "name:uk": null,
            "name:de": null,
            "name:tr": null,
            "name:ru": null,
            "name:ar": null
        }
    },
    {
        "lat": 40.9794485,
        "lon": 29.1161214,
        "tags": {
            "addr:city": "İstanbul",
            "addr:district": null,
            "description": "",
            "opening_hours": null,
            "phone": null,
            "branch": null,
            "amenity": "cosmetics",
            "mobile": null,
            "addr:street": null,
            "cuisine": null,
            "name": "Eve",
            "name:en": null,
            "name:uk": null,
            "name:de": null,
            "name:tr": null,
            "name:ru": null,
            "name:ar": null
        }
    },
    {
        "lat": 40.9788861,
        "lon": 29.1173111,
        "tags": {
            "addr:city": "İstanbul",
            "addr:district": null,
            "description": "",
            "opening_hours": null,
            "phone": null,
            "branch": null,
            "amenity": "cosmetics",
            "mobile": null,
            "addr:street": null,
            "cuisine": null,
            "name": "Gratis",
            "name:en": null,
            "name:uk": null,
            "name:de": null,
            "name:tr": null,
            "name:ru": null,
            "name:ar": null
        }
    },
    {
        "lat": 41.0287887,
        "lon": 28.976254,
        "tags": {
            "addr:city": "İstanbul",
            "addr:district": null,
            "description": "",
            "opening_hours": "Mo-Sa 09:00-23:00; Su 10:00-23:00",
            "phone": "+905367031014",
            "branch": null,
            "amenity": "cosmetics",
            "mobile": null,
            "addr:street": "Kumbaracı Yokuşu",
            "cuisine": null,
            "name": "Eyup Sabri Tuncer Parfumeries",
            "name:en": null,
            "name:uk": null,
            "name:de": null,
            "name:tr": null,
            "name:ru": null,
            "name:ar": null
        }
    },
    {
        "lat": 41.0254246,
        "lon": 29.0989829,
        "tags": {
            "addr:city": "İstanbul",
            "addr:district": null,
            "description": "",
            "opening_hours": null,
            "phone": null,
            "branch": null,
            "amenity": "cosmetics",
            "mobile": null,
            "addr:street": null,
            "cuisine": null,
            "name": "Çamdağ Cosmetics",
            "name:en": null,
            "name:uk": null,
            "name:de": null,
            "name:tr": null,
            "name:ru": null,
            "name:ar": null
        }
    },
    {
        "lat": 40.9846503,
        "lon": 29.0519395,
        "tags": {
            "addr:city": "İstanbul",
            "addr:district": null,
            "description": "",
            "opening_hours": null,
            "phone": null,
            "branch": null,
            "amenity": "cosmetics",
            "mobile": null,
            "addr:street": null,
            "cuisine": null,
            "name": "Gratis",
            "name:en": null,
            "name:uk": null,
            "name:de": null,
            "name:tr": null,
            "name:ru": null,
            "name:ar": null
        }
    },
    {
        "lat": 41.0370812,
        "lon": 28.8829736,
        "tags": {
            "addr:city": "İstanbul",
            "addr:district": null,
            "description": "",
            "opening_hours": null,
            "phone": null,
            "branch": null,
            "amenity": "cosmetics",
            "mobile": null,
            "addr:street": null,
            "cuisine": null,
            "name": "Gratis",
            "name:en": null,
            "name:uk": null,
            "name:de": null,
            "name:tr": null,
            "name:ru": null,
            "name:ar": null
        }
    },
    {
        "lat": 40.9826376,
        "lon": 28.7224775,
        "tags": {
            "addr:city": "İstanbul",
            "addr:district": null,
            "description": "",
            "opening_hours": null,
            "phone": null,
            "branch": null,
            "amenity": "cosmetics",
            "mobile": null,
            "addr:street": null,
            "cuisine": null,
            "name": "Flormar",
            "name:en": null,
            "name:uk": null,
            "name:de": null,
            "name:tr": null,
            "name:ru": null,
            "name:ar": null
        }
    },
    {
        "lat": 40.9827233,
        "lon": 28.7225011,
        "tags": {
            "addr:city": "İstanbul",
            "addr:district": null,
            "description": "",
            "opening_hours": null,
            "phone": null,
            "branch": null,
            "amenity": "cosmetics",
            "mobile": null,
            "addr:street": null,
            "cuisine": null,
            "name": "Gratis",
            "name:en": null,
            "name:uk": null,
            "name:de": null,
            "name:tr": null,
            "name:ru": null,
            "name:ar": null
        }
    },
    {
        "lat": 40.9809937,
        "lon": 28.7219124,
        "tags": {
            "addr:city": "İstanbul",
            "addr:district": null,
            "description": "",
            "opening_hours": null,
            "phone": null,
            "branch": null,
            "amenity": "cosmetics",
            "mobile": null,
            "addr:street": null,
            "cuisine": null,
            "name": "Yves Rocher",
            "name:en": null,
            "name:uk": null,
            "name:de": null,
            "name:tr": null,
            "name:ru": null,
            "name:ar": null
        }
    },
    {
        "lat": 41.0012337,
        "lon": 29.0552696,
        "tags": {
            "addr:city": "İstanbul",
            "addr:district": null,
            "description": "",
            "opening_hours": null,
            "phone": null,
            "branch": null,
            "amenity": "cosmetics",
            "mobile": null,
            "addr:street": null,
            "cuisine": null,
            "name": "Kiehl's",
            "name:en": "Kiehl’s",
            "name:uk": null,
            "name:de": null,
            "name:tr": null,
            "name:ru": null,
            "name:ar": null
        }
    },
    {
        "lat": 41.0738815,
        "lon": 28.2468965,
        "tags": {
            "addr:city": "İstanbul",
            "addr:district": null,
            "description": "",
            "opening_hours": null,
            "phone": null,
            "branch": null,
            "amenity": "cosmetics",
            "mobile": null,
            "addr:street": null,
            "cuisine": null,
            "name": "Gratis",
            "name:en": null,
            "name:uk": null,
            "name:de": null,
            "name:tr": null,
            "name:ru": null,
            "name:ar": null
        }
    },
    {
        "lat": 41.014253,
        "lon": 28.945215,
        "tags": {
            "addr:city": "İstanbul",
            "addr:district": "Fatih",
            "description": "",
            "opening_hours": null,
            "phone": null,
            "branch": null,
            "amenity": "cosmetics",
            "mobile": null,
            "addr:street": null,
            "cuisine": null,
            "name": "Yves Rocher",
            "name:en": null,
            "name:uk": null,
            "name:de": null,
            "name:tr": null,
            "name:ru": null,
            "name:ar": null
        }
    },
    {
        "lat": 40.9818163,
        "lon": 29.1319519,
        "tags": {
            "addr:city": "İstanbul",
            "addr:district": null,
            "description": "",
            "opening_hours": null,
            "phone": null,
            "branch": null,
            "amenity": "cosmetics",
            "mobile": null,
            "addr:street": null,
            "cuisine": null,
            "name": "Cosmoland",
            "name:en": null,
            "name:uk": null,
            "name:de": null,
            "name:tr": null,
            "name:ru": null,
            "name:ar": null
        }
    },
    {
        "lat": 40.9820483,
        "lon": 29.1318344,
        "tags": {
            "addr:city": "İstanbul",
            "addr:district": null,
            "description": "",
            "opening_hours": null,
            "phone": null,
            "branch": null,
            "amenity": "cosmetics",
            "mobile": null,
            "addr:street": null,
            "cuisine": null,
            "name": "Yves Rocher",
            "name:en": null,
            "name:uk": null,
            "name:de": null,
            "name:tr": null,
            "name:ru": null,
            "name:ar": null
        }
    },
    {
        "lat": 40.9818064,
        "lon": 29.1317197,
        "tags": {
            "addr:city": "İstanbul",
            "addr:district": null,
            "description": "",
            "opening_hours": null,
            "phone": null,
            "branch": null,
            "amenity": "cosmetics",
            "mobile": null,
            "addr:street": null,
            "cuisine": null,
            "name": "Eve",
            "name:en": null,
            "name:uk": null,
            "name:de": null,
            "name:tr": null,
            "name:ru": null,
            "name:ar": null
        }
    },
    {
        "lat": 40.9818088,
        "lon": 29.1318562,
        "tags": {
            "addr:city": "İstanbul",
            "addr:district": null,
            "description": "",
            "opening_hours": null,
            "phone": null,
            "branch": null,
            "amenity": "cosmetics",
            "mobile": null,
            "addr:street": null,
            "cuisine": null,
            "name": "Gratis",
            "name:en": null,
            "name:uk": null,
            "name:de": null,
            "name:tr": null,
            "name:ru": null,
            "name:ar": null
        }
    },
    {
        "lat": 40.9924584,
        "lon": 28.8444323,
        "tags": {
            "addr:city": "İstanbul",
            "addr:district": null,
            "description": "",
            "opening_hours": null,
            "phone": null,
            "branch": null,
            "amenity": "cosmetics",
            "mobile": null,
            "addr:street": null,
            "cuisine": null,
            "name": "Gratis",
            "name:en": null,
            "name:uk": null,
            "name:de": null,
            "name:tr": null,
            "name:ru": null,
            "name:ar": null
        }
    },
    {
        "lat": 41.0100721,
        "lon": 29.2100007,
        "tags": {
            "addr:city": "İstanbul",
            "addr:district": null,
            "description": "",
            "opening_hours": null,
            "phone": null,
            "branch": null,
            "amenity": "cosmetics",
            "mobile": null,
            "addr:street": null,
            "cuisine": null,
            "name": "Gratis",
            "name:en": null,
            "name:uk": null,
            "name:de": null,
            "name:tr": null,
            "name:ru": null,
            "name:ar": null
        }
    },
    {
        "lat": 41.014254,
        "lon": 28.9764424,
        "tags": {
            "addr:city": "İstanbul",
            "addr:district": null,
            "description": "",
            "opening_hours": null,
            "phone": null,
            "branch": null,
            "amenity": "cosmetics",
            "mobile": null,
            "addr:street": null,
            "cuisine": null,
            "name": "Sea Cosmetics",
            "name:en": null,
            "name:uk": null,
            "name:de": null,
            "name:tr": null,
            "name:ru": null,
            "name:ar": null
        }
    },
    {
        "lat": 41.0814069,
        "lon": 28.9731098,
        "tags": {
            "addr:city": "İstanbul",
            "addr:district": null,
            "description": "",
            "opening_hours": null,
            "phone": null,
            "branch": null,
            "amenity": "cosmetics",
            "mobile": null,
            "addr:street": null,
            "cuisine": null,
            "name": "Gratis",
            "name:en": null,
            "name:uk": null,
            "name:de": null,
            "name:tr": null,
            "name:ru": null,
            "name:ar": null
        }
    },
    {
        "lat": 41.0210901,
        "lon": 28.5793402,
        "tags": {
            "addr:city": "İstanbul",
            "addr:district": null,
            "description": "",
            "opening_hours": null,
            "phone": null,
            "branch": null,
            "amenity": "cosmetics",
            "mobile": null,
            "addr:street": null,
            "cuisine": null,
            "name": "Tutkum Kozmetik",
            "name:en": null,
            "name:uk": null,
            "name:de": null,
            "name:tr": null,
            "name:ru": null,
            "name:ar": null
        }
    },
    {
        "lat": 41.0216926,
        "lon": 28.5802168,
        "tags": {
            "addr:city": "İstanbul",
            "addr:district": null,
            "description": "",
            "opening_hours": null,
            "phone": null,
            "branch": null,
            "amenity": "cosmetics",
            "mobile": null,
            "addr:street": null,
            "cuisine": null,
            "name": "Eve",
            "name:en": null,
            "name:uk": null,
            "name:de": null,
            "name:tr": null,
            "name:ru": null,
            "name:ar": null
        }
    },
    {
        "lat": 40.9227001,
        "lon": 29.1297542,
        "tags": {
            "addr:city": "İstanbul",
            "addr:district": null,
            "description": "",
            "opening_hours": null,
            "phone": null,
            "branch": null,
            "amenity": "cosmetics",
            "mobile": null,
            "addr:street": null,
            "cuisine": null,
            "name": "Gratis",
            "name:en": null,
            "name:uk": null,
            "name:de": null,
            "name:tr": null,
            "name:ru": null,
            "name:ar": null
        }
    },
    {
        "lat": 41.0490308,
        "lon": 28.9939425,
        "tags": {
            "addr:city": "İstanbul",
            "addr:district": null,
            "description": "",
            "opening_hours": null,
            "phone": null,
            "branch": null,
            "amenity": "cosmetics",
            "mobile": null,
            "addr:street": null,
            "cuisine": null,
            "name": "Sephora",
            "name:en": null,
            "name:uk": null,
            "name:de": null,
            "name:tr": null,
            "name:ru": null,
            "name:ar": null
        }
    },
    {
        "lat": 41.0489898,
        "lon": 28.9939788,
        "tags": {
            "addr:city": "İstanbul",
            "addr:district": null,
            "description": "",
            "opening_hours": null,
            "phone": null,
            "branch": null,
            "amenity": "cosmetics",
            "mobile": null,
            "addr:street": null,
            "cuisine": null,
            "name": "Atelier rebull",
            "name:en": null,
            "name:uk": null,
            "name:de": null,
            "name:tr": null,
            "name:ru": null,
            "name:ar": null
        }
    },
    {
        "lat": 41.0501557,
        "lon": 28.993008,
        "tags": {
            "addr:city": "İstanbul",
            "addr:district": null,
            "description": "",
            "opening_hours": null,
            "phone": null,
            "branch": null,
            "amenity": "cosmetics",
            "mobile": null,
            "addr:street": null,
            "cuisine": null,
            "name": "Sephora",
            "name:en": null,
            "name:uk": null,
            "name:de": null,
            "name:tr": null,
            "name:ru": null,
            "name:ar": null
        }
    },
    {
        "lat": 41.0501148,
        "lon": 28.9930462,
        "tags": {
            "addr:city": "İstanbul",
            "addr:district": null,
            "description": "",
            "opening_hours": null,
            "phone": null,
            "branch": null,
            "amenity": "cosmetics",
            "mobile": null,
            "addr:street": null,
            "cuisine": null,
            "name": "Atelier rebul",
            "name:en": null,
            "name:uk": null,
            "name:de": null,
            "name:tr": null,
            "name:ru": null,
            "name:ar": null
        }
    },
    {
        "lat": 41.0356103,
        "lon": 28.9827593,
        "tags": {
            "addr:city": "İstanbul",
            "addr:district": null,
            "description": "",
            "opening_hours": null,
            "phone": null,
            "branch": null,
            "amenity": "cosmetics",
            "mobile": null,
            "addr:street": null,
            "cuisine": null,
            "name": "Sortie accessories",
            "name:en": null,
            "name:uk": null,
            "name:de": null,
            "name:tr": null,
            "name:ru": null,
            "name:ar": null
        }
    },
    {
        "lat": 40.9811969,
        "lon": 29.0846861,
        "tags": {
            "addr:city": "İstanbul",
            "addr:district": null,
            "description": "",
            "opening_hours": null,
            "phone": null,
            "branch": null,
            "amenity": "cosmetics",
            "mobile": null,
            "addr:street": null,
            "cuisine": null,
            "name": "Yağmur Kozmetik",
            "name:en": null,
            "name:uk": null,
            "name:de": null,
            "name:tr": null,
            "name:ru": null,
            "name:ar": null
        }
    },
    {
        "lat": 40.9992827,
        "lon": 28.8574693,
        "tags": {
            "addr:city": "İstanbul",
            "addr:district": null,
            "description": "",
            "opening_hours": null,
            "phone": null,
            "branch": null,
            "amenity": "cosmetics",
            "mobile": null,
            "addr:street": null,
            "cuisine": null,
            "name": "Bestelit",
            "name:en": null,
            "name:uk": null,
            "name:de": null,
            "name:tr": null,
            "name:ru": null,
            "name:ar": null
        }
    },
    {
        "lat": 40.9999363,
        "lon": 28.8571395,
        "tags": {
            "addr:city": "İstanbul",
            "addr:district": null,
            "description": "",
            "opening_hours": null,
            "phone": null,
            "branch": null,
            "amenity": "cosmetics",
            "mobile": null,
            "addr:street": null,
            "cuisine": null,
            "name": "Mars Temizlik Ürünleri",
            "name:en": null,
            "name:uk": null,
            "name:de": null,
            "name:tr": null,
            "name:ru": null,
            "name:ar": null
        }
    },
    {
        "lat": 41.0324979,
        "lon": 28.8294119,
        "tags": {
            "addr:city": "İstanbul",
            "addr:district": null,
            "description": "",
            "opening_hours": null,
            "phone": null,
            "branch": null,
            "amenity": "cosmetics",
            "mobile": null,
            "addr:street": null,
            "cuisine": null,
            "name": "Eve",
            "name:en": null,
            "name:uk": null,
            "name:de": null,
            "name:tr": null,
            "name:ru": null,
            "name:ar": null
        }
    },
    {
        "lat": 41.1429739,
        "lon": 28.4612637,
        "tags": {
            "addr:city": "İstanbul",
            "addr:district": null,
            "description": "",
            "opening_hours": null,
            "phone": null,
            "branch": null,
            "amenity": "cosmetics",
            "mobile": null,
            "addr:street": null,
            "cuisine": null,
            "name": "Gratis",
            "name:en": null,
            "name:uk": null,
            "name:de": null,
            "name:tr": null,
            "name:ru": null,
            "name:ar": null
        }
    },
    {
        "lat": 40.9678099,
        "lon": 29.0671063,
        "tags": {
            "addr:city": "İstanbul",
            "addr:district": "Kadıköy",
            "description": "",
            "opening_hours": "10:00 - 22:00",
            "phone": null,
            "branch": null,
            "amenity": "cosmetics",
            "mobile": null,
            "addr:street": "Bağdat Caddesi",
            "cuisine": null,
            "name": "Gratis",
            "name:en": null,
            "name:uk": null,
            "name:de": null,
            "name:tr": null,
            "name:ru": null,
            "name:ar": null
        }
    },
    {
        "lat": 40.9897508,
        "lon": 29.028843,
        "tags": {
            "addr:city": "İstanbul",
            "addr:district": null,
            "description": "",
            "opening_hours": null,
            "phone": null,
            "branch": null,
            "amenity": "cosmetics",
            "mobile": null,
            "addr:street": null,
            "cuisine": null,
            "name": "Gratis",
            "name:en": null,
            "name:uk": null,
            "name:de": null,
            "name:tr": null,
            "name:ru": null,
            "name:ar": null
        }
    },
    {
        "lat": 40.9894121,
        "lon": 29.0287383,
        "tags": {
            "addr:city": "İstanbul",
            "addr:district": null,
            "description": "",
            "opening_hours": null,
            "phone": null,
            "branch": null,
            "amenity": "cosmetics",
            "mobile": null,
            "addr:street": null,
            "cuisine": null,
            "name": "New Well Make-Up Station",
            "name:en": null,
            "name:uk": null,
            "name:de": null,
            "name:tr": null,
            "name:ru": null,
            "name:ar": null
        }
    },
    {
        "lat": 40.9731345,
        "lon": 29.0746939,
        "tags": {
            "addr:city": "İstanbul",
            "addr:district": "Kadıköy",
            "description": "",
            "opening_hours": null,
            "phone": null,
            "branch": null,
            "amenity": "cosmetics",
            "mobile": null,
            "addr:street": "Ethem Efendi Caddesi",
            "cuisine": null,
            "name": "Gratis",
            "name:en": null,
            "name:uk": null,
            "name:de": null,
            "name:tr": null,
            "name:ru": null,
            "name:ar": null
        }
    },
    {
        "lat": 40.9794411,
        "lon": 29.0828196,
        "tags": {
            "addr:city": "İstanbul",
            "addr:district": null,
            "description": "",
            "opening_hours": null,
            "phone": null,
            "branch": null,
            "amenity": "cosmetics",
            "mobile": null,
            "addr:street": null,
            "cuisine": null,
            "name": "Gratis",
            "name:en": null,
            "name:uk": null,
            "name:de": null,
            "name:tr": null,
            "name:ru": null,
            "name:ar": null
        }
    },
    {
        "lat": 41.0344643,
        "lon": 28.9798601,
        "tags": {
            "addr:city": "İstanbul",
            "addr:district": null,
            "description": "",
            "opening_hours": "10:00-22:00",
            "phone": null,
            "branch": null,
            "amenity": "cosmetics",
            "mobile": null,
            "addr:street": null,
            "cuisine": null,
            "name": "MAC Cosmetics",
            "name:en": null,
            "name:uk": null,
            "name:de": null,
            "name:tr": null,
            "name:ru": null,
            "name:ar": null
        }
    },
    {
        "lat": 40.9643755,
        "lon": 29.0738472,
        "tags": {
            "addr:city": "İstanbul",
            "addr:district": "Kadıköy",
            "description": "",
            "opening_hours": "10:00 - 22:00",
            "phone": null,
            "branch": null,
            "amenity": "cosmetics",
            "mobile": null,
            "addr:street": "Bağdat Caddesi",
            "cuisine": null,
            "name": "Gratis",
            "name:en": null,
            "name:uk": null,
            "name:de": null,
            "name:tr": null,
            "name:ru": null,
            "name:ar": null
        }
    },
    {
        "lat": 40.9660413,
        "lon": 29.0706221,
        "tags": {
            "addr:city": "İstanbul",
            "addr:district": "Kadıköy",
            "description": "",
            "opening_hours": null,
            "phone": null,
            "branch": null,
            "amenity": "cosmetics",
            "mobile": null,
            "addr:street": "Bağdat Caddesi",
            "cuisine": null,
            "name": "Mellisima Erenköy",
            "name:en": null,
            "name:uk": null,
            "name:de": null,
            "name:tr": null,
            "name:ru": null,
            "name:ar": null
        }
    },
    {
        "lat": 40.9915275,
        "lon": 29.0286761,
        "tags": {
            "addr:city": "İstanbul",
            "addr:district": null,
            "description": "",
            "opening_hours": null,
            "phone": null,
            "branch": null,
            "amenity": "cosmetics",
            "mobile": null,
            "addr:street": null,
            "cuisine": null,
            "name": "Eve",
            "name:en": null,
            "name:uk": null,
            "name:de": null,
            "name:tr": null,
            "name:ru": null,
            "name:ar": null
        }
    },
    {
        "lat": 41.064081,
        "lon": 28.9965078,
        "tags": {
            "addr:city": "İstanbul",
            "addr:district": null,
            "description": "",
            "opening_hours": null,
            "phone": null,
            "branch": null,
            "amenity": "cosmetics",
            "mobile": null,
            "addr:street": null,
            "cuisine": null,
            "name": null,
            "name:en": "Natural cosmetics and herbs",
            "name:uk": null,
            "name:de": null,
            "name:tr": null,
            "name:ru": null,
            "name:ar": null
        }
    },
    {
        "lat": 41.179767,
        "lon": 28.8848216,
        "tags": {
            "addr:city": "İstanbul",
            "addr:district": null,
            "description": "",
            "opening_hours": null,
            "phone": null,
            "branch": null,
            "amenity": "cosmetics",
            "mobile": null,
            "addr:street": null,
            "cuisine": null,
            "name": "Yves Rocher",
            "name:en": null,
            "name:uk": null,
            "name:de": null,
            "name:tr": null,
            "name:ru": null,
            "name:ar": null
        }
    },
    {
        "lat": 41.0532797,
        "lon": 28.9100981,
        "tags": {
            "addr:city": "İstanbul",
            "addr:district": "Bayrampaşa",
            "description": "",
            "opening_hours": null,
            "phone": null,
            "branch": null,
            "amenity": "cosmetics",
            "mobile": null,
            "addr:street": "Eski Edirne Asfaltı",
            "cuisine": null,
            "name": "Gratis",
            "name:en": null,
            "name:uk": null,
            "name:de": null,
            "name:tr": null,
            "name:ru": null,
            "name:ar": null
        }
    },
    {
        "lat": 40.9795828,
        "lon": 29.0669968,
        "tags": {
            "addr:city": "İstanbul",
            "addr:district": "Kadıköy",
            "description": "",
            "opening_hours": "10:00-22:00",
            "phone": null,
            "branch": null,
            "amenity": "cosmetics",
            "mobile": null,
            "addr:street": "Tütüncü Mehmet Efendi Caddesi",
            "cuisine": null,
            "name": "Gratis",
            "name:en": null,
            "name:uk": null,
            "name:de": null,
            "name:tr": null,
            "name:ru": null,
            "name:ar": null
        }
    },
    {
        "lat": 41.0075594,
        "lon": 29.0496714,
        "tags": {
            "addr:city": "İstanbul",
            "addr:district": "Üsküdar",
            "description": "",
            "opening_hours": "10:00 - 22:00",
            "phone": null,
            "branch": null,
            "amenity": "cosmetics",
            "mobile": null,
            "addr:street": "Acıbadem Caddesi",
            "cuisine": null,
            "name": "Gratis",
            "name:en": null,
            "name:uk": null,
            "name:de": null,
            "name:tr": null,
            "name:ru": null,
            "name:ar": null
        }
    },
    {
        "lat": 40.9873702,
        "lon": 29.0283654,
        "tags": {
            "addr:city": "İstanbul",
            "addr:district": null,
            "description": "",
            "opening_hours": null,
            "phone": null,
            "branch": null,
            "amenity": "cosmetics",
            "mobile": null,
            "addr:street": null,
            "cuisine": null,
            "name": "Mac",
            "name:en": null,
            "name:uk": null,
            "name:de": null,
            "name:tr": null,
            "name:ru": null,
            "name:ar": null
        }
    },
    {
        "lat": 40.9887462,
        "lon": 29.0286416,
        "tags": {
            "addr:city": "İstanbul",
            "addr:district": null,
            "description": "",
            "opening_hours": null,
            "phone": null,
            "branch": null,
            "amenity": "cosmetics",
            "mobile": null,
            "addr:street": null,
            "cuisine": null,
            "name": "Eve",
            "name:en": null,
            "name:uk": null,
            "name:de": null,
            "name:tr": null,
            "name:ru": null,
            "name:ar": null
        }
    },
    {
        "lat": 40.9256434,
        "lon": 29.1317183,
        "tags": {
            "addr:city": "İstanbul",
            "addr:district": null,
            "description": "",
            "opening_hours": null,
            "phone": null,
            "branch": null,
            "amenity": "cosmetics",
            "mobile": null,
            "addr:street": null,
            "cuisine": null,
            "name": "Watsons",
            "name:en": null,
            "name:uk": null,
            "name:de": null,
            "name:tr": null,
            "name:ru": null,
            "name:ar": null
        }
    },
    {
        "lat": 40.9632269,
        "lon": 29.0747428,
        "tags": {
            "addr:city": "İstanbul",
            "addr:district": "Kadıköy",
            "description": "",
            "opening_hours": null,
            "phone": null,
            "branch": null,
            "amenity": "cosmetics",
            "mobile": null,
            "addr:street": "Bağdat Caddesi",
            "cuisine": null,
            "name": "Kiehl's",
            "name:en": null,
            "name:uk": null,
            "name:de": null,
            "name:tr": null,
            "name:ru": null,
            "name:ar": null
        }
    },
    {
        "lat": 40.9271705,
        "lon": 29.3114963,
        "tags": {
            "addr:city": "İstanbul",
            "addr:district": "Pendik",
            "description": "",
            "opening_hours": "10:00-22:00",
            "phone": null,
            "branch": null,
            "amenity": "cosmetics",
            "mobile": null,
            "addr:street": null,
            "cuisine": null,
            "name": "Gratis",
            "name:en": null,
            "name:uk": null,
            "name:de": null,
            "name:tr": null,
            "name:ru": null,
            "name:ar": null
        }
    },
    {
        "lat": 40.9914702,
        "lon": 29.2313283,
        "tags": {
            "addr:city": "İstanbul",
            "addr:district": null,
            "description": "",
            "opening_hours": "Mo-Su 10:00-21:00",
            "phone": null,
            "branch": null,
            "amenity": "cosmetics",
            "mobile": null,
            "addr:street": null,
            "cuisine": null,
            "name": "Rossmann",
            "name:en": null,
            "name:uk": null,
            "name:de": null,
            "name:tr": null,
            "name:ru": null,
            "name:ar": null
        }
    },
    {
        "lat": 41.0487893,
        "lon": 28.9951086,
        "tags": {
            "addr:city": "İstanbul",
            "addr:district": null,
            "description": "",
            "opening_hours": null,
            "phone": null,
            "branch": null,
            "amenity": "cosmetics",
            "mobile": null,
            "addr:street": "Ahmet Fetgari Sokağı",
            "cuisine": null,
            "name": "Nishane",
            "name:en": null,
            "name:uk": null,
            "name:de": null,
            "name:tr": null,
            "name:ru": null,
            "name:ar": null
        }
    },
    {
        "lat": 40.9623354,
        "lon": 29.0771974,
        "tags": {
            "addr:city": "İstanbul",
            "addr:district": null,
            "description": "",
            "opening_hours": null,
            "phone": null,
            "branch": null,
            "amenity": "cosmetics",
            "mobile": null,
            "addr:street": "Bağdat Caddesi",
            "cuisine": null,
            "name": null,
            "name:en": "Sephora",
            "name:uk": null,
            "name:de": null,
            "name:tr": null,
            "name:ru": null,
            "name:ar": null
        }
    },
    {
        "lat": 40.9620346,
        "lon": 29.0766623,
        "tags": {
            "addr:city": "İstanbul",
            "addr:district": null,
            "description": "",
            "opening_hours": null,
            "phone": null,
            "branch": null,
            "amenity": "cosmetics",
            "mobile": null,
            "addr:street": null,
            "cuisine": null,
            "name": "Alix Avien",
            "name:en": null,
            "name:uk": null,
            "name:de": null,
            "name:tr": null,
            "name:ru": null,
            "name:ar": null
        }
    },
    {
        "lat": 40.9649395,
        "lon": 29.0716221,
        "tags": {
            "addr:city": "İstanbul",
            "addr:district": null,
            "description": "",
            "opening_hours": null,
            "phone": null,
            "branch": null,
            "amenity": "cosmetics",
            "mobile": null,
            "addr:street": null,
            "cuisine": null,
            "name": "MAC",
            "name:en": null,
            "name:uk": null,
            "name:de": null,
            "name:tr": null,
            "name:ru": null,
            "name:ar": null
        }
    },
    {
        "lat": 41.0270987,
        "lon": 28.9746257,
        "tags": {
            "addr:city": "İstanbul",
            "addr:district": null,
            "description": "",
            "opening_hours": null,
            "phone": null,
            "branch": null,
            "amenity": "cosmetics",
            "mobile": null,
            "addr:street": null,
            "cuisine": null,
            "name": null,
            "name:en": null,
            "name:uk": null,
            "name:de": null,
            "name:tr": null,
            "name:ru": "Магазин мыла",
            "name:ar": null
        }
    },
    {
        "lat": 40.9227009,
        "lon": 29.13426,
        "tags": {
            "addr:city": "İstanbul",
            "addr:district": null,
            "description": "",
            "opening_hours": null,
            "phone": null,
            "branch": null,
            "amenity": "cosmetics",
            "mobile": null,
            "addr:street": null,
            "cuisine": null,
            "name": "Evve",
            "name:en": null,
            "name:uk": null,
            "name:de": null,
            "name:tr": null,
            "name:ru": null,
            "name:ar": null
        }
    },
    {
        "lat": 41.0903403,
        "lon": 28.8109614,
        "tags": {
            "addr:city": "İstanbul",
            "addr:district": null,
            "description": "",
            "opening_hours": null,
            "phone": null,
            "branch": null,
            "amenity": "cosmetics",
            "mobile": null,
            "addr:street": null,
            "cuisine": null,
            "name": "Salkım Kozmetik",
            "name:en": null,
            "name:uk": null,
            "name:de": null,
            "name:tr": null,
            "name:ru": null,
            "name:ar": null
        }
    },
    {
        "lat": 41.032192,
        "lon": 28.8236879,
        "tags": {
            "addr:city": "İstanbul",
            "addr:district": null,
            "description": "",
            "opening_hours": null,
            "phone": null,
            "branch": null,
            "amenity": "cosmetics",
            "mobile": null,
            "addr:street": null,
            "cuisine": null,
            "name": "Watsons",
            "name:en": null,
            "name:uk": null,
            "name:de": null,
            "name:tr": null,
            "name:ru": null,
            "name:ar": null
        }
    },
    {
        "lat": 41.0248802,
        "lon": 29.0872343,
        "tags": {
            "addr:city": "İstanbul",
            "addr:district": null,
            "description": "",
            "opening_hours": null,
            "phone": null,
            "branch": null,
            "amenity": "cosmetics",
            "mobile": null,
            "addr:street": null,
            "cuisine": null,
            "name": "Gratis",
            "name:en": null,
            "name:uk": null,
            "name:de": null,
            "name:tr": "gratis",
            "name:ru": null,
            "name:ar": null
        }
    },
    {
        "lat": 41.0247472,
        "lon": 29.0880916,
        "tags": {
            "addr:city": "İstanbul",
            "addr:district": null,
            "description": "",
            "opening_hours": null,
            "phone": null,
            "branch": null,
            "amenity": "cosmetics",
            "mobile": null,
            "addr:street": null,
            "cuisine": null,
            "name": "Cosmetica",
            "name:en": null,
            "name:uk": null,
            "name:de": null,
            "name:tr": "Cosmetica",
            "name:ru": null,
            "name:ar": null
        }
    },
    {
        "lat": 41.049442,
        "lon": 28.9935996,
        "tags": {
            "addr:city": "İstanbul",
            "addr:district": null,
            "description": "",
            "opening_hours": null,
            "phone": null,
            "branch": null,
            "amenity": "cosmetics",
            "mobile": null,
            "addr:street": null,
            "cuisine": null,
            "name": "Gratis beauty",
            "name:en": null,
            "name:uk": null,
            "name:de": null,
            "name:tr": null,
            "name:ru": null,
            "name:ar": null
        }
    },
    {
        "lat": 41.0029145,
        "lon": 28.6595529,
        "tags": {
            "addr:city": "Beylikdüzü Organize Sanayi Bölgesi",
            "addr:district": "Beylikdüzü",
            "description": "",
            "opening_hours": "Mo-Su 09:30-19:00",
            "phone": "+90 541 895 57 31",
            "branch": null,
            "amenity": "cosmetics",
            "mobile": null,
            "addr:street": "Ali Çebi Caddesi",
            "cuisine": null,
            "name": "İstanbul Kozmetik Medikal - İKM Kozmetik",
            "name:en": null,
            "name:uk": null,
            "name:de": null,
            "name:tr": null,
            "name:ru": null,
            "name:ar": null
        }
    },
    {
        "lat": 41.1758928,
        "lon": 29.6098151,
        "tags": {
            "addr:city": "İstanbul",
            "addr:district": "Şile",
            "description": "",
            "opening_hours": "10:00 - 22:00",
            "phone": null,
            "branch": null,
            "amenity": "cosmetics",
            "mobile": null,
            "addr:street": "Üsküdar Caddesi",
            "cuisine": null,
            "name": "Gratis",
            "name:en": null,
            "name:uk": null,
            "name:de": null,
            "name:tr": null,
            "name:ru": null,
            "name:ar": null
        }
    },
    {
        "lat": 41.0633428,
        "lon": 28.9928399,
        "tags": {
            "addr:city": "İstanbul",
            "addr:district": null,
            "description": "",
            "opening_hours": null,
            "phone": null,
            "branch": null,
            "amenity": "cosmetics",
            "mobile": null,
            "addr:street": "Aytekin Kotil Caddesi",
            "cuisine": null,
            "name": "Gratis",
            "name:en": null,
            "name:uk": null,
            "name:de": null,
            "name:tr": null,
            "name:ru": null,
            "name:ar": null
        }
    },
    {
        "lat": 40.87769,
        "lon": 29.2339422,
        "tags": {
            "addr:city": "İstanbul",
            "addr:district": null,
            "description": "",
            "opening_hours": null,
            "phone": null,
            "branch": null,
            "amenity": "cosmetics",
            "mobile": null,
            "addr:street": "Gazipaşa Caddesi",
            "cuisine": null,
            "name": "T Shop",
            "name:en": null,
            "name:uk": null,
            "name:de": null,
            "name:tr": null,
            "name:ru": null,
            "name:ar": null
        }
    },
    {
        "lat": 40.9775658,
        "lon": 28.8734564,
        "tags": {
            "addr:city": "İstanbul",
            "addr:district": null,
            "description": "",
            "opening_hours": null,
            "phone": null,
            "branch": null,
            "amenity": "cosmetics",
            "mobile": null,
            "addr:street": null,
            "cuisine": null,
            "name": "Gratis",
            "name:en": null,
            "name:uk": null,
            "name:de": null,
            "name:tr": null,
            "name:ru": null,
            "name:ar": null
        }
    },
    {
        "lat": 41.0292265,
        "lon": 28.9749913,
        "tags": {
            "addr:city": "İstanbul",
            "addr:district": null,
            "description": "",
            "opening_hours": null,
            "phone": null,
            "branch": null,
            "amenity": "cosmetics",
            "mobile": null,
            "addr:street": null,
            "cuisine": null,
            "name": "Gratis",
            "name:en": null,
            "name:uk": null,
            "name:de": null,
            "name:tr": null,
            "name:ru": null,
            "name:ar": null
        }
    },
    {
        "lat": 41.0083545,
        "lon": 28.9707951,
        "tags": {
            "addr:city": "İstanbul",
            "addr:district": null,
            "description": "",
            "opening_hours": null,
            "phone": null,
            "branch": null,
            "amenity": "cosmetics",
            "mobile": null,
            "addr:street": null,
            "cuisine": null,
            "name": "Gratis",
            "name:en": null,
            "name:uk": null,
            "name:de": null,
            "name:tr": null,
            "name:ru": null,
            "name:ar": null
        }
    },
    {
        "lat": 41.033323,
        "lon": 28.946273,
        "tags": {
            "addr:city": "Istanbul",
            "addr:district": "Fatih",
            "description": "\"Handmade Organic Soap by pudKA\", Our handmade soaps, crafted by the artisans of Anatolia, are made from 100% natural, plant-based, and organic ingredients, reflecting the rich cultural heritage of the region. Every soap is meticulously handcrafted using",
            "opening_hours": null,
            "phone": "0850 840 2949",
            "branch": "ORYOX'un Kozmetik ve Tekstil Markası",
            "amenity": "cosmetics",
            "mobile": null,
            "addr:street": "Lavanta Sokağı",
            "cuisine": null,
            "name": "pudKA | Handmade Natural Soap & Cosmetics Store",
            "name:en": null,
            "name:uk": null,
            "name:de": null,
            "name:tr": null,
            "name:ru": null,
            "name:ar": null
        }
    },
    {
        "lat": 41.0252933,
        "lon": 28.9796745,
        "tags": {
            "addr:city": "İstanbul",
            "addr:district": null,
            "description": "",
            "opening_hours": null,
            "phone": null,
            "branch": null,
            "amenity": "cosmetics",
            "mobile": null,
            "addr:street": null,
            "cuisine": null,
            "name": "Noa Pure",
            "name:en": null,
            "name:uk": null,
            "name:de": null,
            "name:tr": null,
            "name:ru": null,
            "name:ar": null
        }
    },
    {
        "lat": 40.9230484,
        "lon": 29.1337271,
        "tags": {
            "addr:city": "İstanbul",
            "addr:district": null,
            "description": "",
            "opening_hours": null,
            "phone": null,
            "branch": null,
            "amenity": "cosmetics",
            "mobile": null,
            "addr:street": null,
            "cuisine": null,
            "name": "Watsons",
            "name:en": null,
            "name:uk": null,
            "name:de": null,
            "name:tr": null,
            "name:ru": null,
            "name:ar": null
        }
    }
]