[
    {
        "lat": 40.9731657,
        "lon": 29.2742016,
        "tags": {
            "addr:city": "istanbul",
            "addr:district": "sultanbeyli",
            "description": "",
            "opening_hours": null,
            "phone": null,
            "branch": null,
            "amenity": "dairy",
            "mobile": null,
            "addr:street": "Mücahit Caddesi",
            "cuisine": null,
            "name": "MAYA SÜT EVİ",
            "name:en": null,
            "name:uk": null,
            "name:de": null,
            "name:tr": null,
            "name:ru": null,
            "name:ar": null
        }
    },
    {
        "lat": 40.9247089,
        "lon": 29.1293514,
        "tags": {
            "addr:city": "İstanbul",
            "addr:district": null,
            "description": "",
            "opening_hours": null,
            "phone": null,
            "branch": null,
            "amenity": "dairy",
            "mobile": null,
            "addr:street": null,
            "cuisine": null,
            "name": "Yalı Süt Ürünleri",
            "name:en": null,
            "name:uk": null,
            "name:de": null,
            "name:tr": null,
            "name:ru": null,
            "name:ar": null
        }
    },
    {
        "lat": 41.030374,
        "lon": 28.9406215,
        "tags": {
            "addr:city": "Istanbul",
            "addr:district": "Fatih",
            "description": "",
            "opening_hours": null,
            "phone": null,
            "branch": null,
            "amenity": "dairy",
            "mobile": null,
            "addr:street": "Draman Caddesi",
            "cuisine": null,
            "name": "Aydın Süt ve Süt Ürünleri",
            "name:en": null,
            "name:uk": null,
            "name:de": null,
            "name:tr": null,
            "name:ru": null,
            "name:ar": "آيدن سوت في سوت أورونلاري لمنتجات الألبان"
        }
    },
    {
        "lat": 41.0205617,
        "lon": 28.9486329,
        "tags": {
            "addr:city": "Istanbul",
            "addr:district": "Fatih",
            "description": "",
            "opening_hours": null,
            "phone": null,
            "branch": null,
            "amenity": "dairy",
            "mobile": null,
            "addr:street": "Fatih caddesi",
            "cuisine": null,
            "name": "Sultan peynircilik",
            "name:en": null,
            "name:uk": null,
            "name:de": null,
            "name:tr": null,
            "name:ru": null,
            "name:ar": "سلطان"
        }
    },
    {
        "lat": 41.0204245,
        "lon": 28.9485846,
        "tags": {
            "addr:city": "Istanbul",
            "addr:district": "Fatih",
            "description": "",
            "opening_hours": null,
            "phone": null,
            "branch": null,
            "amenity": "dairy",
            "mobile": null,
            "addr:street": "Islambol caddesi",
            "cuisine": null,
            "name": "Vakiflar fatih satış şubesi",
            "name:en": null,
            "name:uk": null,
            "name:de": null,
            "name:tr": null,
            "name:ru": null,
            "name:ar": "فاكفلار فاتح ساتيش شوباسي"
        }
    },
    {
        "lat": 41.0213561,
        "lon": 28.9480917,
        "tags": {
            "addr:city": "Istanbul",
            "addr:district": "Fatih",
            "description": "",
            "opening_hours": null,
            "phone": null,
            "branch": null,
            "amenity": "dairy",
            "mobile": null,
            "addr:street": "Fatih caddesi",
            "cuisine": null,
            "name": "Malta huzur yoğurtcusu",
            "name:en": null,
            "name:uk": null,
            "name:de": null,
            "name:tr": null,
            "name:ru": null,
            "name:ar": "مالطا خوزور يوغورتجوسو"
        }
    },
    {
        "lat": 41.0213065,
        "lon": 28.9481199,
        "tags": {
            "addr:city": "Istanbul",
            "addr:district": "Fatih",
            "description": "",
            "opening_hours": null,
            "phone": null,
            "branch": null,
            "amenity": "dairy",
            "mobile": null,
            "addr:street": "Fatih caddesi",
            "cuisine": null,
            "name": "Karadeniz of peynircilik",
            "name:en": null,
            "name:uk": null,
            "name:de": null,
            "name:tr": null,
            "name:ru": null,
            "name:ar": "كارادينيز اوف بينيرجيليك"
        }
    },
    {
        "lat": 41.0212311,
        "lon": 28.9481604,
        "tags": {
            "addr:city": "İstanbul",
            "addr:district": "Fatih",
            "description": "",
            "opening_hours": null,
            "phone": null,
            "branch": null,
            "amenity": "dairy",
            "mobile": null,
            "addr:street": "Fatih caddesi",
            "cuisine": null,
            "name": "Eriş yoğurtları",
            "name:en": null,
            "name:uk": null,
            "name:de": null,
            "name:tr": null,
            "name:ru": null,
            "name:ar": "ألبان اريش"
        }
    },
    {
        "lat": 41.020918,
        "lon": 28.9483523,
        "tags": {
            "addr:city": "Istanbul",
            "addr:district": "Fatih",
            "description": "",
            "opening_hours": null,
            "phone": null,
            "branch": null,
            "amenity": "dairy",
            "mobile": null,
            "addr:street": "Fatih caddesi",
            "cuisine": null,
            "name": "Karadeniz ofsut",
            "name:en": null,
            "name:uk": null,
            "name:de": null,
            "name:tr": null,
            "name:ru": null,
            "name:ar": "كارادينيز اوف سوت"
        }
    },
    {
        "lat": 41.0208624,
        "lon": 28.9484348,
        "tags": {
            "addr:city": "Istanbul",
            "addr:district": "Fatih",
            "description": "",
            "opening_hours": null,
            "phone": null,
            "branch": null,
            "amenity": "dairy",
            "mobile": null,
            "addr:street": "Fatih caddesi",
            "cuisine": null,
            "name": "Adakaya",
            "name:en": null,
            "name:uk": null,
            "name:de": null,
            "name:tr": null,
            "name:ru": null,
            "name:ar": "ادا كايا"
        }
    },
    {
        "lat": 41.0208937,
        "lon": 28.9483953,
        "tags": {
            "addr:city": "Istanbul",
            "addr:district": "Fatih",
            "description": "",
            "opening_hours": null,
            "phone": null,
            "branch": null,
            "amenity": "dairy",
            "mobile": null,
            "addr:street": "Fatih caddesi",
            "cuisine": null,
            "name": "Trabzon kardeşler",
            "name:en": null,
            "name:uk": null,
            "name:de": null,
            "name:tr": null,
            "name:ru": null,
            "name:ar": "طرابزون كارديشلر"
        }
    },
    {
        "lat": 41.0214633,
        "lon": 28.9479145,
        "tags": {
            "addr:city": "Istanbul",
            "addr:district": "Fatih",
            "description": "",
            "opening_hours": null,
            "phone": null,
            "branch": null,
            "amenity": "dairy",
            "mobile": null,
            "addr:street": "Fatih caddesi",
            "cuisine": null,
            "name": "Peynirci çocuk",
            "name:en": null,
            "name:uk": null,
            "name:de": null,
            "name:tr": null,
            "name:ru": null,
            "name:ar": "بينيرجي جوجوك"
        }
    },
    {
        "lat": 41.0258114,
        "lon": 28.9388396,
        "tags": {
            "addr:city": "Istanbul",
            "addr:district": "Fatih",
            "description": "",
            "opening_hours": null,
            "phone": null,
            "branch": null,
            "amenity": "dairy",
            "mobile": null,
            "addr:street": "Prof. naci şensoy caddesi",
            "cuisine": null,
            "name": "Aypan peynircilik",
            "name:en": null,
            "name:uk": null,
            "name:de": null,
            "name:tr": null,
            "name:ru": null,
            "name:ar": "ايبان بينيرجيليك"
        }
    },
    {
        "lat": 40.958707,
        "lon": 29.0941688,
        "tags": {
            "addr:city": "İstanbul",
            "addr:district": "Kadıköy",
            "description": "",
            "opening_hours": null,
            "phone": null,
            "branch": null,
            "amenity": "dairy",
            "mobile": null,
            "addr:street": "Emin Ali Paşa Caddesi",
            "cuisine": null,
            "name": "Aile Mandıra",
            "name:en": null,
            "name:uk": null,
            "name:de": null,
            "name:tr": null,
            "name:ru": null,
            "name:ar": null
        }
    },
    {
        "lat": 40.9801741,
        "lon": 29.2658717,
        "tags": {
            "addr:city": "Istanbul",
            "addr:district": "Sultanbeyli",
            "description": "",
            "opening_hours": null,
            "phone": null,
            "branch": null,
            "amenity": "dairy",
            "mobile": null,
            "addr:street": "kubbe Caddesi",
            "cuisine": null,
            "name": "Helke Süt",
            "name:en": null,
            "name:uk": null,
            "name:de": null,
            "name:tr": null,
            "name:ru": null,
            "name:ar": "مصنع اجبان هيلك سوت"
        }
    },
    {
        "lat": 41.0094062,
        "lon": 28.9098585,
        "tags": {
            "addr:city": "Istanbul",
            "addr:district": "Zeytinburnu",
            "description": "",
            "opening_hours": null,
            "phone": null,
            "branch": null,
            "amenity": "dairy",
            "mobile": null,
            "addr:street": "Yeni Çiftlik Caddesi",
            "cuisine": null,
            "name": "doğacı",
            "name:en": null,
            "name:uk": null,
            "name:de": null,
            "name:tr": null,
            "name:ru": null,
            "name:ar": null
        }
    },
    {
        "lat": 40.9901805,
        "lon": 28.9035771,
        "tags": {
            "addr:city": "Istanbul",
            "addr:district": "Zeytinburnu",
            "description": "",
            "opening_hours": "Mo-Sa 09:00-21:00",
            "phone": null,
            "branch": null,
            "amenity": "dairy",
            "mobile": null,
            "addr:street": "58.Blv Cd;58. Bulvar Caddesi",
            "cuisine": "turkish",
            "name": "Marmara Süt ve Süt Ürünleri;Marmara",
            "name:en": null,
            "name:uk": null,
            "name:de": null,
            "name:tr": null,
            "name:ru": null,
            "name:ar": "مرمرة للمنتجات الحليب ومشتقاته;مرمرة;مرمرة للمواد الغذائية"
        }
    },
    {
        "lat": 41.0451671,
        "lon": 28.8395085,
        "tags": {
            "addr:city": "Istanbul",
            "addr:district": "Bağcılar",
            "description": "",
            "opening_hours": null,
            "phone": null,
            "branch": null,
            "amenity": "dairy",
            "mobile": null,
            "addr:street": "Bağcılar Asf. Caddesi",
            "cuisine": null,
            "name": "Ovam Peynircilik",
            "name:en": null,
            "name:uk": null,
            "name:de": null,
            "name:tr": null,
            "name:ru": null,
            "name:ar": "اوفام بينيرجيليك"
        }
    },
    {
        "lat": 41.0435782,
        "lon": 28.8565461,
        "tags": {
            "addr:city": "Istanbul",
            "addr:district": null,
            "description": "",
            "opening_hours": null,
            "phone": "05365287848",
            "branch": null,
            "amenity": "dairy",
            "mobile": null,
            "addr:street": "2008 Sokak",
            "cuisine": null,
            "name": "SÜTÇÜ SALİH",
            "name:en": null,
            "name:uk": null,
            "name:de": null,
            "name:tr": null,
            "name:ru": null,
            "name:ar": "سوتجو صالح"
        }
    },
    {
        "lat": 41.0195224,
        "lon": 29.1920913,
        "tags": {
            "addr:city": "İstanbul",
            "addr:district": null,
            "description": "",
            "opening_hours": null,
            "phone": null,
            "branch": null,
            "amenity": "dairy",
            "mobile": null,
            "addr:street": null,
            "cuisine": null,
            "name": "Kaya Çiftliği",
            "name:en": null,
            "name:uk": null,
            "name:de": null,
            "name:tr": null,
            "name:ru": null,
            "name:ar": null
        }
    },
    {
        "lat": 41.0027674,
        "lon": 28.6421397,
        "tags": {
            "addr:city": "İstanbul",
            "addr:district": null,
            "description": "",
            "opening_hours": null,
            "phone": null,
            "branch": null,
            "amenity": "dairy",
            "mobile": null,
            "addr:street": null,
            "cuisine": null,
            "name": "Bizim Çiftlik",
            "name:en": null,
            "name:uk": null,
            "name:de": null,
            "name:tr": null,
            "name:ru": null,
            "name:ar": null
        }
    },
    {
        "lat": 40.9900302,
        "lon": 29.0787782,
        "tags": {
            "addr:city": "İstanbul",
            "addr:district": null,
            "description": "",
            "opening_hours": null,
            "phone": null,
            "branch": null,
            "amenity": "dairy",
            "mobile": null,
            "addr:street": null,
            "cuisine": null,
            "name": "İtimat",
            "name:en": null,
            "name:uk": null,
            "name:de": null,
            "name:tr": null,
            "name:ru": null,
            "name:ar": null
        }
    },
    {
        "lat": 40.9480424,
        "lon": 29.1068892,
        "tags": {
            "addr:city": "İstanbul",
            "addr:district": null,
            "description": "",
            "opening_hours": "Mo-Su 08:00-22:00",
            "phone": "(0216)3882006",
            "branch": null,
            "amenity": "dairy",
            "mobile": null,
            "addr:street": "Küçükyalı, Bağdat Cd.",
            "cuisine": null,
            "name": "Peynirci Baba",
            "name:en": null,
            "name:uk": null,
            "name:de": null,
            "name:tr": null,
            "name:ru": null,
            "name:ar": null
        }
    },
    {
        "lat": 41.2211781,
        "lon": 28.4548587,
        "tags": {
            "addr:city": "İstanbul",
            "addr:district": null,
            "description": "",
            "opening_hours": null,
            "phone": null,
            "branch": null,
            "amenity": "dairy",
            "mobile": null,
            "addr:street": null,
            "cuisine": null,
            "name": "Belkıs Çiftliği",
            "name:en": null,
            "name:uk": null,
            "name:de": null,
            "name:tr": null,
            "name:ru": null,
            "name:ar": null
        }
    },
    {
        "lat": 41.2236429,
        "lon": 28.4569978,
        "tags": {
            "addr:city": "İstanbul",
            "addr:district": null,
            "description": "",
            "opening_hours": null,
            "phone": null,
            "branch": null,
            "amenity": "dairy",
            "mobile": null,
            "addr:street": null,
            "cuisine": null,
            "name": "Aynas Gıda",
            "name:en": null,
            "name:uk": null,
            "name:de": null,
            "name:tr": null,
            "name:ru": null,
            "name:ar": null
        }
    },
    {
        "lat": 40.9864435,
        "lon": 29.0890857,
        "tags": {
            "addr:city": "İstanbul",
            "addr:district": null,
            "description": "",
            "opening_hours": null,
            "phone": null,
            "branch": null,
            "amenity": "dairy",
            "mobile": null,
            "addr:street": null,
            "cuisine": null,
            "name": "Kaya Çiftliği",
            "name:en": null,
            "name:uk": null,
            "name:de": null,
            "name:tr": null,
            "name:ru": null,
            "name:ar": null
        }
    },
    {
        "lat": 40.9790241,
        "lon": 29.1139457,
        "tags": {
            "addr:city": "İstanbul",
            "addr:district": null,
            "description": "",
            "opening_hours": null,
            "phone": null,
            "branch": null,
            "amenity": "dairy",
            "mobile": null,
            "addr:street": null,
            "cuisine": null,
            "name": "Peynircim",
            "name:en": null,
            "name:uk": null,
            "name:de": null,
            "name:tr": null,
            "name:ru": null,
            "name:ar": null
        }
    },
    {
        "lat": 41.0088335,
        "lon": 29.0742541,
        "tags": {
            "addr:city": "İstanbul",
            "addr:district": null,
            "description": "",
            "opening_hours": null,
            "phone": null,
            "branch": null,
            "amenity": "dairy",
            "mobile": null,
            "addr:street": null,
            "cuisine": null,
            "name": "İtimat",
            "name:en": null,
            "name:uk": null,
            "name:de": null,
            "name:tr": null,
            "name:ru": null,
            "name:ar": null
        }
    },
    {
        "lat": 40.9809138,
        "lon": 29.1187549,
        "tags": {
            "addr:city": "İstanbul",
            "addr:district": null,
            "description": "",
            "opening_hours": null,
            "phone": null,
            "branch": null,
            "amenity": "dairy",
            "mobile": null,
            "addr:street": null,
            "cuisine": null,
            "name": "Tire Süt Kooperatifi",
            "name:en": null,
            "name:uk": null,
            "name:de": null,
            "name:tr": null,
            "name:ru": null,
            "name:ar": null
        }
    },
    {
        "lat": 41.115153,
        "lon": 28.9983287,
        "tags": {
            "addr:city": "İstanbul",
            "addr:district": null,
            "description": "",
            "opening_hours": null,
            "phone": null,
            "branch": null,
            "amenity": "dairy",
            "mobile": null,
            "addr:street": null,
            "cuisine": null,
            "name": "Kaya Çiftliği",
            "name:en": null,
            "name:uk": null,
            "name:de": null,
            "name:tr": null,
            "name:ru": null,
            "name:ar": null
        }
    },
    {
        "lat": 40.9925011,
        "lon": 28.8435085,
        "tags": {
            "addr:city": "İstanbul",
            "addr:district": null,
            "description": "",
            "opening_hours": null,
            "phone": null,
            "branch": null,
            "amenity": "dairy",
            "mobile": null,
            "addr:street": null,
            "cuisine": null,
            "name": "Mandırra",
            "name:en": null,
            "name:uk": null,
            "name:de": null,
            "name:tr": null,
            "name:ru": null,
            "name:ar": null
        }
    },
    {
        "lat": 41.1030731,
        "lon": 28.8691276,
        "tags": {
            "addr:city": "İstanbul",
            "addr:district": null,
            "description": "",
            "opening_hours": null,
            "phone": null,
            "branch": null,
            "amenity": "dairy",
            "mobile": null,
            "addr:street": null,
            "cuisine": null,
            "name": "Şen Süt",
            "name:en": null,
            "name:uk": null,
            "name:de": null,
            "name:tr": null,
            "name:ru": null,
            "name:ar": null
        }
    },
    {
        "lat": 40.9923551,
        "lon": 29.23089,
        "tags": {
            "addr:city": "İstanbul",
            "addr:district": null,
            "description": "",
            "opening_hours": null,
            "phone": null,
            "branch": null,
            "amenity": "dairy",
            "mobile": null,
            "addr:street": null,
            "cuisine": null,
            "name": "Kaya Çiftliği",
            "name:en": null,
            "name:uk": null,
            "name:de": null,
            "name:tr": null,
            "name:ru": null,
            "name:ar": null
        }
    },
    {
        "lat": 41.0000807,
        "lon": 28.856984,
        "tags": {
            "addr:city": "İstanbul",
            "addr:district": null,
            "description": "",
            "opening_hours": null,
            "phone": null,
            "branch": null,
            "amenity": "dairy",
            "mobile": null,
            "addr:street": null,
            "cuisine": null,
            "name": "Coşkun Peynircilik",
            "name:en": null,
            "name:uk": null,
            "name:de": null,
            "name:tr": null,
            "name:ru": null,
            "name:ar": null
        }
    },
    {
        "lat": 40.9675343,
        "lon": 29.0928174,
        "tags": {
            "addr:city": "İstanbul",
            "addr:district": "Kadıköy",
            "description": "",
            "opening_hours": null,
            "phone": null,
            "branch": null,
            "amenity": "dairy",
            "mobile": null,
            "addr:street": "Kaya Sultan Sokağı",
            "cuisine": null,
            "name": "İtimat Süt",
            "name:en": null,
            "name:uk": null,
            "name:de": null,
            "name:tr": null,
            "name:ru": null,
            "name:ar": null
        }
    },
    {
        "lat": 41.0801366,
        "lon": 28.9390585,
        "tags": {
            "addr:city": "İstanbul",
            "addr:district": null,
            "description": "",
            "opening_hours": null,
            "phone": null,
            "branch": null,
            "amenity": "dairy",
            "mobile": null,
            "addr:street": null,
            "cuisine": null,
            "name": "Yumurtacı Yusuf - 2 Süt ve Süt Ürünleri",
            "name:en": null,
            "name:uk": null,
            "name:de": null,
            "name:tr": null,
            "name:ru": null,
            "name:ar": null
        }
    },
    {
        "lat": 41.0251157,
        "lon": 29.0160324,
        "tags": {
            "addr:city": "İstanbul",
            "addr:district": null,
            "description": "",
            "opening_hours": null,
            "phone": null,
            "branch": null,
            "amenity": "dairy",
            "mobile": null,
            "addr:street": null,
            "cuisine": null,
            "name": "İtimat",
            "name:en": null,
            "name:uk": null,
            "name:de": null,
            "name:tr": null,
            "name:ru": null,
            "name:ar": null
        }
    },
    {
        "lat": 40.963769,
        "lon": 29.0801337,
        "tags": {
            "addr:city": "İstanbul",
            "addr:district": "Kadıköy",
            "description": "",
            "opening_hours": "08:30-20:00",
            "phone": null,
            "branch": null,
            "amenity": "dairy",
            "mobile": null,
            "addr:street": "Çolak İsmail Sokağı",
            "cuisine": null,
            "name": "Berk Çiftlik",
            "name:en": null,
            "name:uk": null,
            "name:de": null,
            "name:tr": null,
            "name:ru": null,
            "name:ar": null
        }
    },
    {
        "lat": 41.0031369,
        "lon": 28.6948044,
        "tags": {
            "addr:city": "İstanbul",
            "addr:district": "Esenyurt",
            "description": "",
            "opening_hours": null,
            "phone": null,
            "branch": null,
            "amenity": "dairy",
            "mobile": null,
            "addr:street": "Tonguç Baba Caddesi",
            "cuisine": null,
            "name": "Sütçüü",
            "name:en": null,
            "name:uk": null,
            "name:de": null,
            "name:tr": null,
            "name:ru": null,
            "name:ar": null
        }
    },
    {
        "lat": 41.0034717,
        "lon": 28.6928289,
        "tags": {
            "addr:city": "İstanbul",
            "addr:district": null,
            "description": "",
            "opening_hours": null,
            "phone": null,
            "branch": null,
            "amenity": "dairy",
            "mobile": null,
            "addr:street": null,
            "cuisine": null,
            "name": "Mirada Trakya Çiftlik",
            "name:en": null,
            "name:uk": null,
            "name:de": null,
            "name:tr": null,
            "name:ru": null,
            "name:ar": null
        }
    },
    {
        "lat": 40.9715586,
        "lon": 29.0773715,
        "tags": {
            "addr:city": "İstanbul",
            "addr:district": "Kadıköy",
            "description": "",
            "opening_hours": null,
            "phone": null,
            "branch": null,
            "amenity": "dairy",
            "mobile": null,
            "addr:street": "Erenköy İstasyon Caddesi",
            "cuisine": null,
            "name": "Peynirci Baba",
            "name:en": null,
            "name:uk": null,
            "name:de": null,
            "name:tr": null,
            "name:ru": null,
            "name:ar": null
        }
    },
    {
        "lat": 40.9715401,
        "lon": 29.0771871,
        "tags": {
            "addr:city": "İstanbul",
            "addr:district": "Kadıköy",
            "description": "",
            "opening_hours": null,
            "phone": null,
            "branch": null,
            "amenity": "dairy",
            "mobile": null,
            "addr:street": "Erenköy İstasyon Caddesi",
            "cuisine": null,
            "name": "İtimat Fabrika Satış Mağazası",
            "name:en": null,
            "name:uk": null,
            "name:de": null,
            "name:tr": null,
            "name:ru": null,
            "name:ar": null
        }
    },
    {
        "lat": 40.9857862,
        "lon": 29.2308399,
        "tags": {
            "addr:city": "İstanbul",
            "addr:district": null,
            "description": "",
            "opening_hours": null,
            "phone": null,
            "branch": null,
            "amenity": "dairy",
            "mobile": null,
            "addr:street": null,
            "cuisine": null,
            "name": "Kaya Çiftliği",
            "name:en": null,
            "name:uk": null,
            "name:de": null,
            "name:tr": null,
            "name:ru": null,
            "name:ar": null
        }
    },
    {
        "lat": 40.9637038,
        "lon": 29.0861582,
        "tags": {
            "addr:city": "İstanbul",
            "addr:district": null,
            "description": "",
            "opening_hours": null,
            "phone": null,
            "branch": null,
            "amenity": "dairy",
            "mobile": null,
            "addr:street": null,
            "cuisine": null,
            "name": "Muratbey Peynircilik",
            "name:en": null,
            "name:uk": null,
            "name:de": null,
            "name:tr": null,
            "name:ru": null,
            "name:ar": null
        }
    },
    {
        "lat": 40.9548412,
        "lon": 29.0981275,
        "tags": {
            "addr:city": "İstanbul",
            "addr:district": "Kadıköy",
            "description": "",
            "opening_hours": null,
            "phone": null,
            "branch": null,
            "amenity": "dairy",
            "mobile": null,
            "addr:street": "Bahçelerarası Sokağı",
            "cuisine": null,
            "name": "İtimat Süt",
            "name:en": null,
            "name:uk": null,
            "name:de": null,
            "name:tr": null,
            "name:ru": null,
            "name:ar": null
        }
    },
    {
        "lat": 40.9797777,
        "lon": 29.0671078,
        "tags": {
            "addr:city": "İstanbul",
            "addr:district": "Kadıköy",
            "description": "",
            "opening_hours": null,
            "phone": null,
            "branch": null,
            "amenity": "dairy",
            "mobile": null,
            "addr:street": "Tütüncü Mehmet Efendi Caddesi",
            "cuisine": null,
            "name": "İtimat Süt",
            "name:en": null,
            "name:uk": null,
            "name:de": null,
            "name:tr": null,
            "name:ru": null,
            "name:ar": null
        }
    },
    {
        "lat": 40.9422768,
        "lon": 29.1506252,
        "tags": {
            "addr:city": "İstanbul",
            "addr:district": "Maltepe",
            "description": "",
            "opening_hours": null,
            "phone": null,
            "branch": null,
            "amenity": "dairy",
            "mobile": null,
            "addr:street": "Nil Caddesi",
            "cuisine": null,
            "name": "Kaya Çiftliği",
            "name:en": null,
            "name:uk": null,
            "name:de": null,
            "name:tr": null,
            "name:ru": null,
            "name:ar": null
        }
    },
    {
        "lat": 40.924106,
        "lon": 29.3051704,
        "tags": {
            "addr:city": "İstanbul",
            "addr:district": "Pendik",
            "description": "",
            "opening_hours": "08:00 - 22:00",
            "phone": null,
            "branch": null,
            "amenity": "dairy",
            "mobile": null,
            "addr:street": null,
            "cuisine": null,
            "name": "Peynirci Baba",
            "name:en": null,
            "name:uk": null,
            "name:de": null,
            "name:tr": null,
            "name:ru": null,
            "name:ar": null
        }
    }
]