[
    {
        "lat": 41.0332128,
        "lon": 28.9420621,
        "tags": {
            "addr:city": "Istanbul",
            "addr:district": "Fatih",
            "description": "",
            "opening_hours": null,
            "phone": null,
            "branch": null,
            "amenity": "dormitory",
            "mobile": null,
            "addr:street": "Kani Efendi Sokağı",
            "cuisine": null,
            "name": "Burhanettin Güvercin Uluslararası Öğrenci Yurdu",
            "name:en": null,
            "name:uk": null,
            "name:de": null,
            "name:tr": null,
            "name:ru": null,
            "name:ar": "سكن بوهارتين غوفرجن للطلاب الدوليين"
        }
    },
    {
        "lat": 41.0333575,
        "lon": 28.9419333,
        "tags": {
            "addr:city": "Istanbul",
            "addr:district": "Fatih",
            "description": "",
            "opening_hours": null,
            "phone": null,
            "branch": null,
            "amenity": "dormitory",
            "mobile": null,
            "addr:street": "Kani Efendi Sokağı",
            "cuisine": null,
            "name": "İhh Ogrenci Yurdu",
            "name:en": null,
            "name:uk": null,
            "name:de": null,
            "name:tr": null,
            "name:ru": null,
            "name:ar": "سكن إي ها ها الطلابي"
        }
    }
]