[
    {
        "lat": 41.03197,
        "lon": 28.9750808,
        "tags": {
            "addr:city": "İstanbul",
            "addr:district": null,
            "description": "",
            "opening_hours": null,
            "phone": null,
            "branch": null,
            "amenity": "dry_cleaning",
            "mobile": null,
            "addr:street": null,
            "cuisine": null,
            "name": null,
            "name:en": null,
            "name:uk": null,
            "name:de": null,
            "name:tr": null,
            "name:ru": null,
            "name:ar": null
        }
    },
    {
        "lat": 41.0074729,
        "lon": 29.1399689,
        "tags": {
            "addr:city": "İstanbul",
            "addr:district": null,
            "description": "",
            "opening_hours": null,
            "phone": null,
            "branch": null,
            "amenity": "dry_cleaning",
            "mobile": null,
            "addr:street": null,
            "cuisine": null,
            "name": "Our Dryclean",
            "name:en": null,
            "name:uk": null,
            "name:de": null,
            "name:tr": null,
            "name:ru": null,
            "name:ar": null
        }
    },
    {
        "lat": 40.9991899,
        "lon": 29.1412367,
        "tags": {
            "addr:city": "İstanbul",
            "addr:district": null,
            "description": "",
            "opening_hours": null,
            "phone": null,
            "branch": null,
            "amenity": "dry_cleaning",
            "mobile": null,
            "addr:street": null,
            "cuisine": null,
            "name": null,
            "name:en": null,
            "name:uk": null,
            "name:de": null,
            "name:tr": null,
            "name:ru": null,
            "name:ar": null
        }
    },
    {
        "lat": 41.1877401,
        "lon": 29.039625,
        "tags": {
            "addr:city": "İstanbul",
            "addr:district": null,
            "description": "",
            "opening_hours": null,
            "phone": null,
            "branch": null,
            "amenity": "dry_cleaning",
            "mobile": null,
            "addr:street": null,
            "cuisine": null,
            "name": "Kuru Temizleme ve Terzi",
            "name:en": null,
            "name:uk": null,
            "name:de": null,
            "name:tr": null,
            "name:ru": null,
            "name:ar": null
        }
    },
    {
        "lat": 41.0506501,
        "lon": 29.0251585,
        "tags": {
            "addr:city": "İstanbul",
            "addr:district": null,
            "description": "",
            "opening_hours": null,
            "phone": null,
            "branch": null,
            "amenity": "dry_cleaning",
            "mobile": null,
            "addr:street": null,
            "cuisine": null,
            "name": "Dry House",
            "name:en": null,
            "name:uk": null,
            "name:de": null,
            "name:tr": null,
            "name:ru": null,
            "name:ar": null
        }
    },
    {
        "lat": 40.931003,
        "lon": 29.1276585,
        "tags": {
            "addr:city": "Maltepe/İstanbul",
            "addr:district": null,
            "description": "",
            "opening_hours": null,
            "phone": "0216 352 44 29",
            "branch": null,
            "amenity": "dry_cleaning",
            "mobile": null,
            "addr:street": "Çetin Sokak",
            "cuisine": null,
            "name": "Er Ar Kuru Temizleme",
            "name:en": null,
            "name:uk": null,
            "name:de": null,
            "name:tr": null,
            "name:ru": null,
            "name:ar": null
        }
    },
    {
        "lat": 41.0097957,
        "lon": 28.5361928,
        "tags": {
            "addr:city": "İstanbul",
            "addr:district": null,
            "description": "",
            "opening_hours": null,
            "phone": null,
            "branch": null,
            "amenity": "dry_cleaning",
            "mobile": null,
            "addr:street": null,
            "cuisine": null,
            "name": "Burcu Kuru Temizleme",
            "name:en": null,
            "name:uk": null,
            "name:de": null,
            "name:tr": null,
            "name:ru": null,
            "name:ar": null
        }
    },
    {
        "lat": 40.985347,
        "lon": 29.0296311,
        "tags": {
            "addr:city": "İstanbul",
            "addr:district": null,
            "description": "",
            "opening_hours": null,
            "phone": null,
            "branch": null,
            "amenity": "dry_cleaning",
            "mobile": null,
            "addr:street": null,
            "cuisine": null,
            "name": "Dry Station",
            "name:en": null,
            "name:uk": null,
            "name:de": null,
            "name:tr": null,
            "name:ru": null,
            "name:ar": null
        }
    },
    {
        "lat": 41.0461245,
        "lon": 28.8980738,
        "tags": {
            "addr:city": "İstanbul",
            "addr:district": null,
            "description": "",
            "opening_hours": "Mo-Su 10:00-22:00",
            "phone": null,
            "branch": null,
            "amenity": "dry_cleaning",
            "mobile": null,
            "addr:street": null,
            "cuisine": null,
            "name": "Dry Center",
            "name:en": null,
            "name:uk": null,
            "name:de": null,
            "name:tr": "Dry Center",
            "name:ru": null,
            "name:ar": null
        }
    },
    {
        "lat": 41.013422,
        "lon": 28.9410138,
        "tags": {
            "addr:city": "Istanbul",
            "addr:district": "Fatih",
            "description": "",
            "opening_hours": null,
            "phone": "02125210953",
            "branch": null,
            "amenity": "dry_cleaning",
            "mobile": null,
            "addr:street": "Uygur sokak",
            "cuisine": null,
            "name": "Express Kuru Temizleme",
            "name:en": null,
            "name:uk": null,
            "name:de": null,
            "name:tr": null,
            "name:ru": null,
            "name:ar": "مصبغة اكسبريس"
        }
    },
    {
        "lat": 41.011028,
        "lon": 28.9510122,
        "tags": {
            "addr:city": "Istanbul",
            "addr:district": "Fatih",
            "description": "",
            "opening_hours": null,
            "phone": "02126352418",
            "branch": null,
            "amenity": "dry_cleaning",
            "mobile": null,
            "addr:street": "Imam Murat Sokak",
            "cuisine": null,
            "name": "Özel 72 Kuru Temizleme",
            "name:en": null,
            "name:uk": null,
            "name:de": null,
            "name:tr": null,
            "name:ru": null,
            "name:ar": "مصبغة 72 خاص للتنظيف الجاف"
        }
    },
    {
        "lat": 40.9964184,
        "lon": 28.924209,
        "tags": {
            "addr:city": "Istanbul",
            "addr:district": "Fatih",
            "description": "",
            "opening_hours": null,
            "phone": "02125300169",
            "branch": null,
            "amenity": "dry_cleaning",
            "mobile": null,
            "addr:street": "Hacı evhaddin caddesi",
            "cuisine": null,
            "name": "Özel kuru temizleme",
            "name:en": null,
            "name:uk": null,
            "name:de": null,
            "name:tr": null,
            "name:ru": null,
            "name:ar": "أوزيل للتنظيف الجاف"
        }
    },
    {
        "lat": 41.0253255,
        "lon": 28.9542362,
        "tags": {
            "addr:city": "Istanbul",
            "addr:district": "Fatih",
            "description": "",
            "opening_hours": null,
            "phone": null,
            "branch": null,
            "amenity": "dry_cleaning",
            "mobile": null,
            "addr:street": "Kara Sarıklı Sokak",
            "cuisine": null,
            "name": "Akgün",
            "name:en": null,
            "name:uk": null,
            "name:de": null,
            "name:tr": null,
            "name:ru": null,
            "name:ar": "اكغون للتنظيفات"
        }
    },
    {
        "lat": 41.0076749,
        "lon": 28.9471705,
        "tags": {
            "addr:city": "Istanbul",
            "addr:district": "Fatih",
            "description": "",
            "opening_hours": null,
            "phone": null,
            "branch": null,
            "amenity": "dry_cleaning",
            "mobile": null,
            "addr:street": "Kürkçübaşı Külhanı Sokağı",
            "cuisine": null,
            "name": "Elif kuru temizleme",
            "name:en": null,
            "name:uk": null,
            "name:de": null,
            "name:tr": null,
            "name:ru": null,
            "name:ar": "أليف للتنظيف الجاف"
        }
    },
    {
        "lat": 41.0056669,
        "lon": 28.9456477,
        "tags": {
            "addr:city": "Istanbul",
            "addr:district": "Fatih",
            "description": "",
            "opening_hours": null,
            "phone": null,
            "branch": null,
            "amenity": "dry_cleaning",
            "mobile": null,
            "addr:street": "Küçük Langa Caddesi",
            "cuisine": null,
            "name": "Dry master",
            "name:en": null,
            "name:uk": null,
            "name:de": null,
            "name:tr": null,
            "name:ru": null,
            "name:ar": "دراي ماستر للتنظيف الجاف"
        }
    },
    {
        "lat": 41.0074161,
        "lon": 28.9515484,
        "tags": {
            "addr:city": "Istanbul",
            "addr:district": "Fatih",
            "description": "",
            "opening_hours": null,
            "phone": "05333804273",
            "branch": null,
            "amenity": "dry_cleaning",
            "mobile": null,
            "addr:street": "Valide cami sokak",
            "cuisine": null,
            "name": "Aslan kuru temizleme",
            "name:en": null,
            "name:uk": null,
            "name:de": null,
            "name:tr": null,
            "name:ru": null,
            "name:ar": "أصلان للتنظيف الجاف"
        }
    },
    {
        "lat": 41.007565,
        "lon": 28.9511677,
        "tags": {
            "addr:city": "Istanbul",
            "addr:district": "Fatih",
            "description": "",
            "opening_hours": null,
            "phone": null,
            "branch": null,
            "amenity": "dry_cleaning",
            "mobile": null,
            "addr:street": "Tiryaki hasanpaşa sokağı",
            "cuisine": null,
            "name": "Buz kuru temizleme ve çamaşırhane",
            "name:en": null,
            "name:uk": null,
            "name:de": null,
            "name:tr": null,
            "name:ru": null,
            "name:ar": "بوظ للتنظيف الجاف"
        }
    },
    {
        "lat": 41.0177762,
        "lon": 28.9528248,
        "tags": {
            "addr:city": "Istanbul",
            "addr:district": "Fatih",
            "description": "",
            "opening_hours": null,
            "phone": "02124911133",
            "branch": null,
            "amenity": "dry_cleaning",
            "mobile": null,
            "addr:street": "Refah Sokak",
            "cuisine": null,
            "name": "Berfin Kuru Temizleme",
            "name:en": null,
            "name:uk": null,
            "name:de": null,
            "name:tr": null,
            "name:ru": null,
            "name:ar": "مصبغة بيرفين للتنظيف الجاف"
        }
    },
    {
        "lat": 41.0069311,
        "lon": 28.9276748,
        "tags": {
            "addr:city": "Istanbul",
            "addr:district": "Fatih",
            "description": "",
            "opening_hours": null,
            "phone": null,
            "branch": null,
            "amenity": "dry_cleaning",
            "mobile": null,
            "addr:street": "Silivrikapı Caddesi",
            "cuisine": null,
            "name": "Nehir Kuru Temizleme",
            "name:en": null,
            "name:uk": null,
            "name:de": null,
            "name:tr": null,
            "name:ru": null,
            "name:ar": "نيهير كورو تيميزليمي"
        }
    },
    {
        "lat": 41.0055051,
        "lon": 28.9303293,
        "tags": {
            "addr:city": "Istanbul",
            "addr:district": "Fatih",
            "description": "",
            "opening_hours": null,
            "phone": null,
            "branch": null,
            "amenity": "dry_cleaning",
            "mobile": null,
            "addr:street": "Ramazan Efendi Sokak",
            "cuisine": null,
            "name": "Elexe Kuru Temizleme",
            "name:en": null,
            "name:uk": null,
            "name:de": null,
            "name:tr": null,
            "name:ru": null,
            "name:ar": "ايليكسي كورو تيميزليمي"
        }
    },
    {
        "lat": 41.0083522,
        "lon": 28.9494938,
        "tags": {
            "addr:city": "Istanbul",
            "addr:district": "Fatih",
            "description": "",
            "opening_hours": null,
            "phone": "02125870891",
            "branch": null,
            "amenity": "dry_cleaning",
            "mobile": null,
            "addr:street": "Abdüllatif Paşa Sokağı",
            "cuisine": null,
            "name": "Özel kuru temizleme ve çamaşırhane",
            "name:en": null,
            "name:uk": null,
            "name:de": null,
            "name:tr": null,
            "name:ru": null,
            "name:ar": "أوزال للغسيل و التنظيف الجاف"
        }
    },
    {
        "lat": 41.033492,
        "lon": 28.9463421,
        "tags": {
            "addr:city": "Istanbul",
            "addr:district": "Fatih",
            "description": "",
            "opening_hours": null,
            "phone": null,
            "branch": null,
            "amenity": "dry_cleaning",
            "mobile": null,
            "addr:street": "Lavanta Sokağı",
            "cuisine": null,
            "name": "İkizler Kuru Temizleme",
            "name:en": null,
            "name:uk": null,
            "name:de": null,
            "name:tr": null,
            "name:ru": null,
            "name:ar": "مغسلة إكيزلار كوروتميزلاما"
        }
    },
    {
        "lat": 41.0083012,
        "lon": 28.9525291,
        "tags": {
            "addr:city": "Istanbul",
            "addr:district": "Fatih",
            "description": "",
            "opening_hours": null,
            "phone": "02125296095",
            "branch": null,
            "amenity": "dry_cleaning",
            "mobile": null,
            "addr:street": "İnkilap caddesi",
            "cuisine": null,
            "name": "Kral kuru temizleme",
            "name:en": null,
            "name:uk": null,
            "name:de": null,
            "name:tr": null,
            "name:ru": null,
            "name:ar": "كرال للتنظيف الجاف"
        }
    },
    {
        "lat": 41.0214031,
        "lon": 28.9489289,
        "tags": {
            "addr:city": "Istanbul",
            "addr:district": "Fatih",
            "description": "",
            "opening_hours": null,
            "phone": null,
            "branch": null,
            "amenity": "dry_cleaning",
            "mobile": null,
            "addr:street": "Darüşşafaka caddesi",
            "cuisine": null,
            "name": "Şato kuru temizleme",
            "name:en": null,
            "name:uk": null,
            "name:de": null,
            "name:tr": null,
            "name:ru": null,
            "name:ar": "شاتو"
        }
    },
    {
        "lat": 41.0230226,
        "lon": 28.9509916,
        "tags": {
            "addr:city": "Istanbul",
            "addr:district": "Fatih",
            "description": "",
            "opening_hours": null,
            "phone": "05327814131",
            "branch": null,
            "amenity": "dry_cleaning",
            "mobile": null,
            "addr:street": "Haliç caddesi",
            "cuisine": null,
            "name": "Garanti",
            "name:en": null,
            "name:uk": null,
            "name:de": null,
            "name:tr": null,
            "name:ru": null,
            "name:ar": "جرانتي"
        }
    },
    {
        "lat": 41.006402,
        "lon": 28.9713794,
        "tags": {
            "addr:city": "Istanbul",
            "addr:district": "Fatih",
            "description": "",
            "opening_hours": null,
            "phone": null,
            "branch": null,
            "amenity": "dry_cleaning",
            "mobile": null,
            "addr:street": "Göktaş sokak",
            "cuisine": null,
            "name": "Demir",
            "name:en": null,
            "name:uk": null,
            "name:de": null,
            "name:tr": null,
            "name:ru": null,
            "name:ar": "دمير"
        }
    },
    {
        "lat": 41.0057362,
        "lon": 28.9736061,
        "tags": {
            "addr:city": "Istanbul",
            "addr:district": "Fatih",
            "description": "",
            "opening_hours": null,
            "phone": "5182154",
            "branch": null,
            "amenity": "dry_cleaning",
            "mobile": null,
            "addr:street": "Üçler sokak",
            "cuisine": null,
            "name": "Doğu expres",
            "name:en": null,
            "name:uk": null,
            "name:de": null,
            "name:tr": null,
            "name:ru": null,
            "name:ar": "دوغو اكسبريس"
        }
    },
    {
        "lat": 41.0101104,
        "lon": 28.9424429,
        "tags": {
            "addr:city": "Istanbul",
            "addr:district": "Fatih",
            "description": "",
            "opening_hours": null,
            "phone": "05363875745",
            "branch": null,
            "amenity": "dry_cleaning",
            "mobile": null,
            "addr:street": "Samipaşa Sokak",
            "cuisine": null,
            "name": "Önay",
            "name:en": null,
            "name:uk": null,
            "name:de": null,
            "name:tr": null,
            "name:ru": null,
            "name:ar": "اوناي"
        }
    },
    {
        "lat": 41.0266467,
        "lon": 28.9409363,
        "tags": {
            "addr:city": "Istanbul",
            "addr:district": "Fatih",
            "description": "",
            "opening_hours": null,
            "phone": null,
            "branch": null,
            "amenity": "dry_cleaning",
            "mobile": null,
            "addr:street": "Canfeda cami sokak",
            "cuisine": null,
            "name": "Yonca kuru temizleme",
            "name:en": null,
            "name:uk": null,
            "name:de": null,
            "name:tr": null,
            "name:ru": null,
            "name:ar": "يونجا تنظيف جاف"
        }
    },
    {
        "lat": 41.0306729,
        "lon": 28.9377149,
        "tags": {
            "addr:city": "Istanbul",
            "addr:district": "Fatih",
            "description": "",
            "opening_hours": null,
            "phone": null,
            "branch": null,
            "amenity": "dry_cleaning",
            "mobile": null,
            "addr:street": "Şeyh Eyüp Sokak",
            "cuisine": null,
            "name": "Muhteşem kuru temizleme",
            "name:en": null,
            "name:uk": null,
            "name:de": null,
            "name:tr": null,
            "name:ru": null,
            "name:ar": "محتشم غسيل جاف"
        }
    },
    {
        "lat": 41.0039782,
        "lon": 28.9321572,
        "tags": {
            "addr:city": "Istanbul",
            "addr:district": "Fatih",
            "description": "",
            "opening_hours": null,
            "phone": null,
            "branch": null,
            "amenity": "dry_cleaning",
            "mobile": null,
            "addr:street": "Kocamustafapaşa Caddesi",
            "cuisine": null,
            "name": "Tomsiler",
            "name:en": null,
            "name:uk": null,
            "name:de": null,
            "name:tr": null,
            "name:ru": null,
            "name:ar": "تومسيلار للكوي"
        }
    },
    {
        "lat": 41.007376,
        "lon": 28.9310689,
        "tags": {
            "addr:city": "Istanbul",
            "addr:district": "Fatih",
            "description": "",
            "opening_hours": null,
            "phone": null,
            "branch": null,
            "amenity": "dry_cleaning",
            "mobile": null,
            "addr:street": "Hekimoğlu Alipaşa Caddesi",
            "cuisine": null,
            "name": "Esinti Kuru Temizleme",
            "name:en": null,
            "name:uk": null,
            "name:de": null,
            "name:tr": null,
            "name:ru": null,
            "name:ar": "إيسنتي للغسيل الجاف"
        }
    },
    {
        "lat": 40.9804186,
        "lon": 28.7371909,
        "tags": {
            "addr:city": "İstanbul",
            "addr:district": null,
            "description": "",
            "opening_hours": null,
            "phone": null,
            "branch": null,
            "amenity": "dry_cleaning",
            "mobile": null,
            "addr:street": null,
            "cuisine": null,
            "name": "emin kuru temizleme",
            "name:en": null,
            "name:uk": null,
            "name:de": null,
            "name:tr": null,
            "name:ru": null,
            "name:ar": null
        }
    },
    {
        "lat": 40.9592171,
        "lon": 29.0956807,
        "tags": {
            "addr:city": "İstanbul",
            "addr:district": "Kadıköy",
            "description": "",
            "opening_hours": null,
            "phone": null,
            "branch": null,
            "amenity": "dry_cleaning",
            "mobile": null,
            "addr:street": "Prof. Dr. Kemal Akgüder Caddesi",
            "cuisine": null,
            "name": "1. Sınıf Kuru Temizleme",
            "name:en": null,
            "name:uk": null,
            "name:de": null,
            "name:tr": null,
            "name:ru": null,
            "name:ar": null
        }
    },
    {
        "lat": 40.9550331,
        "lon": 29.0927825,
        "tags": {
            "addr:city": "İstanbul",
            "addr:district": "Kadıköy",
            "description": "",
            "opening_hours": null,
            "phone": null,
            "branch": null,
            "amenity": "dry_cleaning",
            "mobile": null,
            "addr:street": "Kasadar Sokak",
            "cuisine": null,
            "name": "Balkan Kuru Temizleme",
            "name:en": null,
            "name:uk": null,
            "name:de": null,
            "name:tr": null,
            "name:ru": null,
            "name:ar": null
        }
    },
    {
        "lat": 40.877176,
        "lon": 29.2447408,
        "tags": {
            "addr:city": "İstanbul",
            "addr:district": null,
            "description": "",
            "opening_hours": null,
            "phone": null,
            "branch": null,
            "amenity": "dry_cleaning",
            "mobile": null,
            "addr:street": null,
            "cuisine": null,
            "name": "Paktaş kuru temizleme",
            "name:en": null,
            "name:uk": null,
            "name:de": null,
            "name:tr": null,
            "name:ru": null,
            "name:ar": null
        }
    },
    {
        "lat": 40.96007,
        "lon": 29.0912684,
        "tags": {
            "addr:city": "İstanbul",
            "addr:district": "Kadıköy",
            "description": "",
            "opening_hours": null,
            "phone": null,
            "branch": null,
            "amenity": "dry_cleaning",
            "mobile": null,
            "addr:street": "Emin Ali Paşa Caddesi",
            "cuisine": null,
            "name": "Nur Kuru temizleme",
            "name:en": null,
            "name:uk": null,
            "name:de": null,
            "name:tr": null,
            "name:ru": null,
            "name:ar": null
        }
    },
    {
        "lat": 40.9675265,
        "lon": 29.1231476,
        "tags": {
            "addr:city": "İstanbul",
            "addr:district": null,
            "description": "",
            "opening_hours": null,
            "phone": null,
            "branch": null,
            "amenity": "dry_cleaning",
            "mobile": null,
            "addr:street": null,
            "cuisine": null,
            "name": null,
            "name:en": null,
            "name:uk": null,
            "name:de": null,
            "name:tr": null,
            "name:ru": null,
            "name:ar": null
        }
    },
    {
        "lat": 40.938305,
        "lon": 29.2121599,
        "tags": {
            "addr:city": "İstanbul",
            "addr:district": null,
            "description": "",
            "opening_hours": null,
            "phone": null,
            "branch": null,
            "amenity": "dry_cleaning",
            "mobile": null,
            "addr:street": "Mazi Sokak",
            "cuisine": null,
            "name": "Ahmet Kuru Temizleme",
            "name:en": null,
            "name:uk": null,
            "name:de": null,
            "name:tr": null,
            "name:ru": null,
            "name:ar": null
        }
    },
    {
        "lat": 41.0595761,
        "lon": 28.9843652,
        "tags": {
            "addr:city": "İstanbul",
            "addr:district": null,
            "description": "",
            "opening_hours": null,
            "phone": null,
            "branch": null,
            "amenity": "dry_cleaning",
            "mobile": null,
            "addr:street": null,
            "cuisine": null,
            "name": "Site Kuru Temizleme",
            "name:en": null,
            "name:uk": null,
            "name:de": null,
            "name:tr": null,
            "name:ru": null,
            "name:ar": null
        }
    },
    {
        "lat": 40.9790513,
        "lon": 29.2535429,
        "tags": {
            "addr:city": "Istanbul",
            "addr:district": "Sultanbeyli",
            "description": "",
            "opening_hours": null,
            "phone": null,
            "branch": null,
            "amenity": "dry_cleaning",
            "mobile": null,
            "addr:street": "Ekol Caddesi",
            "cuisine": null,
            "name": "Halı yıkama",
            "name:en": null,
            "name:uk": null,
            "name:de": null,
            "name:tr": null,
            "name:ru": null,
            "name:ar": "مغسلة هالي يقاما"
        }
    },
    {
        "lat": 41.0709236,
        "lon": 28.9604192,
        "tags": {
            "addr:city": "istanbul",
            "addr:district": "kağıthane",
            "description": "",
            "opening_hours": null,
            "phone": null,
            "branch": null,
            "amenity": "dry_cleaning",
            "mobile": null,
            "addr:street": "çeşme sokak",
            "cuisine": null,
            "name": "lider kurutemizleme",
            "name:en": null,
            "name:uk": null,
            "name:de": null,
            "name:tr": null,
            "name:ru": null,
            "name:ar": null
        }
    },
    {
        "lat": 40.9475545,
        "lon": 29.2839179,
        "tags": {
            "addr:city": "Istanbul",
            "addr:district": "Sultanbeyli",
            "description": "",
            "opening_hours": null,
            "phone": "05558229914",
            "branch": null,
            "amenity": "dry_cleaning",
            "mobile": null,
            "addr:street": "Kaleli sokače",
            "cuisine": null,
            "name": "Hali matik",
            "name:en": null,
            "name:uk": null,
            "name:de": null,
            "name:tr": null,
            "name:ru": null,
            "name:ar": "خسيل سجاد)هالي ماتيك"
        }
    },
    {
        "lat": 40.9775572,
        "lon": 29.2667198,
        "tags": {
            "addr:city": "Istanbul",
            "addr:district": "Sultanbeyli",
            "description": "",
            "opening_hours": "Mo-Fr 07:00-13:30; Mo-Fr 17:00-20:00",
            "phone": "02166691222",
            "branch": null,
            "amenity": "dry_cleaning",
            "mobile": null,
            "addr:street": "selçukhan Caddesi",
            "cuisine": null,
            "name": "Sultan",
            "name:en": null,
            "name:uk": null,
            "name:de": null,
            "name:tr": null,
            "name:ru": null,
            "name:ar": "غسيل سجاد سلطان"
        }
    },
    {
        "lat": 40.9479483,
        "lon": 29.2842047,
        "tags": {
            "addr:city": "Istanbul",
            "addr:district": "Sultanbeyli",
            "description": "",
            "opening_hours": null,
            "phone": "4155156",
            "branch": null,
            "amenity": "dry_cleaning",
            "mobile": null,
            "addr:street": "Orhangazi Caddesi",
            "cuisine": null,
            "name": "Kale kurutemizleme",
            "name:en": null,
            "name:uk": null,
            "name:de": null,
            "name:tr": null,
            "name:ru": null,
            "name:ar": "محل غسيل وكوي ملابس تركي كالي"
        }
    },
    {
        "lat": 41.0091784,
        "lon": 28.9149576,
        "tags": {
            "addr:city": "Istanbul",
            "addr:district": "Zeytinburnu",
            "description": "",
            "opening_hours": null,
            "phone": null,
            "branch": null,
            "amenity": "dry_cleaning",
            "mobile": null,
            "addr:street": "G-66. Sokak",
            "cuisine": null,
            "name": "yeşil ütü",
            "name:en": null,
            "name:uk": null,
            "name:de": null,
            "name:tr": null,
            "name:ru": null,
            "name:ar": "يشيل أوتو"
        }
    },
    {
        "lat": 41.00642,
        "lon": 28.9025956,
        "tags": {
            "addr:city": "Istanbul",
            "addr:district": "Zeytinburnu",
            "description": "",
            "opening_hours": null,
            "phone": null,
            "branch": null,
            "amenity": "dry_cleaning",
            "mobile": null,
            "addr:street": "ŞEHİT İSMET ÇAVUŞ SK",
            "cuisine": null,
            "name": "HAROUN",
            "name:en": null,
            "name:uk": null,
            "name:de": null,
            "name:tr": null,
            "name:ru": null,
            "name:ar": "هارون"
        }
    },
    {
        "lat": 41.0053675,
        "lon": 28.9025695,
        "tags": {
            "addr:city": "Istanbul",
            "addr:district": "Zeytinburnu",
            "description": "",
            "opening_hours": null,
            "phone": null,
            "branch": null,
            "amenity": "dry_cleaning",
            "mobile": null,
            "addr:street": "Şehit İSMET ÇAVUŞ SK",
            "cuisine": null,
            "name": "HAROUN",
            "name:en": null,
            "name:uk": null,
            "name:de": null,
            "name:tr": null,
            "name:ru": null,
            "name:ar": "هارون لكوي الملابس"
        }
    },
    {
        "lat": 40.9858438,
        "lon": 28.8955112,
        "tags": {
            "addr:city": "Istanbul",
            "addr:district": "Zeytinburnu",
            "description": "",
            "opening_hours": null,
            "phone": null,
            "branch": null,
            "amenity": "dry_cleaning",
            "mobile": null,
            "addr:street": "8/3. sokak",
            "cuisine": null,
            "name": "happy day",
            "name:en": null,
            "name:uk": null,
            "name:de": null,
            "name:tr": null,
            "name:ru": null,
            "name:ar": "هابي دي"
        }
    },
    {
        "lat": 40.9870191,
        "lon": 28.8953715,
        "tags": {
            "addr:city": "Istanbul",
            "addr:district": "Zeytinburnu",
            "description": "",
            "opening_hours": null,
            "phone": null,
            "branch": null,
            "amenity": "dry_cleaning",
            "mobile": null,
            "addr:street": "Şht. Er Yavuz Bahar Sokak",
            "cuisine": null,
            "name": "Yılmaz Kuru Temizleme",
            "name:en": null,
            "name:uk": null,
            "name:de": null,
            "name:tr": null,
            "name:ru": null,
            "name:ar": "يلماز كورو"
        }
    },
    {
        "lat": 40.9920862,
        "lon": 28.897015,
        "tags": {
            "addr:city": "Istanbul",
            "addr:district": "Zeytinburnu",
            "description": "",
            "opening_hours": null,
            "phone": null,
            "branch": null,
            "amenity": "dry_cleaning",
            "mobile": null,
            "addr:street": "56. Sokak",
            "cuisine": null,
            "name": "Has",
            "name:en": null,
            "name:uk": null,
            "name:de": null,
            "name:tr": null,
            "name:ru": null,
            "name:ar": "هاس"
        }
    },
    {
        "lat": 40.9844866,
        "lon": 28.8955511,
        "tags": {
            "addr:city": "Istanbul",
            "addr:district": "Zeytinburnu",
            "description": "",
            "opening_hours": null,
            "phone": null,
            "branch": null,
            "amenity": "dry_cleaning",
            "mobile": null,
            "addr:street": "Adnan Kahveci Sokak",
            "cuisine": null,
            "name": "Özbakınçlar",
            "name:en": null,
            "name:uk": null,
            "name:de": null,
            "name:tr": null,
            "name:ru": null,
            "name:ar": "أوزباكنتشلار"
        }
    },
    {
        "lat": 40.9919891,
        "lon": 28.9063998,
        "tags": {
            "addr:city": "Istanbul",
            "addr:district": "Zeytinburnu",
            "description": "",
            "opening_hours": null,
            "phone": null,
            "branch": null,
            "amenity": "dry_cleaning",
            "mobile": null,
            "addr:street": "44/2. sokak",
            "cuisine": null,
            "name": "ODAK",
            "name:en": null,
            "name:uk": null,
            "name:de": null,
            "name:tr": null,
            "name:ru": null,
            "name:ar": "اوداك"
        }
    },
    {
        "lat": 40.9909551,
        "lon": 28.9087628,
        "tags": {
            "addr:city": "Istanbul",
            "addr:district": "Zeytinburnu",
            "description": "",
            "opening_hours": null,
            "phone": null,
            "branch": null,
            "amenity": "dry_cleaning",
            "mobile": null,
            "addr:street": "Şh.Komiser Günaydın Cd",
            "cuisine": null,
            "name": "Onur Kuru Temizleme",
            "name:en": null,
            "name:uk": null,
            "name:de": null,
            "name:tr": null,
            "name:ru": null,
            "name:ar": "اونور"
        }
    },
    {
        "lat": 41.0486879,
        "lon": 28.8493345,
        "tags": {
            "addr:city": "Istanbul",
            "addr:district": "Zeytinburnu",
            "description": "",
            "opening_hours": null,
            "phone": null,
            "branch": null,
            "amenity": "dry_cleaning",
            "mobile": null,
            "addr:street": null,
            "cuisine": null,
            "name": "Kuru Temizleme",
            "name:en": null,
            "name:uk": null,
            "name:de": null,
            "name:tr": null,
            "name:ru": null,
            "name:ar": "تنظيف جاف"
        }
    },
    {
        "lat": 41.0244988,
        "lon": 28.8428984,
        "tags": {
            "addr:city": "Istanbul",
            "addr:district": "Bağcılar",
            "description": "",
            "opening_hours": null,
            "phone": null,
            "branch": null,
            "amenity": "dry_cleaning",
            "mobile": null,
            "addr:street": "Pazaryolu 1. sokak",
            "cuisine": null,
            "name": "Terzi & kuru temizleme",
            "name:en": null,
            "name:uk": null,
            "name:de": null,
            "name:tr": null,
            "name:ru": null,
            "name:ar": "محل خياطة وتنظيف جاف"
        }
    },
    {
        "lat": 41.0385379,
        "lon": 28.824874,
        "tags": {
            "addr:city": "Istanbul",
            "addr:district": "Bağcılar",
            "description": "",
            "opening_hours": null,
            "phone": "6515725",
            "branch": null,
            "amenity": "dry_cleaning",
            "mobile": null,
            "addr:street": "Favziçakmak Caddesi",
            "cuisine": null,
            "name": "Özel kuru temizleme",
            "name:en": null,
            "name:uk": null,
            "name:de": null,
            "name:tr": null,
            "name:ru": null,
            "name:ar": "أوزال كورو تاميزلاما"
        }
    },
    {
        "lat": 41.0415271,
        "lon": 28.8587671,
        "tags": {
            "addr:city": "Istanbul",
            "addr:district": null,
            "description": "",
            "opening_hours": null,
            "phone": "05414110109",
            "branch": null,
            "amenity": "dry_cleaning",
            "mobile": null,
            "addr:street": "1993 Sokak",
            "cuisine": null,
            "name": "Halı yıkama",
            "name:en": null,
            "name:uk": null,
            "name:de": null,
            "name:tr": null,
            "name:ru": null,
            "name:ar": "هاله يكامة"
        }
    },
    {
        "lat": 41.0318175,
        "lon": 28.8536441,
        "tags": {
            "addr:city": "Istanbul",
            "addr:district": "Bağcılar",
            "description": "",
            "opening_hours": null,
            "phone": null,
            "branch": null,
            "amenity": "dry_cleaning",
            "mobile": null,
            "addr:street": "30/4 sok.",
            "cuisine": null,
            "name": "Dadaş kuru temizleme",
            "name:en": null,
            "name:uk": null,
            "name:de": null,
            "name:tr": null,
            "name:ru": null,
            "name:ar": "داداش للتنظيف الناشف"
        }
    },
    {
        "lat": 40.9799928,
        "lon": 29.0850279,
        "tags": {
            "addr:city": "İstanbul",
            "addr:district": null,
            "description": "",
            "opening_hours": null,
            "phone": null,
            "branch": null,
            "amenity": "dry_cleaning",
            "mobile": null,
            "addr:street": null,
            "cuisine": null,
            "name": "Kuru Temizleme",
            "name:en": null,
            "name:uk": null,
            "name:de": null,
            "name:tr": null,
            "name:ru": null,
            "name:ar": null
        }
    },
    {
        "lat": 40.9817402,
        "lon": 29.116537,
        "tags": {
            "addr:city": "İstanbul",
            "addr:district": null,
            "description": "",
            "opening_hours": null,
            "phone": "+905340386792",
            "branch": null,
            "amenity": "dry_cleaning",
            "mobile": null,
            "addr:street": null,
            "cuisine": null,
            "name": "Moda Terzi Kuru Temizleme",
            "name:en": null,
            "name:uk": null,
            "name:de": null,
            "name:tr": null,
            "name:ru": null,
            "name:ar": null
        }
    },
    {
        "lat": 40.8924438,
        "lon": 29.2181753,
        "tags": {
            "addr:city": "İstanbul",
            "addr:district": null,
            "description": "",
            "opening_hours": null,
            "phone": null,
            "branch": null,
            "amenity": "dry_cleaning",
            "mobile": null,
            "addr:street": null,
            "cuisine": null,
            "name": "Hakan Kurutemizleme",
            "name:en": null,
            "name:uk": null,
            "name:de": null,
            "name:tr": null,
            "name:ru": null,
            "name:ar": null
        }
    },
    {
        "lat": 40.9673307,
        "lon": 29.0627308,
        "tags": {
            "addr:city": "İstanbul",
            "addr:district": "Kadıköy",
            "description": "",
            "opening_hours": "Mo-Fr 10:00-18:00",
            "phone": null,
            "branch": null,
            "amenity": "dry_cleaning",
            "mobile": null,
            "addr:street": "Ressam Vecihi Bereketoğlu Sokak",
            "cuisine": null,
            "name": "Paksan Kuru Temizleme",
            "name:en": null,
            "name:uk": null,
            "name:de": null,
            "name:tr": null,
            "name:ru": null,
            "name:ar": null
        }
    },
    {
        "lat": 40.9183643,
        "lon": 29.3029385,
        "tags": {
            "addr:city": "İstanbul",
            "addr:district": null,
            "description": "",
            "opening_hours": null,
            "phone": "+902167021441",
            "branch": null,
            "amenity": "dry_cleaning",
            "mobile": null,
            "addr:street": null,
            "cuisine": null,
            "name": "Dry Kuru Temizleme",
            "name:en": null,
            "name:uk": null,
            "name:de": null,
            "name:tr": null,
            "name:ru": null,
            "name:ar": null
        }
    },
    {
        "lat": 40.994859,
        "lon": 29.0373232,
        "tags": {
            "addr:city": "İstanbul",
            "addr:district": null,
            "description": "",
            "opening_hours": null,
            "phone": null,
            "branch": null,
            "amenity": "dry_cleaning",
            "mobile": null,
            "addr:street": null,
            "cuisine": null,
            "name": "Özen Kuru Temizleme",
            "name:en": null,
            "name:uk": null,
            "name:de": null,
            "name:tr": null,
            "name:ru": null,
            "name:ar": null
        }
    },
    {
        "lat": 40.878015,
        "lon": 29.2302768,
        "tags": {
            "addr:city": "İstanbul",
            "addr:district": null,
            "description": "",
            "opening_hours": null,
            "phone": null,
            "branch": null,
            "amenity": "dry_cleaning",
            "mobile": null,
            "addr:street": "Vişne Sokak",
            "cuisine": null,
            "name": "Titiz Kuru Temizleme",
            "name:en": null,
            "name:uk": null,
            "name:de": null,
            "name:tr": null,
            "name:ru": null,
            "name:ar": null
        }
    },
    {
        "lat": 41.0359114,
        "lon": 28.9765033,
        "tags": {
            "addr:city": "İstanbul",
            "addr:district": null,
            "description": "",
            "opening_hours": null,
            "phone": null,
            "branch": null,
            "amenity": "dry_cleaning",
            "mobile": null,
            "addr:street": null,
            "cuisine": null,
            "name": "laundary",
            "name:en": null,
            "name:uk": null,
            "name:de": null,
            "name:tr": null,
            "name:ru": null,
            "name:ar": null
        }
    },
    {
        "lat": 40.9996937,
        "lon": 29.043617,
        "tags": {
            "addr:city": "İstanbul",
            "addr:district": null,
            "description": "Kuru Temizleme\n",
            "opening_hours": null,
            "phone": null,
            "branch": null,
            "amenity": "dry_cleaning",
            "mobile": null,
            "addr:street": null,
            "cuisine": null,
            "name": "Yıldırım Kuru Temizleme",
            "name:en": null,
            "name:uk": null,
            "name:de": null,
            "name:tr": null,
            "name:ru": null,
            "name:ar": null
        }
    },
    {
        "lat": 40.9202538,
        "lon": 29.3160707,
        "tags": {
            "addr:city": "İstanbul",
            "addr:district": null,
            "description": "",
            "opening_hours": null,
            "phone": null,
            "branch": null,
            "amenity": "dry_cleaning",
            "mobile": null,
            "addr:street": null,
            "cuisine": null,
            "name": "Kuru temizleme",
            "name:en": null,
            "name:uk": null,
            "name:de": null,
            "name:tr": null,
            "name:ru": null,
            "name:ar": null
        }
    },
    {
        "lat": 41.1089763,
        "lon": 28.8026838,
        "tags": {
            "addr:city": "İstanbul",
            "addr:district": null,
            "description": "",
            "opening_hours": null,
            "phone": null,
            "branch": null,
            "amenity": "dry_cleaning",
            "mobile": null,
            "addr:street": null,
            "cuisine": null,
            "name": "Terzi Adem Kuru Temizleme",
            "name:en": null,
            "name:uk": null,
            "name:de": null,
            "name:tr": null,
            "name:ru": null,
            "name:ar": null
        }
    },
    {
        "lat": 40.9805299,
        "lon": 29.0868468,
        "tags": {
            "addr:city": "İstanbul",
            "addr:district": "Kadıköy",
            "description": "",
            "opening_hours": null,
            "phone": "0216 355 15 47",
            "branch": null,
            "amenity": "dry_cleaning",
            "mobile": null,
            "addr:street": "Mescitli Sokağı",
            "cuisine": null,
            "name": "Servet Kuru Temizleme",
            "name:en": null,
            "name:uk": null,
            "name:de": null,
            "name:tr": null,
            "name:ru": null,
            "name:ar": null
        }
    },
    {
        "lat": 41.0672944,
        "lon": 29.0428318,
        "tags": {
            "addr:city": "İstanbul",
            "addr:district": "Beşiktaş",
            "description": "",
            "opening_hours": null,
            "phone": "0212 265 41 09",
            "branch": null,
            "amenity": "dry_cleaning",
            "mobile": null,
            "addr:street": "Bebek Arnavutköy Caddesi",
            "cuisine": null,
            "name": "Giysi Kuru Temizleme",
            "name:en": null,
            "name:uk": null,
            "name:de": null,
            "name:tr": null,
            "name:ru": null,
            "name:ar": null
        }
    },
    {
        "lat": 40.9184517,
        "lon": 29.2146027,
        "tags": {
            "addr:city": "İstanbul",
            "addr:district": null,
            "description": "",
            "opening_hours": null,
            "phone": null,
            "branch": null,
            "amenity": "dry_cleaning",
            "mobile": null,
            "addr:street": null,
            "cuisine": null,
            "name": "Dry Service",
            "name:en": null,
            "name:uk": null,
            "name:de": null,
            "name:tr": null,
            "name:ru": null,
            "name:ar": null
        }
    },
    {
        "lat": 40.9842571,
        "lon": 29.1156599,
        "tags": {
            "addr:city": "İstanbul",
            "addr:district": null,
            "description": "",
            "opening_hours": null,
            "phone": null,
            "branch": null,
            "amenity": "dry_cleaning",
            "mobile": null,
            "addr:street": null,
            "cuisine": null,
            "name": "DryTowers",
            "name:en": null,
            "name:uk": null,
            "name:de": null,
            "name:tr": null,
            "name:ru": null,
            "name:ar": null
        }
    },
    {
        "lat": 41.0055043,
        "lon": 29.1330018,
        "tags": {
            "addr:city": "İstanbul",
            "addr:district": null,
            "description": "",
            "opening_hours": null,
            "phone": null,
            "branch": null,
            "amenity": "dry_cleaning",
            "mobile": null,
            "addr:street": null,
            "cuisine": null,
            "name": null,
            "name:en": null,
            "name:uk": null,
            "name:de": null,
            "name:tr": null,
            "name:ru": null,
            "name:ar": null
        }
    },
    {
        "lat": 40.9711833,
        "lon": 29.0608969,
        "tags": {
            "addr:city": "İstanbul",
            "addr:district": "Kadıköy",
            "description": "",
            "opening_hours": "Mo-Sa 09:00-21:00; Su 10:00-18:00",
            "phone": null,
            "branch": null,
            "amenity": "dry_cleaning",
            "mobile": null,
            "addr:street": "Bağdat Caddesi",
            "cuisine": null,
            "name": "Dry Center",
            "name:en": null,
            "name:uk": null,
            "name:de": null,
            "name:tr": null,
            "name:ru": null,
            "name:ar": null
        }
    },
    {
        "lat": 40.9807394,
        "lon": 29.1123747,
        "tags": {
            "addr:city": "İstanbul",
            "addr:district": null,
            "description": "",
            "opening_hours": null,
            "phone": null,
            "branch": null,
            "amenity": "dry_cleaning",
            "mobile": null,
            "addr:street": null,
            "cuisine": null,
            "name": "Siderakis Kuru Temizleme",
            "name:en": null,
            "name:uk": null,
            "name:de": null,
            "name:tr": null,
            "name:ru": null,
            "name:ar": null
        }
    },
    {
        "lat": 41.1150908,
        "lon": 28.999488,
        "tags": {
            "addr:city": "İstanbul",
            "addr:district": null,
            "description": "",
            "opening_hours": null,
            "phone": null,
            "branch": null,
            "amenity": "dry_cleaning",
            "mobile": null,
            "addr:street": null,
            "cuisine": null,
            "name": "Recep Kuru Temizleme",
            "name:en": null,
            "name:uk": null,
            "name:de": null,
            "name:tr": null,
            "name:ru": null,
            "name:ar": null
        }
    },
    {
        "lat": 41.0114278,
        "lon": 29.128118,
        "tags": {
            "addr:city": "İstanbul",
            "addr:district": null,
            "description": "",
            "opening_hours": null,
            "phone": null,
            "branch": null,
            "amenity": "dry_cleaning",
            "mobile": null,
            "addr:street": null,
            "cuisine": null,
            "name": "Roventea",
            "name:en": null,
            "name:uk": null,
            "name:de": null,
            "name:tr": null,
            "name:ru": null,
            "name:ar": null
        }
    },
    {
        "lat": 41.0142366,
        "lon": 28.9455709,
        "tags": {
            "addr:city": "İstanbul",
            "addr:district": null,
            "description": "",
            "opening_hours": null,
            "phone": null,
            "branch": null,
            "amenity": "dry_cleaning",
            "mobile": null,
            "addr:street": null,
            "cuisine": null,
            "name": "Dry White",
            "name:en": null,
            "name:uk": null,
            "name:de": null,
            "name:tr": null,
            "name:ru": null,
            "name:ar": null
        }
    },
    {
        "lat": 40.9728827,
        "lon": 29.092459,
        "tags": {
            "addr:city": "İstanbul",
            "addr:district": null,
            "description": "",
            "opening_hours": null,
            "phone": null,
            "branch": null,
            "amenity": "dry_cleaning",
            "mobile": null,
            "addr:street": null,
            "cuisine": null,
            "name": "Dryland Kuru Temizleme",
            "name:en": null,
            "name:uk": null,
            "name:de": null,
            "name:tr": null,
            "name:ru": null,
            "name:ar": null
        }
    },
    {
        "lat": 40.9804204,
        "lon": 29.1108683,
        "tags": {
            "addr:city": "İstanbul",
            "addr:district": null,
            "description": "",
            "opening_hours": null,
            "phone": null,
            "branch": null,
            "amenity": "dry_cleaning",
            "mobile": null,
            "addr:street": null,
            "cuisine": null,
            "name": "Narin Halı & Koltuk Yıkama",
            "name:en": null,
            "name:uk": null,
            "name:de": null,
            "name:tr": null,
            "name:ru": null,
            "name:ar": null
        }
    },
    {
        "lat": 41.009332,
        "lon": 28.975217,
        "tags": {
            "addr:city": "İstanbul",
            "addr:district": null,
            "description": "",
            "opening_hours": null,
            "phone": null,
            "branch": null,
            "amenity": "dry_cleaning",
            "mobile": null,
            "addr:street": null,
            "cuisine": null,
            "name": null,
            "name:en": null,
            "name:uk": null,
            "name:de": null,
            "name:tr": null,
            "name:ru": null,
            "name:ar": null
        }
    },
    {
        "lat": 41.0800802,
        "lon": 28.9729482,
        "tags": {
            "addr:city": "İstanbul",
            "addr:district": null,
            "description": "",
            "opening_hours": null,
            "phone": null,
            "branch": null,
            "amenity": "dry_cleaning",
            "mobile": null,
            "addr:street": null,
            "cuisine": null,
            "name": "Dryclean",
            "name:en": null,
            "name:uk": null,
            "name:de": null,
            "name:tr": null,
            "name:ru": null,
            "name:ar": null
        }
    },
    {
        "lat": 41.0208529,
        "lon": 28.5795465,
        "tags": {
            "addr:city": "İstanbul",
            "addr:district": null,
            "description": "",
            "opening_hours": null,
            "phone": null,
            "branch": null,
            "amenity": "dry_cleaning",
            "mobile": null,
            "addr:street": null,
            "cuisine": null,
            "name": "Yakup Kuru Temizleme",
            "name:en": null,
            "name:uk": null,
            "name:de": null,
            "name:tr": null,
            "name:ru": null,
            "name:ar": null
        }
    },
    {
        "lat": 40.982018,
        "lon": 29.1176236,
        "tags": {
            "addr:city": "İstanbul",
            "addr:district": null,
            "description": "",
            "opening_hours": null,
            "phone": null,
            "branch": null,
            "amenity": "dry_cleaning",
            "mobile": null,
            "addr:street": null,
            "cuisine": null,
            "name": "Mr Jeff",
            "name:en": null,
            "name:uk": null,
            "name:de": null,
            "name:tr": null,
            "name:ru": null,
            "name:ar": null
        }
    },
    {
        "lat": 41.1790668,
        "lon": 28.9914251,
        "tags": {
            "addr:city": "İstanbul",
            "addr:district": null,
            "description": "",
            "opening_hours": null,
            "phone": null,
            "branch": null,
            "amenity": "dry_cleaning",
            "mobile": null,
            "addr:street": null,
            "cuisine": null,
            "name": "Dr. Dress Clean",
            "name:en": null,
            "name:uk": null,
            "name:de": null,
            "name:tr": null,
            "name:ru": null,
            "name:ar": null
        }
    },
    {
        "lat": 40.9360952,
        "lon": 29.3674237,
        "tags": {
            "addr:city": "İstanbul",
            "addr:district": null,
            "description": "",
            "opening_hours": null,
            "phone": "+90 216 677 13 42",
            "branch": null,
            "amenity": "dry_cleaning",
            "mobile": null,
            "addr:street": "Karadağ Caddesi",
            "cuisine": null,
            "name": "Dry & White",
            "name:en": null,
            "name:uk": null,
            "name:de": null,
            "name:tr": null,
            "name:ru": null,
            "name:ar": null
        }
    },
    {
        "lat": 40.9898548,
        "lon": 29.126514,
        "tags": {
            "addr:city": "Istanbul",
            "addr:district": "Ataşehir",
            "description": "",
            "opening_hours": null,
            "phone": "0216 580 85 85",
            "branch": null,
            "amenity": "dry_cleaning",
            "mobile": null,
            "addr:street": "Çitlenbik Caddesi",
            "cuisine": null,
            "name": "Dry Papyon",
            "name:en": null,
            "name:uk": null,
            "name:de": null,
            "name:tr": null,
            "name:ru": null,
            "name:ar": null
        }
    },
    {
        "lat": 40.9610226,
        "lon": 29.0832512,
        "tags": {
            "addr:city": "İstanbul",
            "addr:district": "Kadıköy",
            "description": "",
            "opening_hours": null,
            "phone": null,
            "branch": null,
            "amenity": "dry_cleaning",
            "mobile": null,
            "addr:street": "Çamlı Sokağı",
            "cuisine": null,
            "name": "Kemal Kuru Temizleme",
            "name:en": null,
            "name:uk": null,
            "name:de": null,
            "name:tr": null,
            "name:ru": null,
            "name:ar": null
        }
    },
    {
        "lat": 40.9935127,
        "lon": 29.0274256,
        "tags": {
            "addr:city": "İstanbul",
            "addr:district": null,
            "description": "",
            "opening_hours": null,
            "phone": null,
            "branch": null,
            "amenity": "dry_cleaning",
            "mobile": null,
            "addr:street": null,
            "cuisine": null,
            "name": "Dry Queen Çamaşırhane",
            "name:en": null,
            "name:uk": null,
            "name:de": null,
            "name:tr": null,
            "name:ru": null,
            "name:ar": null
        }
    },
    {
        "lat": 41.0035001,
        "lon": 28.6925984,
        "tags": {
            "addr:city": "İstanbul",
            "addr:district": null,
            "description": "",
            "opening_hours": null,
            "phone": null,
            "branch": null,
            "amenity": "dry_cleaning",
            "mobile": null,
            "addr:street": null,
            "cuisine": null,
            "name": "Özdemir Kuru Temizleme & Terzi",
            "name:en": null,
            "name:uk": null,
            "name:de": null,
            "name:tr": null,
            "name:ru": null,
            "name:ar": null
        }
    },
    {
        "lat": 40.9588286,
        "lon": 29.0824196,
        "tags": {
            "addr:city": "İstanbul",
            "addr:district": "Kadıköy",
            "description": "",
            "opening_hours": null,
            "phone": null,
            "branch": null,
            "amenity": "dry_cleaning",
            "mobile": null,
            "addr:street": "Plaj Yolu Sokağı",
            "cuisine": null,
            "name": "Saf Kuru Temizleme",
            "name:en": null,
            "name:uk": null,
            "name:de": null,
            "name:tr": null,
            "name:ru": null,
            "name:ar": null
        }
    },
    {
        "lat": 40.9612709,
        "lon": 29.0839646,
        "tags": {
            "addr:city": "İstanbul",
            "addr:district": "Kadıköy",
            "description": "",
            "opening_hours": null,
            "phone": null,
            "branch": null,
            "amenity": "dry_cleaning",
            "mobile": null,
            "addr:street": "Ayşe Çavuş Caddesi",
            "cuisine": null,
            "name": "Zip Kuru Temizleme",
            "name:en": null,
            "name:uk": null,
            "name:de": null,
            "name:tr": null,
            "name:ru": null,
            "name:ar": null
        }
    },
    {
        "lat": 40.9719904,
        "lon": 29.0524027,
        "tags": {
            "addr:city": "İstanbul",
            "addr:district": "Kadıköy",
            "description": "",
            "opening_hours": null,
            "phone": null,
            "branch": null,
            "amenity": "dry_cleaning",
            "mobile": null,
            "addr:street": "Mahur Sokağı",
            "cuisine": null,
            "name": "Kuru Temizleme & Terzi",
            "name:en": null,
            "name:uk": null,
            "name:de": null,
            "name:tr": null,
            "name:ru": null,
            "name:ar": null
        }
    },
    {
        "lat": 40.9816706,
        "lon": 29.1192092,
        "tags": {
            "addr:city": "İstanbul",
            "addr:district": null,
            "description": "",
            "opening_hours": null,
            "phone": null,
            "branch": null,
            "amenity": "dry_cleaning",
            "mobile": null,
            "addr:street": null,
            "cuisine": null,
            "name": "Kent Plus Kuru Temizleme",
            "name:en": null,
            "name:uk": null,
            "name:de": null,
            "name:tr": null,
            "name:ru": null,
            "name:ar": null
        }
    },
    {
        "lat": 40.9994529,
        "lon": 29.1014312,
        "tags": {
            "addr:city": "İstanbul",
            "addr:district": "Ataşehir",
            "description": "",
            "opening_hours": null,
            "phone": null,
            "branch": null,
            "amenity": "dry_cleaning",
            "mobile": null,
            "addr:street": "Ardıç Sokağı",
            "cuisine": null,
            "name": "Dry Clean Express",
            "name:en": null,
            "name:uk": null,
            "name:de": null,
            "name:tr": null,
            "name:ru": null,
            "name:ar": null
        }
    },
    {
        "lat": 41.0492412,
        "lon": 28.9207407,
        "tags": {
            "addr:city": "İstanbul",
            "addr:district": "Eyüpsultan",
            "description": "",
            "opening_hours": null,
            "phone": "+90 212 616 00 35",
            "branch": null,
            "amenity": "dry_cleaning",
            "mobile": "+90 536 585 44 52",
            "addr:street": "Bağlar Caddesi",
            "cuisine": null,
            "name": "Jet - Net Kuru Temizleme ve Boyama Fabrikası",
            "name:en": null,
            "name:uk": null,
            "name:de": null,
            "name:tr": null,
            "name:ru": null,
            "name:ar": null
        }
    },
    {
        "lat": 41.0018452,
        "lon": 29.1404019,
        "tags": {
            "addr:city": "İstanbul",
            "addr:district": null,
            "description": "",
            "opening_hours": null,
            "phone": null,
            "branch": null,
            "amenity": "dry_cleaning",
            "mobile": null,
            "addr:street": null,
            "cuisine": null,
            "name": null,
            "name:en": null,
            "name:uk": null,
            "name:de": null,
            "name:tr": null,
            "name:ru": null,
            "name:ar": null
        }
    }
]