[
    {
        "lat": 40.9909421,
        "lon": 28.8949242,
        "tags": {
            "addr:city": "Istanbul",
            "addr:district": "Zeytinburnu",
            "description": "",
            "opening_hours": null,
            "phone": "6650601",
            "branch": null,
            "amenity": "electrics",
            "mobile": null,
            "addr:street": "Turan Güneş Caddesi",
            "cuisine": null,
            "name": "mtf elektrik",
            "name:en": null,
            "name:uk": null,
            "name:de": null,
            "name:tr": null,
            "name:ru": null,
            "name:ar": "إم تي إف إليكتريك"
        }
    },
    {
        "lat": 40.9874024,
        "lon": 28.8979545,
        "tags": {
            "addr:city": "Istanbul",
            "addr:district": "Zeytinburnu",
            "description": "",
            "opening_hours": null,
            "phone": null,
            "branch": null,
            "amenity": "electrics",
            "mobile": null,
            "addr:street": "Merv Caddesi",
            "cuisine": null,
            "name": "özcanç elektrik",
            "name:en": null,
            "name:uk": null,
            "name:de": null,
            "name:tr": null,
            "name:ru": null,
            "name:ar": "أوزجانتش إيليكتريك"
        }
    },
    {
        "lat": 40.9907835,
        "lon": 28.8986048,
        "tags": {
            "addr:city": "Istanbul",
            "addr:district": "Zeytinburnu",
            "description": "",
            "opening_hours": null,
            "phone": "05323525526",
            "branch": null,
            "amenity": "electrics",
            "mobile": null,
            "addr:street": "56. sokak",
            "cuisine": null,
            "name": "özcan elektrik",
            "name:en": null,
            "name:uk": null,
            "name:de": null,
            "name:tr": null,
            "name:ru": null,
            "name:ar": "أوزجان"
        }
    },
    {
        "lat": 40.9894021,
        "lon": 28.8983083,
        "tags": {
            "addr:city": "Istanbul",
            "addr:district": "Zeytinburnu",
            "description": "",
            "opening_hours": null,
            "phone": null,
            "branch": null,
            "amenity": "electrics",
            "mobile": null,
            "addr:street": "65/3. sokak",
            "cuisine": null,
            "name": "uzar elektrik",
            "name:en": null,
            "name:uk": null,
            "name:de": null,
            "name:tr": null,
            "name:ru": null,
            "name:ar": "أوزار إيليكتريك"
        }
    },
    {
        "lat": 41.0350406,
        "lon": 28.8545356,
        "tags": {
            "addr:city": "Istanbul",
            "addr:district": "Bağcılar",
            "description": "",
            "opening_hours": null,
            "phone": null,
            "branch": null,
            "amenity": "electrics",
            "mobile": null,
            "addr:street": "Birlik Caddesi",
            "cuisine": null,
            "name": "Viko",
            "name:en": null,
            "name:uk": null,
            "name:de": null,
            "name:tr": null,
            "name:ru": null,
            "name:ar": "فيكو"
        }
    }
]