[
    {
        "lat": 41.0093498,
        "lon": 28.9309728,
        "tags": {
            "addr:city": "Istanbul",
            "addr:district": "Fatih",
            "description": "",
            "opening_hours": null,
            "phone": null,
            "branch": null,
            "amenity": "electrical",
            "mobile": null,
            "addr:street": "Mecit Bey Sokak",
            "cuisine": null,
            "name": "Güpla Elektrik",
            "name:en": null,
            "name:uk": null,
            "name:de": null,
            "name:tr": null,
            "name:ru": null,
            "name:ar": "غوبلا للكهربائيات"
        }
    },
    {
        "lat": 40.9791122,
        "lon": 29.2658273,
        "tags": {
            "addr:city": "Istanbul",
            "addr:district": "Sultanbeyli",
            "description": "",
            "opening_hours": "Mo-Fr 07:00-13:30; Mo-Fr 17:00-20:00",
            "phone": null,
            "branch": null,
            "amenity": "electrical",
            "mobile": null,
            "addr:street": "kubbe Caddesi",
            "cuisine": null,
            "name": "Aksa Elektrik",
            "name:en": null,
            "name:uk": null,
            "name:de": null,
            "name:tr": null,
            "name:ru": null,
            "name:ar": "إلكترونيات اكسا"
        }
    },
    {
        "lat": 40.9717067,
        "lon": 29.2493612,
        "tags": {
            "addr:city": "Istanbul",
            "addr:district": "Sultanbeyli",
            "description": "",
            "opening_hours": "Mo-Fr 07:00-13:30; Mo-Fr 17:00-20:00",
            "phone": "02166986042",
            "branch": null,
            "amenity": "electrical",
            "mobile": null,
            "addr:street": "fatih bulvarı",
            "cuisine": null,
            "name": "Efe elektrik",
            "name:en": null,
            "name:uk": null,
            "name:de": null,
            "name:tr": null,
            "name:ru": null,
            "name:ar": "ايفي للكهربائيات"
        }
    },
    {
        "lat": 40.9771873,
        "lon": 29.2650347,
        "tags": {
            "addr:city": "Istanbul",
            "addr:district": "Sultanbeyli",
            "description": "",
            "opening_hours": "Mo-Fr 07:00-13:30; Mo-Fr 17:00-20:00",
            "phone": "05367845066",
            "branch": null,
            "amenity": "electrical",
            "mobile": null,
            "addr:street": "Kubbe Caddesi",
            "cuisine": null,
            "name": "Bağlar elektrik",
            "name:en": null,
            "name:uk": null,
            "name:de": null,
            "name:tr": null,
            "name:ru": null,
            "name:ar": "باغلر اليكتريك"
        }
    },
    {
        "lat": 40.9815882,
        "lon": 29.2663085,
        "tags": {
            "addr:city": "Istanbul",
            "addr:district": "Sultanbeyli",
            "description": "",
            "opening_hours": "Mo-Fr 07:00-13:30; Mo-Fr 17:00-20:00",
            "phone": "02165920006",
            "branch": null,
            "amenity": "electrical",
            "mobile": null,
            "addr:street": "kubbe Caddesi",
            "cuisine": null,
            "name": "Akfen elektrik",
            "name:en": null,
            "name:uk": null,
            "name:de": null,
            "name:tr": null,
            "name:ru": null,
            "name:ar": "إلكترونيات اكفين"
        }
    },
    {
        "lat": 40.9685931,
        "lon": 29.2600303,
        "tags": {
            "addr:city": "Istanbul",
            "addr:district": "Sultanbeyli",
            "description": "",
            "opening_hours": "Mo-Fr 07:00-13:30; Mo-Fr 17:00-20:00",
            "phone": null,
            "branch": null,
            "amenity": "electrical",
            "mobile": null,
            "addr:street": "Fatih Bulvarı Caddesi",
            "cuisine": null,
            "name": "Öncü nur Elektrik",
            "name:en": null,
            "name:uk": null,
            "name:de": null,
            "name:tr": null,
            "name:ru": null,
            "name:ar": "إلكترونيات اونجو نور"
        }
    },
    {
        "lat": 40.9681688,
        "lon": 29.2541242,
        "tags": {
            "addr:city": "Istanbul",
            "addr:district": "Sultanbeyli",
            "description": "",
            "opening_hours": "Mo-Fr 07:00-13:30; Mo-Fr 17:00-20:00",
            "phone": "02164193442",
            "branch": null,
            "amenity": "electrical",
            "mobile": null,
            "addr:street": "Şanlıurfa Caddesi",
            "cuisine": null,
            "name": "Fen Elektrik",
            "name:en": null,
            "name:uk": null,
            "name:de": null,
            "name:tr": null,
            "name:ru": null,
            "name:ar": "إلكترونيات فين"
        }
    },
    {
        "lat": 41.0245759,
        "lon": 29.0174738,
        "tags": {
            "addr:city": "İstanbul",
            "addr:district": null,
            "description": "",
            "opening_hours": null,
            "phone": null,
            "branch": null,
            "amenity": "electrical",
            "mobile": null,
            "addr:street": null,
            "cuisine": null,
            "name": "Siemens",
            "name:en": null,
            "name:uk": null,
            "name:de": null,
            "name:tr": null,
            "name:ru": null,
            "name:ar": null
        }
    },
    {
        "lat": 41.0095953,
        "lon": 28.9128073,
        "tags": {
            "addr:city": "Istanbul",
            "addr:district": "Zeytinburnu",
            "description": "",
            "opening_hours": null,
            "phone": null,
            "branch": null,
            "amenity": "electrical",
            "mobile": null,
            "addr:street": "Sabri Ülker Sokak",
            "cuisine": null,
            "name": "Polat Demir Elektrik",
            "name:en": null,
            "name:uk": null,
            "name:de": null,
            "name:tr": null,
            "name:ru": null,
            "name:ar": "بولات ديمير إليكتريك"
        }
    },
    {
        "lat": 41.0250232,
        "lon": 28.9100012,
        "tags": {
            "addr:city": "Istanbul",
            "addr:district": "Zeytinburnu",
            "description": "",
            "opening_hours": "Mo-Fr 08:00-17:00; Mo-Sa 07:30-15:00",
            "phone": "02122526693",
            "branch": null,
            "amenity": "electrical",
            "mobile": null,
            "addr:street": "Gümüşsuyu Caddesi",
            "cuisine": null,
            "name": "Yıldıray Elektrik",
            "name:en": null,
            "name:uk": null,
            "name:de": null,
            "name:tr": null,
            "name:ru": null,
            "name:ar": "مركز اودين توبكابي-يلدراي للكهربائيات"
        }
    },
    {
        "lat": 41.0264877,
        "lon": 28.9039195,
        "tags": {
            "addr:city": "Istanbul",
            "addr:district": "Zeytinburnu",
            "description": "",
            "opening_hours": "Mo-Su 07:00-20:00",
            "phone": "02124829232",
            "branch": null,
            "amenity": "electrical",
            "mobile": null,
            "addr:street": "Askeri Fırın Çıkmazı",
            "cuisine": null,
            "name": "Sezgin Akım Elektrik",
            "name:en": null,
            "name:uk": null,
            "name:de": null,
            "name:tr": null,
            "name:ru": null,
            "name:ar": "مصنع سيزغين للكهربائيات"
        }
    },
    {
        "lat": 41.0053699,
        "lon": 28.9042277,
        "tags": {
            "addr:city": "Istanbul",
            "addr:district": "Zeytinburnu",
            "description": "",
            "opening_hours": null,
            "phone": null,
            "branch": null,
            "amenity": "electrical",
            "mobile": null,
            "addr:street": "g-6 sok",
            "cuisine": null,
            "name": "gün elektrik",
            "name:en": null,
            "name:uk": null,
            "name:de": null,
            "name:tr": null,
            "name:ru": null,
            "name:ar": "فون إليكتريك"
        }
    },
    {
        "lat": 40.9967323,
        "lon": 28.9142502,
        "tags": {
            "addr:city": "Istanbul",
            "addr:district": "Zeytinburnu",
            "description": "",
            "opening_hours": null,
            "phone": null,
            "branch": null,
            "amenity": "electrical",
            "mobile": null,
            "addr:street": null,
            "cuisine": null,
            "name": "HAWRAN",
            "name:en": null,
            "name:uk": null,
            "name:de": null,
            "name:tr": null,
            "name:ru": null,
            "name:ar": "مجموعة حوران"
        }
    },
    {
        "lat": 40.9977525,
        "lon": 28.9115637,
        "tags": {
            "addr:city": "Istanbul",
            "addr:district": "Zeytinburnu",
            "description": "",
            "opening_hours": null,
            "phone": null,
            "branch": null,
            "amenity": "electrical",
            "mobile": null,
            "addr:street": null,
            "cuisine": null,
            "name": "UĞUR ELEKTRİK",
            "name:en": null,
            "name:uk": null,
            "name:de": null,
            "name:tr": null,
            "name:ru": null,
            "name:ar": "كهربائيات"
        }
    },
    {
        "lat": 40.9996043,
        "lon": 28.9103264,
        "tags": {
            "addr:city": "Istanbul",
            "addr:district": "Zeytinburnu",
            "description": "",
            "opening_hours": null,
            "phone": null,
            "branch": null,
            "amenity": "electrical",
            "mobile": null,
            "addr:street": null,
            "cuisine": null,
            "name": "Onur",
            "name:en": null,
            "name:uk": null,
            "name:de": null,
            "name:tr": null,
            "name:ru": null,
            "name:ar": "انور للغسالات"
        }
    },
    {
        "lat": 40.9935711,
        "lon": 28.8970017,
        "tags": {
            "addr:city": "Istanbul",
            "addr:district": "Zeytinburnu",
            "description": "",
            "opening_hours": null,
            "phone": null,
            "branch": null,
            "amenity": "electrical",
            "mobile": null,
            "addr:street": "74. Sokak",
            "cuisine": null,
            "name": "üzgür elektrik",
            "name:en": null,
            "name:uk": null,
            "name:de": null,
            "name:tr": null,
            "name:ru": null,
            "name:ar": "كهربائيات أوزغور"
        }
    },
    {
        "lat": 41.0510457,
        "lon": 28.8413415,
        "tags": {
            "addr:city": "Istanbul",
            "addr:district": "Bağcılar",
            "description": "",
            "opening_hours": null,
            "phone": null,
            "branch": null,
            "amenity": "electrical",
            "mobile": null,
            "addr:street": "Velioğlu caddesi",
            "cuisine": null,
            "name": "Şahin Elektrik",
            "name:en": null,
            "name:uk": null,
            "name:de": null,
            "name:tr": null,
            "name:ru": null,
            "name:ar": "شاهين الكتريك"
        }
    },
    {
        "lat": 41.051408,
        "lon": 28.8303096,
        "tags": {
            "addr:city": "Istanbul",
            "addr:district": "Bağcılar",
            "description": "",
            "opening_hours": null,
            "phone": null,
            "branch": null,
            "amenity": "electrical",
            "mobile": null,
            "addr:street": "İnönü caddesi",
            "cuisine": null,
            "name": "Güney Elektrik",
            "name:en": null,
            "name:uk": null,
            "name:de": null,
            "name:tr": null,
            "name:ru": null,
            "name:ar": "كوني الكتريك"
        }
    },
    {
        "lat": 41.0543119,
        "lon": 28.8465105,
        "tags": {
            "addr:city": "Istanbul",
            "addr:district": "Bağcılar",
            "description": "",
            "opening_hours": null,
            "phone": null,
            "branch": null,
            "amenity": "electrical",
            "mobile": null,
            "addr:street": null,
            "cuisine": null,
            "name": "Akia Elektrik",
            "name:en": null,
            "name:uk": null,
            "name:de": null,
            "name:tr": null,
            "name:ru": null,
            "name:ar": "اكيا للكهربائيات"
        }
    },
    {
        "lat": 41.0479432,
        "lon": 28.8494286,
        "tags": {
            "addr:city": "Istanbul",
            "addr:district": "Zeytinburnu",
            "description": "",
            "opening_hours": null,
            "phone": null,
            "branch": null,
            "amenity": "electrical",
            "mobile": null,
            "addr:street": null,
            "cuisine": null,
            "name": "YILMAZLAR TEKNİK SEVİS",
            "name:en": null,
            "name:uk": null,
            "name:de": null,
            "name:tr": null,
            "name:ru": null,
            "name:ar": "مركز صيانة"
        }
    },
    {
        "lat": 41.0683471,
        "lon": 28.8545183,
        "tags": {
            "addr:city": "Istanbul",
            "addr:district": "Bağcılar",
            "description": "",
            "opening_hours": null,
            "phone": null,
            "branch": null,
            "amenity": "electrical",
            "mobile": null,
            "addr:street": "66. sokak",
            "cuisine": null,
            "name": "Soner Elektrik",
            "name:en": null,
            "name:uk": null,
            "name:de": null,
            "name:tr": null,
            "name:ru": null,
            "name:ar": "سونير الكتريك"
        }
    },
    {
        "lat": 41.0694549,
        "lon": 28.8554683,
        "tags": {
            "addr:city": "Istanbul",
            "addr:district": "Bağcılar",
            "description": "",
            "opening_hours": null,
            "phone": null,
            "branch": null,
            "amenity": "electrical",
            "mobile": null,
            "addr:street": "Mustafa Kemal Caddesi",
            "cuisine": null,
            "name": "Uçar Elektrik",
            "name:en": null,
            "name:uk": null,
            "name:de": null,
            "name:tr": null,
            "name:ru": null,
            "name:ar": "اوجار الكتريك"
        }
    },
    {
        "lat": 41.0690063,
        "lon": 28.8546737,
        "tags": {
            "addr:city": "Istanbul",
            "addr:district": "Bağcılar",
            "description": "",
            "opening_hours": null,
            "phone": null,
            "branch": null,
            "amenity": "electrical",
            "mobile": null,
            "addr:street": "70. sokak",
            "cuisine": null,
            "name": "Serhat Elektrik",
            "name:en": null,
            "name:uk": null,
            "name:de": null,
            "name:tr": null,
            "name:ru": null,
            "name:ar": "سرحات الكتريك"
        }
    },
    {
        "lat": 41.050829,
        "lon": 28.8387524,
        "tags": {
            "addr:city": "Istanbul",
            "addr:district": "Bağcılar",
            "description": "",
            "opening_hours": null,
            "phone": null,
            "branch": null,
            "amenity": "electrical",
            "mobile": null,
            "addr:street": "İpek sokak",
            "cuisine": null,
            "name": "Kızılırmak Elektrik",
            "name:en": null,
            "name:uk": null,
            "name:de": null,
            "name:tr": null,
            "name:ru": null,
            "name:ar": "كيزيل ارماك"
        }
    },
    {
        "lat": 41.0244435,
        "lon": 28.8457668,
        "tags": {
            "addr:city": "Istanbul",
            "addr:district": "Bağcılar",
            "description": "",
            "opening_hours": null,
            "phone": null,
            "branch": null,
            "amenity": "electrical",
            "mobile": null,
            "addr:street": "2. sokak",
            "cuisine": null,
            "name": "Akel elektrik",
            "name:en": null,
            "name:uk": null,
            "name:de": null,
            "name:tr": null,
            "name:ru": null,
            "name:ar": "اكيل اليكتريك"
        }
    },
    {
        "lat": 41.0252186,
        "lon": 28.8290162,
        "tags": {
            "addr:city": "Istanbul",
            "addr:district": "Bağcılar",
            "description": "",
            "opening_hours": null,
            "phone": null,
            "branch": null,
            "amenity": "electrical",
            "mobile": null,
            "addr:street": "Atatürk Caddesi",
            "cuisine": null,
            "name": "Cey Elektrik",
            "name:en": null,
            "name:uk": null,
            "name:de": null,
            "name:tr": null,
            "name:ru": null,
            "name:ar": "كهرباء جاي"
        }
    },
    {
        "lat": 41.0456205,
        "lon": 28.8316723,
        "tags": {
            "addr:city": "Istanbul",
            "addr:district": "Bağcılar",
            "description": "",
            "opening_hours": null,
            "phone": null,
            "branch": null,
            "amenity": "electrical",
            "mobile": null,
            "addr:street": "Bağcılar Asf. Caddesi",
            "cuisine": null,
            "name": "Ars Elektrik",
            "name:en": null,
            "name:uk": null,
            "name:de": null,
            "name:tr": null,
            "name:ru": null,
            "name:ar": "ارس الكتريك"
        }
    },
    {
        "lat": 41.0443577,
        "lon": 28.8436739,
        "tags": {
            "addr:city": "Istanbul",
            "addr:district": "Bağcılar",
            "description": "",
            "opening_hours": null,
            "phone": null,
            "branch": null,
            "amenity": "electrical",
            "mobile": null,
            "addr:street": "Bağcılar Asf. Caddesi",
            "cuisine": null,
            "name": "Vizyon Elektrik",
            "name:en": null,
            "name:uk": null,
            "name:de": null,
            "name:tr": null,
            "name:ru": null,
            "name:ar": "فيزيون الكتريك"
        }
    },
    {
        "lat": 41.0453308,
        "lon": 28.8392915,
        "tags": {
            "addr:city": "Istanbul",
            "addr:district": "Bağcılar",
            "description": "",
            "opening_hours": null,
            "phone": null,
            "branch": null,
            "amenity": "electrical",
            "mobile": null,
            "addr:street": "Bağcılar Asf. Caddesi",
            "cuisine": null,
            "name": "Acar Elektrik",
            "name:en": null,
            "name:uk": null,
            "name:de": null,
            "name:tr": null,
            "name:ru": null,
            "name:ar": "اجار الكتريك"
        }
    },
    {
        "lat": 41.0371336,
        "lon": 28.8691967,
        "tags": {
            "addr:city": "Istanbul",
            "addr:district": "Bağcılar",
            "description": "",
            "opening_hours": null,
            "phone": null,
            "branch": null,
            "amenity": "electrical",
            "mobile": null,
            "addr:street": "752 sokak",
            "cuisine": null,
            "name": "ZENGİN ELEKTRİK",
            "name:en": null,
            "name:uk": null,
            "name:de": null,
            "name:tr": null,
            "name:ru": null,
            "name:ar": "زنجين كهرباء"
        }
    },
    {
        "lat": 41.0431647,
        "lon": 28.8575313,
        "tags": {
            "addr:city": "Istanbul",
            "addr:district": null,
            "description": "",
            "opening_hours": null,
            "phone": "05538888836",
            "branch": null,
            "amenity": "electrical",
            "mobile": null,
            "addr:street": "2005 Sokak",
            "cuisine": null,
            "name": "Yıldız Elektrik",
            "name:en": null,
            "name:uk": null,
            "name:de": null,
            "name:tr": null,
            "name:ru": null,
            "name:ar": "يلدز الكتريك"
        }
    },
    {
        "lat": 41.045104,
        "lon": 28.8597396,
        "tags": {
            "addr:city": "Istanbul",
            "addr:district": "Bağcılar",
            "description": "",
            "opening_hours": null,
            "phone": "6344292",
            "branch": null,
            "amenity": "electrical",
            "mobile": null,
            "addr:street": "Osmangazi Caddesi",
            "cuisine": null,
            "name": "Özgür Elektrik",
            "name:en": null,
            "name:uk": null,
            "name:de": null,
            "name:tr": null,
            "name:ru": null,
            "name:ar": "أوزكور الكتريك"
        }
    },
    {
        "lat": 41.0429534,
        "lon": 28.8518602,
        "tags": {
            "addr:city": "Istanbul",
            "addr:district": null,
            "description": "",
            "opening_hours": null,
            "phone": "05357801976",
            "branch": null,
            "amenity": "electrical",
            "mobile": null,
            "addr:street": "Fatih Caddesi",
            "cuisine": null,
            "name": "Şenek Teknik",
            "name:en": null,
            "name:uk": null,
            "name:de": null,
            "name:tr": null,
            "name:ru": null,
            "name:ar": "شانال تكنيك"
        }
    },
    {
        "lat": 41.0512082,
        "lon": 29.0244688,
        "tags": {
            "addr:city": "Istanbul",
            "addr:district": "Beşiktaş",
            "description": "",
            "opening_hours": "Mo-Sa 08:00-20:00",
            "phone": null,
            "branch": null,
            "amenity": "electrical",
            "mobile": null,
            "addr:street": "Dereboyu Caddesi",
            "cuisine": null,
            "name": "Uğur Elektrik Yapı Malzemeleri Ortaköy",
            "name:en": null,
            "name:uk": null,
            "name:de": null,
            "name:tr": null,
            "name:ru": null,
            "name:ar": null
        }
    },
    {
        "lat": 41.1416825,
        "lon": 29.087272,
        "tags": {
            "addr:city": "İstanbul",
            "addr:district": null,
            "description": "",
            "opening_hours": null,
            "phone": null,
            "branch": null,
            "amenity": "electrical",
            "mobile": null,
            "addr:street": null,
            "cuisine": null,
            "name": "Sunny",
            "name:en": null,
            "name:uk": null,
            "name:de": null,
            "name:tr": null,
            "name:ru": null,
            "name:ar": null
        }
    },
    {
        "lat": 41.1493326,
        "lon": 29.0926929,
        "tags": {
            "addr:city": "İstanbul",
            "addr:district": null,
            "description": "",
            "opening_hours": null,
            "phone": null,
            "branch": null,
            "amenity": "electrical",
            "mobile": null,
            "addr:street": null,
            "cuisine": null,
            "name": null,
            "name:en": null,
            "name:uk": null,
            "name:de": null,
            "name:tr": null,
            "name:ru": null,
            "name:ar": null
        }
    },
    {
        "lat": 41.0022493,
        "lon": 29.1417657,
        "tags": {
            "addr:city": "İstanbul",
            "addr:district": null,
            "description": "",
            "opening_hours": null,
            "phone": null,
            "branch": null,
            "amenity": "electrical",
            "mobile": null,
            "addr:street": null,
            "cuisine": null,
            "name": null,
            "name:en": null,
            "name:uk": null,
            "name:de": null,
            "name:tr": null,
            "name:ru": null,
            "name:ar": null
        }
    },
    {
        "lat": 41.000658,
        "lon": 29.1000148,
        "tags": {
            "addr:city": "İstanbul",
            "addr:district": null,
            "description": "",
            "opening_hours": null,
            "phone": null,
            "branch": null,
            "amenity": "electrical",
            "mobile": null,
            "addr:street": null,
            "cuisine": null,
            "name": "Demka Dış Ticaret ve Pazarlama A.Ş.",
            "name:en": null,
            "name:uk": null,
            "name:de": null,
            "name:tr": null,
            "name:ru": null,
            "name:ar": null
        }
    },
    {
        "lat": 40.9957718,
        "lon": 28.7803457,
        "tags": {
            "addr:city": "İstanbul",
            "addr:district": null,
            "description": "",
            "opening_hours": null,
            "phone": "+902125802799",
            "branch": null,
            "amenity": "electrical",
            "mobile": null,
            "addr:street": "2. Yavuz Selim Caddesi",
            "cuisine": null,
            "name": "Atmaca Elektrik",
            "name:en": null,
            "name:uk": null,
            "name:de": null,
            "name:tr": null,
            "name:ru": null,
            "name:ar": null
        }
    },
    {
        "lat": 40.9493428,
        "lon": 29.1178487,
        "tags": {
            "addr:city": "İstanbul",
            "addr:district": null,
            "description": "",
            "opening_hours": null,
            "phone": null,
            "branch": null,
            "amenity": "electrical",
            "mobile": null,
            "addr:street": null,
            "cuisine": null,
            "name": "Fırat Electricity",
            "name:en": null,
            "name:uk": null,
            "name:de": null,
            "name:tr": null,
            "name:ru": null,
            "name:ar": null
        }
    },
    {
        "lat": 41.0513365,
        "lon": 28.9185693,
        "tags": {
            "addr:city": "İstanbul",
            "addr:district": "Eyüpsultan",
            "description": "",
            "opening_hours": null,
            "phone": null,
            "branch": null,
            "amenity": "electrical",
            "mobile": null,
            "addr:street": "Numan Efendi Sokağı",
            "cuisine": null,
            "name": "Toprak Elektrik",
            "name:en": null,
            "name:uk": null,
            "name:de": null,
            "name:tr": null,
            "name:ru": null,
            "name:ar": null
        }
    },
    {
        "lat": 41.0995258,
        "lon": 28.8646524,
        "tags": {
            "addr:city": "İstanbul",
            "addr:district": null,
            "description": "",
            "opening_hours": "Mo-Sa 08:00-20:00, Su 08.30-19.30",
            "phone": "+90 212 619 0680",
            "branch": null,
            "amenity": "electrical",
            "mobile": null,
            "addr:street": null,
            "cuisine": null,
            "name": "ER-BA Elektrik",
            "name:en": null,
            "name:uk": null,
            "name:de": null,
            "name:tr": null,
            "name:ru": null,
            "name:ar": null
        }
    },
    {
        "lat": 41.0215752,
        "lon": 29.1749842,
        "tags": {
            "addr:city": "Necip Fazıl Mahallesi",
            "addr:district": null,
            "description": "Fleksan is manufacturer and exporter in global market. Fleksan is specialized in manufacturing liquidtight conduits and fittings, emt conduit fittings and accessories, flexible steel conduits, stainless steel conduits, liquid-tight steel and zinc connecto",
            "opening_hours": "Mo-Fr 08:30-17:30",
            "phone": "+908505320623",
            "branch": null,
            "amenity": "electrical",
            "mobile": null,
            "addr:street": "Yeşilırmak Sokağı",
            "cuisine": null,
            "name": "Fleksan",
            "name:en": null,
            "name:uk": null,
            "name:de": null,
            "name:tr": null,
            "name:ru": null,
            "name:ar": null
        }
    },
    {
        "lat": 41.0411255,
        "lon": 28.9082489,
        "tags": {
            "addr:city": "İstanbul",
            "addr:district": null,
            "description": "",
            "opening_hours": null,
            "phone": null,
            "branch": null,
            "amenity": "electrical",
            "mobile": null,
            "addr:street": null,
            "cuisine": null,
            "name": null,
            "name:en": null,
            "name:uk": null,
            "name:de": null,
            "name:tr": null,
            "name:ru": null,
            "name:ar": null
        }
    },
    {
        "lat": 40.9948648,
        "lon": 29.0296316,
        "tags": {
            "addr:city": "İstanbul",
            "addr:district": null,
            "description": "",
            "opening_hours": null,
            "phone": null,
            "branch": null,
            "amenity": "electrical",
            "mobile": null,
            "addr:street": null,
            "cuisine": null,
            "name": "Parlak Elektrik",
            "name:en": null,
            "name:uk": null,
            "name:de": null,
            "name:tr": null,
            "name:ru": null,
            "name:ar": null
        }
    },
    {
        "lat": 40.992661,
        "lon": 29.0276778,
        "tags": {
            "addr:city": "İstanbul",
            "addr:district": null,
            "description": "",
            "opening_hours": null,
            "phone": null,
            "branch": null,
            "amenity": "electrical",
            "mobile": null,
            "addr:street": null,
            "cuisine": null,
            "name": "Melih electrical hardware store",
            "name:en": null,
            "name:uk": null,
            "name:de": null,
            "name:tr": null,
            "name:ru": null,
            "name:ar": null
        }
    },
    {
        "lat": 40.9700051,
        "lon": 29.0756805,
        "tags": {
            "addr:city": "İstanbul",
            "addr:district": null,
            "description": "",
            "opening_hours": null,
            "phone": null,
            "branch": null,
            "amenity": "electrical",
            "mobile": null,
            "addr:street": null,
            "cuisine": null,
            "name": "Adalı Elektrik",
            "name:en": null,
            "name:uk": null,
            "name:de": null,
            "name:tr": null,
            "name:ru": null,
            "name:ar": null
        }
    },
    {
        "lat": 41.0752415,
        "lon": 28.2451194,
        "tags": {
            "addr:city": "İstanbul",
            "addr:district": null,
            "description": "",
            "opening_hours": null,
            "phone": null,
            "branch": null,
            "amenity": "electrical",
            "mobile": null,
            "addr:street": null,
            "cuisine": null,
            "name": "Yaşam Elektrik",
            "name:en": null,
            "name:uk": null,
            "name:de": null,
            "name:tr": null,
            "name:ru": null,
            "name:ar": null
        }
    },
    {
        "lat": 41.0767087,
        "lon": 28.2457026,
        "tags": {
            "addr:city": "İstanbul",
            "addr:district": null,
            "description": "",
            "opening_hours": null,
            "phone": null,
            "branch": null,
            "amenity": "electrical",
            "mobile": null,
            "addr:street": null,
            "cuisine": null,
            "name": "Gama Elektromarket",
            "name:en": null,
            "name:uk": null,
            "name:de": null,
            "name:tr": null,
            "name:ru": null,
            "name:ar": null
        }
    },
    {
        "lat": 40.9640701,
        "lon": 29.0821435,
        "tags": {
            "addr:city": "İstanbul",
            "addr:district": null,
            "description": "",
            "opening_hours": null,
            "phone": null,
            "branch": null,
            "amenity": "electrical",
            "mobile": null,
            "addr:street": null,
            "cuisine": null,
            "name": null,
            "name:en": null,
            "name:uk": null,
            "name:de": null,
            "name:tr": null,
            "name:ru": null,
            "name:ar": null
        }
    },
    {
        "lat": 40.9624844,
        "lon": 29.0864786,
        "tags": {
            "addr:city": "İstanbul",
            "addr:district": "Kadıköy",
            "description": "",
            "opening_hours": null,
            "phone": null,
            "branch": null,
            "amenity": "electrical",
            "mobile": null,
            "addr:street": "Emin Ali Paşa Caddesi",
            "cuisine": null,
            "name": "Meriç Elektrik",
            "name:en": null,
            "name:uk": null,
            "name:de": null,
            "name:tr": null,
            "name:ru": null,
            "name:ar": null
        }
    },
    {
        "lat": 40.9670818,
        "lon": 29.0858383,
        "tags": {
            "addr:city": "İstanbul",
            "addr:district": null,
            "description": "",
            "opening_hours": null,
            "phone": null,
            "branch": null,
            "amenity": "electrical",
            "mobile": null,
            "addr:street": null,
            "cuisine": null,
            "name": null,
            "name:en": null,
            "name:uk": null,
            "name:de": null,
            "name:tr": null,
            "name:ru": null,
            "name:ar": null
        }
    },
    {
        "lat": 40.9673775,
        "lon": 29.0831433,
        "tags": {
            "addr:city": "İstanbul",
            "addr:district": null,
            "description": "",
            "opening_hours": null,
            "phone": null,
            "branch": null,
            "amenity": "electrical",
            "mobile": null,
            "addr:street": null,
            "cuisine": null,
            "name": "Yalçin Elektrik",
            "name:en": null,
            "name:uk": null,
            "name:de": null,
            "name:tr": null,
            "name:ru": null,
            "name:ar": null
        }
    },
    {
        "lat": 40.9652432,
        "lon": 29.0850329,
        "tags": {
            "addr:city": "İstanbul",
            "addr:district": null,
            "description": "",
            "opening_hours": null,
            "phone": null,
            "branch": null,
            "amenity": "electrical",
            "mobile": null,
            "addr:street": null,
            "cuisine": null,
            "name": null,
            "name:en": null,
            "name:uk": null,
            "name:de": null,
            "name:tr": null,
            "name:ru": null,
            "name:ar": null
        }
    },
    {
        "lat": 40.9242548,
        "lon": 29.1335218,
        "tags": {
            "addr:city": "İstanbul",
            "addr:district": null,
            "description": "",
            "opening_hours": null,
            "phone": null,
            "branch": null,
            "amenity": "electrical",
            "mobile": null,
            "addr:street": null,
            "cuisine": null,
            "name": "Özgür Elektrik",
            "name:en": null,
            "name:uk": null,
            "name:de": null,
            "name:tr": null,
            "name:ru": null,
            "name:ar": null
        }
    }
]