[
    {
        "lat": 40.9828526,
        "lon": 28.8842801,
        "tags": {
            "addr:city": "İstanbul",
            "addr:district": null,
            "description": "",
            "opening_hours": null,
            "phone": null,
            "branch": null,
            "amenity": "fabric",
            "mobile": null,
            "addr:street": null,
            "cuisine": null,
            "name": "Kahve Dünyası FABRİKA",
            "name:en": null,
            "name:uk": null,
            "name:de": null,
            "name:tr": null,
            "name:ru": null,
            "name:ar": "مصنع حلوة Fahve Dunyasi Fabrika"
        }
    },
    {
        "lat": 41.014593,
        "lon": 28.9672907,
        "tags": {
            "addr:city": "Istanbul",
            "addr:district": "Fatih",
            "description": "",
            "opening_hours": "Mo-Fr 09:00-18:00",
            "phone": null,
            "branch": null,
            "amenity": "fabric",
            "mobile": null,
            "addr:street": "Havancı Sokağı",
            "cuisine": null,
            "name": "Şah Tekstil",
            "name:en": null,
            "name:uk": null,
            "name:de": null,
            "name:tr": null,
            "name:ru": null,
            "name:ar": null
        }
    },
    {
        "lat": 41.0076348,
        "lon": 28.9312043,
        "tags": {
            "addr:city": "Istanbul",
            "addr:district": "Fatih",
            "description": "",
            "opening_hours": null,
            "phone": "02125861497",
            "branch": null,
            "amenity": "fabric",
            "mobile": null,
            "addr:street": "Altımermer Caddesi",
            "cuisine": null,
            "name": "Müftüoğlu Kumaş Eşarp",
            "name:en": null,
            "name:uk": null,
            "name:de": null,
            "name:tr": null,
            "name:ru": null,
            "name:ar": "موفتوأوغلو للقماشيات"
        }
    },
    {
        "lat": 41.01938,
        "lon": 28.9460993,
        "tags": {
            "addr:city": "Istanbul",
            "addr:district": "Turkey",
            "description": "",
            "opening_hours": null,
            "phone": null,
            "branch": null,
            "amenity": "fabric",
            "mobile": null,
            "addr:street": "ZULALI ÇESMESI sokak",
            "cuisine": null,
            "name": "Pasific Tekstil",
            "name:en": null,
            "name:uk": null,
            "name:de": null,
            "name:tr": null,
            "name:ru": null,
            "name:ar": "باسيفيك تكستيل"
        }
    },
    {
        "lat": 41.0196876,
        "lon": 28.945713,
        "tags": {
            "addr:city": "Istanbul",
            "addr:district": "Turkey",
            "description": "",
            "opening_hours": null,
            "phone": null,
            "branch": null,
            "amenity": "fabric",
            "mobile": null,
            "addr:street": "AMIR BUHARI sokak",
            "cuisine": null,
            "name": "Sejan Tekstil",
            "name:en": null,
            "name:uk": null,
            "name:de": null,
            "name:tr": null,
            "name:ru": null,
            "name:ar": "سرجان تكستيل"
        }
    },
    {
        "lat": 41.0196471,
        "lon": 28.9456058,
        "tags": {
            "addr:city": "Istanbul",
            "addr:district": "Turkey",
            "description": "",
            "opening_hours": null,
            "phone": null,
            "branch": null,
            "amenity": "fabric",
            "mobile": null,
            "addr:street": "AMIR BUHARI sokak",
            "cuisine": null,
            "name": "Buhari Tekstil",
            "name:en": null,
            "name:uk": null,
            "name:de": null,
            "name:tr": null,
            "name:ru": null,
            "name:ar": "بخاري تكستيل"
        }
    },
    {
        "lat": 41.019291,
        "lon": 28.9454556,
        "tags": {
            "addr:city": "Istanbul",
            "addr:district": "Turkey",
            "description": "",
            "opening_hours": null,
            "phone": null,
            "branch": null,
            "amenity": "fabric",
            "mobile": null,
            "addr:street": "SARIGUZEL cadde",
            "cuisine": null,
            "name": "sheftaligi oglu",
            "name:en": null,
            "name:uk": null,
            "name:de": null,
            "name:tr": null,
            "name:ru": null,
            "name:ar": "شفتاليجي أوغلو"
        }
    },
    {
        "lat": 41.0191406,
        "lon": 28.9457377,
        "tags": {
            "addr:city": "Istanbul",
            "addr:district": "Turkey",
            "description": "",
            "opening_hours": null,
            "phone": null,
            "branch": null,
            "amenity": "fabric",
            "mobile": null,
            "addr:street": "SARIGUZEL cadde",
            "cuisine": null,
            "name": "Dilan Tekstil",
            "name:en": null,
            "name:uk": null,
            "name:de": null,
            "name:tr": null,
            "name:ru": null,
            "name:ar": "ديلان تكستيل"
        }
    },
    {
        "lat": 41.0190538,
        "lon": 28.9458004,
        "tags": {
            "addr:city": "Istanbul",
            "addr:district": "Fatih",
            "description": "",
            "opening_hours": null,
            "phone": null,
            "branch": null,
            "amenity": "fabric",
            "mobile": null,
            "addr:street": "Sangüzel Caddesi",
            "cuisine": null,
            "name": "Özkoç Tekstil",
            "name:en": null,
            "name:uk": null,
            "name:de": null,
            "name:tr": null,
            "name:ru": null,
            "name:ar": "اوزكوتش تكستيل"
        }
    },
    {
        "lat": 41.0190004,
        "lon": 28.9458716,
        "tags": {
            "addr:city": "Istanbul",
            "addr:district": "Turkey",
            "description": "",
            "opening_hours": null,
            "phone": null,
            "branch": null,
            "amenity": "fabric",
            "mobile": null,
            "addr:street": "SARIGUZEL cadde",
            "cuisine": null,
            "name": "Sarif",
            "name:en": null,
            "name:uk": null,
            "name:de": null,
            "name:tr": null,
            "name:ru": null,
            "name:ar": "ساريف"
        }
    },
    {
        "lat": 41.0188943,
        "lon": 28.9458418,
        "tags": {
            "addr:city": "Istanbul",
            "addr:district": "Turkey",
            "description": "",
            "opening_hours": null,
            "phone": null,
            "branch": null,
            "amenity": "fabric",
            "mobile": null,
            "addr:street": "SARIGUZEL cadde",
            "cuisine": null,
            "name": "Bahar Tekstil",
            "name:en": null,
            "name:uk": null,
            "name:de": null,
            "name:tr": null,
            "name:ru": null,
            "name:ar": "بهار تكستيل"
        }
    },
    {
        "lat": 41.0191304,
        "lon": 28.9460194,
        "tags": {
            "addr:city": "Istanbul",
            "addr:district": "Turkey",
            "description": "",
            "opening_hours": null,
            "phone": null,
            "branch": null,
            "amenity": "fabric",
            "mobile": null,
            "addr:street": "SARIGUZEL cadde",
            "cuisine": null,
            "name": "Piran Tekstil",
            "name:en": null,
            "name:uk": null,
            "name:de": null,
            "name:tr": null,
            "name:ru": null,
            "name:ar": "بيران تكستيل"
        }
    },
    {
        "lat": 41.0191767,
        "lon": 28.9459531,
        "tags": {
            "addr:city": "Istanbul",
            "addr:district": "Turkey",
            "description": "",
            "opening_hours": null,
            "phone": null,
            "branch": null,
            "amenity": "fabric",
            "mobile": null,
            "addr:street": "SARIGUZEL cadde",
            "cuisine": null,
            "name": "Selwa Tekstil",
            "name:en": null,
            "name:uk": null,
            "name:de": null,
            "name:tr": null,
            "name:ru": null,
            "name:ar": "سلوى تكستيل"
        }
    },
    {
        "lat": 41.0194579,
        "lon": 28.9456706,
        "tags": {
            "addr:city": "Istanbul",
            "addr:district": "Turkey",
            "description": "",
            "opening_hours": null,
            "phone": null,
            "branch": null,
            "amenity": "fabric",
            "mobile": null,
            "addr:street": "SARIGUZEL cadde",
            "cuisine": null,
            "name": "Akmisat ashahba'a",
            "name:en": null,
            "name:uk": null,
            "name:de": null,
            "name:tr": null,
            "name:ru": null,
            "name:ar": "أقمشة الشهباء"
        }
    },
    {
        "lat": 41.0194922,
        "lon": 28.9456293,
        "tags": {
            "addr:city": "Istanbul",
            "addr:district": "Turkey",
            "description": "",
            "opening_hours": null,
            "phone": null,
            "branch": null,
            "amenity": "fabric",
            "mobile": null,
            "addr:street": "SARIGUZEL cadde",
            "cuisine": null,
            "name": "Karma Moda",
            "name:en": null,
            "name:uk": null,
            "name:de": null,
            "name:tr": null,
            "name:ru": null,
            "name:ar": "كارما موضة"
        }
    },
    {
        "lat": 41.0195581,
        "lon": 28.945477,
        "tags": {
            "addr:city": "Istanbul",
            "addr:district": "Turkey",
            "description": "",
            "opening_hours": null,
            "phone": null,
            "branch": null,
            "amenity": "fabric",
            "mobile": null,
            "addr:street": "SARIGUZEL cadde",
            "cuisine": null,
            "name": "Atasoylu Tekstil",
            "name:en": null,
            "name:uk": null,
            "name:de": null,
            "name:tr": null,
            "name:ru": null,
            "name:ar": "أتاسويلو تكستيل"
        }
    },
    {
        "lat": 41.0194176,
        "lon": 28.9454696,
        "tags": {
            "addr:city": "Istanbul",
            "addr:district": "Turkey",
            "description": "",
            "opening_hours": null,
            "phone": null,
            "branch": null,
            "amenity": "fabric",
            "mobile": null,
            "addr:street": "SARIGUZEL cadde",
            "cuisine": null,
            "name": "Aksakalli Tekstil",
            "name:en": null,
            "name:uk": null,
            "name:de": null,
            "name:tr": null,
            "name:ru": null,
            "name:ar": "أكسكلي تكستيل"
        }
    },
    {
        "lat": 41.0194294,
        "lon": 28.9454446,
        "tags": {
            "addr:city": "Istanbul",
            "addr:district": "Turkey",
            "description": "",
            "opening_hours": null,
            "phone": null,
            "branch": null,
            "amenity": "fabric",
            "mobile": null,
            "addr:street": "SARIGUZEL cadde",
            "cuisine": null,
            "name": "Inanch Tekstil",
            "name:en": null,
            "name:uk": null,
            "name:de": null,
            "name:tr": null,
            "name:ru": null,
            "name:ar": "إنانش تكستيل"
        }
    },
    {
        "lat": 41.0194412,
        "lon": 28.9454235,
        "tags": {
            "addr:city": "Istanbul",
            "addr:district": "Turkey",
            "description": "",
            "opening_hours": null,
            "phone": null,
            "branch": null,
            "amenity": "fabric",
            "mobile": null,
            "addr:street": "SARIGUZEL cadde",
            "cuisine": null,
            "name": "Merwan tekstil",
            "name:en": null,
            "name:uk": null,
            "name:de": null,
            "name:tr": null,
            "name:ru": null,
            "name:ar": "مروان تكستيل"
        }
    },
    {
        "lat": 41.0196099,
        "lon": 28.9452469,
        "tags": {
            "addr:city": "Istanbul",
            "addr:district": "Turkey",
            "description": "",
            "opening_hours": null,
            "phone": null,
            "branch": null,
            "amenity": "fabric",
            "mobile": null,
            "addr:street": "SARIGUZEL cadde",
            "cuisine": null,
            "name": "Omka Tekstil",
            "name:en": null,
            "name:uk": null,
            "name:de": null,
            "name:tr": null,
            "name:ru": null,
            "name:ar": "اومكا تكستيل"
        }
    },
    {
        "lat": 41.0196857,
        "lon": 28.9451826,
        "tags": {
            "addr:city": "Istanbul",
            "addr:district": "Turkey",
            "description": "",
            "opening_hours": null,
            "phone": null,
            "branch": null,
            "amenity": "fabric",
            "mobile": null,
            "addr:street": "SARIGUZEL cadde",
            "cuisine": null,
            "name": "Teçim Tekstil",
            "name:en": null,
            "name:uk": null,
            "name:de": null,
            "name:tr": null,
            "name:ru": null,
            "name:ar": "ترشم تكستيل"
        }
    },
    {
        "lat": 41.019737,
        "lon": 28.9451293,
        "tags": {
            "addr:city": "Istanbul",
            "addr:district": "Turkey",
            "description": "",
            "opening_hours": null,
            "phone": null,
            "branch": null,
            "amenity": "fabric",
            "mobile": null,
            "addr:street": "SARIGUZEL cadde",
            "cuisine": null,
            "name": "İş desen Tekstil",
            "name:en": null,
            "name:uk": null,
            "name:de": null,
            "name:tr": null,
            "name:ru": null,
            "name:ar": "اوز دسان تكستيل"
        }
    },
    {
        "lat": 41.019838,
        "lon": 28.9452866,
        "tags": {
            "addr:city": "Istanbul",
            "addr:district": "Turkey",
            "description": "",
            "opening_hours": null,
            "phone": null,
            "branch": null,
            "amenity": "fabric",
            "mobile": null,
            "addr:street": "SARIGUZEL cadde",
            "cuisine": null,
            "name": "Terzioglu Tekstil",
            "name:en": null,
            "name:uk": null,
            "name:de": null,
            "name:tr": null,
            "name:ru": null,
            "name:ar": "ترزي أوغلو تكستيل"
        }
    },
    {
        "lat": 41.0199126,
        "lon": 28.9452252,
        "tags": {
            "addr:city": "Istanbul",
            "addr:district": "Turkey",
            "description": "",
            "opening_hours": null,
            "phone": null,
            "branch": null,
            "amenity": "fabric",
            "mobile": null,
            "addr:street": "SARIGUZEL cadde",
            "cuisine": null,
            "name": "Akar Tekstil",
            "name:en": null,
            "name:uk": null,
            "name:de": null,
            "name:tr": null,
            "name:ru": null,
            "name:ar": "أكار تكستيل"
        }
    },
    {
        "lat": 41.0199143,
        "lon": 28.9448547,
        "tags": {
            "addr:city": "Istanbul",
            "addr:district": "Turkey",
            "description": "",
            "opening_hours": null,
            "phone": null,
            "branch": null,
            "amenity": "fabric",
            "mobile": null,
            "addr:street": "SARIGUZEL cadde",
            "cuisine": null,
            "name": "Mersan Tekstil",
            "name:en": null,
            "name:uk": null,
            "name:de": null,
            "name:tr": null,
            "name:ru": null,
            "name:ar": "مرسان تكستيل"
        }
    },
    {
        "lat": 41.0201247,
        "lon": 28.9449406,
        "tags": {
            "addr:city": "Istanbul",
            "addr:district": "Turkey",
            "description": "",
            "opening_hours": null,
            "phone": null,
            "branch": null,
            "amenity": "fabric",
            "mobile": null,
            "addr:street": "SARIGUZEL cadde",
            "cuisine": null,
            "name": "King tex",
            "name:en": null,
            "name:uk": null,
            "name:de": null,
            "name:tr": null,
            "name:ru": null,
            "name:ar": "أقمشة عباية ومانطو"
        }
    },
    {
        "lat": 41.0200438,
        "lon": 28.944726,
        "tags": {
            "addr:city": "Istanbul",
            "addr:district": "Fatih",
            "description": "",
            "opening_hours": null,
            "phone": null,
            "branch": null,
            "amenity": "fabric",
            "mobile": null,
            "addr:street": "Sangüzel Caddesi",
            "cuisine": null,
            "name": "Eminoğlu Tekstil",
            "name:en": null,
            "name:uk": null,
            "name:de": null,
            "name:tr": null,
            "name:ru": null,
            "name:ar": "أمين أوغلو تكستيل"
        }
    },
    {
        "lat": 41.0202057,
        "lon": 28.9448333,
        "tags": {
            "addr:city": "Istanbul",
            "addr:district": "Turkey",
            "description": "",
            "opening_hours": null,
            "phone": null,
            "branch": null,
            "amenity": "fabric",
            "mobile": null,
            "addr:street": "SARIGUZEL cadde",
            "cuisine": null,
            "name": "MSM TEKSTIL",
            "name:en": null,
            "name:uk": null,
            "name:de": null,
            "name:tr": null,
            "name:ru": null,
            "name:ar": "م س م تكستيل"
        }
    },
    {
        "lat": 41.0201247,
        "lon": 28.9445972,
        "tags": {
            "addr:city": "Istanbul",
            "addr:district": "Turkey",
            "description": "",
            "opening_hours": null,
            "phone": null,
            "branch": null,
            "amenity": "fabric",
            "mobile": null,
            "addr:street": "SARIGUZEL cadde",
            "cuisine": null,
            "name": "uğur bashak",
            "name:en": null,
            "name:uk": null,
            "name:de": null,
            "name:tr": null,
            "name:ru": null,
            "name:ar": "اوغور باشاك"
        }
    },
    {
        "lat": 41.0203782,
        "lon": 28.9444973,
        "tags": {
            "addr:city": "Istanbul",
            "addr:district": "Turkey",
            "description": "",
            "opening_hours": null,
            "phone": null,
            "branch": null,
            "amenity": "fabric",
            "mobile": null,
            "addr:street": "SARIGUZEL cadde",
            "cuisine": null,
            "name": "Bahatin ayyildiz Tekstil",
            "name:en": null,
            "name:uk": null,
            "name:de": null,
            "name:tr": null,
            "name:ru": null,
            "name:ar": "بهاء الدين ايلدز تكستيل"
        }
    },
    {
        "lat": 41.020413,
        "lon": 28.9444576,
        "tags": {
            "addr:city": "Istanbul",
            "addr:district": "Turkey",
            "description": "",
            "opening_hours": null,
            "phone": null,
            "branch": null,
            "amenity": "fabric",
            "mobile": null,
            "addr:street": "SARIGUZEL cadde",
            "cuisine": null,
            "name": "Kaynash tekstil",
            "name:en": null,
            "name:uk": null,
            "name:de": null,
            "name:tr": null,
            "name:ru": null,
            "name:ar": "كايناش تكستيل"
        }
    },
    {
        "lat": 41.0204942,
        "lon": 28.9443799,
        "tags": {
            "addr:city": "Istanbul",
            "addr:district": "Turkey",
            "description": "",
            "opening_hours": null,
            "phone": null,
            "branch": null,
            "amenity": "fabric",
            "mobile": null,
            "addr:street": "SARIGUZEL cadde",
            "cuisine": null,
            "name": "DEMIZ TEKSTIL",
            "name:en": null,
            "name:uk": null,
            "name:de": null,
            "name:tr": null,
            "name:ru": null,
            "name:ar": "دينيز تكستيل"
        }
    },
    {
        "lat": 41.0207075,
        "lon": 28.9442968,
        "tags": {
            "addr:city": "Istanbul",
            "addr:district": "Fatih",
            "description": "",
            "opening_hours": null,
            "phone": null,
            "branch": null,
            "amenity": "fabric",
            "mobile": null,
            "addr:street": "Sangüzel Caddesi",
            "cuisine": null,
            "name": "Cihanlar Tekstil",
            "name:en": null,
            "name:uk": null,
            "name:de": null,
            "name:tr": null,
            "name:ru": null,
            "name:ar": "جيهانلار تكستيل"
        }
    },
    {
        "lat": 41.0209426,
        "lon": 28.9439312,
        "tags": {
            "addr:city": "Istanbul",
            "addr:district": "Fatih",
            "description": "",
            "opening_hours": null,
            "phone": null,
            "branch": null,
            "amenity": "fabric",
            "mobile": null,
            "addr:street": "Sangüzel Caddesi",
            "cuisine": null,
            "name": "Mervet Kumaşçılık",
            "name:en": null,
            "name:uk": null,
            "name:de": null,
            "name:tr": null,
            "name:ru": null,
            "name:ar": "مرفت للقماش"
        }
    },
    {
        "lat": 41.0178258,
        "lon": 28.9477301,
        "tags": {
            "addr:city": "Istanbul",
            "addr:district": "Turkey",
            "description": "",
            "opening_hours": null,
            "phone": null,
            "branch": null,
            "amenity": "fabric",
            "mobile": null,
            "addr:street": "Halicilar caddesi",
            "cuisine": null,
            "name": "MMÇ TEKSTIL",
            "name:en": null,
            "name:uk": null,
            "name:de": null,
            "name:tr": null,
            "name:ru": null,
            "name:ar": "م م تش تكستيل"
        }
    },
    {
        "lat": 41.0170487,
        "lon": 28.9465714,
        "tags": {
            "addr:city": "Istanbul",
            "addr:district": "Turkey",
            "description": "",
            "opening_hours": null,
            "phone": null,
            "branch": null,
            "amenity": "fabric",
            "mobile": null,
            "addr:street": "Halicilar caddesi",
            "cuisine": null,
            "name": "Ersa çeyiz",
            "name:en": null,
            "name:uk": null,
            "name:de": null,
            "name:tr": null,
            "name:ru": null,
            "name:ar": "ارسا"
        }
    },
    {
        "lat": 41.0189753,
        "lon": 28.9445543,
        "tags": {
            "addr:city": "Istanbul",
            "addr:district": "Turkey",
            "description": "",
            "opening_hours": null,
            "phone": null,
            "branch": null,
            "amenity": "fabric",
            "mobile": null,
            "addr:street": "BATTALGAZI sokak",
            "cuisine": null,
            "name": "Yalaz Tekstil",
            "name:en": null,
            "name:uk": null,
            "name:de": null,
            "name:tr": null,
            "name:ru": null,
            "name:ar": "يالاز تكستيل"
        }
    },
    {
        "lat": 41.0180434,
        "lon": 28.9443639,
        "tags": {
            "addr:city": "Istanbul",
            "addr:district": "Turkey",
            "description": "",
            "opening_hours": null,
            "phone": null,
            "branch": null,
            "amenity": "fabric",
            "mobile": null,
            "addr:street": "PALIPASA caddesi",
            "cuisine": null,
            "name": "MND Tekstil",
            "name:en": null,
            "name:uk": null,
            "name:de": null,
            "name:tr": null,
            "name:ru": null,
            "name:ar": "م ن د تكستيل"
        }
    },
    {
        "lat": 41.0181573,
        "lon": 28.9445095,
        "tags": {
            "addr:city": "Istanbul",
            "addr:district": "Turkey",
            "description": "",
            "opening_hours": null,
            "phone": null,
            "branch": null,
            "amenity": "fabric",
            "mobile": null,
            "addr:street": "PALIPASA caddesi",
            "cuisine": null,
            "name": "SaĞlam Tekstil",
            "name:en": null,
            "name:uk": null,
            "name:de": null,
            "name:tr": null,
            "name:ru": null,
            "name:ar": "ساغلام تكستيل"
        }
    },
    {
        "lat": 41.0182563,
        "lon": 28.9444237,
        "tags": {
            "addr:city": "Istanbul",
            "addr:district": "Fatih",
            "description": "",
            "opening_hours": null,
            "phone": null,
            "branch": null,
            "amenity": "fabric",
            "mobile": null,
            "addr:street": "Bâlipaşa Caddesi",
            "cuisine": null,
            "name": "İpek Çeyiz",
            "name:en": null,
            "name:uk": null,
            "name:de": null,
            "name:tr": null,
            "name:ru": null,
            "name:ar": "ابك تشيز"
        }
    },
    {
        "lat": 41.0181897,
        "lon": 28.9444666,
        "tags": {
            "addr:city": "Istanbul",
            "addr:district": "Turkey",
            "description": "",
            "opening_hours": null,
            "phone": null,
            "branch": null,
            "amenity": "fabric",
            "mobile": null,
            "addr:street": "PALIPASA caddesi",
            "cuisine": null,
            "name": "simge sltekstil",
            "name:en": null,
            "name:uk": null,
            "name:de": null,
            "name:tr": null,
            "name:ru": null,
            "name:ar": "سيمغي تكستيل"
        }
    },
    {
        "lat": 41.018269,
        "lon": 28.9441064,
        "tags": {
            "addr:city": "Istanbul",
            "addr:district": "Turkey",
            "description": "",
            "opening_hours": null,
            "phone": null,
            "branch": null,
            "amenity": "fabric",
            "mobile": null,
            "addr:street": "PALIPASA caddesi",
            "cuisine": null,
            "name": "Fabrina",
            "name:en": null,
            "name:uk": null,
            "name:de": null,
            "name:tr": null,
            "name:ru": null,
            "name:ar": "فابرينا"
        }
    },
    {
        "lat": 41.0183236,
        "lon": 28.9440688,
        "tags": {
            "addr:city": "Istanbul",
            "addr:district": "Turkey",
            "description": "",
            "opening_hours": null,
            "phone": null,
            "branch": null,
            "amenity": "fabric",
            "mobile": null,
            "addr:street": "PALIPASA caddesi",
            "cuisine": null,
            "name": "M.E esmerlar Tekstil",
            "name:en": null,
            "name:uk": null,
            "name:de": null,
            "name:tr": null,
            "name:ru": null,
            "name:ar": "م ي أسمرلار تكستيل"
        }
    },
    {
        "lat": 41.0183772,
        "lon": 28.9443037,
        "tags": {
            "addr:city": "Istanbul",
            "addr:district": "Turkey",
            "description": "",
            "opening_hours": null,
            "phone": null,
            "branch": null,
            "amenity": "fabric",
            "mobile": null,
            "addr:street": "PALIPASA caddesi",
            "cuisine": null,
            "name": "Yildizla Tekstil",
            "name:en": null,
            "name:uk": null,
            "name:de": null,
            "name:tr": null,
            "name:ru": null,
            "name:ar": "يلدزلا تكستيل"
        }
    },
    {
        "lat": 41.0185639,
        "lon": 28.9438229,
        "tags": {
            "addr:city": "Istanbul",
            "addr:district": "Turkey",
            "description": "",
            "opening_hours": null,
            "phone": null,
            "branch": null,
            "amenity": "fabric",
            "mobile": null,
            "addr:street": "PALIPASA caddesi",
            "cuisine": null,
            "name": "Plaksoy",
            "name:en": null,
            "name:uk": null,
            "name:de": null,
            "name:tr": null,
            "name:ru": null,
            "name:ar": "بلاكسوي"
        }
    },
    {
        "lat": 41.0188296,
        "lon": 28.9435431,
        "tags": {
            "addr:city": "Istanbul",
            "addr:district": "Turkey",
            "description": "",
            "opening_hours": null,
            "phone": null,
            "branch": null,
            "amenity": "fabric",
            "mobile": null,
            "addr:street": "PALIPASA caddesi",
            "cuisine": null,
            "name": "Mir sultan",
            "name:en": null,
            "name:uk": null,
            "name:de": null,
            "name:tr": null,
            "name:ru": null,
            "name:ar": "مير سلطان"
        }
    },
    {
        "lat": 41.01888,
        "lon": 28.9434898,
        "tags": {
            "addr:city": "Istanbul",
            "addr:district": "Turkey",
            "description": "",
            "opening_hours": null,
            "phone": null,
            "branch": null,
            "amenity": "fabric",
            "mobile": null,
            "addr:street": "PALIPASA caddesi",
            "cuisine": null,
            "name": "Safir",
            "name:en": null,
            "name:uk": null,
            "name:de": null,
            "name:tr": null,
            "name:ru": null,
            "name:ar": "سفير"
        }
    },
    {
        "lat": 41.0191244,
        "lon": 28.9432477,
        "tags": {
            "addr:city": "Istanbul",
            "addr:district": "Turkey",
            "description": "",
            "opening_hours": null,
            "phone": null,
            "branch": null,
            "amenity": "fabric",
            "mobile": null,
            "addr:street": "PALIPASA caddesi",
            "cuisine": null,
            "name": "Berzen Tekstil",
            "name:en": null,
            "name:uk": null,
            "name:de": null,
            "name:tr": null,
            "name:ru": null,
            "name:ar": "برزن تكستيل"
        }
    },
    {
        "lat": 41.019382,
        "lon": 28.9432813,
        "tags": {
            "addr:city": "Istanbul",
            "addr:district": "Turkey",
            "description": "",
            "opening_hours": null,
            "phone": null,
            "branch": null,
            "amenity": "fabric",
            "mobile": null,
            "addr:street": "PALIPASA caddesi",
            "cuisine": null,
            "name": "guclu Tekstil",
            "name:en": null,
            "name:uk": null,
            "name:de": null,
            "name:tr": null,
            "name:ru": null,
            "name:ar": "غوتشلو تكستيل"
        }
    },
    {
        "lat": 41.0196463,
        "lon": 28.9427471,
        "tags": {
            "addr:city": "Istanbul",
            "addr:district": "Turkey",
            "description": "",
            "opening_hours": null,
            "phone": null,
            "branch": null,
            "amenity": "fabric",
            "mobile": null,
            "addr:street": "PALIPASA caddesi",
            "cuisine": null,
            "name": "Bozdoganlar",
            "name:en": null,
            "name:uk": null,
            "name:de": null,
            "name:tr": null,
            "name:ru": null,
            "name:ar": "بوزدوغانلار"
        }
    },
    {
        "lat": 41.0199045,
        "lon": 28.9427414,
        "tags": {
            "addr:city": "Istanbul",
            "addr:district": "Turkey",
            "description": "",
            "opening_hours": null,
            "phone": null,
            "branch": null,
            "amenity": "fabric",
            "mobile": null,
            "addr:street": "PALIPASA caddesi",
            "cuisine": null,
            "name": "Riza Tekstil",
            "name:en": null,
            "name:uk": null,
            "name:de": null,
            "name:tr": null,
            "name:ru": null,
            "name:ar": "روزا تكستيل"
        }
    },
    {
        "lat": 41.0201571,
        "lon": 28.9424944,
        "tags": {
            "addr:city": "Istanbul",
            "addr:district": "Turkey",
            "description": "",
            "opening_hours": null,
            "phone": null,
            "branch": null,
            "amenity": "fabric",
            "mobile": null,
            "addr:street": "PALIPASA caddesi",
            "cuisine": null,
            "name": "Şeftalicioglu Tekstil",
            "name:en": null,
            "name:uk": null,
            "name:de": null,
            "name:tr": null,
            "name:ru": null,
            "name:ar": "شفتاليجي أوغلو تكستيل"
        }
    },
    {
        "lat": 41.0201976,
        "lon": 28.9421725,
        "tags": {
            "addr:city": "Istanbul",
            "addr:district": "Turkey",
            "description": "",
            "opening_hours": null,
            "phone": null,
            "branch": null,
            "amenity": "fabric",
            "mobile": null,
            "addr:street": "PALIPASA caddesi",
            "cuisine": null,
            "name": "Grup Tekstil",
            "name:en": null,
            "name:uk": null,
            "name:de": null,
            "name:tr": null,
            "name:ru": null,
            "name:ar": "جروب تكستيل"
        }
    },
    {
        "lat": 41.017503,
        "lon": 28.9449124,
        "tags": {
            "addr:city": "Istanbul",
            "addr:district": "Turkey",
            "description": "",
            "opening_hours": null,
            "phone": null,
            "branch": null,
            "amenity": "fabric",
            "mobile": null,
            "addr:street": "PALIPASA caddesi",
            "cuisine": null,
            "name": "Istnabul Tekstil",
            "name:en": null,
            "name:uk": null,
            "name:de": null,
            "name:tr": null,
            "name:ru": null,
            "name:ar": "اسطنبول تكستيل"
        }
    },
    {
        "lat": 41.0176599,
        "lon": 28.9447287,
        "tags": {
            "addr:city": "Istanbul",
            "addr:district": "Turkey",
            "description": "",
            "opening_hours": null,
            "phone": null,
            "branch": null,
            "amenity": "fabric",
            "mobile": null,
            "addr:street": "PALIPASA caddesi",
            "cuisine": null,
            "name": "Çeyiz ve Tekstil",
            "name:en": null,
            "name:uk": null,
            "name:de": null,
            "name:tr": null,
            "name:ru": null,
            "name:ar": "تكستيل"
        }
    },
    {
        "lat": 41.0085055,
        "lon": 28.9059141,
        "tags": {
            "addr:city": "Istanbul",
            "addr:district": "Zeytinburnu",
            "description": "",
            "opening_hours": null,
            "phone": null,
            "branch": null,
            "amenity": "fabric",
            "mobile": null,
            "addr:street": "Mevlana Caddesi",
            "cuisine": null,
            "name": "Diri Vizon",
            "name:en": null,
            "name:uk": null,
            "name:de": null,
            "name:tr": null,
            "name:ru": null,
            "name:ar": "ديري فيزون"
        }
    },
    {
        "lat": 41.0200361,
        "lon": 28.9052004,
        "tags": {
            "addr:city": "Istanbul",
            "addr:district": "Zeytinburnu",
            "description": "",
            "opening_hours": "Mo-Su 07:00-20:00",
            "phone": "(0212) 481 26 00",
            "branch": null,
            "amenity": "fabric",
            "mobile": null,
            "addr:street": "Davutpaşa Caddesi",
            "cuisine": null,
            "name": "Alize Tekstil",
            "name:en": null,
            "name:uk": null,
            "name:de": null,
            "name:tr": null,
            "name:ru": null,
            "name:ar": "مصنع اليز للنسيج"
        }
    },
    {
        "lat": 41.0172367,
        "lon": 28.9034308,
        "tags": {
            "addr:city": "Istanbul",
            "addr:district": "Zeytinburnu",
            "description": "",
            "opening_hours": "Mo-Fr 08:00-17:00; Mo-Sa 07:30-15:00",
            "phone": null,
            "branch": null,
            "amenity": "fabric",
            "mobile": null,
            "addr:street": "Mevlevihane Yolu Caddesi",
            "cuisine": null,
            "name": "Karbel Tekstil",
            "name:en": null,
            "name:uk": null,
            "name:de": null,
            "name:tr": null,
            "name:ru": null,
            "name:ar": "مصنع كاربل للنسيج"
        }
    },
    {
        "lat": 41.0287905,
        "lon": 28.902731,
        "tags": {
            "addr:city": "Istanbul",
            "addr:district": "Zeytinburnu",
            "description": "",
            "opening_hours": "Mo-Fr 08:00-17:00; Mo-Sa 07:30-15:00",
            "phone": "02125012911",
            "branch": null,
            "amenity": "fabric",
            "mobile": null,
            "addr:street": "Davutpaşa Çiftehavuzlar Caddesi",
            "cuisine": null,
            "name": "Kardeş Tekstil",
            "name:en": null,
            "name:uk": null,
            "name:de": null,
            "name:tr": null,
            "name:ru": null,
            "name:ar": "مصنع كاردش للنسيج"
        }
    },
    {
        "lat": 41.0291838,
        "lon": 28.9035368,
        "tags": {
            "addr:city": "Istanbul",
            "addr:district": "Zeytinburnu",
            "description": "",
            "opening_hours": "Mo-Fr 08:00-17:00; Mo-Sa 07:30-15:00",
            "phone": null,
            "branch": null,
            "amenity": "fabric",
            "mobile": null,
            "addr:street": "Davutpaşa Çiftehavuzlar Caddesi",
            "cuisine": null,
            "name": "Onur Olcay Tekstil",
            "name:en": null,
            "name:uk": null,
            "name:de": null,
            "name:tr": null,
            "name:ru": null,
            "name:ar": "مصنع اونور اولجاي للنسيج"
        }
    },
    {
        "lat": 41.0298398,
        "lon": 28.9107552,
        "tags": {
            "addr:city": "Istanbul",
            "addr:district": "Zeytinburnu",
            "description": "",
            "opening_hours": "Mo-Fr 08:00-17:00; Mo-Sa 07:30-15:00",
            "phone": null,
            "branch": null,
            "amenity": "fabric",
            "mobile": null,
            "addr:street": "Gümüşsuyu Caddesi",
            "cuisine": null,
            "name": "Saraç Örme",
            "name:en": null,
            "name:uk": null,
            "name:de": null,
            "name:tr": null,
            "name:ru": null,
            "name:ar": "ورشة ساراج للخياطة"
        }
    },
    {
        "lat": 41.0279114,
        "lon": 28.9042106,
        "tags": {
            "addr:city": "Istanbul",
            "addr:district": "Zeytinburnu",
            "description": "",
            "opening_hours": "Mo-Fr 08:00-17:00; Mo-Sa 07:30-15:00",
            "phone": null,
            "branch": null,
            "amenity": "fabric",
            "mobile": null,
            "addr:street": "Bağyolu Cd.",
            "cuisine": null,
            "name": "Lato Jeans",
            "name:en": null,
            "name:uk": null,
            "name:de": null,
            "name:tr": null,
            "name:ru": null,
            "name:ar": "مصنع لاتو للجينز"
        }
    },
    {
        "lat": 41.0293085,
        "lon": 28.9109187,
        "tags": {
            "addr:city": "Istanbul",
            "addr:district": "Zeytinburnu",
            "description": "",
            "opening_hours": "Mo-Fr 08:00-17:00; Mo-Sa 07:30-15:00",
            "phone": "02125774585",
            "branch": null,
            "amenity": "fabric",
            "mobile": null,
            "addr:street": "Gümüşsuyu Cd.",
            "cuisine": null,
            "name": "Kar Tekstil",
            "name:en": null,
            "name:uk": null,
            "name:de": null,
            "name:tr": null,
            "name:ru": null,
            "name:ar": "مصنع كار للنسيج"
        }
    },
    {
        "lat": 41.0272897,
        "lon": 28.9098895,
        "tags": {
            "addr:city": "Istanbul",
            "addr:district": "Zeytinburnu",
            "description": "",
            "opening_hours": "Mo-Fr 08:00-17:00; Mo-Sa 07:30-15:00",
            "phone": "0 212 674 47 90",
            "branch": null,
            "amenity": "fabric",
            "mobile": null,
            "addr:street": "Litros Yolu Sk.",
            "cuisine": null,
            "name": "Durman Group",
            "name:en": null,
            "name:uk": null,
            "name:de": null,
            "name:tr": null,
            "name:ru": null,
            "name:ar": "مجموعة دورمان"
        }
    },
    {
        "lat": 41.0203712,
        "lon": 28.9035598,
        "tags": {
            "addr:city": "Istanbul",
            "addr:district": "Zeytinburnu",
            "description": "",
            "opening_hours": "Mo-Fr 09:00-17:00; Mo-Sa 07:30-15:00",
            "phone": "02124821280",
            "branch": null,
            "amenity": "fabric",
            "mobile": null,
            "addr:street": "Davutpaşa Caddesi",
            "cuisine": null,
            "name": "Eser Tekstil",
            "name:en": null,
            "name:uk": null,
            "name:de": null,
            "name:tr": null,
            "name:ru": null,
            "name:ar": "مصنع اسر للقماش"
        }
    },
    {
        "lat": 41.0293448,
        "lon": 28.9046707,
        "tags": {
            "addr:city": "Istanbul",
            "addr:district": "Zeytinburnu",
            "description": "",
            "opening_hours": "Mo-Fr 08:00-17:00; Mo-Sa 07:30-15:00",
            "phone": "02125676191",
            "branch": null,
            "amenity": "fabric",
            "mobile": null,
            "addr:street": "Davutpaşa Çiftehavuzlar Cd.",
            "cuisine": null,
            "name": "Beyaz Triko",
            "name:en": null,
            "name:uk": null,
            "name:de": null,
            "name:tr": null,
            "name:ru": null,
            "name:ar": "مصنع بياز للتريكو"
        }
    },
    {
        "lat": 41.0298091,
        "lon": 28.910625,
        "tags": {
            "addr:city": "Istanbul",
            "addr:district": "Zeytinburnu",
            "description": "",
            "opening_hours": "Mo-Fr 08:00-17:00; Mo-Sa 07:30-15:00",
            "phone": null,
            "branch": null,
            "amenity": "fabric",
            "mobile": null,
            "addr:street": "Gümüşsuyu Cd.",
            "cuisine": null,
            "name": "Yenice Örme",
            "name:en": null,
            "name:uk": null,
            "name:de": null,
            "name:tr": null,
            "name:ru": null,
            "name:ar": "محل ينيجه للحياكة"
        }
    },
    {
        "lat": 41.0279601,
        "lon": 28.9019417,
        "tags": {
            "addr:city": "Istanbul",
            "addr:district": "Zeytinburnu",
            "description": "",
            "opening_hours": "Mo-Fr 08:00-17:00; Mo-Sa 07:30-15:00",
            "phone": "02124931813",
            "branch": null,
            "amenity": "fabric",
            "mobile": null,
            "addr:street": "Bağyolu Cd.",
            "cuisine": null,
            "name": "Yıldız İplik",
            "name:en": null,
            "name:uk": null,
            "name:de": null,
            "name:tr": null,
            "name:ru": null,
            "name:ar": "مصنع يلدز للخيوط"
        }
    },
    {
        "lat": 41.0032108,
        "lon": 28.905811,
        "tags": {
            "addr:city": "Istanbul",
            "addr:district": "Zeytinburnu",
            "description": "",
            "opening_hours": "Mo-Fr 09:00-17:00",
            "phone": null,
            "branch": null,
            "amenity": "fabric",
            "mobile": null,
            "addr:street": null,
            "cuisine": null,
            "name": "Kara Aslan Tekstil",
            "name:en": null,
            "name:uk": null,
            "name:de": null,
            "name:tr": null,
            "name:ru": null,
            "name:ar": "كارا اسلان للاقمشة والملابس"
        }
    },
    {
        "lat": 41.0057007,
        "lon": 28.9051225,
        "tags": {
            "addr:city": "Istanbul",
            "addr:district": "Zeytinburnu",
            "description": "",
            "opening_hours": null,
            "phone": null,
            "branch": null,
            "amenity": "fabric",
            "mobile": null,
            "addr:street": "G-19 Sk",
            "cuisine": null,
            "name": "Nisa tekstil",
            "name:en": null,
            "name:uk": null,
            "name:de": null,
            "name:tr": null,
            "name:ru": null,
            "name:ar": "نيسا للاقمشة"
        }
    },
    {
        "lat": 41.0058958,
        "lon": 28.9055189,
        "tags": {
            "addr:city": "Istanbul",
            "addr:district": "Zeytinburnu",
            "description": "",
            "opening_hours": null,
            "phone": null,
            "branch": null,
            "amenity": "fabric",
            "mobile": null,
            "addr:street": "G-20 Sk",
            "cuisine": null,
            "name": "esmanur tekstil",
            "name:en": null,
            "name:uk": null,
            "name:de": null,
            "name:tr": null,
            "name:ru": null,
            "name:ar": "اسمانور للاقمشة"
        }
    },
    {
        "lat": 41.00361,
        "lon": 28.9056032,
        "tags": {
            "addr:city": "Istanbul",
            "addr:district": "Zeytinburnu",
            "description": "",
            "opening_hours": "Mo-Fr 09:00-17:00",
            "phone": null,
            "branch": null,
            "amenity": "fabric",
            "mobile": null,
            "addr:street": null,
            "cuisine": null,
            "name": "Xan Zammar Tekstil",
            "name:en": null,
            "name:uk": null,
            "name:de": null,
            "name:tr": null,
            "name:ru": null,
            "name:ar": "خان زمار للاقمشة والملابس"
        }
    },
    {
        "lat": 41.0056292,
        "lon": 28.905898,
        "tags": {
            "addr:city": "Istanbul",
            "addr:district": "Zeytinburnu",
            "description": "",
            "opening_hours": null,
            "phone": null,
            "branch": null,
            "amenity": "fabric",
            "mobile": null,
            "addr:street": "G-19 Sk",
            "cuisine": null,
            "name": "yazıcı tekstil",
            "name:en": null,
            "name:uk": null,
            "name:de": null,
            "name:tr": null,
            "name:ru": null,
            "name:ar": "يازيجي للاقمشة"
        }
    },
    {
        "lat": 41.0065664,
        "lon": 28.904928,
        "tags": {
            "addr:city": "Istanbul",
            "addr:district": "Zeytinburnu",
            "description": "",
            "opening_hours": null,
            "phone": null,
            "branch": null,
            "amenity": "fabric",
            "mobile": null,
            "addr:street": "Mevlana Cd",
            "cuisine": null,
            "name": "Eraş Kumaş",
            "name:en": null,
            "name:uk": null,
            "name:de": null,
            "name:tr": null,
            "name:ru": null,
            "name:ar": "أقمشة ايراش"
        }
    },
    {
        "lat": 41.0054861,
        "lon": 28.9070871,
        "tags": {
            "addr:city": "Istanbul",
            "addr:district": "Zeytinburnu",
            "description": "",
            "opening_hours": null,
            "phone": null,
            "branch": null,
            "amenity": "fabric",
            "mobile": null,
            "addr:street": "G-19 Sk",
            "cuisine": null,
            "name": "haktan TEKSTİL",
            "name:en": null,
            "name:uk": null,
            "name:de": null,
            "name:tr": null,
            "name:ru": null,
            "name:ar": "هاكتان للاقمشة"
        }
    },
    {
        "lat": 41.0021141,
        "lon": 28.9056716,
        "tags": {
            "addr:city": "Istanbul",
            "addr:district": "Zeytinburnu",
            "description": "",
            "opening_hours": "Mo-Fr 09:00-17:00",
            "phone": "0532 596 1012",
            "branch": null,
            "amenity": "fabric",
            "mobile": null,
            "addr:street": null,
            "cuisine": null,
            "name": "Tekstil",
            "name:en": null,
            "name:uk": null,
            "name:de": null,
            "name:tr": null,
            "name:ru": null,
            "name:ar": "للاقمشة والملابس"
        }
    },
    {
        "lat": 41.0053139,
        "lon": 28.9064315,
        "tags": {
            "addr:city": "Istanbul",
            "addr:district": "Zeytinburnu",
            "description": "",
            "opening_hours": null,
            "phone": null,
            "branch": null,
            "amenity": "fabric",
            "mobile": null,
            "addr:street": "G-18 sk",
            "cuisine": null,
            "name": "izmir kumaş",
            "name:en": null,
            "name:uk": null,
            "name:de": null,
            "name:tr": null,
            "name:ru": null,
            "name:ar": "أقمشة أزمير"
        }
    },
    {
        "lat": 41.0056682,
        "lon": 28.9057084,
        "tags": {
            "addr:city": "Istanbul",
            "addr:district": "Zeytinburnu",
            "description": "",
            "opening_hours": null,
            "phone": null,
            "branch": null,
            "amenity": "fabric",
            "mobile": null,
            "addr:street": "G-19 Sk",
            "cuisine": null,
            "name": "akyiğit kumaşçılık",
            "name:en": null,
            "name:uk": null,
            "name:de": null,
            "name:tr": null,
            "name:ru": null,
            "name:ar": "اك ييت للاقمشة"
        }
    },
    {
        "lat": 41.0038058,
        "lon": 28.9069729,
        "tags": {
            "addr:city": "Istanbul",
            "addr:district": "Zeytinburnu",
            "description": "",
            "opening_hours": "Mo-Sa 09:00-18:00",
            "phone": null,
            "branch": null,
            "amenity": "fabric",
            "mobile": null,
            "addr:street": null,
            "cuisine": null,
            "name": "Çiftlik Pasajı ve Tekstil",
            "name:en": null,
            "name:uk": null,
            "name:de": null,
            "name:tr": null,
            "name:ru": null,
            "name:ar": "ممشى تسوق وبيع اقمشة"
        }
    },
    {
        "lat": 41.0044531,
        "lon": 28.9082344,
        "tags": {
            "addr:city": "Istanbul",
            "addr:district": "Zeytinburnu",
            "description": "",
            "opening_hours": null,
            "phone": null,
            "branch": null,
            "amenity": "fabric",
            "mobile": null,
            "addr:street": "Seyit Nizam Cd",
            "cuisine": null,
            "name": "Kabin kumaşçilik",
            "name:en": null,
            "name:uk": null,
            "name:de": null,
            "name:tr": null,
            "name:ru": null,
            "name:ar": "كبين للأقمشة"
        }
    },
    {
        "lat": 41.0044249,
        "lon": 28.9025581,
        "tags": {
            "addr:city": "Istanbul",
            "addr:district": "Zeytinburnu",
            "description": "",
            "opening_hours": null,
            "phone": null,
            "branch": null,
            "amenity": "fabric",
            "mobile": null,
            "addr:street": "ŞEHİT İSMET ÇAVUŞ SK",
            "cuisine": null,
            "name": "ŞAM TEKSTİL",
            "name:en": null,
            "name:uk": null,
            "name:de": null,
            "name:tr": null,
            "name:ru": null,
            "name:ar": "شام للتطريز"
        }
    },
    {
        "lat": 41.005171,
        "lon": 28.9087718,
        "tags": {
            "addr:city": "Istanbul",
            "addr:district": "Zeytinburnu",
            "description": "",
            "opening_hours": null,
            "phone": null,
            "branch": null,
            "amenity": "fabric",
            "mobile": null,
            "addr:street": "Seyit Nizam Caddesi",
            "cuisine": null,
            "name": "Ümit Kumaşçılık",
            "name:en": null,
            "name:uk": null,
            "name:de": null,
            "name:tr": null,
            "name:ru": null,
            "name:ar": "اوميت للاقمشة"
        }
    },
    {
        "lat": 41.0045502,
        "lon": 28.908964,
        "tags": {
            "addr:city": "Istanbul",
            "addr:district": "Zeytinburnu",
            "description": "",
            "opening_hours": null,
            "phone": null,
            "branch": null,
            "amenity": "fabric",
            "mobile": null,
            "addr:street": "Seyit Nizam Cd",
            "cuisine": null,
            "name": "HAKAN TEKSTİL",
            "name:en": null,
            "name:uk": null,
            "name:de": null,
            "name:tr": null,
            "name:ru": null,
            "name:ar": "هاكان للاقمشة"
        }
    },
    {
        "lat": 41.0074883,
        "lon": 28.9053316,
        "tags": {
            "addr:city": "Istanbul",
            "addr:district": "Zeytinburnu",
            "description": "",
            "opening_hours": null,
            "phone": null,
            "branch": null,
            "amenity": "fabric",
            "mobile": null,
            "addr:street": "Mevlana Cd",
            "cuisine": null,
            "name": "Yıldız kumaş ve iplik",
            "name:en": null,
            "name:uk": null,
            "name:de": null,
            "name:tr": null,
            "name:ru": null,
            "name:ar": "يلدز قماش"
        }
    },
    {
        "lat": 41.00352,
        "lon": 28.8986248,
        "tags": {
            "addr:city": "Istanbul",
            "addr:district": "Zeytinburnu",
            "description": "",
            "opening_hours": null,
            "phone": null,
            "branch": null,
            "amenity": "fabric",
            "mobile": null,
            "addr:street": "Demirciler sitesi 6 Cd",
            "cuisine": null,
            "name": "Onuan",
            "name:en": null,
            "name:uk": null,
            "name:de": null,
            "name:tr": null,
            "name:ru": null,
            "name:ar": "اون وان"
        }
    },
    {
        "lat": 41.0045907,
        "lon": 28.9093502,
        "tags": {
            "addr:city": "Istanbul",
            "addr:district": "Zeytinburnu",
            "description": "",
            "opening_hours": null,
            "phone": null,
            "branch": null,
            "amenity": "fabric",
            "mobile": null,
            "addr:street": "Seyit Nizam Cd",
            "cuisine": null,
            "name": "Umit Kumaşçılık",
            "name:en": null,
            "name:uk": null,
            "name:de": null,
            "name:tr": null,
            "name:ru": null,
            "name:ar": "اوميت للاقمشة"
        }
    },
    {
        "lat": 41.0051786,
        "lon": 28.9084506,
        "tags": {
            "addr:city": "Istanbul",
            "addr:district": "Zeytinburnu",
            "description": "",
            "opening_hours": null,
            "phone": null,
            "branch": null,
            "amenity": "fabric",
            "mobile": null,
            "addr:street": "Seyit Nizam Cd",
            "cuisine": null,
            "name": "Kumaş Çilek",
            "name:en": null,
            "name:uk": null,
            "name:de": null,
            "name:tr": null,
            "name:ru": null,
            "name:ar": "قماش تشيليك"
        }
    },
    {
        "lat": 41.0033863,
        "lon": 28.9060752,
        "tags": {
            "addr:city": "Istanbul",
            "addr:district": "Zeytinburnu",
            "description": "",
            "opening_hours": "Mo-Fr 09:00-17:00",
            "phone": null,
            "branch": null,
            "amenity": "fabric",
            "mobile": null,
            "addr:street": null,
            "cuisine": null,
            "name": "Murat Tekstil",
            "name:en": null,
            "name:uk": null,
            "name:de": null,
            "name:tr": null,
            "name:ru": null,
            "name:ar": "مراد للاقمشة"
        }
    },
    {
        "lat": 40.9984784,
        "lon": 28.9078563,
        "tags": {
            "addr:city": "Istanbul",
            "addr:district": "Zeytinburnu",
            "description": "",
            "opening_hours": "Mo-Sa 09:00-17:00",
            "phone": null,
            "branch": null,
            "amenity": "fabric",
            "mobile": null,
            "addr:street": null,
            "cuisine": null,
            "name": "Yetişkin İmalat Tekstil Toptan",
            "name:en": null,
            "name:uk": null,
            "name:de": null,
            "name:tr": null,
            "name:ru": null,
            "name:ar": "يتشكين للاقمشة"
        }
    },
    {
        "lat": 41.0057592,
        "lon": 28.9055533,
        "tags": {
            "addr:city": "Istanbul",
            "addr:district": "Zeytinburnu",
            "description": "",
            "opening_hours": null,
            "phone": null,
            "branch": null,
            "amenity": "fabric",
            "mobile": null,
            "addr:street": "G-20 Sk",
            "cuisine": null,
            "name": "koçan tekstil",
            "name:en": null,
            "name:uk": null,
            "name:de": null,
            "name:tr": null,
            "name:ru": null,
            "name:ar": "كوتشان للاقمشة"
        }
    },
    {
        "lat": 41.002355,
        "lon": 28.9055871,
        "tags": {
            "addr:city": "Istanbul",
            "addr:district": "Zeytinburnu",
            "description": "",
            "opening_hours": "Mo-Fr 09:00-17:00",
            "phone": null,
            "branch": null,
            "amenity": "fabric",
            "mobile": null,
            "addr:street": null,
            "cuisine": null,
            "name": "Kara Aslan Tekstil",
            "name:en": null,
            "name:uk": null,
            "name:de": null,
            "name:tr": null,
            "name:ru": null,
            "name:ar": "كارا اسلان للاقمشة والملابس"
        }
    },
    {
        "lat": 41.0055879,
        "lon": 28.9044088,
        "tags": {
            "addr:city": "Istanbul",
            "addr:district": "Zeytinburnu",
            "description": "",
            "opening_hours": null,
            "phone": null,
            "branch": null,
            "amenity": "fabric",
            "mobile": null,
            "addr:street": "Mevlana Cd",
            "cuisine": null,
            "name": "Elite Tekstil",
            "name:en": null,
            "name:uk": null,
            "name:de": null,
            "name:tr": null,
            "name:ru": null,
            "name:ar": "أقمشة ايليتي"
        }
    },
    {
        "lat": 41.0053614,
        "lon": 28.9052369,
        "tags": {
            "addr:city": "Istanbul",
            "addr:district": "Zeytinburnu",
            "description": "",
            "opening_hours": null,
            "phone": null,
            "branch": null,
            "amenity": "fabric",
            "mobile": null,
            "addr:street": "G-18 sk",
            "cuisine": null,
            "name": "Can kumaş",
            "name:en": null,
            "name:uk": null,
            "name:de": null,
            "name:tr": null,
            "name:ru": null,
            "name:ar": "جان للاقمشة"
        }
    },
    {
        "lat": 41.0065105,
        "lon": 28.904928,
        "tags": {
            "addr:city": "Istanbul",
            "addr:district": "Zeytinburnu",
            "description": "",
            "opening_hours": null,
            "phone": null,
            "branch": null,
            "amenity": "fabric",
            "mobile": null,
            "addr:street": "Mevlana Cd",
            "cuisine": null,
            "name": "EST TEKSTİL",
            "name:en": null,
            "name:uk": null,
            "name:de": null,
            "name:tr": null,
            "name:ru": null,
            "name:ar": "اي سي تي للأقمشة"
        }
    },
    {
        "lat": 41.0062937,
        "lon": 28.9044127,
        "tags": {
            "addr:city": "Istanbul",
            "addr:district": "Zeytinburnu",
            "description": "",
            "opening_hours": null,
            "phone": null,
            "branch": null,
            "amenity": "fabric",
            "mobile": null,
            "addr:street": "Mevlana Cd",
            "cuisine": null,
            "name": "aydınlık tekstil",
            "name:en": null,
            "name:uk": null,
            "name:de": null,
            "name:tr": null,
            "name:ru": null,
            "name:ar": "ايدنلك للاقمشة"
        }
    },
    {
        "lat": 41.0052784,
        "lon": 28.9068873,
        "tags": {
            "addr:city": "Istanbul",
            "addr:district": "Zeytinburnu",
            "description": "",
            "opening_hours": null,
            "phone": null,
            "branch": null,
            "amenity": "fabric",
            "mobile": null,
            "addr:street": "G-18 sk",
            "cuisine": null,
            "name": "sultan TEKSTİL",
            "name:en": null,
            "name:uk": null,
            "name:de": null,
            "name:tr": null,
            "name:ru": null,
            "name:ar": "سلطان للاقمشة"
        }
    },
    {
        "lat": 41.0031084,
        "lon": 28.9103575,
        "tags": {
            "addr:city": "Istanbul",
            "addr:district": "Zeytinburnu",
            "description": "",
            "opening_hours": null,
            "phone": null,
            "branch": null,
            "amenity": "fabric",
            "mobile": null,
            "addr:street": null,
            "cuisine": null,
            "name": "Inan tekstil",
            "name:en": null,
            "name:uk": null,
            "name:de": null,
            "name:tr": null,
            "name:ru": null,
            "name:ar": "انان للاقمشة"
        }
    },
    {
        "lat": 41.0005451,
        "lon": 28.9098887,
        "tags": {
            "addr:city": "Istanbul",
            "addr:district": "Zeytinburnu",
            "description": "",
            "opening_hours": null,
            "phone": null,
            "branch": null,
            "amenity": "fabric",
            "mobile": null,
            "addr:street": null,
            "cuisine": null,
            "name": "Selin Hd tekstil",
            "name:en": null,
            "name:uk": null,
            "name:de": null,
            "name:tr": null,
            "name:ru": null,
            "name:ar": "سيلين تكستيل"
        }
    },
    {
        "lat": 41.0027375,
        "lon": 28.9100137,
        "tags": {
            "addr:city": "Istanbul",
            "addr:district": "Zeytinburnu",
            "description": "",
            "opening_hours": null,
            "phone": null,
            "branch": null,
            "amenity": "fabric",
            "mobile": null,
            "addr:street": null,
            "cuisine": null,
            "name": "Orta tex",
            "name:en": null,
            "name:uk": null,
            "name:de": null,
            "name:tr": null,
            "name:ru": null,
            "name:ar": "اورتا تكس"
        }
    },
    {
        "lat": 41.0029472,
        "lon": 28.9090185,
        "tags": {
            "addr:city": "Istanbul",
            "addr:district": "Zeytinburnu",
            "description": "",
            "opening_hours": null,
            "phone": null,
            "branch": null,
            "amenity": "fabric",
            "mobile": null,
            "addr:street": null,
            "cuisine": null,
            "name": "Metin Tekstil",
            "name:en": null,
            "name:uk": null,
            "name:de": null,
            "name:tr": null,
            "name:ru": null,
            "name:ar": "متين"
        }
    },
    {
        "lat": 41.0036384,
        "lon": 28.9110538,
        "tags": {
            "addr:city": "Istanbul",
            "addr:district": "Zeytinburnu",
            "description": "",
            "opening_hours": null,
            "phone": null,
            "branch": null,
            "amenity": "fabric",
            "mobile": null,
            "addr:street": null,
            "cuisine": null,
            "name": "Fasil oğlu",
            "name:en": null,
            "name:uk": null,
            "name:de": null,
            "name:tr": null,
            "name:ru": null,
            "name:ar": "فسيل اغلو"
        }
    },
    {
        "lat": 41.0022896,
        "lon": 28.9100449,
        "tags": {
            "addr:city": "Istanbul",
            "addr:district": "Zeytinburnu",
            "description": "",
            "opening_hours": null,
            "phone": null,
            "branch": null,
            "amenity": "fabric",
            "mobile": null,
            "addr:street": null,
            "cuisine": null,
            "name": "Yenerler",
            "name:en": null,
            "name:uk": null,
            "name:de": null,
            "name:tr": null,
            "name:ru": null,
            "name:ar": "ينرلار"
        }
    },
    {
        "lat": 41.0015824,
        "lon": 28.910123,
        "tags": {
            "addr:city": "Istanbul",
            "addr:district": "Zeytinburnu",
            "description": "",
            "opening_hours": null,
            "phone": null,
            "branch": null,
            "amenity": "fabric",
            "mobile": null,
            "addr:street": null,
            "cuisine": null,
            "name": "Yeşil ömer kumaş",
            "name:en": null,
            "name:uk": null,
            "name:de": null,
            "name:tr": null,
            "name:ru": null,
            "name:ar": "يشيل عمر للاقمشة"
        }
    },
    {
        "lat": 41.0033696,
        "lon": 28.9119569,
        "tags": {
            "addr:city": "Istanbul",
            "addr:district": "Zeytinburnu",
            "description": "",
            "opening_hours": null,
            "phone": null,
            "branch": null,
            "amenity": "fabric",
            "mobile": null,
            "addr:street": null,
            "cuisine": null,
            "name": "Ütaş",
            "name:en": null,
            "name:uk": null,
            "name:de": null,
            "name:tr": null,
            "name:ru": null,
            "name:ar": "اوتاش"
        }
    },
    {
        "lat": 41.003017,
        "lon": 28.9085826,
        "tags": {
            "addr:city": "Istanbul",
            "addr:district": "Zeytinburnu",
            "description": "",
            "opening_hours": null,
            "phone": null,
            "branch": null,
            "amenity": "fabric",
            "mobile": null,
            "addr:street": null,
            "cuisine": null,
            "name": "Çalışkan",
            "name:en": null,
            "name:uk": null,
            "name:de": null,
            "name:tr": null,
            "name:ru": null,
            "name:ar": "تالشكان للاقمشة"
        }
    },
    {
        "lat": 41.003264,
        "lon": 28.9093493,
        "tags": {
            "addr:city": "Istanbul",
            "addr:district": "Zeytinburnu",
            "description": "",
            "opening_hours": null,
            "phone": null,
            "branch": null,
            "amenity": "fabric",
            "mobile": null,
            "addr:street": null,
            "cuisine": null,
            "name": "Eylül tekstil",
            "name:en": null,
            "name:uk": null,
            "name:de": null,
            "name:tr": null,
            "name:ru": null,
            "name:ar": "ايلول"
        }
    },
    {
        "lat": 41.0011845,
        "lon": 28.9138661,
        "tags": {
            "addr:city": "Istanbul",
            "addr:district": "Zeytinburnu",
            "description": "",
            "opening_hours": null,
            "phone": null,
            "branch": null,
            "amenity": "fabric",
            "mobile": null,
            "addr:street": null,
            "cuisine": null,
            "name": "ALÇİN TEKSTİL",
            "name:en": null,
            "name:uk": null,
            "name:de": null,
            "name:tr": null,
            "name:ru": null,
            "name:ar": "محل اقمشة"
        }
    },
    {
        "lat": 41.0030624,
        "lon": 28.9106213,
        "tags": {
            "addr:city": "Istanbul",
            "addr:district": "Zeytinburnu",
            "description": "",
            "opening_hours": null,
            "phone": null,
            "branch": null,
            "amenity": "fabric",
            "mobile": null,
            "addr:street": null,
            "cuisine": null,
            "name": "Serdar tekstil",
            "name:en": null,
            "name:uk": null,
            "name:de": null,
            "name:tr": null,
            "name:ru": null,
            "name:ar": "ساردار"
        }
    },
    {
        "lat": 41.0016885,
        "lon": 28.9101698,
        "tags": {
            "addr:city": "Istanbul",
            "addr:district": "Zeytinburnu",
            "description": "",
            "opening_hours": null,
            "phone": null,
            "branch": null,
            "amenity": "fabric",
            "mobile": null,
            "addr:street": null,
            "cuisine": null,
            "name": "Akınlar",
            "name:en": null,
            "name:uk": null,
            "name:de": null,
            "name:tr": null,
            "name:ru": null,
            "name:ar": "اكنلار"
        }
    },
    {
        "lat": 41.0030816,
        "lon": 28.910952,
        "tags": {
            "addr:city": "İstanbul",
            "addr:district": "Zeytinburnu",
            "description": "",
            "opening_hours": null,
            "phone": null,
            "branch": null,
            "amenity": "fabric",
            "mobile": null,
            "addr:street": null,
            "cuisine": null,
            "name": "Üçka Tekstil",
            "name:en": null,
            "name:uk": null,
            "name:de": null,
            "name:tr": null,
            "name:ru": null,
            "name:ar": "اوتشكا"
        }
    },
    {
        "lat": 41.00336,
        "lon": 28.9122749,
        "tags": {
            "addr:city": "Istanbul",
            "addr:district": "Zeytinburnu",
            "description": "",
            "opening_hours": null,
            "phone": null,
            "branch": null,
            "amenity": "fabric",
            "mobile": null,
            "addr:street": null,
            "cuisine": null,
            "name": "Bakü ömer",
            "name:en": null,
            "name:uk": null,
            "name:de": null,
            "name:tr": null,
            "name:ru": null,
            "name:ar": "باكو عمر"
        }
    },
    {
        "lat": 41.0037728,
        "lon": 28.910316,
        "tags": {
            "addr:city": "Istanbul",
            "addr:district": "Zeytinburnu",
            "description": "",
            "opening_hours": null,
            "phone": null,
            "branch": null,
            "amenity": "fabric",
            "mobile": null,
            "addr:street": null,
            "cuisine": null,
            "name": "Soner kumaş",
            "name:en": null,
            "name:uk": null,
            "name:de": null,
            "name:tr": null,
            "name:ru": null,
            "name:ar": "أقمشة سونر"
        }
    },
    {
        "lat": 41.0009891,
        "lon": 28.9112368,
        "tags": {
            "addr:city": "Istanbul",
            "addr:district": "Zeytinburnu",
            "description": "",
            "opening_hours": null,
            "phone": null,
            "branch": null,
            "amenity": "fabric",
            "mobile": null,
            "addr:street": null,
            "cuisine": null,
            "name": "ANADOLU TEKSTİL",
            "name:en": null,
            "name:uk": null,
            "name:de": null,
            "name:tr": null,
            "name:ru": null,
            "name:ar": "محل اقمشة"
        }
    },
    {
        "lat": 41.0001322,
        "lon": 28.9102099,
        "tags": {
            "addr:city": "Istanbul",
            "addr:district": "Zeytinburnu",
            "description": "",
            "opening_hours": null,
            "phone": null,
            "branch": null,
            "amenity": "fabric",
            "mobile": null,
            "addr:street": null,
            "cuisine": null,
            "name": "Dakik biye",
            "name:en": null,
            "name:uk": null,
            "name:de": null,
            "name:tr": null,
            "name:ru": null,
            "name:ar": "داكيك للاقمشة"
        }
    },
    {
        "lat": 41.0031488,
        "lon": 28.9088277,
        "tags": {
            "addr:city": "Istanbul",
            "addr:district": "Zeytinburnu",
            "description": "",
            "opening_hours": null,
            "phone": null,
            "branch": null,
            "amenity": "fabric",
            "mobile": null,
            "addr:street": null,
            "cuisine": null,
            "name": "Ercan Tekstil",
            "name:en": null,
            "name:uk": null,
            "name:de": null,
            "name:tr": null,
            "name:ru": null,
            "name:ar": "ارجان للاقمشة"
        }
    },
    {
        "lat": 41.0033085,
        "lon": 28.913406,
        "tags": {
            "addr:city": "Istanbul",
            "addr:district": "Zeytinburnu",
            "description": "",
            "opening_hours": null,
            "phone": null,
            "branch": null,
            "amenity": "fabric",
            "mobile": null,
            "addr:street": null,
            "cuisine": null,
            "name": "İNAN KUMAŞ",
            "name:en": null,
            "name:uk": null,
            "name:de": null,
            "name:tr": null,
            "name:ru": null,
            "name:ar": "محل اقمشة"
        }
    },
    {
        "lat": 41.0018889,
        "lon": 28.9101386,
        "tags": {
            "addr:city": "Istanbul",
            "addr:district": "Zeytinburnu",
            "description": "",
            "opening_hours": null,
            "phone": null,
            "branch": null,
            "amenity": "fabric",
            "mobile": null,
            "addr:street": null,
            "cuisine": null,
            "name": "Erdem Tekstil",
            "name:en": null,
            "name:uk": null,
            "name:de": null,
            "name:tr": null,
            "name:ru": null,
            "name:ar": "اردم للاقمشة"
        }
    },
    {
        "lat": 41.0020657,
        "lon": 28.9102167,
        "tags": {
            "addr:city": "Istanbul",
            "addr:district": "Zeytinburnu",
            "description": "",
            "opening_hours": null,
            "phone": null,
            "branch": null,
            "amenity": "fabric",
            "mobile": null,
            "addr:street": null,
            "cuisine": null,
            "name": "Yağmur",
            "name:en": null,
            "name:uk": null,
            "name:de": null,
            "name:tr": null,
            "name:ru": null,
            "name:ar": "يغمور"
        }
    },
    {
        "lat": 41.0029615,
        "lon": 28.9096388,
        "tags": {
            "addr:city": "Istanbul",
            "addr:district": "Zeytinburnu",
            "description": "",
            "opening_hours": null,
            "phone": null,
            "branch": null,
            "amenity": "fabric",
            "mobile": null,
            "addr:street": null,
            "cuisine": null,
            "name": "Paran tekstil",
            "name:en": null,
            "name:uk": null,
            "name:de": null,
            "name:tr": null,
            "name:ru": null,
            "name:ar": "باران للاقمشة"
        }
    },
    {
        "lat": 41.0030086,
        "lon": 28.9098731,
        "tags": {
            "addr:city": "Istanbul",
            "addr:district": "Zeytinburnu",
            "description": "",
            "opening_hours": null,
            "phone": null,
            "branch": null,
            "amenity": "fabric",
            "mobile": null,
            "addr:street": null,
            "cuisine": null,
            "name": "Aytaç kumaşçılık",
            "name:en": null,
            "name:uk": null,
            "name:de": null,
            "name:tr": null,
            "name:ru": null,
            "name:ar": "ايتاش للاقمشة"
        }
    },
    {
        "lat": 41.0023985,
        "lon": 28.9069671,
        "tags": {
            "addr:city": "Istanbul",
            "addr:district": "Zeytinburnu",
            "description": "",
            "opening_hours": "Mo-Sa 09:00-17:00",
            "phone": null,
            "branch": null,
            "amenity": "fabric",
            "mobile": null,
            "addr:street": null,
            "cuisine": null,
            "name": "Popilon Tekstil",
            "name:en": null,
            "name:uk": null,
            "name:de": null,
            "name:tr": null,
            "name:ru": null,
            "name:ar": "بوبيلون للاقمشة والملابس"
        }
    },
    {
        "lat": 41.0030078,
        "lon": 28.902697,
        "tags": {
            "addr:city": "Istanbul",
            "addr:district": "Zeytinburnu",
            "description": "",
            "opening_hours": "Mo-Fr 09:00-17:00",
            "phone": null,
            "branch": null,
            "amenity": "fabric",
            "mobile": null,
            "addr:street": null,
            "cuisine": null,
            "name": "Alnsajon AL Arab",
            "name:en": null,
            "name:uk": null,
            "name:de": null,
            "name:tr": null,
            "name:ru": null,
            "name:ar": "النساجون العرب"
        }
    },
    {
        "lat": 41.0032391,
        "lon": 28.9060585,
        "tags": {
            "addr:city": "Istanbul",
            "addr:district": "Zeytinburnu",
            "description": "",
            "opening_hours": "Mo-Fr 09:00-17:00",
            "phone": null,
            "branch": null,
            "amenity": "fabric",
            "mobile": null,
            "addr:street": null,
            "cuisine": null,
            "name": "Öz Buse Tekstil",
            "name:en": null,
            "name:uk": null,
            "name:de": null,
            "name:tr": null,
            "name:ru": null,
            "name:ar": "اوز للاقمشة والملابس"
        }
    },
    {
        "lat": 41.0036835,
        "lon": 28.9063124,
        "tags": {
            "addr:city": "Istanbul",
            "addr:district": "Zeytinburnu",
            "description": "",
            "opening_hours": "Mo-Sa 09:00-18:00",
            "phone": null,
            "branch": null,
            "amenity": "fabric",
            "mobile": null,
            "addr:street": null,
            "cuisine": null,
            "name": "Ak Pasaj Toptancılar Çarşısı",
            "name:en": null,
            "name:uk": null,
            "name:de": null,
            "name:tr": null,
            "name:ru": null,
            "name:ar": "ممشى محلات بيع بالجملة"
        }
    },
    {
        "lat": 41.0012628,
        "lon": 28.9045665,
        "tags": {
            "addr:city": "Istanbul",
            "addr:district": "Zeytinburnu",
            "description": "",
            "opening_hours": "Mo-Sa 09:00-17:00",
            "phone": null,
            "branch": null,
            "amenity": "fabric",
            "mobile": null,
            "addr:street": null,
            "cuisine": null,
            "name": "Beyza Bayan Tekstil",
            "name:en": null,
            "name:uk": null,
            "name:de": null,
            "name:tr": null,
            "name:ru": null,
            "name:ar": "بيضاء للاقمشة والملابس النسائية"
        }
    },
    {
        "lat": 40.9925823,
        "lon": 28.8968937,
        "tags": {
            "addr:city": "Istanbul",
            "addr:district": "Zeytinburnu",
            "description": "",
            "opening_hours": "Mo-Su 09:00-19:00",
            "phone": null,
            "branch": null,
            "amenity": "fabric",
            "mobile": null,
            "addr:street": null,
            "cuisine": null,
            "name": "Cantex Tekstil",
            "name:en": null,
            "name:uk": null,
            "name:de": null,
            "name:tr": null,
            "name:ru": null,
            "name:ar": "كانتكس للاقمشة"
        }
    },
    {
        "lat": 40.9933046,
        "lon": 28.9015187,
        "tags": {
            "addr:city": "Istanbul",
            "addr:district": "Zeytinburnu",
            "description": "",
            "opening_hours": "Mo-Su 09:00-18:00",
            "phone": null,
            "branch": null,
            "amenity": "fabric",
            "mobile": null,
            "addr:street": null,
            "cuisine": null,
            "name": "Ercan Tekstil ve Iplik Ürünler",
            "name:en": null,
            "name:uk": null,
            "name:de": null,
            "name:tr": null,
            "name:ru": null,
            "name:ar": "ارجان للقماش والتطريز"
        }
    },
    {
        "lat": 40.9906763,
        "lon": 28.8998886,
        "tags": {
            "addr:city": "Istanbul",
            "addr:district": "Zeytinburnu",
            "description": "",
            "opening_hours": "Mo-Su 09:00-18:00",
            "phone": null,
            "branch": null,
            "amenity": "fabric",
            "mobile": null,
            "addr:street": null,
            "cuisine": null,
            "name": "Tekstil",
            "name:en": null,
            "name:uk": null,
            "name:de": null,
            "name:tr": null,
            "name:ru": null,
            "name:ar": "اقمشة"
        }
    },
    {
        "lat": 40.9912553,
        "lon": 28.8999949,
        "tags": {
            "addr:city": "Istanbul",
            "addr:district": "Zeytinburnu",
            "description": "",
            "opening_hours": "Mo-Su 09:00-18:00",
            "phone": null,
            "branch": null,
            "amenity": "fabric",
            "mobile": null,
            "addr:street": null,
            "cuisine": null,
            "name": "Bezzaz Tekstil",
            "name:en": null,
            "name:uk": null,
            "name:de": null,
            "name:tr": null,
            "name:ru": null,
            "name:ar": "بيزاز للاقمشة"
        }
    },
    {
        "lat": 40.9911238,
        "lon": 28.9012212,
        "tags": {
            "addr:city": "Istanbul",
            "addr:district": "Zeytinburnu",
            "description": "",
            "opening_hours": "Mo-Su 09:00-18:00",
            "phone": null,
            "branch": null,
            "amenity": "fabric",
            "mobile": null,
            "addr:street": null,
            "cuisine": null,
            "name": "Şimşekler Deri ve Tekstil",
            "name:en": null,
            "name:uk": null,
            "name:de": null,
            "name:tr": null,
            "name:ru": null,
            "name:ar": "شيمشك للاقمشة والتطريز"
        }
    },
    {
        "lat": 41.0497793,
        "lon": 28.858793,
        "tags": {
            "addr:city": "Istanbul",
            "addr:district": "Bağcılar",
            "description": "",
            "opening_hours": null,
            "phone": null,
            "branch": null,
            "amenity": "fabric",
            "mobile": null,
            "addr:street": "Osmangazi Caddesi",
            "cuisine": null,
            "name": "Güven Makina",
            "name:en": null,
            "name:uk": null,
            "name:de": null,
            "name:tr": null,
            "name:ru": null,
            "name:ar": "كوفان ماكينة"
        }
    },
    {
        "lat": 41.0472669,
        "lon": 28.8550279,
        "tags": {
            "addr:city": "Istanbul",
            "addr:district": null,
            "description": "",
            "opening_hours": null,
            "phone": null,
            "branch": null,
            "amenity": "fabric",
            "mobile": null,
            "addr:street": "2056 Sokak",
            "cuisine": null,
            "name": "Fırat Çeyiz",
            "name:en": null,
            "name:uk": null,
            "name:de": null,
            "name:tr": null,
            "name:ru": null,
            "name:ar": null
        }
    },
    {
        "lat": 41.0225172,
        "lon": 28.822245,
        "tags": {
            "addr:city": "Istanbul",
            "addr:district": "Bağcılar",
            "description": "",
            "opening_hours": null,
            "phone": null,
            "branch": null,
            "amenity": "fabric",
            "mobile": null,
            "addr:street": "Mimar sinan caddesi",
            "cuisine": null,
            "name": "Rasel",
            "name:en": null,
            "name:uk": null,
            "name:de": null,
            "name:tr": null,
            "name:ru": null,
            "name:ar": "راشيل"
        }
    },
    {
        "lat": 41.0309468,
        "lon": 28.8339559,
        "tags": {
            "addr:city": "Istanbul",
            "addr:district": "Bağcılar",
            "description": "",
            "opening_hours": null,
            "phone": null,
            "branch": null,
            "amenity": "fabric",
            "mobile": null,
            "addr:street": "Cumhuriyet Caddesi",
            "cuisine": null,
            "name": "Yavuz Tekstil Makine",
            "name:en": null,
            "name:uk": null,
            "name:de": null,
            "name:tr": null,
            "name:ru": null,
            "name:ar": "يافوز ماكينات نسيج"
        }
    },
    {
        "lat": 41.0383541,
        "lon": 28.8397334,
        "tags": {
            "addr:city": "Istanbul",
            "addr:district": "Bağcılar",
            "description": "",
            "opening_hours": null,
            "phone": null,
            "branch": null,
            "amenity": "fabric",
            "mobile": null,
            "addr:street": "Enes sokağı",
            "cuisine": null,
            "name": "Zelal tekstil",
            "name:en": null,
            "name:uk": null,
            "name:de": null,
            "name:tr": null,
            "name:ru": null,
            "name:ar": "معمل زلال للخياطة"
        }
    },
    {
        "lat": 41.0366691,
        "lon": 28.8342629,
        "tags": {
            "addr:city": "Istanbul",
            "addr:district": "Bağcılar",
            "description": "",
            "opening_hours": null,
            "phone": null,
            "branch": null,
            "amenity": "fabric",
            "mobile": null,
            "addr:street": "Mahmutbey caddesi",
            "cuisine": null,
            "name": "Genç tekstil",
            "name:en": null,
            "name:uk": null,
            "name:de": null,
            "name:tr": null,
            "name:ru": null,
            "name:ar": "غينج تكستيل"
        }
    },
    {
        "lat": 41.03925,
        "lon": 28.8253056,
        "tags": {
            "addr:city": "Istanbul",
            "addr:district": "Bağcılar",
            "description": "",
            "opening_hours": null,
            "phone": "05365548963",
            "branch": null,
            "amenity": "fabric",
            "mobile": null,
            "addr:street": "1358 Sokak",
            "cuisine": null,
            "name": "Kormanlar Tekstil",
            "name:en": null,
            "name:uk": null,
            "name:de": null,
            "name:tr": null,
            "name:ru": null,
            "name:ar": "كورمانلار تكستيل"
        }
    },
    {
        "lat": 41.035389,
        "lon": 28.8335791,
        "tags": {
            "addr:city": "Istanbul",
            "addr:district": "Bağcılar",
            "description": "",
            "opening_hours": null,
            "phone": null,
            "branch": null,
            "amenity": "fabric",
            "mobile": null,
            "addr:street": "Mahmutbey Caddesi",
            "cuisine": null,
            "name": "Oğuz Tekstil",
            "name:en": null,
            "name:uk": null,
            "name:de": null,
            "name:tr": null,
            "name:ru": null,
            "name:ar": "اوغوز تكستيل"
        }
    },
    {
        "lat": 41.0419757,
        "lon": 28.8319416,
        "tags": {
            "addr:city": "Istanbul",
            "addr:district": "Bağcılar",
            "description": "",
            "opening_hours": null,
            "phone": null,
            "branch": null,
            "amenity": "fabric",
            "mobile": null,
            "addr:street": "Mahmutbey Caddesi",
            "cuisine": null,
            "name": "AKÇAY ÇEYİZ TEKSTİL",
            "name:en": null,
            "name:uk": null,
            "name:de": null,
            "name:tr": null,
            "name:ru": null,
            "name:ar": "أكتشاي تشاييز تكستيل"
        }
    },
    {
        "lat": 41.0385176,
        "lon": 28.824874,
        "tags": {
            "addr:city": "Istanbul",
            "addr:district": "Bağcılar",
            "description": "",
            "opening_hours": null,
            "phone": "5157801",
            "branch": null,
            "amenity": "fabric",
            "mobile": null,
            "addr:street": "Favziçakmak Caddesi",
            "cuisine": null,
            "name": "Yıldız Makina",
            "name:en": null,
            "name:uk": null,
            "name:de": null,
            "name:tr": null,
            "name:ru": null,
            "name:ar": "يلدز ماكينة"
        }
    },
    {
        "lat": 41.0408234,
        "lon": 28.8251797,
        "tags": {
            "addr:city": "Istanbul",
            "addr:district": "Bağcılar",
            "description": "",
            "opening_hours": null,
            "phone": null,
            "branch": null,
            "amenity": "fabric",
            "mobile": null,
            "addr:street": "Favziçakmak Caddesi",
            "cuisine": null,
            "name": "ÖZÜM TEKSTİL",
            "name:en": null,
            "name:uk": null,
            "name:de": null,
            "name:tr": null,
            "name:ru": null,
            "name:ar": "اوزوم تكستيل"
        }
    },
    {
        "lat": 41.0380684,
        "lon": 28.839544,
        "tags": {
            "addr:city": "Istanbul",
            "addr:district": "Bağcılar",
            "description": "",
            "opening_hours": null,
            "phone": null,
            "branch": null,
            "amenity": "fabric",
            "mobile": null,
            "addr:street": "Kurtuluş caddesi",
            "cuisine": null,
            "name": "Koza tekstil",
            "name:en": null,
            "name:uk": null,
            "name:de": null,
            "name:tr": null,
            "name:ru": null,
            "name:ar": "معمل كوزا للخياطة"
        }
    },
    {
        "lat": 41.0413083,
        "lon": 28.8563128,
        "tags": {
            "addr:city": "Istanbul",
            "addr:district": null,
            "description": "",
            "opening_hours": null,
            "phone": null,
            "branch": null,
            "amenity": "fabric",
            "mobile": null,
            "addr:street": "2005 Sokak",
            "cuisine": null,
            "name": "Kor Tekstilde",
            "name:en": null,
            "name:uk": null,
            "name:de": null,
            "name:tr": null,
            "name:ru": null,
            "name:ar": null
        }
    },
    {
        "lat": 41.0445301,
        "lon": 28.8513051,
        "tags": {
            "addr:city": "Istanbul",
            "addr:district": null,
            "description": "",
            "opening_hours": null,
            "phone": null,
            "branch": null,
            "amenity": "fabric",
            "mobile": null,
            "addr:street": "2045 Sokak",
            "cuisine": null,
            "name": "WHAT PRETTY TEKSTİL",
            "name:en": null,
            "name:uk": null,
            "name:de": null,
            "name:tr": null,
            "name:ru": null,
            "name:ar": null
        }
    },
    {
        "lat": 41.0349775,
        "lon": 28.8588974,
        "tags": {
            "addr:city": "Istanbul",
            "addr:district": "Bağcılar",
            "description": "",
            "opening_hours": null,
            "phone": null,
            "branch": null,
            "amenity": "fabric",
            "mobile": null,
            "addr:street": "861 sokak",
            "cuisine": null,
            "name": "kumaş",
            "name:en": null,
            "name:uk": null,
            "name:de": null,
            "name:tr": null,
            "name:ru": null,
            "name:ar": "قماش"
        }
    },
    {
        "lat": 41.0432364,
        "lon": 28.852694,
        "tags": {
            "addr:city": "Istanbul",
            "addr:district": null,
            "description": "",
            "opening_hours": null,
            "phone": "02124363661",
            "branch": null,
            "amenity": "fabric",
            "mobile": null,
            "addr:street": "14 Sokak",
            "cuisine": null,
            "name": "MİSLİNA MAKİNA",
            "name:en": null,
            "name:uk": null,
            "name:de": null,
            "name:tr": null,
            "name:ru": null,
            "name:ar": "ميسلينا ماكينا"
        }
    },
    {
        "lat": 41.0432577,
        "lon": 28.8578207,
        "tags": {
            "addr:city": "Istanbul",
            "addr:district": null,
            "description": "",
            "opening_hours": null,
            "phone": "05437308076",
            "branch": null,
            "amenity": "fabric",
            "mobile": null,
            "addr:street": "2005 Sokak",
            "cuisine": null,
            "name": "Retay Makina",
            "name:en": null,
            "name:uk": null,
            "name:de": null,
            "name:tr": null,
            "name:ru": null,
            "name:ar": "ريتاي ماكينة"
        }
    },
    {
        "lat": 41.0408316,
        "lon": 28.8573854,
        "tags": {
            "addr:city": "Istanbul",
            "addr:district": null,
            "description": "",
            "opening_hours": null,
            "phone": null,
            "branch": null,
            "amenity": "fabric",
            "mobile": null,
            "addr:street": "Fatih Caddesi",
            "cuisine": null,
            "name": "CESAR MAKİNA",
            "name:en": null,
            "name:uk": null,
            "name:de": null,
            "name:tr": null,
            "name:ru": null,
            "name:ar": "جسار ماكينة"
        }
    },
    {
        "lat": 41.0348896,
        "lon": 28.8593197,
        "tags": {
            "addr:city": "Istanbul",
            "addr:district": "Bağcılar",
            "description": "",
            "opening_hours": null,
            "phone": null,
            "branch": null,
            "amenity": "fabric",
            "mobile": null,
            "addr:street": "861. Sokak",
            "cuisine": null,
            "name": "Alya Kumaş",
            "name:en": null,
            "name:uk": null,
            "name:de": null,
            "name:tr": null,
            "name:ru": null,
            "name:ar": "علياء قماش"
        }
    },
    {
        "lat": 41.0411349,
        "lon": 28.8564278,
        "tags": {
            "addr:city": "Istanbul",
            "addr:district": null,
            "description": "",
            "opening_hours": null,
            "phone": null,
            "branch": null,
            "amenity": "fabric",
            "mobile": null,
            "addr:street": "Fatih Caddesi",
            "cuisine": null,
            "name": "Sim Moda",
            "name:en": null,
            "name:uk": null,
            "name:de": null,
            "name:tr": null,
            "name:ru": null,
            "name:ar": "سيم موضة"
        }
    },
    {
        "lat": 41.0236296,
        "lon": 29.0340614,
        "tags": {
            "addr:city": "istanbul",
            "addr:district": "üsküdar",
            "description": "",
            "opening_hours": null,
            "phone": null,
            "branch": null,
            "amenity": "fabric",
            "mobile": null,
            "addr:street": "Gazi Caddesi",
            "cuisine": null,
            "name": "nazlı tekstil",
            "name:en": null,
            "name:uk": null,
            "name:de": null,
            "name:tr": null,
            "name:ru": null,
            "name:ar": null
        }
    },
    {
        "lat": 41.0029016,
        "lon": 28.9086212,
        "tags": {
            "addr:city": "Istanbul",
            "addr:district": "Zeytinburnu",
            "description": "",
            "opening_hours": null,
            "phone": "+905363391545",
            "branch": null,
            "amenity": "fabric",
            "mobile": null,
            "addr:street": "Dursun Kılıç Caddesi",
            "cuisine": null,
            "name": "Vera Tekstil",
            "name:en": null,
            "name:uk": null,
            "name:de": null,
            "name:tr": null,
            "name:ru": null,
            "name:ar": "تالشكان للاقمشة"
        }
    },
    {
        "lat": 41.0212891,
        "lon": 28.5795557,
        "tags": {
            "addr:city": "İstanbul",
            "addr:district": null,
            "description": "",
            "opening_hours": null,
            "phone": null,
            "branch": null,
            "amenity": "fabric",
            "mobile": null,
            "addr:street": null,
            "cuisine": null,
            "name": "Moda Yorgancısı",
            "name:en": null,
            "name:uk": null,
            "name:de": null,
            "name:tr": null,
            "name:ru": null,
            "name:ar": null
        }
    },
    {
        "lat": 40.9807589,
        "lon": 29.1136385,
        "tags": {
            "addr:city": "İstanbul",
            "addr:district": null,
            "description": "",
            "opening_hours": null,
            "phone": null,
            "branch": null,
            "amenity": "fabric",
            "mobile": null,
            "addr:street": null,
            "cuisine": null,
            "name": "Güngördü Tekstil",
            "name:en": null,
            "name:uk": null,
            "name:de": null,
            "name:tr": null,
            "name:ru": null,
            "name:ar": null
        }
    },
    {
        "lat": 40.9794899,
        "lon": 29.1158565,
        "tags": {
            "addr:city": "İstanbul",
            "addr:district": null,
            "description": "",
            "opening_hours": null,
            "phone": null,
            "branch": null,
            "amenity": "fabric",
            "mobile": null,
            "addr:street": null,
            "cuisine": null,
            "name": "Şal Eşarp Mühendisi",
            "name:en": null,
            "name:uk": null,
            "name:de": null,
            "name:tr": null,
            "name:ru": null,
            "name:ar": null
        }
    },
    {
        "lat": 40.9664562,
        "lon": 29.0587548,
        "tags": {
            "addr:city": "İstanbul",
            "addr:district": null,
            "description": "",
            "opening_hours": null,
            "phone": null,
            "branch": null,
            "amenity": "fabric",
            "mobile": null,
            "addr:street": null,
            "cuisine": null,
            "name": "Fabric & Home",
            "name:en": null,
            "name:uk": null,
            "name:de": null,
            "name:tr": null,
            "name:ru": null,
            "name:ar": null
        }
    },
    {
        "lat": 40.9768319,
        "lon": 29.0425057,
        "tags": {
            "addr:city": "İstanbul",
            "addr:district": null,
            "description": "",
            "opening_hours": null,
            "phone": null,
            "branch": null,
            "amenity": "fabric",
            "mobile": null,
            "addr:street": null,
            "cuisine": null,
            "name": "Kalamış Kumaş",
            "name:en": null,
            "name:uk": null,
            "name:de": null,
            "name:tr": null,
            "name:ru": null,
            "name:ar": null
        }
    },
    {
        "lat": 41.0271691,
        "lon": 29.0912348,
        "tags": {
            "addr:city": "İstanbul",
            "addr:district": null,
            "description": "",
            "opening_hours": null,
            "phone": null,
            "branch": null,
            "amenity": "fabric",
            "mobile": null,
            "addr:street": null,
            "cuisine": null,
            "name": "Mert Ev Tekstil",
            "name:en": null,
            "name:uk": null,
            "name:de": null,
            "name:tr": null,
            "name:ru": null,
            "name:ar": null
        }
    },
    {
        "lat": 41.0272585,
        "lon": 29.0915651,
        "tags": {
            "addr:city": "İstanbul",
            "addr:district": null,
            "description": "",
            "opening_hours": null,
            "phone": null,
            "branch": null,
            "amenity": "fabric",
            "mobile": null,
            "addr:street": null,
            "cuisine": null,
            "name": "Çelikler Kumaş",
            "name:en": null,
            "name:uk": null,
            "name:de": null,
            "name:tr": null,
            "name:ru": null,
            "name:ar": null
        }
    },
    {
        "lat": 40.9810788,
        "lon": 29.1126445,
        "tags": {
            "addr:city": "İstanbul",
            "addr:district": null,
            "description": "",
            "opening_hours": null,
            "phone": null,
            "branch": null,
            "amenity": "fabric",
            "mobile": null,
            "addr:street": null,
            "cuisine": null,
            "name": "Yorgancı",
            "name:en": null,
            "name:uk": null,
            "name:de": null,
            "name:tr": null,
            "name:ru": null,
            "name:ar": null
        }
    },
    {
        "lat": 40.9803942,
        "lon": 29.1127241,
        "tags": {
            "addr:city": "İstanbul",
            "addr:district": null,
            "description": "",
            "opening_hours": null,
            "phone": null,
            "branch": null,
            "amenity": "fabric",
            "mobile": null,
            "addr:street": null,
            "cuisine": null,
            "name": "İnci Tuhafiye & Yün",
            "name:en": null,
            "name:uk": null,
            "name:de": null,
            "name:tr": null,
            "name:ru": null,
            "name:ar": null
        }
    },
    {
        "lat": 41.1275025,
        "lon": 28.7541446,
        "tags": {
            "addr:city": "İstanbul",
            "addr:district": "Başakşehir",
            "description": "Toptan Ucuz Dokuma ve Örme Grubu Parça ve Top Stok Parti Malı Kumaş Online Satın Al. Nonwoven, Kot, Kadife, Gabardin, Viskon, Bürümcük, Ham Penye, Fire, Hurda Kumaş, Geri Dönüşüm, Krep, Şifon, Çantalık, Montluk Kapitone, Astar, Tela, Jarse, Likralı ve Lik",
            "opening_hours": "24/7",
            "phone": "+905342079723",
            "branch": null,
            "amenity": "fabric",
            "mobile": null,
            "addr:street": "Yazıcı Sokak",
            "cuisine": null,
            "name": "Atilla Tekstil",
            "name:en": null,
            "name:uk": null,
            "name:de": null,
            "name:tr": null,
            "name:ru": null,
            "name:ar": null
        }
    },
    {
        "lat": 40.9238813,
        "lon": 29.1306602,
        "tags": {
            "addr:city": "İstanbul",
            "addr:district": null,
            "description": "",
            "opening_hours": null,
            "phone": null,
            "branch": null,
            "amenity": "fabric",
            "mobile": null,
            "addr:street": null,
            "cuisine": null,
            "name": "Kenan Tuhafiye",
            "name:en": null,
            "name:uk": null,
            "name:de": null,
            "name:tr": null,
            "name:ru": null,
            "name:ar": null
        }
    },
    {
        "lat": 40.9808435,
        "lon": 29.0792533,
        "tags": {
            "addr:city": "İstanbul",
            "addr:district": null,
            "description": "",
            "opening_hours": null,
            "phone": null,
            "branch": null,
            "amenity": "fabric",
            "mobile": null,
            "addr:street": null,
            "cuisine": null,
            "name": "Ergin Kumaş",
            "name:en": null,
            "name:uk": null,
            "name:de": null,
            "name:tr": null,
            "name:ru": null,
            "name:ar": null
        }
    },
    {
        "lat": 41.0465456,
        "lon": 28.9032998,
        "tags": {
            "addr:city": "İstanbul",
            "addr:district": "Bayrampaşa",
            "description": "",
            "opening_hours": null,
            "phone": null,
            "branch": null,
            "amenity": "fabric",
            "mobile": null,
            "addr:street": "Hayır Sokağı",
            "cuisine": null,
            "name": "Ufuk Tekstil",
            "name:en": null,
            "name:uk": null,
            "name:de": null,
            "name:tr": null,
            "name:ru": null,
            "name:ar": null
        }
    },
    {
        "lat": 41.0741721,
        "lon": 28.2502301,
        "tags": {
            "addr:city": "İstanbul",
            "addr:district": null,
            "description": "Toptan peraknde kumaş mağazası",
            "opening_hours": null,
            "phone": null,
            "branch": null,
            "amenity": "fabric",
            "mobile": null,
            "addr:street": null,
            "cuisine": null,
            "name": "KAPLAN KUMAŞ",
            "name:en": null,
            "name:uk": null,
            "name:de": null,
            "name:tr": null,
            "name:ru": null,
            "name:ar": null
        }
    },
    {
        "lat": 41.0232959,
        "lon": 28.8813824,
        "tags": {
            "addr:city": "İstanbul",
            "addr:district": null,
            "description": "",
            "opening_hours": null,
            "phone": null,
            "branch": null,
            "amenity": "fabric",
            "mobile": null,
            "addr:street": null,
            "cuisine": null,
            "name": "GBS Gebeşoğlu Kumaşçılık",
            "name:en": null,
            "name:uk": null,
            "name:de": null,
            "name:tr": null,
            "name:ru": null,
            "name:ar": null
        }
    },
    {
        "lat": 41.0088516,
        "lon": 28.907556,
        "tags": {
            "addr:city": "İstanbul",
            "addr:district": "Zeytinburnu",
            "description": "",
            "opening_hours": "Mo-Fr 10:00-20:00; Sa 12:00-16:00",
            "phone": "+90 212 416 6514",
            "branch": null,
            "amenity": "fabric",
            "mobile": null,
            "addr:street": "Merkezevler 2. Etap Yolu Sokağı",
            "cuisine": null,
            "name": "Yavuz Tekstil",
            "name:en": null,
            "name:uk": null,
            "name:de": null,
            "name:tr": null,
            "name:ru": null,
            "name:ar": null
        }
    },
    {
        "lat": 41.0076546,
        "lon": 28.9077663,
        "tags": {
            "addr:city": "İstanbul",
            "addr:district": "Zeytinburnu",
            "description": "",
            "opening_hours": "Mo-Sa 09:00-18:00",
            "phone": null,
            "branch": null,
            "amenity": "fabric",
            "mobile": "+90 538 830 4435;+90 531 484 0263",
            "addr:street": "Balıklı Çırpıcı Yolu Sokağı",
            "cuisine": null,
            "name": "Ortakaya Tekstil",
            "name:en": null,
            "name:uk": null,
            "name:de": null,
            "name:tr": null,
            "name:ru": null,
            "name:ar": null
        }
    },
    {
        "lat": 41.0075593,
        "lon": 28.9084853,
        "tags": {
            "addr:city": "İstanbul",
            "addr:district": "Zeytinburnu",
            "description": "",
            "opening_hours": "Mo-Sa 09:00-18:00",
            "phone": null,
            "branch": null,
            "amenity": "fabric",
            "mobile": "+90 538 830 4435;+90 531 484 0263",
            "addr:street": "Balıklı Çırpıcı Yolu Sokağı",
            "cuisine": null,
            "name": "Ortakaya Tekstil",
            "name:en": null,
            "name:uk": null,
            "name:de": null,
            "name:tr": null,
            "name:ru": null,
            "name:ar": null
        }
    },
    {
        "lat": 41.0275001,
        "lon": 29.0908784,
        "tags": {
            "addr:city": "İstanbul",
            "addr:district": null,
            "description": "",
            "opening_hours": null,
            "phone": null,
            "branch": null,
            "amenity": "fabric",
            "mobile": null,
            "addr:street": null,
            "cuisine": null,
            "name": "Serra Kumaş",
            "name:en": null,
            "name:uk": null,
            "name:de": null,
            "name:tr": "Serra Kumaş",
            "name:ru": null,
            "name:ar": null
        }
    },
    {
        "lat": 41.0279147,
        "lon": 29.0908623,
        "tags": {
            "addr:city": "İstanbul",
            "addr:district": null,
            "description": "",
            "opening_hours": null,
            "phone": null,
            "branch": null,
            "amenity": "fabric",
            "mobile": null,
            "addr:street": null,
            "cuisine": null,
            "name": "Gizem Kumaş",
            "name:en": null,
            "name:uk": null,
            "name:de": null,
            "name:tr": "Gizem Kumaş",
            "name:ru": null,
            "name:ar": null
        }
    },
    {
        "lat": 41.0278916,
        "lon": 29.0908238,
        "tags": {
            "addr:city": "İstanbul",
            "addr:district": null,
            "description": "",
            "opening_hours": null,
            "phone": null,
            "branch": null,
            "amenity": "fabric",
            "mobile": null,
            "addr:street": null,
            "cuisine": null,
            "name": "Seriden Kumaş",
            "name:en": null,
            "name:uk": null,
            "name:de": null,
            "name:tr": "Seriden Kumaş",
            "name:ru": null,
            "name:ar": null
        }
    },
    {
        "lat": 41.0278713,
        "lon": 29.0907877,
        "tags": {
            "addr:city": "İstanbul",
            "addr:district": null,
            "description": "",
            "opening_hours": null,
            "phone": null,
            "branch": null,
            "amenity": "fabric",
            "mobile": null,
            "addr:street": null,
            "cuisine": null,
            "name": "Nehir Kumaş",
            "name:en": null,
            "name:uk": null,
            "name:de": null,
            "name:tr": "Nehir Kumaş",
            "name:ru": null,
            "name:ar": null
        }
    },
    {
        "lat": 41.0277688,
        "lon": 29.0911994,
        "tags": {
            "addr:city": "İstanbul",
            "addr:district": null,
            "description": "",
            "opening_hours": null,
            "phone": null,
            "branch": null,
            "amenity": "fabric",
            "mobile": null,
            "addr:street": null,
            "cuisine": null,
            "name": "Rabia Kumaş",
            "name:en": null,
            "name:uk": null,
            "name:de": null,
            "name:tr": "Rabia Kumaş",
            "name:ru": null,
            "name:ar": null
        }
    },
    {
        "lat": 41.0276313,
        "lon": 29.0913009,
        "tags": {
            "addr:city": "İstanbul",
            "addr:district": null,
            "description": "",
            "opening_hours": null,
            "phone": null,
            "branch": null,
            "amenity": "fabric",
            "mobile": null,
            "addr:street": null,
            "cuisine": null,
            "name": "Esnar Kumaş",
            "name:en": null,
            "name:uk": null,
            "name:de": null,
            "name:tr": "Esnar Kumaş",
            "name:ru": null,
            "name:ar": null
        }
    },
    {
        "lat": 41.027128,
        "lon": 29.092011,
        "tags": {
            "addr:city": "İstanbul",
            "addr:district": null,
            "description": "",
            "opening_hours": null,
            "phone": null,
            "branch": null,
            "amenity": "fabric",
            "mobile": null,
            "addr:street": null,
            "cuisine": null,
            "name": "Cadde Kumaş",
            "name:en": null,
            "name:uk": null,
            "name:de": null,
            "name:tr": "Cadde Kumaş",
            "name:ru": null,
            "name:ar": null
        }
    },
    {
        "lat": 41.0276557,
        "lon": 29.0914541,
        "tags": {
            "addr:city": "İstanbul",
            "addr:district": null,
            "description": "",
            "opening_hours": null,
            "phone": null,
            "branch": null,
            "amenity": "fabric",
            "mobile": null,
            "addr:street": null,
            "cuisine": null,
            "name": "Misliyna Kumaş",
            "name:en": null,
            "name:uk": null,
            "name:de": null,
            "name:tr": "Misliyna Kumaş",
            "name:ru": null,
            "name:ar": null
        }
    },
    {
        "lat": 41.0277423,
        "lon": 29.0913687,
        "tags": {
            "addr:city": "İstanbul",
            "addr:district": null,
            "description": "",
            "opening_hours": null,
            "phone": null,
            "branch": null,
            "amenity": "fabric",
            "mobile": null,
            "addr:street": null,
            "cuisine": null,
            "name": "Koza Dantel",
            "name:en": null,
            "name:uk": null,
            "name:de": null,
            "name:tr": "Koza Dantel",
            "name:ru": null,
            "name:ar": null
        }
    },
    {
        "lat": 41.0280788,
        "lon": 29.0910723,
        "tags": {
            "addr:city": "İstanbul",
            "addr:district": null,
            "description": "",
            "opening_hours": null,
            "phone": null,
            "branch": null,
            "amenity": "fabric",
            "mobile": null,
            "addr:street": null,
            "cuisine": null,
            "name": "İstanbul Kumaş",
            "name:en": null,
            "name:uk": null,
            "name:de": null,
            "name:tr": "İstanbul Kumaş",
            "name:ru": null,
            "name:ar": null
        }
    },
    {
        "lat": 41.0275982,
        "lon": 29.090833,
        "tags": {
            "addr:city": "İstanbul",
            "addr:district": null,
            "description": "",
            "opening_hours": null,
            "phone": null,
            "branch": null,
            "amenity": "fabric",
            "mobile": null,
            "addr:street": null,
            "cuisine": null,
            "name": "Serra Pomuk",
            "name:en": null,
            "name:uk": null,
            "name:de": null,
            "name:tr": "Serra Pomuk",
            "name:ru": null,
            "name:ar": null
        }
    }
]