[
    {
        "lat": 41.0181634,
        "lon": 28.9673137,
        "tags": {
            "addr:city": "Istanbul",
            "addr:district": "Fatih",
            "description": "",
            "opening_hours": null,
            "phone": null,
            "branch": null,
            "amenity": "fishing",
            "mobile": null,
            "addr:street": "Kutucular Caddesi",
            "cuisine": null,
            "name": "Murat Balik Malzemeleri",
            "name:en": null,
            "name:uk": null,
            "name:de": null,
            "name:tr": null,
            "name:ru": null,
            "name:ar": null
        }
    },
    {
        "lat": 41.0669694,
        "lon": 28.8274521,
        "tags": {
            "addr:city": "Istanbul",
            "addr:district": "Bağcılar",
            "description": "",
            "opening_hours": null,
            "phone": null,
            "branch": null,
            "amenity": "fishing",
            "mobile": null,
            "addr:street": "3.Yol sokak",
            "cuisine": null,
            "name": "Tsunami",
            "name:en": null,
            "name:uk": null,
            "name:de": null,
            "name:tr": null,
            "name:ru": null,
            "name:ar": "تسونامي"
        }
    },
    {
        "lat": 41.0668234,
        "lon": 28.828136,
        "tags": {
            "addr:city": "Istanbul",
            "addr:district": "Bağcılar",
            "description": "",
            "opening_hours": null,
            "phone": null,
            "branch": null,
            "amenity": "fishing",
            "mobile": null,
            "addr:street": "3.Yol sokak",
            "cuisine": null,
            "name": "Rastgele",
            "name:en": null,
            "name:uk": null,
            "name:de": null,
            "name:tr": null,
            "name:ru": null,
            "name:ar": "راست غيلى"
        }
    },
    {
        "lat": 41.0668211,
        "lon": 28.8281965,
        "tags": {
            "addr:city": "Istanbul",
            "addr:district": "Bağcılar",
            "description": "",
            "opening_hours": null,
            "phone": null,
            "branch": null,
            "amenity": "fishing",
            "mobile": null,
            "addr:street": "3.Yol sokak",
            "cuisine": null,
            "name": "Kaptan",
            "name:en": null,
            "name:uk": null,
            "name:de": null,
            "name:tr": null,
            "name:ru": null,
            "name:ar": "قبطان"
        }
    },
    {
        "lat": 41.0669101,
        "lon": 28.8279393,
        "tags": {
            "addr:city": "Istanbul",
            "addr:district": "Bağcılar",
            "description": "",
            "opening_hours": null,
            "phone": null,
            "branch": null,
            "amenity": "fishing",
            "mobile": null,
            "addr:street": "3.Yol sokak",
            "cuisine": null,
            "name": "Yaban",
            "name:en": null,
            "name:uk": null,
            "name:de": null,
            "name:tr": null,
            "name:ru": null,
            "name:ar": "يابان"
        }
    },
    {
        "lat": 41.0668668,
        "lon": 28.8279907,
        "tags": {
            "addr:city": "Istanbul",
            "addr:district": "Bağcılar",
            "description": "",
            "opening_hours": null,
            "phone": null,
            "branch": null,
            "amenity": "fishing",
            "mobile": null,
            "addr:street": "3.Yol sokak",
            "cuisine": null,
            "name": "Nehir",
            "name:en": null,
            "name:uk": null,
            "name:de": null,
            "name:tr": null,
            "name:ru": null,
            "name:ar": "نهر"
        }
    },
    {
        "lat": 41.0655845,
        "lon": 28.8283094,
        "tags": {
            "addr:city": "Istanbul",
            "addr:district": "Bağcılar",
            "description": "",
            "opening_hours": null,
            "phone": null,
            "branch": null,
            "amenity": "fishing",
            "mobile": null,
            "addr:street": "3.Yol sokak",
            "cuisine": null,
            "name": "Lodos balıkçılık",
            "name:en": null,
            "name:uk": null,
            "name:de": null,
            "name:tr": null,
            "name:ru": null,
            "name:ar": "لودوس بالكشيليك"
        }
    },
    {
        "lat": 41.0670978,
        "lon": 28.8283776,
        "tags": {
            "addr:city": "Istanbul",
            "addr:district": "Bağcılar",
            "description": "",
            "opening_hours": null,
            "phone": null,
            "branch": null,
            "amenity": "fishing",
            "mobile": null,
            "addr:street": "3.Yol sokak",
            "cuisine": null,
            "name": "Avdeposu",
            "name:en": null,
            "name:uk": null,
            "name:de": null,
            "name:tr": null,
            "name:ru": null,
            "name:ar": "اف ديبوسو"
        }
    },
    {
        "lat": 41.0669671,
        "lon": 28.828389,
        "tags": {
            "addr:city": "Istanbul",
            "addr:district": "Bağcılar",
            "description": "",
            "opening_hours": null,
            "phone": null,
            "branch": null,
            "amenity": "fishing",
            "mobile": null,
            "addr:street": "3.Yol sokak",
            "cuisine": null,
            "name": "Spot Balık",
            "name:en": null,
            "name:uk": null,
            "name:de": null,
            "name:tr": null,
            "name:ru": null,
            "name:ar": "سبوت بالك"
        }
    },
    {
        "lat": 41.0668342,
        "lon": 28.8280649,
        "tags": {
            "addr:city": "Istanbul",
            "addr:district": "Bağcılar",
            "description": "",
            "opening_hours": null,
            "phone": null,
            "branch": null,
            "amenity": "fishing",
            "mobile": null,
            "addr:street": "3.Yol sokak",
            "cuisine": null,
            "name": "Liman",
            "name:en": null,
            "name:uk": null,
            "name:de": null,
            "name:tr": null,
            "name:ru": null,
            "name:ar": "ليمان"
        }
    },
    {
        "lat": 40.9166319,
        "lon": 29.1981576,
        "tags": {
            "addr:city": "istanbul",
            "addr:district": null,
            "description": "",
            "opening_hours": null,
            "phone": null,
            "branch": null,
            "amenity": "fishing",
            "mobile": null,
            "addr:street": null,
            "cuisine": null,
            "name": "Alkar Balık Pazarı",
            "name:en": null,
            "name:uk": null,
            "name:de": null,
            "name:tr": null,
            "name:ru": null,
            "name:ar": null
        }
    },
    {
        "lat": 40.9971882,
        "lon": 28.7078648,
        "tags": {
            "addr:city": "Istanbul",
            "addr:district": "avcılar",
            "description": "",
            "opening_hours": null,
            "phone": null,
            "branch": null,
            "amenity": "fishing",
            "mobile": null,
            "addr:street": "Mareşal Caddesi",
            "cuisine": null,
            "name": "Parseller Balıkçısı",
            "name:en": null,
            "name:uk": null,
            "name:de": null,
            "name:tr": null,
            "name:ru": null,
            "name:ar": null
        }
    },
    {
        "lat": 41.1017898,
        "lon": 28.81053,
        "tags": {
            "addr:city": "İstanbul",
            "addr:district": null,
            "description": "",
            "opening_hours": null,
            "phone": null,
            "branch": null,
            "amenity": "fishing",
            "mobile": null,
            "addr:street": null,
            "cuisine": null,
            "name": "yunus balıkçılık",
            "name:en": null,
            "name:uk": null,
            "name:de": null,
            "name:tr": null,
            "name:ru": null,
            "name:ar": null
        }
    },
    {
        "lat": 40.9798686,
        "lon": 29.1129125,
        "tags": {
            "addr:city": "İstanbul",
            "addr:district": null,
            "description": "",
            "opening_hours": null,
            "phone": null,
            "branch": null,
            "amenity": "fishing",
            "mobile": null,
            "addr:street": null,
            "cuisine": null,
            "name": "Kılıç Balıkçılık",
            "name:en": null,
            "name:uk": null,
            "name:de": null,
            "name:tr": null,
            "name:ru": null,
            "name:ar": null
        }
    },
    {
        "lat": 40.9829325,
        "lon": 29.0656281,
        "tags": {
            "addr:city": "İstanbul",
            "addr:district": null,
            "description": "",
            "opening_hours": null,
            "phone": null,
            "branch": null,
            "amenity": "fishing",
            "mobile": null,
            "addr:street": null,
            "cuisine": null,
            "name": "Göztepe Balıkçısı",
            "name:en": null,
            "name:uk": null,
            "name:de": null,
            "name:tr": null,
            "name:ru": null,
            "name:ar": null
        }
    },
    {
        "lat": 41.0708335,
        "lon": 28.2427377,
        "tags": {
            "addr:city": "İstanbul",
            "addr:district": null,
            "description": "",
            "opening_hours": null,
            "phone": null,
            "branch": null,
            "amenity": "fishing",
            "mobile": null,
            "addr:street": null,
            "cuisine": null,
            "name": "Eski Marmara Balık Market",
            "name:en": null,
            "name:uk": null,
            "name:de": null,
            "name:tr": null,
            "name:ru": null,
            "name:ar": null
        }
    },
    {
        "lat": 40.8166317,
        "lon": 29.3026814,
        "tags": {
            "addr:city": "İstanbul",
            "addr:district": null,
            "description": "",
            "opening_hours": null,
            "phone": null,
            "branch": null,
            "amenity": "fishing",
            "mobile": null,
            "addr:street": null,
            "cuisine": null,
            "name": "Kaya Balıkçılık",
            "name:en": null,
            "name:uk": null,
            "name:de": null,
            "name:tr": null,
            "name:ru": null,
            "name:ar": null
        }
    },
    {
        "lat": 40.9240142,
        "lon": 29.130555,
        "tags": {
            "addr:city": "İstanbul",
            "addr:district": null,
            "description": "",
            "opening_hours": null,
            "phone": null,
            "branch": null,
            "amenity": "fishing",
            "mobile": null,
            "addr:street": null,
            "cuisine": null,
            "name": "Vitamin Balık",
            "name:en": null,
            "name:uk": null,
            "name:de": null,
            "name:tr": null,
            "name:ru": null,
            "name:ar": null
        }
    },
    {
        "lat": 41.0742465,
        "lon": 29.0702311,
        "tags": {
            "addr:city": "İstanbul",
            "addr:district": null,
            "description": "",
            "opening_hours": null,
            "phone": null,
            "branch": null,
            "amenity": "fishing",
            "mobile": null,
            "addr:street": null,
            "cuisine": null,
            "name": "Kuzey Balıkçısı",
            "name:en": null,
            "name:uk": null,
            "name:de": null,
            "name:tr": null,
            "name:ru": null,
            "name:ar": null
        }
    },
    {
        "lat": 40.926617,
        "lon": 29.133181,
        "tags": {
            "addr:city": "İstanbul",
            "addr:district": null,
            "description": "",
            "opening_hours": null,
            "phone": null,
            "branch": null,
            "amenity": "fishing",
            "mobile": null,
            "addr:street": null,
            "cuisine": null,
            "name": "Alkar Balık",
            "name:en": null,
            "name:uk": null,
            "name:de": null,
            "name:tr": null,
            "name:ru": null,
            "name:ar": null
        }
    },
    {
        "lat": 40.9883213,
        "lon": 28.9037563,
        "tags": {
            "addr:city": "İstanbul",
            "addr:district": null,
            "description": "",
            "opening_hours": null,
            "phone": null,
            "branch": null,
            "amenity": "fishing",
            "mobile": null,
            "addr:street": null,
            "cuisine": null,
            "name": "Marmara Balık Market",
            "name:en": null,
            "name:uk": null,
            "name:de": null,
            "name:tr": null,
            "name:ru": null,
            "name:ar": null
        }
    },
    {
        "lat": 41.022253,
        "lon": 28.974088,
        "tags": {
            "addr:city": "İstanbul",
            "addr:district": null,
            "description": "",
            "opening_hours": null,
            "phone": null,
            "branch": null,
            "amenity": "fishing",
            "mobile": null,
            "addr:street": null,
            "cuisine": null,
            "name": null,
            "name:en": null,
            "name:uk": null,
            "name:de": null,
            "name:tr": null,
            "name:ru": null,
            "name:ar": null
        }
    },
    {
        "lat": 41.022262,
        "lon": 28.9739833,
        "tags": {
            "addr:city": "İstanbul",
            "addr:district": null,
            "description": "",
            "opening_hours": null,
            "phone": null,
            "branch": null,
            "amenity": "fishing",
            "mobile": null,
            "addr:street": null,
            "cuisine": null,
            "name": "Trans Balıkçılık",
            "name:en": null,
            "name:uk": null,
            "name:de": null,
            "name:tr": null,
            "name:ru": null,
            "name:ar": null
        }
    }
]