[
    {
        "lat": 40.9867892,
        "lon": 29.0460217,
        "tags": {
            "addr:city": "İstanbul",
            "addr:district": null,
            "description": "",
            "opening_hours": null,
            "phone": null,
            "branch": null,
            "amenity": "florist",
            "mobile": null,
            "addr:street": null,
            "cuisine": null,
            "name": "Neşe Çiçek",
            "name:en": null,
            "name:uk": null,
            "name:de": null,
            "name:tr": null,
            "name:ru": null,
            "name:ar": null
        }
    },
    {
        "lat": 40.9819581,
        "lon": 29.0408256,
        "tags": {
            "addr:city": "İstanbul",
            "addr:district": null,
            "description": "",
            "opening_hours": null,
            "phone": null,
            "branch": null,
            "amenity": "florist",
            "mobile": null,
            "addr:street": null,
            "cuisine": null,
            "name": "Pırıltı Çiçekçilik",
            "name:en": null,
            "name:uk": null,
            "name:de": null,
            "name:tr": null,
            "name:ru": null,
            "name:ar": null
        }
    },
    {
        "lat": 41.0494923,
        "lon": 29.0767172,
        "tags": {
            "addr:city": "İstanbul",
            "addr:district": null,
            "description": "",
            "opening_hours": null,
            "phone": null,
            "branch": null,
            "amenity": "florist",
            "mobile": null,
            "addr:street": null,
            "cuisine": null,
            "name": "Tuğba Çiçekçilik",
            "name:en": null,
            "name:uk": null,
            "name:de": null,
            "name:tr": null,
            "name:ru": null,
            "name:ar": null
        }
    },
    {
        "lat": 41.0211408,
        "lon": 29.1930453,
        "tags": {
            "addr:city": "İstanbul",
            "addr:district": null,
            "description": "",
            "opening_hours": null,
            "phone": null,
            "branch": null,
            "amenity": "florist",
            "mobile": null,
            "addr:street": null,
            "cuisine": null,
            "name": null,
            "name:en": null,
            "name:uk": null,
            "name:de": null,
            "name:tr": null,
            "name:ru": null,
            "name:ar": null
        }
    },
    {
        "lat": 41.0050328,
        "lon": 28.6256509,
        "tags": {
            "addr:city": "İstanbul",
            "addr:district": null,
            "description": "",
            "opening_hours": null,
            "phone": null,
            "branch": null,
            "amenity": "florist",
            "mobile": null,
            "addr:street": null,
            "cuisine": null,
            "name": "İBB Çiçek Merkezi",
            "name:en": null,
            "name:uk": null,
            "name:de": null,
            "name:tr": null,
            "name:ru": null,
            "name:ar": null
        }
    },
    {
        "lat": 41.053721,
        "lon": 28.7928059,
        "tags": {
            "addr:city": "İstanbul",
            "addr:district": null,
            "description": "",
            "opening_hours": null,
            "phone": "+902126936812",
            "branch": null,
            "amenity": "florist",
            "mobile": null,
            "addr:street": null,
            "cuisine": null,
            "name": "Atakent Çiçekçilik",
            "name:en": null,
            "name:uk": null,
            "name:de": null,
            "name:tr": null,
            "name:ru": null,
            "name:ar": null
        }
    },
    {
        "lat": 40.9762777,
        "lon": 29.0922308,
        "tags": {
            "addr:city": "Kadıköy/İstanbul",
            "addr:district": null,
            "description": "",
            "opening_hours": null,
            "phone": "+90(216)380-83-80",
            "branch": null,
            "amenity": "florist",
            "mobile": null,
            "addr:street": "Okur Sokak",
            "cuisine": null,
            "name": "Bah Sonya Uluslararası Çiçekçilik",
            "name:en": null,
            "name:uk": null,
            "name:de": null,
            "name:tr": null,
            "name:ru": null,
            "name:ar": null
        }
    },
    {
        "lat": 41.0502171,
        "lon": 29.0252325,
        "tags": {
            "addr:city": "İstanbul",
            "addr:district": null,
            "description": "",
            "opening_hours": null,
            "phone": null,
            "branch": null,
            "amenity": "florist",
            "mobile": null,
            "addr:street": null,
            "cuisine": null,
            "name": "Petunya Cicekcilik",
            "name:en": null,
            "name:uk": null,
            "name:de": null,
            "name:tr": null,
            "name:ru": null,
            "name:ar": null
        }
    },
    {
        "lat": 41.0055603,
        "lon": 28.8698952,
        "tags": {
            "addr:city": "İstanbul",
            "addr:district": null,
            "description": "",
            "opening_hours": null,
            "phone": null,
            "branch": null,
            "amenity": "florist",
            "mobile": null,
            "addr:street": null,
            "cuisine": null,
            "name": "Gülnur Çiçekçi",
            "name:en": null,
            "name:uk": null,
            "name:de": null,
            "name:tr": "Gülnur Çiçekçi",
            "name:ru": null,
            "name:ar": null
        }
    },
    {
        "lat": 41.0027154,
        "lon": 28.859969,
        "tags": {
            "addr:city": "İstanbul",
            "addr:district": null,
            "description": "",
            "opening_hours": null,
            "phone": null,
            "branch": null,
            "amenity": "florist",
            "mobile": null,
            "addr:street": null,
            "cuisine": null,
            "name": "Lavanta Çiçekçi",
            "name:en": null,
            "name:uk": null,
            "name:de": null,
            "name:tr": "Lavanta Çiçekçi",
            "name:ru": null,
            "name:ar": null
        }
    },
    {
        "lat": 41.0327723,
        "lon": 29.1739206,
        "tags": {
            "addr:city": "İstanbul Çekmeköy",
            "addr:district": null,
            "description": "",
            "opening_hours": null,
            "phone": null,
            "branch": null,
            "amenity": "florist",
            "mobile": null,
            "addr:street": "Mimar Sinan Caddesi",
            "cuisine": null,
            "name": "Efsane Çiçekçilik",
            "name:en": null,
            "name:uk": null,
            "name:de": null,
            "name:tr": null,
            "name:ru": null,
            "name:ar": null
        }
    },
    {
        "lat": 41.0717648,
        "lon": 28.8894429,
        "tags": {
            "addr:city": "İstanbul",
            "addr:district": null,
            "description": "",
            "opening_hours": null,
            "phone": null,
            "branch": null,
            "amenity": "florist",
            "mobile": null,
            "addr:street": null,
            "cuisine": null,
            "name": null,
            "name:en": null,
            "name:uk": null,
            "name:de": null,
            "name:tr": null,
            "name:ru": null,
            "name:ar": null
        }
    },
    {
        "lat": 41.0170308,
        "lon": 29.0431183,
        "tags": {
            "addr:city": "Üsküdar/İstanbul",
            "addr:district": null,
            "description": "",
            "opening_hours": null,
            "phone": null,
            "branch": null,
            "amenity": "florist",
            "mobile": null,
            "addr:street": "Sırmaperde Sokak",
            "cuisine": null,
            "name": "ACIBADEM ÇİÇEKÇİLİK",
            "name:en": null,
            "name:uk": null,
            "name:de": null,
            "name:tr": null,
            "name:ru": null,
            "name:ar": null
        }
    },
    {
        "lat": 40.982053,
        "lon": 29.040641,
        "tags": {
            "addr:city": "İstanbul",
            "addr:district": null,
            "description": "",
            "opening_hours": null,
            "phone": null,
            "branch": null,
            "amenity": "florist",
            "mobile": null,
            "addr:street": null,
            "cuisine": null,
            "name": "Platin Çiçekçilik",
            "name:en": null,
            "name:uk": null,
            "name:de": null,
            "name:tr": null,
            "name:ru": null,
            "name:ar": null
        }
    },
    {
        "lat": 40.9215869,
        "lon": 29.1381645,
        "tags": {
            "addr:city": "İstanbul",
            "addr:district": null,
            "description": "",
            "opening_hours": null,
            "phone": null,
            "branch": null,
            "amenity": "florist",
            "mobile": null,
            "addr:street": null,
            "cuisine": null,
            "name": "Yaren",
            "name:en": null,
            "name:uk": null,
            "name:de": null,
            "name:tr": null,
            "name:ru": null,
            "name:ar": null
        }
    },
    {
        "lat": 41.0926977,
        "lon": 29.0852338,
        "tags": {
            "addr:city": "İstanbul",
            "addr:district": null,
            "description": "",
            "opening_hours": null,
            "phone": null,
            "branch": null,
            "amenity": "florist",
            "mobile": null,
            "addr:street": "Fatih Sultan Mehmet Cd.",
            "cuisine": null,
            "name": "çiçekçi",
            "name:en": null,
            "name:uk": null,
            "name:de": null,
            "name:tr": null,
            "name:ru": null,
            "name:ar": null
        }
    },
    {
        "lat": 41.0943402,
        "lon": 29.0925734,
        "tags": {
            "addr:city": "İstanbul",
            "addr:district": null,
            "description": "",
            "opening_hours": null,
            "phone": null,
            "branch": null,
            "amenity": "florist",
            "mobile": null,
            "addr:street": null,
            "cuisine": null,
            "name": "acar çiçek",
            "name:en": null,
            "name:uk": null,
            "name:de": null,
            "name:tr": null,
            "name:ru": null,
            "name:ar": null
        }
    },
    {
        "lat": 41.0001177,
        "lon": 28.8609393,
        "tags": {
            "addr:city": "Bahçelievler/İstanbul",
            "addr:district": null,
            "description": "",
            "opening_hours": null,
            "phone": null,
            "branch": null,
            "amenity": "florist",
            "mobile": null,
            "addr:street": "Adnan Kahveci Bulvarı",
            "cuisine": null,
            "name": "Çınar Çiçek",
            "name:en": null,
            "name:uk": null,
            "name:de": null,
            "name:tr": null,
            "name:ru": null,
            "name:ar": null
        }
    },
    {
        "lat": 40.9884096,
        "lon": 28.8716303,
        "tags": {
            "addr:city": "İstanbul",
            "addr:district": null,
            "description": "",
            "opening_hours": null,
            "phone": null,
            "branch": null,
            "amenity": "florist",
            "mobile": null,
            "addr:street": null,
            "cuisine": null,
            "name": "Siena Çiçek & Organizasyon",
            "name:en": null,
            "name:uk": null,
            "name:de": null,
            "name:tr": null,
            "name:ru": null,
            "name:ar": null
        }
    },
    {
        "lat": 41.0236472,
        "lon": 28.954455,
        "tags": {
            "addr:city": "Istanbul",
            "addr:district": "Fatih",
            "description": "",
            "opening_hours": null,
            "phone": null,
            "branch": null,
            "amenity": "florist",
            "mobile": null,
            "addr:street": "Karadeniz Caddesi",
            "cuisine": null,
            "name": "Begonya Çiçekçilik Organizasyon ve Hediyelik Eşya",
            "name:en": null,
            "name:uk": null,
            "name:de": null,
            "name:tr": null,
            "name:ru": null,
            "name:ar": "بائع ازهار وهدايا بيغونيا"
        }
    },
    {
        "lat": 40.9969512,
        "lon": 28.9281426,
        "tags": {
            "addr:city": "Istanbul",
            "addr:district": "Fatih",
            "description": "",
            "opening_hours": null,
            "phone": "(0212) 587 91 01",
            "branch": null,
            "amenity": "florist",
            "mobile": null,
            "addr:street": "İmrahor ilyasbey caddesi",
            "cuisine": null,
            "name": "Tuğba çiçekçilik",
            "name:en": null,
            "name:uk": null,
            "name:de": null,
            "name:tr": null,
            "name:ru": null,
            "name:ar": "طوبا للزهور"
        }
    },
    {
        "lat": 41.0029779,
        "lon": 28.9366433,
        "tags": {
            "addr:city": "Istanbul",
            "addr:district": "Fatih",
            "description": "",
            "opening_hours": null,
            "phone": "02125876661",
            "branch": null,
            "amenity": "florist",
            "mobile": null,
            "addr:street": "Etyemez Tekkesi Sokak",
            "cuisine": null,
            "name": "mo-su 09:00-21:00",
            "name:en": null,
            "name:uk": null,
            "name:de": null,
            "name:tr": null,
            "name:ru": null,
            "name:ar": "أراس للزهور"
        }
    },
    {
        "lat": 41.0033591,
        "lon": 28.9320885,
        "tags": {
            "addr:city": "Istanbul",
            "addr:district": "Fatih",
            "description": "",
            "opening_hours": null,
            "phone": "02125290802",
            "branch": null,
            "amenity": "florist",
            "mobile": null,
            "addr:street": "Cambaziye Mektebi Sokak",
            "cuisine": null,
            "name": "Murat Çiçekçilik",
            "name:en": null,
            "name:uk": null,
            "name:de": null,
            "name:tr": null,
            "name:ru": null,
            "name:ar": "مرات للأزهار"
        }
    },
    {
        "lat": 41.016591,
        "lon": 28.9313019,
        "tags": {
            "addr:city": "Istanbul",
            "addr:district": "Fatih",
            "description": "",
            "opening_hours": null,
            "phone": "(0212) 584 22 22",
            "branch": null,
            "amenity": "florist",
            "mobile": null,
            "addr:street": "Tatlıpınar Caddesi",
            "cuisine": null,
            "name": "Muzaffer Çiçekçilik",
            "name:en": null,
            "name:uk": null,
            "name:de": null,
            "name:tr": null,
            "name:ru": null,
            "name:ar": "مظفر للأزهار"
        }
    },
    {
        "lat": 41.0069872,
        "lon": 28.9311689,
        "tags": {
            "addr:city": "Istanbul",
            "addr:district": "Fatih",
            "description": "",
            "opening_hours": null,
            "phone": null,
            "branch": null,
            "amenity": "florist",
            "mobile": null,
            "addr:street": "Altımermer Caddesi",
            "cuisine": null,
            "name": "Muzaffer Çiçekçilik",
            "name:en": null,
            "name:uk": null,
            "name:de": null,
            "name:tr": null,
            "name:ru": null,
            "name:ar": "زهور موزفر"
        }
    },
    {
        "lat": 41.0104659,
        "lon": 28.97532,
        "tags": {
            "addr:city": "Istanbul",
            "addr:district": "Fatih",
            "description": "",
            "opening_hours": null,
            "phone": null,
            "branch": null,
            "amenity": "florist",
            "mobile": null,
            "addr:street": "Prof. Kazım İsmail Gürkan Caddesi",
            "cuisine": null,
            "name": "Çiçekçilik",
            "name:en": null,
            "name:uk": null,
            "name:de": null,
            "name:tr": null,
            "name:ru": null,
            "name:ar": "زهور تشيتشيكتشيليك"
        }
    },
    {
        "lat": 41.0103121,
        "lon": 28.9755593,
        "tags": {
            "addr:city": "Istanbul",
            "addr:district": "Fatih",
            "description": "",
            "opening_hours": null,
            "phone": null,
            "branch": null,
            "amenity": "florist",
            "mobile": null,
            "addr:street": "Nuru Osmaniye Caddesi",
            "cuisine": null,
            "name": "Cicekcizden.com",
            "name:en": null,
            "name:uk": null,
            "name:de": null,
            "name:tr": null,
            "name:ru": null,
            "name:ar": "زهور تشيتيك جوزدان دوت كوم"
        }
    },
    {
        "lat": 41.0149951,
        "lon": 28.9681634,
        "tags": {
            "addr:city": "Istanbul",
            "addr:district": "Fatih",
            "description": "",
            "opening_hours": null,
            "phone": null,
            "branch": null,
            "amenity": "florist",
            "mobile": null,
            "addr:street": "Vasıf Çınar Caddesi",
            "cuisine": null,
            "name": "Erka Çicekçi",
            "name:en": null,
            "name:uk": null,
            "name:de": null,
            "name:tr": null,
            "name:ru": null,
            "name:ar": "إركا تشيتشكتشي للزهور"
        }
    },
    {
        "lat": 41.0229355,
        "lon": 28.94622,
        "tags": {
            "addr:city": "Istanbul",
            "addr:district": "Fatih",
            "description": "",
            "opening_hours": null,
            "phone": "6353639",
            "branch": null,
            "amenity": "florist",
            "mobile": null,
            "addr:street": "Yavuz selim caddesi",
            "cuisine": null,
            "name": "Yapay çiçek dünyası",
            "name:en": null,
            "name:uk": null,
            "name:de": null,
            "name:tr": null,
            "name:ru": null,
            "name:ar": "ياباي جيجيك دونياسى"
        }
    },
    {
        "lat": 41.0153214,
        "lon": 28.966772,
        "tags": {
            "addr:city": "Istanbul",
            "addr:district": "Fatih",
            "description": "",
            "opening_hours": null,
            "phone": null,
            "branch": null,
            "amenity": "florist",
            "mobile": null,
            "addr:street": "Şahande sokak",
            "cuisine": null,
            "name": "Bahar",
            "name:en": null,
            "name:uk": null,
            "name:de": null,
            "name:tr": null,
            "name:ru": null,
            "name:ar": "بهار"
        }
    },
    {
        "lat": 41.0154265,
        "lon": 28.9666242,
        "tags": {
            "addr:city": "Istanbul",
            "addr:district": "Fatih",
            "description": "",
            "opening_hours": null,
            "phone": null,
            "branch": null,
            "amenity": "florist",
            "mobile": null,
            "addr:street": "Şahande sokak",
            "cuisine": null,
            "name": "Barış",
            "name:en": null,
            "name:uk": null,
            "name:de": null,
            "name:tr": null,
            "name:ru": null,
            "name:ar": "بارش"
        }
    },
    {
        "lat": 41.0271317,
        "lon": 28.9386071,
        "tags": {
            "addr:city": "Istanbul",
            "addr:district": "Fatih",
            "description": "",
            "opening_hours": null,
            "phone": null,
            "branch": null,
            "amenity": "florist",
            "mobile": null,
            "addr:street": "Fevzi paşa caddesi",
            "cuisine": null,
            "name": "Kerim cicekcilik",
            "name:en": null,
            "name:uk": null,
            "name:de": null,
            "name:tr": null,
            "name:ru": null,
            "name:ar": "كريم"
        }
    },
    {
        "lat": 41.0082268,
        "lon": 28.971623,
        "tags": {
            "addr:city": "Istanbul",
            "addr:district": "Fatih",
            "description": "",
            "opening_hours": null,
            "phone": null,
            "branch": null,
            "amenity": "florist",
            "mobile": null,
            "addr:street": "Peykhane caddesi",
            "cuisine": null,
            "name": "Bahçıvan",
            "name:en": null,
            "name:uk": null,
            "name:de": null,
            "name:tr": null,
            "name:ru": null,
            "name:ar": null
        }
    },
    {
        "lat": 41.0289881,
        "lon": 28.9372896,
        "tags": {
            "addr:city": "Istanbul",
            "addr:district": "Fatih",
            "description": "",
            "opening_hours": null,
            "phone": null,
            "branch": null,
            "amenity": "florist",
            "mobile": null,
            "addr:street": "Fevzi paşa Caddesi",
            "cuisine": null,
            "name": "Mahir Çiçekçilik",
            "name:en": null,
            "name:uk": null,
            "name:de": null,
            "name:tr": null,
            "name:ru": null,
            "name:ar": "ماهر بائع ورد"
        }
    },
    {
        "lat": 40.9999832,
        "lon": 28.9278386,
        "tags": {
            "addr:city": "Istanbul",
            "addr:district": "Fatih",
            "description": "",
            "opening_hours": null,
            "phone": "05443155921",
            "branch": null,
            "amenity": "florist",
            "mobile": null,
            "addr:street": "Hacı Kadın Caddesi",
            "cuisine": null,
            "name": "mo-su 09:00-20:00",
            "name:en": null,
            "name:uk": null,
            "name:de": null,
            "name:tr": null,
            "name:ru": null,
            "name:ar": "أويكو للأزهار"
        }
    },
    {
        "lat": 41.0092026,
        "lon": 28.9375624,
        "tags": {
            "addr:city": "Istanbul",
            "addr:district": "Fatih",
            "description": "",
            "opening_hours": null,
            "phone": "02125880150",
            "branch": null,
            "amenity": "florist",
            "mobile": null,
            "addr:street": "Kızılelma Caddesi",
            "cuisine": null,
            "name": "Azra çıçek",
            "name:en": null,
            "name:uk": null,
            "name:de": null,
            "name:tr": null,
            "name:ru": null,
            "name:ar": "أزرا للزهور"
        }
    },
    {
        "lat": 41.0106633,
        "lon": 28.9382196,
        "tags": {
            "addr:city": "Istanbul",
            "addr:district": "Fatih",
            "description": "",
            "opening_hours": null,
            "phone": "02125863433",
            "branch": null,
            "amenity": "florist",
            "mobile": null,
            "addr:street": "Kızılelma Caddesi",
            "cuisine": null,
            "name": "Demet Cicek Galerisi",
            "name:en": null,
            "name:uk": null,
            "name:de": null,
            "name:tr": null,
            "name:ru": null,
            "name:ar": "أزهار ديميت"
        }
    },
    {
        "lat": 41.0103557,
        "lon": 28.9313707,
        "tags": {
            "addr:city": "Istanbul",
            "addr:district": "Fatih",
            "description": "",
            "opening_hours": null,
            "phone": "02125290829",
            "branch": null,
            "amenity": "florist",
            "mobile": null,
            "addr:street": "Vezir Caddesi",
            "cuisine": null,
            "name": "Mis Çiçekçilik",
            "name:en": null,
            "name:uk": null,
            "name:de": null,
            "name:tr": null,
            "name:ru": null,
            "name:ar": "ميس للزهور"
        }
    },
    {
        "lat": 41.0019579,
        "lon": 28.9317994,
        "tags": {
            "addr:city": "Istanbul",
            "addr:district": "Fatih",
            "description": "",
            "opening_hours": null,
            "phone": "05364311519",
            "branch": null,
            "amenity": "florist",
            "mobile": null,
            "addr:street": "Demirci Osman Sokak",
            "cuisine": null,
            "name": "Aden Flower",
            "name:en": null,
            "name:uk": null,
            "name:de": null,
            "name:tr": null,
            "name:ru": null,
            "name:ar": "أدين للزهور"
        }
    },
    {
        "lat": 41.0127061,
        "lon": 28.6553072,
        "tags": {
            "addr:city": "İstanbul",
            "addr:district": null,
            "description": "",
            "opening_hours": null,
            "phone": null,
            "branch": null,
            "amenity": "florist",
            "mobile": null,
            "addr:street": null,
            "cuisine": null,
            "name": null,
            "name:en": null,
            "name:uk": null,
            "name:de": null,
            "name:tr": null,
            "name:ru": null,
            "name:ar": null
        }
    },
    {
        "lat": 41.017962,
        "lon": 28.9447285,
        "tags": {
            "addr:city": "Istanbul",
            "addr:district": "Turkey",
            "description": "",
            "opening_hours": null,
            "phone": null,
            "branch": null,
            "amenity": "florist",
            "mobile": null,
            "addr:street": "Akdeniz Caddesi",
            "cuisine": null,
            "name": "Orkide çiçekçilik",
            "name:en": null,
            "name:uk": null,
            "name:de": null,
            "name:tr": null,
            "name:ru": null,
            "name:ar": "اوركيد بياع ورد"
        }
    },
    {
        "lat": 41.0169662,
        "lon": 28.9424665,
        "tags": {
            "addr:city": "Istanbul",
            "addr:district": "Turkey",
            "description": "",
            "opening_hours": null,
            "phone": null,
            "branch": null,
            "amenity": "florist",
            "mobile": null,
            "addr:street": "Akdeniz Caddesi",
            "cuisine": null,
            "name": "Gündoğdu Çiçekçilik",
            "name:en": null,
            "name:uk": null,
            "name:de": null,
            "name:tr": null,
            "name:ru": null,
            "name:ar": "بياع ورد"
        }
    },
    {
        "lat": 41.0212337,
        "lon": 28.9435887,
        "tags": {
            "addr:city": "Istanbul",
            "addr:district": "Turkey",
            "description": "",
            "opening_hours": null,
            "phone": null,
            "branch": null,
            "amenity": "florist",
            "mobile": null,
            "addr:street": "SARIGUZEL cadde",
            "cuisine": null,
            "name": "Beyza",
            "name:en": null,
            "name:uk": null,
            "name:de": null,
            "name:tr": null,
            "name:ru": null,
            "name:ar": "بيزا"
        }
    },
    {
        "lat": 41.0158725,
        "lon": 28.9700002,
        "tags": {
            "addr:city": "Istanbul",
            "addr:district": "Fatih",
            "description": "",
            "opening_hours": null,
            "phone": null,
            "branch": null,
            "amenity": "florist",
            "mobile": null,
            "addr:street": "Sabuncu Hanı Sokak",
            "cuisine": null,
            "name": "Huzur Çiçek",
            "name:en": null,
            "name:uk": null,
            "name:de": null,
            "name:tr": null,
            "name:ru": null,
            "name:ar": null
        }
    },
    {
        "lat": 40.9874541,
        "lon": 29.0618384,
        "tags": {
            "addr:city": "İstanbul",
            "addr:district": null,
            "description": "",
            "opening_hours": null,
            "phone": null,
            "branch": null,
            "amenity": "florist",
            "mobile": null,
            "addr:street": null,
            "cuisine": null,
            "name": "çiçekçi",
            "name:en": null,
            "name:uk": null,
            "name:de": null,
            "name:tr": null,
            "name:ru": null,
            "name:ar": null
        }
    },
    {
        "lat": 40.9279432,
        "lon": 29.1339023,
        "tags": {
            "addr:city": "İstanbul",
            "addr:district": null,
            "description": "",
            "opening_hours": null,
            "phone": null,
            "branch": null,
            "amenity": "florist",
            "mobile": null,
            "addr:street": "Atatürk Caddesi",
            "cuisine": null,
            "name": "Çiçek Yolla Çiçekçi",
            "name:en": null,
            "name:uk": null,
            "name:de": null,
            "name:tr": null,
            "name:ru": null,
            "name:ar": null
        }
    },
    {
        "lat": 40.8843653,
        "lon": 29.2336346,
        "tags": {
            "addr:city": "İstanbul",
            "addr:district": null,
            "description": "",
            "opening_hours": "Mo-Su 10:00-22:00",
            "phone": null,
            "branch": null,
            "amenity": "florist",
            "mobile": null,
            "addr:street": null,
            "cuisine": null,
            "name": "orkide çiçek evi",
            "name:en": null,
            "name:uk": null,
            "name:de": null,
            "name:tr": null,
            "name:ru": null,
            "name:ar": null
        }
    },
    {
        "lat": 40.8854837,
        "lon": 29.232421,
        "tags": {
            "addr:city": "İstanbul",
            "addr:district": null,
            "description": "",
            "opening_hours": "Mo-Su 09:00-21:00",
            "phone": null,
            "branch": null,
            "amenity": "florist",
            "mobile": null,
            "addr:street": null,
            "cuisine": null,
            "name": "yasmin çiçek",
            "name:en": null,
            "name:uk": null,
            "name:de": null,
            "name:tr": null,
            "name:ru": null,
            "name:ar": null
        }
    },
    {
        "lat": 41.1092087,
        "lon": 28.8671383,
        "tags": {
            "addr:city": "İstanbul",
            "addr:district": null,
            "description": "",
            "opening_hours": null,
            "phone": null,
            "branch": null,
            "amenity": "florist",
            "mobile": null,
            "addr:street": null,
            "cuisine": null,
            "name": null,
            "name:en": null,
            "name:uk": null,
            "name:de": null,
            "name:tr": null,
            "name:ru": null,
            "name:ar": null
        }
    },
    {
        "lat": 40.9610762,
        "lon": 29.0929937,
        "tags": {
            "addr:city": "İstanbul",
            "addr:district": "Kadıköy",
            "description": "",
            "opening_hours": null,
            "phone": null,
            "branch": null,
            "amenity": "florist",
            "mobile": null,
            "addr:street": "Şemsettin Günaltay Caddesi",
            "cuisine": null,
            "name": "Moss Çiçekçi",
            "name:en": null,
            "name:uk": null,
            "name:de": null,
            "name:tr": null,
            "name:ru": null,
            "name:ar": null
        }
    },
    {
        "lat": 40.9611129,
        "lon": 29.0841432,
        "tags": {
            "addr:city": "İstanbul",
            "addr:district": "Kadıköy",
            "description": "",
            "opening_hours": null,
            "phone": null,
            "branch": null,
            "amenity": "florist",
            "mobile": null,
            "addr:street": "Ayşe Çavuş Caddesi",
            "cuisine": null,
            "name": "Delfino Çiçek",
            "name:en": null,
            "name:uk": null,
            "name:de": null,
            "name:tr": null,
            "name:ru": null,
            "name:ar": null
        }
    },
    {
        "lat": 40.960648,
        "lon": 29.0900507,
        "tags": {
            "addr:city": "İstanbul",
            "addr:district": "Kadıköy",
            "description": "",
            "opening_hours": null,
            "phone": null,
            "branch": null,
            "amenity": "florist",
            "mobile": null,
            "addr:street": "Emin Ali Paşa Caddesi",
            "cuisine": null,
            "name": "Çiçekçi",
            "name:en": null,
            "name:uk": null,
            "name:de": null,
            "name:tr": null,
            "name:ru": null,
            "name:ar": null
        }
    },
    {
        "lat": 41.0619483,
        "lon": 28.9840838,
        "tags": {
            "addr:city": "İstanbul",
            "addr:district": null,
            "description": "",
            "opening_hours": null,
            "phone": null,
            "branch": null,
            "amenity": "florist",
            "mobile": null,
            "addr:street": null,
            "cuisine": null,
            "name": "Dünya Çiçekçisi",
            "name:en": null,
            "name:uk": null,
            "name:de": null,
            "name:tr": null,
            "name:ru": null,
            "name:ar": null
        }
    },
    {
        "lat": 40.8195028,
        "lon": 29.3046578,
        "tags": {
            "addr:city": "İstanbul",
            "addr:district": null,
            "description": "",
            "opening_hours": null,
            "phone": null,
            "branch": null,
            "amenity": "florist",
            "mobile": null,
            "addr:street": null,
            "cuisine": null,
            "name": null,
            "name:en": null,
            "name:uk": null,
            "name:de": null,
            "name:tr": null,
            "name:ru": null,
            "name:ar": null
        }
    },
    {
        "lat": 40.9720764,
        "lon": 29.2481225,
        "tags": {
            "addr:city": "Istanbul",
            "addr:district": "Sultanbeyli",
            "description": "",
            "opening_hours": "Mo-Fr 07:00-13:30; Mo-Fr 17:00-20:00",
            "phone": "3980423",
            "branch": null,
            "amenity": "florist",
            "mobile": null,
            "addr:street": "شارع الريحان reyhan sokak",
            "cuisine": null,
            "name": "Kübra çiçekevi",
            "name:en": null,
            "name:uk": null,
            "name:de": null,
            "name:tr": null,
            "name:ru": null,
            "name:ar": "كوبرا للازهار بائع ورد"
        }
    },
    {
        "lat": 40.9689757,
        "lon": 29.2579117,
        "tags": {
            "addr:city": "Istanbul",
            "addr:district": "Sultanbeyli",
            "description": "",
            "opening_hours": "Mo-Fr 07:00-13:30; Mo-Fr 17:00-20:00",
            "phone": "05335299776",
            "branch": null,
            "amenity": "florist",
            "mobile": null,
            "addr:street": "Fatih Bulvarı Caddesi",
            "cuisine": null,
            "name": "Sevgi Çiçekçilik",
            "name:en": null,
            "name:uk": null,
            "name:de": null,
            "name:tr": null,
            "name:ru": null,
            "name:ar": "محل زهور سيفغي"
        }
    },
    {
        "lat": 40.968681,
        "lon": 29.2592,
        "tags": {
            "addr:city": "Istanbul",
            "addr:district": "Sultanbeyli",
            "description": "",
            "opening_hours": "Mo-Fr 07:00-13:30; Mo-Fr 17:00-20:00",
            "phone": null,
            "branch": null,
            "amenity": "florist",
            "mobile": null,
            "addr:street": "Fatih Bulvarı Caddesi",
            "cuisine": null,
            "name": "Antalya Çiçekçilik",
            "name:en": null,
            "name:uk": null,
            "name:de": null,
            "name:tr": null,
            "name:ru": null,
            "name:ar": "محل زهور انتاليا"
        }
    },
    {
        "lat": 40.9693802,
        "lon": 29.2579252,
        "tags": {
            "addr:city": "Istanbul",
            "addr:district": "Sultanbeyli",
            "description": "",
            "opening_hours": "Mo-Fr 07:00-13:30; Mo-Fr 17:00-20:00",
            "phone": null,
            "branch": null,
            "amenity": "florist",
            "mobile": null,
            "addr:street": "Fatih Caddesi",
            "cuisine": null,
            "name": "Furkan çiçekçilik",
            "name:en": null,
            "name:uk": null,
            "name:de": null,
            "name:tr": null,
            "name:ru": null,
            "name:ar": "متجر زهور فرقان"
        }
    },
    {
        "lat": 40.9978978,
        "lon": 28.9043511,
        "tags": {
            "addr:city": "Istanbul",
            "addr:district": "Zeytinburnu",
            "description": "",
            "opening_hours": "Mo-Fr 09:00-17:00",
            "phone": null,
            "branch": null,
            "amenity": "florist",
            "mobile": null,
            "addr:street": null,
            "cuisine": null,
            "name": "Doğuş çiçek",
            "name:en": null,
            "name:uk": null,
            "name:de": null,
            "name:tr": null,
            "name:ru": null,
            "name:ar": "دوغوش تشيشك للورود"
        }
    },
    {
        "lat": 41.0037663,
        "lon": 28.9069054,
        "tags": {
            "addr:city": "Istanbul",
            "addr:district": "Zeytinburnu",
            "description": "",
            "opening_hours": "Mo-Sa 09:00-18:00",
            "phone": null,
            "branch": null,
            "amenity": "florist",
            "mobile": null,
            "addr:street": null,
            "cuisine": null,
            "name": "çiçekçi",
            "name:en": null,
            "name:uk": null,
            "name:de": null,
            "name:tr": null,
            "name:ru": null,
            "name:ar": "بائع الورود"
        }
    },
    {
        "lat": 41.0052549,
        "lon": 28.9043859,
        "tags": {
            "addr:city": "Istanbul",
            "addr:district": "Zeytinburnu",
            "description": "",
            "opening_hours": null,
            "phone": null,
            "branch": null,
            "amenity": "florist",
            "mobile": null,
            "addr:street": "Mevlana Cd",
            "cuisine": null,
            "name": "çiçekçi",
            "name:en": null,
            "name:uk": null,
            "name:de": null,
            "name:tr": null,
            "name:ru": null,
            "name:ar": "بائع ورد"
        }
    },
    {
        "lat": 40.9971311,
        "lon": 28.8951129,
        "tags": {
            "addr:city": "Istanbul",
            "addr:district": "Zeytinburnu",
            "description": "",
            "opening_hours": null,
            "phone": null,
            "branch": null,
            "amenity": "florist",
            "mobile": null,
            "addr:street": "Prof. Dr.turan Güneş Caddesi",
            "cuisine": null,
            "name": "Çiçekçi",
            "name:en": null,
            "name:uk": null,
            "name:de": null,
            "name:tr": null,
            "name:ru": null,
            "name:ar": "بائع زهور"
        }
    },
    {
        "lat": 41.0000577,
        "lon": 28.9150368,
        "tags": {
            "addr:city": "Istanbul",
            "addr:district": "Zeytinburnu",
            "description": "",
            "opening_hours": null,
            "phone": null,
            "branch": null,
            "amenity": "florist",
            "mobile": null,
            "addr:street": null,
            "cuisine": null,
            "name": "SER ŞÜKUFE ÇİÇEKÇİ",
            "name:en": null,
            "name:uk": null,
            "name:de": null,
            "name:tr": null,
            "name:ru": null,
            "name:ar": "محل زهور"
        }
    },
    {
        "lat": 41.001606,
        "lon": 28.9114974,
        "tags": {
            "addr:city": "Istanbul",
            "addr:district": "Zeytinburnu",
            "description": "",
            "opening_hours": null,
            "phone": null,
            "branch": null,
            "amenity": "florist",
            "mobile": null,
            "addr:street": null,
            "cuisine": null,
            "name": "Florist",
            "name:en": null,
            "name:uk": null,
            "name:de": null,
            "name:tr": null,
            "name:ru": null,
            "name:ar": "فلورست"
        }
    },
    {
        "lat": 40.9930079,
        "lon": 28.9040226,
        "tags": {
            "addr:city": "Istanbul",
            "addr:district": "Zeytinburnu",
            "description": "",
            "opening_hours": null,
            "phone": null,
            "branch": null,
            "amenity": "florist",
            "mobile": null,
            "addr:street": "58.Blv Cd",
            "cuisine": null,
            "name": "Selin",
            "name:en": null,
            "name:uk": null,
            "name:de": null,
            "name:tr": null,
            "name:ru": null,
            "name:ar": "سلين"
        }
    },
    {
        "lat": 40.9887574,
        "lon": 28.905455,
        "tags": {
            "addr:city": "Istanbul",
            "addr:district": "Zeytinburnu",
            "description": "",
            "opening_hours": null,
            "phone": null,
            "branch": null,
            "amenity": "florist",
            "mobile": null,
            "addr:street": "48 Sokak",
            "cuisine": null,
            "name": "Kardelen",
            "name:en": null,
            "name:uk": null,
            "name:de": null,
            "name:tr": null,
            "name:ru": null,
            "name:ar": "كارديلان"
        }
    },
    {
        "lat": 40.9897792,
        "lon": 28.9040004,
        "tags": {
            "addr:city": "Istanbul",
            "addr:district": "Zeytinburnu",
            "description": "",
            "opening_hours": null,
            "phone": null,
            "branch": null,
            "amenity": "florist",
            "mobile": null,
            "addr:street": "Sht komseri Gunaydin caddesi",
            "cuisine": null,
            "name": "Selin",
            "name:en": null,
            "name:uk": null,
            "name:de": null,
            "name:tr": null,
            "name:ru": null,
            "name:ar": "سلين"
        }
    },
    {
        "lat": 40.9873785,
        "lon": 28.8977168,
        "tags": {
            "addr:city": "Istanbul",
            "addr:district": "Zeytinburnu",
            "description": "",
            "opening_hours": null,
            "phone": null,
            "branch": null,
            "amenity": "florist",
            "mobile": null,
            "addr:street": "Merv Caddesi",
            "cuisine": null,
            "name": "Çiçekçi",
            "name:en": null,
            "name:uk": null,
            "name:de": null,
            "name:tr": null,
            "name:ru": null,
            "name:ar": null
        }
    },
    {
        "lat": 40.9875101,
        "lon": 28.8971781,
        "tags": {
            "addr:city": "Istanbul",
            "addr:district": "Zeytinburnu",
            "description": "",
            "opening_hours": null,
            "phone": null,
            "branch": null,
            "amenity": "florist",
            "mobile": null,
            "addr:street": "Merv Caddesi",
            "cuisine": null,
            "name": "hobim çiçek",
            "name:en": null,
            "name:uk": null,
            "name:de": null,
            "name:tr": null,
            "name:ru": null,
            "name:ar": "هوبيم تشيشيك"
        }
    },
    {
        "lat": 40.9926366,
        "lon": 28.9049365,
        "tags": {
            "addr:city": "Istanbul",
            "addr:district": "Zeytinburnu",
            "description": "",
            "opening_hours": null,
            "phone": null,
            "branch": null,
            "amenity": "florist",
            "mobile": null,
            "addr:street": "48. sokak",
            "cuisine": null,
            "name": "Büşra",
            "name:en": null,
            "name:uk": null,
            "name:de": null,
            "name:tr": null,
            "name:ru": null,
            "name:ar": "بشرى"
        }
    },
    {
        "lat": 41.0678587,
        "lon": 28.8256142,
        "tags": {
            "addr:city": "Istanbul",
            "addr:district": "Bağcılar",
            "description": "",
            "opening_hours": null,
            "phone": null,
            "branch": null,
            "amenity": "florist",
            "mobile": null,
            "addr:street": "3.Yol sokak",
            "cuisine": null,
            "name": "Özgül",
            "name:en": null,
            "name:uk": null,
            "name:de": null,
            "name:tr": null,
            "name:ru": null,
            "name:ar": "اوز غول"
        }
    },
    {
        "lat": 41.0472607,
        "lon": 28.8598367,
        "tags": {
            "addr:city": "Istanbul",
            "addr:district": "Bağcılar",
            "description": "",
            "opening_hours": null,
            "phone": null,
            "branch": null,
            "amenity": "florist",
            "mobile": null,
            "addr:street": "Osmangazi Caddesi",
            "cuisine": null,
            "name": "İstanbul Çiçek",
            "name:en": null,
            "name:uk": null,
            "name:de": null,
            "name:tr": null,
            "name:ru": null,
            "name:ar": "اسطنبول تشيتشاك"
        }
    },
    {
        "lat": 41.0690172,
        "lon": 28.8583964,
        "tags": {
            "addr:city": "Istanbul",
            "addr:district": "Bağcılar",
            "description": "",
            "opening_hours": null,
            "phone": null,
            "branch": null,
            "amenity": "florist",
            "mobile": null,
            "addr:street": "Fetih Caddesi",
            "cuisine": null,
            "name": "Ermestan",
            "name:en": null,
            "name:uk": null,
            "name:de": null,
            "name:tr": null,
            "name:ru": null,
            "name:ar": "ارمستان"
        }
    },
    {
        "lat": 41.0535933,
        "lon": 28.834381,
        "tags": {
            "addr:city": "Istanbul",
            "addr:district": "Bağcılar",
            "description": "",
            "opening_hours": null,
            "phone": null,
            "branch": null,
            "amenity": "florist",
            "mobile": null,
            "addr:street": "Maslak caddesi",
            "cuisine": null,
            "name": "Öyküm Çiçek",
            "name:en": null,
            "name:uk": null,
            "name:de": null,
            "name:tr": null,
            "name:ru": null,
            "name:ar": "اويكوم"
        }
    },
    {
        "lat": 41.028459,
        "lon": 28.8292799,
        "tags": {
            "addr:city": "Istanbul",
            "addr:district": "Bağcılar",
            "description": "",
            "opening_hours": null,
            "phone": null,
            "branch": null,
            "amenity": "florist",
            "mobile": null,
            "addr:street": "Atatürk Caddesi",
            "cuisine": null,
            "name": "Kurt Çiçekçilik",
            "name:en": null,
            "name:uk": null,
            "name:de": null,
            "name:tr": null,
            "name:ru": null,
            "name:ar": "بائع الزهور كورت"
        }
    },
    {
        "lat": 41.0276282,
        "lon": 28.8292202,
        "tags": {
            "addr:city": "Istanbul",
            "addr:district": "Bağcılar",
            "description": "",
            "opening_hours": null,
            "phone": null,
            "branch": null,
            "amenity": "florist",
            "mobile": null,
            "addr:street": "Ataturk caddesi",
            "cuisine": null,
            "name": "Cigiklik",
            "name:en": null,
            "name:uk": null,
            "name:de": null,
            "name:tr": null,
            "name:ru": null,
            "name:ar": "جيجيكلك"
        }
    },
    {
        "lat": 41.028526,
        "lon": 28.8292431,
        "tags": {
            "addr:city": "Istanbul",
            "addr:district": "Bağcılar",
            "description": "",
            "opening_hours": null,
            "phone": null,
            "branch": null,
            "amenity": "florist",
            "mobile": null,
            "addr:street": "Atatürk Caddesi",
            "cuisine": null,
            "name": "Ilgaz Çiçekçi",
            "name:en": null,
            "name:uk": null,
            "name:de": null,
            "name:tr": null,
            "name:ru": null,
            "name:ar": "بائع الزهور إلجاز"
        }
    },
    {
        "lat": 41.0259811,
        "lon": 28.8291787,
        "tags": {
            "addr:city": "Istanbul",
            "addr:district": "Bağcılar",
            "description": "",
            "opening_hours": null,
            "phone": null,
            "branch": null,
            "amenity": "florist",
            "mobile": null,
            "addr:street": "Atatürk Caddesi",
            "cuisine": null,
            "name": "For İstanbul Çiçekçilik",
            "name:en": null,
            "name:uk": null,
            "name:de": null,
            "name:tr": null,
            "name:ru": null,
            "name:ar": "بائع زهور فور اسطنبول"
        }
    },
    {
        "lat": 41.0404917,
        "lon": 28.8597563,
        "tags": {
            "addr:city": "Istanbul",
            "addr:district": null,
            "description": "",
            "opening_hours": null,
            "phone": null,
            "branch": null,
            "amenity": "florist",
            "mobile": null,
            "addr:street": "Fatih Caddesi",
            "cuisine": null,
            "name": "Resul Çiçekilik",
            "name:en": null,
            "name:uk": null,
            "name:de": null,
            "name:tr": null,
            "name:ru": null,
            "name:ar": null
        }
    },
    {
        "lat": 41.0358489,
        "lon": 28.8648053,
        "tags": {
            "addr:city": "Istanbul",
            "addr:district": "Bağcılar",
            "description": "",
            "opening_hours": null,
            "phone": null,
            "branch": null,
            "amenity": "florist",
            "mobile": null,
            "addr:street": "802 sokak",
            "cuisine": null,
            "name": "RENGARENK",
            "name:en": null,
            "name:uk": null,
            "name:de": null,
            "name:tr": null,
            "name:ru": null,
            "name:ar": "رينج رينك"
        }
    },
    {
        "lat": 40.9585449,
        "lon": 29.1014199,
        "tags": {
            "addr:city": "İstanbul",
            "addr:district": "Kadıköy",
            "description": "",
            "opening_hours": null,
            "phone": null,
            "branch": null,
            "amenity": "florist",
            "mobile": null,
            "addr:street": "Mehmet Şevki Paşa Caddesi",
            "cuisine": null,
            "name": "Alara Cicekcilik",
            "name:en": null,
            "name:uk": null,
            "name:de": null,
            "name:tr": null,
            "name:ru": null,
            "name:ar": null
        }
    },
    {
        "lat": 41.0657193,
        "lon": 28.8991587,
        "tags": {
            "addr:city": "İstanbul",
            "addr:district": null,
            "description": "",
            "opening_hours": "Mo-Su 09:00-22:00",
            "phone": "02125648800",
            "branch": null,
            "amenity": "florist",
            "mobile": null,
            "addr:street": "Akdeniz Caddesi",
            "cuisine": null,
            "name": "İkebana Flower Çiçek & Çikolata",
            "name:en": null,
            "name:uk": null,
            "name:de": null,
            "name:tr": null,
            "name:ru": null,
            "name:ar": null
        }
    },
    {
        "lat": 41.0658431,
        "lon": 28.8993961,
        "tags": {
            "addr:city": "İstanbul",
            "addr:district": null,
            "description": "",
            "opening_hours": "Mo-Su 09:00-21:00",
            "phone": "02126498888",
            "branch": null,
            "amenity": "florist",
            "mobile": null,
            "addr:street": "Eski Edirne Asfaltı",
            "cuisine": null,
            "name": "ikebana flower home concept & decoration",
            "name:en": null,
            "name:uk": null,
            "name:de": null,
            "name:tr": null,
            "name:ru": null,
            "name:ar": null
        }
    },
    {
        "lat": 40.9180343,
        "lon": 29.1348018,
        "tags": {
            "addr:city": "İstanbul",
            "addr:district": null,
            "description": "",
            "opening_hours": null,
            "phone": null,
            "branch": null,
            "amenity": "florist",
            "mobile": null,
            "addr:street": null,
            "cuisine": null,
            "name": null,
            "name:en": null,
            "name:uk": null,
            "name:de": null,
            "name:tr": null,
            "name:ru": null,
            "name:ar": null
        }
    },
    {
        "lat": 40.8715822,
        "lon": 29.3279845,
        "tags": {
            "addr:city": "İstanbul",
            "addr:district": null,
            "description": "",
            "opening_hours": null,
            "phone": null,
            "branch": null,
            "amenity": "florist",
            "mobile": null,
            "addr:street": null,
            "cuisine": null,
            "name": "Salkım Çiçek",
            "name:en": null,
            "name:uk": null,
            "name:de": null,
            "name:tr": null,
            "name:ru": null,
            "name:ar": null
        }
    },
    {
        "lat": 41.004097,
        "lon": 29.0854696,
        "tags": {
            "addr:city": "istanbul",
            "addr:district": "ataşehir",
            "description": "",
            "opening_hours": null,
            "phone": null,
            "branch": null,
            "amenity": "florist",
            "mobile": null,
            "addr:street": "ziyapaşa",
            "cuisine": null,
            "name": "tomurcuk çiçekevi",
            "name:en": null,
            "name:uk": null,
            "name:de": null,
            "name:tr": null,
            "name:ru": null,
            "name:ar": null
        }
    },
    {
        "lat": 41.0737031,
        "lon": 28.9044094,
        "tags": {
            "addr:city": "İstanbul",
            "addr:district": null,
            "description": "",
            "opening_hours": null,
            "phone": null,
            "branch": null,
            "amenity": "florist",
            "mobile": null,
            "addr:street": null,
            "cuisine": null,
            "name": "Asya Çiçekçilik",
            "name:en": null,
            "name:uk": null,
            "name:de": null,
            "name:tr": null,
            "name:ru": null,
            "name:ar": null
        }
    },
    {
        "lat": 41.0307691,
        "lon": 28.9736338,
        "tags": {
            "addr:city": "İstanbul",
            "addr:district": null,
            "description": "",
            "opening_hours": null,
            "phone": null,
            "branch": null,
            "amenity": "florist",
            "mobile": null,
            "addr:street": null,
            "cuisine": null,
            "name": "Constantia pera",
            "name:en": null,
            "name:uk": null,
            "name:de": null,
            "name:tr": null,
            "name:ru": null,
            "name:ar": null
        }
    },
    {
        "lat": 41.023338,
        "lon": 29.0363915,
        "tags": {
            "addr:city": "istanbul",
            "addr:district": "üsküdar",
            "description": "",
            "opening_hours": null,
            "phone": null,
            "branch": null,
            "amenity": "florist",
            "mobile": null,
            "addr:street": "Nuh Kuyusu Caddesi",
            "cuisine": null,
            "name": "Asya Çiçekçilik",
            "name:en": null,
            "name:uk": null,
            "name:de": null,
            "name:tr": null,
            "name:ru": null,
            "name:ar": null
        }
    },
    {
        "lat": 40.9603359,
        "lon": 28.807076,
        "tags": {
            "addr:city": "İstanbul",
            "addr:district": null,
            "description": "",
            "opening_hours": null,
            "phone": null,
            "branch": null,
            "amenity": "florist",
            "mobile": null,
            "addr:street": null,
            "cuisine": null,
            "name": null,
            "name:en": null,
            "name:uk": null,
            "name:de": null,
            "name:tr": null,
            "name:ru": null,
            "name:ar": null
        }
    },
    {
        "lat": 40.9677837,
        "lon": 29.0637435,
        "tags": {
            "addr:city": "İstanbul",
            "addr:district": "Kadıköy",
            "description": "",
            "opening_hours": "Mo-Su 09:00-21:00",
            "phone": null,
            "branch": null,
            "amenity": "florist",
            "mobile": null,
            "addr:street": "Caddebostan Plajyolu Sok",
            "cuisine": null,
            "name": null,
            "name:en": null,
            "name:uk": null,
            "name:de": null,
            "name:tr": null,
            "name:ru": null,
            "name:ar": null
        }
    },
    {
        "lat": 40.9667131,
        "lon": 29.0600755,
        "tags": {
            "addr:city": "İstanbul",
            "addr:district": "Kadıköy",
            "description": "",
            "opening_hours": null,
            "phone": null,
            "branch": null,
            "amenity": "florist",
            "mobile": null,
            "addr:street": "Mehtap Sokak",
            "cuisine": null,
            "name": "Violet Garden",
            "name:en": null,
            "name:uk": null,
            "name:de": null,
            "name:tr": null,
            "name:ru": null,
            "name:ar": null
        }
    },
    {
        "lat": 40.9182618,
        "lon": 29.3030866,
        "tags": {
            "addr:city": "İstanbul",
            "addr:district": null,
            "description": "",
            "opening_hours": null,
            "phone": "+905368700767",
            "branch": null,
            "amenity": "florist",
            "mobile": null,
            "addr:street": null,
            "cuisine": null,
            "name": "Orkidem Çiçekcilik",
            "name:en": null,
            "name:uk": null,
            "name:de": null,
            "name:tr": null,
            "name:ru": null,
            "name:ar": null
        }
    },
    {
        "lat": 40.815383,
        "lon": 29.304651,
        "tags": {
            "addr:city": "İstanbul",
            "addr:district": null,
            "description": "",
            "opening_hours": null,
            "phone": null,
            "branch": null,
            "amenity": "florist",
            "mobile": null,
            "addr:street": null,
            "cuisine": null,
            "name": "Dünyam Çiçek",
            "name:en": null,
            "name:uk": null,
            "name:de": null,
            "name:tr": null,
            "name:ru": null,
            "name:ar": null
        }
    },
    {
        "lat": 40.9166886,
        "lon": 29.2859376,
        "tags": {
            "addr:city": "İstanbul",
            "addr:district": null,
            "description": "",
            "opening_hours": null,
            "phone": null,
            "branch": null,
            "amenity": "florist",
            "mobile": null,
            "addr:street": null,
            "cuisine": null,
            "name": "Tunasya Çiçekçilik",
            "name:en": null,
            "name:uk": null,
            "name:de": null,
            "name:tr": null,
            "name:ru": null,
            "name:ar": null
        }
    },
    {
        "lat": 40.8823104,
        "lon": 29.2341477,
        "tags": {
            "addr:city": "İstanbul",
            "addr:district": null,
            "description": "",
            "opening_hours": null,
            "phone": null,
            "branch": null,
            "amenity": "florist",
            "mobile": null,
            "addr:street": null,
            "cuisine": null,
            "name": "Star Çiçekçilik",
            "name:en": null,
            "name:uk": null,
            "name:de": null,
            "name:tr": null,
            "name:ru": null,
            "name:ar": null
        }
    },
    {
        "lat": 40.8834758,
        "lon": 29.2349,
        "tags": {
            "addr:city": "İstanbul",
            "addr:district": null,
            "description": "",
            "opening_hours": null,
            "phone": null,
            "branch": null,
            "amenity": "florist",
            "mobile": null,
            "addr:street": null,
            "cuisine": null,
            "name": "Doğa Çiçekçilik",
            "name:en": null,
            "name:uk": null,
            "name:de": null,
            "name:tr": null,
            "name:ru": null,
            "name:ar": null
        }
    },
    {
        "lat": 40.910563,
        "lon": 29.2820245,
        "tags": {
            "addr:city": "İstanbul",
            "addr:district": null,
            "description": "",
            "opening_hours": null,
            "phone": null,
            "branch": null,
            "amenity": "florist",
            "mobile": null,
            "addr:street": null,
            "cuisine": null,
            "name": "Karzen Çiçek",
            "name:en": null,
            "name:uk": null,
            "name:de": null,
            "name:tr": null,
            "name:ru": null,
            "name:ar": null
        }
    },
    {
        "lat": 40.9053462,
        "lon": 29.2834491,
        "tags": {
            "addr:city": "İstanbul",
            "addr:district": null,
            "description": "",
            "opening_hours": null,
            "phone": null,
            "branch": null,
            "amenity": "florist",
            "mobile": null,
            "addr:street": null,
            "cuisine": null,
            "name": "Beyaz İnci Çiçekçilik",
            "name:en": null,
            "name:uk": null,
            "name:de": null,
            "name:tr": null,
            "name:ru": null,
            "name:ar": null
        }
    },
    {
        "lat": 40.9143598,
        "lon": 29.3011631,
        "tags": {
            "addr:city": "İstanbul",
            "addr:district": null,
            "description": "",
            "opening_hours": null,
            "phone": null,
            "branch": null,
            "amenity": "florist",
            "mobile": null,
            "addr:street": null,
            "cuisine": null,
            "name": "Ak Çiçek",
            "name:en": null,
            "name:uk": null,
            "name:de": null,
            "name:tr": null,
            "name:ru": null,
            "name:ar": null
        }
    },
    {
        "lat": 40.9161204,
        "lon": 29.3044335,
        "tags": {
            "addr:city": "İstanbul",
            "addr:district": null,
            "description": "",
            "opening_hours": null,
            "phone": null,
            "branch": null,
            "amenity": "florist",
            "mobile": null,
            "addr:street": null,
            "cuisine": null,
            "name": "Peri Çiçekçilik",
            "name:en": null,
            "name:uk": null,
            "name:de": null,
            "name:tr": null,
            "name:ru": null,
            "name:ar": null
        }
    },
    {
        "lat": 40.9883429,
        "lon": 28.6228835,
        "tags": {
            "addr:city": "İstanbul",
            "addr:district": null,
            "description": "",
            "opening_hours": null,
            "phone": null,
            "branch": null,
            "amenity": "florist",
            "mobile": null,
            "addr:street": null,
            "cuisine": null,
            "name": null,
            "name:en": "Flowers",
            "name:uk": null,
            "name:de": null,
            "name:tr": null,
            "name:ru": null,
            "name:ar": null
        }
    },
    {
        "lat": 40.9840146,
        "lon": 29.0330049,
        "tags": {
            "addr:city": "İstanbul",
            "addr:district": null,
            "description": "",
            "opening_hours": "10:00 - 22:00",
            "phone": null,
            "branch": null,
            "amenity": "florist",
            "mobile": null,
            "addr:street": null,
            "cuisine": null,
            "name": "Bee Design & Flower Shop",
            "name:en": null,
            "name:uk": null,
            "name:de": null,
            "name:tr": null,
            "name:ru": null,
            "name:ar": null
        }
    },
    {
        "lat": 41.1364108,
        "lon": 29.0872995,
        "tags": {
            "addr:city": "İstanbul",
            "addr:district": null,
            "description": "",
            "opening_hours": null,
            "phone": null,
            "branch": null,
            "amenity": "florist",
            "mobile": null,
            "addr:street": null,
            "cuisine": null,
            "name": "Çiçekçi",
            "name:en": null,
            "name:uk": null,
            "name:de": null,
            "name:tr": null,
            "name:ru": null,
            "name:ar": null
        }
    },
    {
        "lat": 41.1354306,
        "lon": 29.0891314,
        "tags": {
            "addr:city": "İstanbul",
            "addr:district": null,
            "description": "",
            "opening_hours": null,
            "phone": null,
            "branch": null,
            "amenity": "florist",
            "mobile": null,
            "addr:street": null,
            "cuisine": null,
            "name": "Yıldız Çiçek Bahçesi",
            "name:en": null,
            "name:uk": null,
            "name:de": null,
            "name:tr": null,
            "name:ru": null,
            "name:ar": null
        }
    },
    {
        "lat": 41.1068855,
        "lon": 29.0806677,
        "tags": {
            "addr:city": "İstanbul",
            "addr:district": null,
            "description": "",
            "opening_hours": null,
            "phone": null,
            "branch": null,
            "amenity": "florist",
            "mobile": null,
            "addr:street": null,
            "cuisine": null,
            "name": "Doğa Çiçekçilik",
            "name:en": null,
            "name:uk": null,
            "name:de": null,
            "name:tr": null,
            "name:ru": null,
            "name:ar": null
        }
    },
    {
        "lat": 41.1065574,
        "lon": 28.8032515,
        "tags": {
            "addr:city": "İstanbul",
            "addr:district": null,
            "description": "",
            "opening_hours": null,
            "phone": null,
            "branch": null,
            "amenity": "florist",
            "mobile": null,
            "addr:street": null,
            "cuisine": null,
            "name": "La Florist",
            "name:en": null,
            "name:uk": null,
            "name:de": null,
            "name:tr": null,
            "name:ru": null,
            "name:ar": null
        }
    },
    {
        "lat": 40.9849719,
        "lon": 29.1076659,
        "tags": {
            "addr:city": "İstanbul",
            "addr:district": null,
            "description": "",
            "opening_hours": null,
            "phone": null,
            "branch": null,
            "amenity": "florist",
            "mobile": null,
            "addr:street": null,
            "cuisine": null,
            "name": "Ataşehir Çiçekçilik",
            "name:en": null,
            "name:uk": null,
            "name:de": null,
            "name:tr": null,
            "name:ru": null,
            "name:ar": null
        }
    },
    {
        "lat": 41.1178969,
        "lon": 29.0652298,
        "tags": {
            "addr:city": "istanbul",
            "addr:district": "sarıyer",
            "description": "",
            "opening_hours": "Mo-Su 08:00-22:00",
            "phone": "0212 262 18 89",
            "branch": null,
            "amenity": "florist",
            "mobile": null,
            "addr:street": "Köybaşı Caddesi",
            "cuisine": null,
            "name": "Yenikent Çiçekçilik",
            "name:en": null,
            "name:uk": null,
            "name:de": null,
            "name:tr": null,
            "name:ru": null,
            "name:ar": null
        }
    },
    {
        "lat": 41.0889693,
        "lon": 29.056985,
        "tags": {
            "addr:city": "İstanbul",
            "addr:district": null,
            "description": "",
            "opening_hours": null,
            "phone": null,
            "branch": null,
            "amenity": "florist",
            "mobile": null,
            "addr:street": null,
            "cuisine": null,
            "name": "Hisar Çiçek Evi",
            "name:en": null,
            "name:uk": null,
            "name:de": null,
            "name:tr": null,
            "name:ru": null,
            "name:ar": null
        }
    },
    {
        "lat": 40.875987,
        "lon": 29.2329746,
        "tags": {
            "addr:city": "İstanbul",
            "addr:district": "Pendik",
            "description": "",
            "opening_hours": null,
            "phone": null,
            "branch": null,
            "amenity": "florist",
            "mobile": null,
            "addr:street": "Erol Kaya Caddesi",
            "cuisine": null,
            "name": "Jasmin Çiçekçilik",
            "name:en": null,
            "name:uk": null,
            "name:de": null,
            "name:tr": null,
            "name:ru": null,
            "name:ar": null
        }
    },
    {
        "lat": 40.9948567,
        "lon": 28.7092832,
        "tags": {
            "addr:city": "istanbul",
            "addr:district": "avcılar",
            "description": "",
            "opening_hours": null,
            "phone": null,
            "branch": null,
            "amenity": "florist",
            "mobile": null,
            "addr:street": "Karataş Sokağı",
            "cuisine": null,
            "name": "Buse Çiçekçilik",
            "name:en": null,
            "name:uk": null,
            "name:de": null,
            "name:tr": null,
            "name:ru": null,
            "name:ar": null
        }
    },
    {
        "lat": 41.0032908,
        "lon": 28.6371677,
        "tags": {
            "addr:city": "İstanbul",
            "addr:district": null,
            "description": "",
            "opening_hours": null,
            "phone": null,
            "branch": null,
            "amenity": "florist",
            "mobile": null,
            "addr:street": null,
            "cuisine": null,
            "name": "Moment",
            "name:en": null,
            "name:uk": null,
            "name:de": null,
            "name:tr": null,
            "name:ru": null,
            "name:ar": null
        }
    },
    {
        "lat": 41.0123975,
        "lon": 28.6442211,
        "tags": {
            "addr:city": "İstanbul",
            "addr:district": null,
            "description": "",
            "opening_hours": null,
            "phone": null,
            "branch": null,
            "amenity": "florist",
            "mobile": null,
            "addr:street": null,
            "cuisine": null,
            "name": "Yeşilköy Çiçekçilik",
            "name:en": null,
            "name:uk": null,
            "name:de": null,
            "name:tr": null,
            "name:ru": null,
            "name:ar": null
        }
    },
    {
        "lat": 40.9802074,
        "lon": 29.0837047,
        "tags": {
            "addr:city": "İstanbul",
            "addr:district": null,
            "description": "",
            "opening_hours": null,
            "phone": null,
            "branch": null,
            "amenity": "florist",
            "mobile": null,
            "addr:street": null,
            "cuisine": null,
            "name": "Number One Çiçek",
            "name:en": null,
            "name:uk": null,
            "name:de": null,
            "name:tr": null,
            "name:ru": null,
            "name:ar": null
        }
    },
    {
        "lat": 40.9847636,
        "lon": 29.1163244,
        "tags": {
            "addr:city": "İstanbul",
            "addr:district": null,
            "description": "",
            "opening_hours": null,
            "phone": null,
            "branch": null,
            "amenity": "florist",
            "mobile": null,
            "addr:street": null,
            "cuisine": null,
            "name": "Ortanca Çiçekçilik",
            "name:en": null,
            "name:uk": null,
            "name:de": null,
            "name:tr": null,
            "name:ru": null,
            "name:ar": null
        }
    },
    {
        "lat": 41.0109892,
        "lon": 29.1364391,
        "tags": {
            "addr:city": "İstanbul",
            "addr:district": null,
            "description": "",
            "opening_hours": null,
            "phone": null,
            "branch": null,
            "amenity": "florist",
            "mobile": null,
            "addr:street": null,
            "cuisine": null,
            "name": null,
            "name:en": null,
            "name:uk": null,
            "name:de": null,
            "name:tr": null,
            "name:ru": null,
            "name:ar": null
        }
    },
    {
        "lat": 41.0111383,
        "lon": 29.1367008,
        "tags": {
            "addr:city": "İstanbul",
            "addr:district": null,
            "description": "",
            "opening_hours": null,
            "phone": null,
            "branch": null,
            "amenity": "florist",
            "mobile": null,
            "addr:street": null,
            "cuisine": null,
            "name": null,
            "name:en": null,
            "name:uk": null,
            "name:de": null,
            "name:tr": null,
            "name:ru": null,
            "name:ar": null
        }
    },
    {
        "lat": 40.9587171,
        "lon": 28.8222244,
        "tags": {
            "addr:city": "İstanbul",
            "addr:district": null,
            "description": "",
            "opening_hours": null,
            "phone": null,
            "branch": null,
            "amenity": "florist",
            "mobile": null,
            "addr:street": null,
            "cuisine": null,
            "name": "Mini Sera",
            "name:en": null,
            "name:uk": null,
            "name:de": null,
            "name:tr": null,
            "name:ru": null,
            "name:ar": null
        }
    },
    {
        "lat": 40.9946767,
        "lon": 28.8731579,
        "tags": {
            "addr:city": "İstanbul",
            "addr:district": null,
            "description": "",
            "opening_hours": null,
            "phone": null,
            "branch": null,
            "amenity": "florist",
            "mobile": null,
            "addr:street": null,
            "cuisine": null,
            "name": "Burcu Çiçekçilik",
            "name:en": null,
            "name:uk": null,
            "name:de": null,
            "name:tr": null,
            "name:ru": null,
            "name:ar": null
        }
    },
    {
        "lat": 41.0940607,
        "lon": 28.7741125,
        "tags": {
            "addr:city": "İstanbul",
            "addr:district": null,
            "description": "",
            "opening_hours": null,
            "phone": null,
            "branch": null,
            "amenity": "florist",
            "mobile": null,
            "addr:street": null,
            "cuisine": null,
            "name": null,
            "name:en": null,
            "name:uk": null,
            "name:de": null,
            "name:tr": null,
            "name:ru": null,
            "name:ar": null
        }
    },
    {
        "lat": 41.1017898,
        "lon": 28.810597,
        "tags": {
            "addr:city": "İstanbul",
            "addr:district": null,
            "description": "",
            "opening_hours": null,
            "phone": null,
            "branch": null,
            "amenity": "florist",
            "mobile": null,
            "addr:street": null,
            "cuisine": null,
            "name": "kırmızı gül çiçekçilik",
            "name:en": null,
            "name:uk": null,
            "name:de": null,
            "name:tr": null,
            "name:ru": null,
            "name:ar": null
        }
    },
    {
        "lat": 41.1004811,
        "lon": 28.8102376,
        "tags": {
            "addr:city": "İstanbul",
            "addr:district": null,
            "description": "",
            "opening_hours": null,
            "phone": null,
            "branch": null,
            "amenity": "florist",
            "mobile": null,
            "addr:street": null,
            "cuisine": null,
            "name": "lenam çiçekçilik",
            "name:en": null,
            "name:uk": null,
            "name:de": null,
            "name:tr": null,
            "name:ru": null,
            "name:ar": null
        }
    },
    {
        "lat": 41.0032831,
        "lon": 28.6370986,
        "tags": {
            "addr:city": "İstanbul",
            "addr:district": null,
            "description": "",
            "opening_hours": null,
            "phone": null,
            "branch": null,
            "amenity": "florist",
            "mobile": null,
            "addr:street": null,
            "cuisine": null,
            "name": "Moment Flower Design",
            "name:en": null,
            "name:uk": null,
            "name:de": null,
            "name:tr": null,
            "name:ru": null,
            "name:ar": null
        }
    },
    {
        "lat": 40.9658527,
        "lon": 29.060089,
        "tags": {
            "addr:city": "İstanbul",
            "addr:district": null,
            "description": "",
            "opening_hours": null,
            "phone": null,
            "branch": null,
            "amenity": "florist",
            "mobile": null,
            "addr:street": null,
            "cuisine": null,
            "name": "Violet Boutique",
            "name:en": null,
            "name:uk": null,
            "name:de": null,
            "name:tr": null,
            "name:ru": null,
            "name:ar": null
        }
    },
    {
        "lat": 40.9787475,
        "lon": 29.1138807,
        "tags": {
            "addr:city": "İstanbul",
            "addr:district": null,
            "description": "",
            "opening_hours": null,
            "phone": null,
            "branch": null,
            "amenity": "florist",
            "mobile": null,
            "addr:street": null,
            "cuisine": null,
            "name": "Ciceksepeti.com",
            "name:en": null,
            "name:uk": null,
            "name:de": null,
            "name:tr": null,
            "name:ru": null,
            "name:ar": null
        }
    },
    {
        "lat": 40.9766204,
        "lon": 29.0969252,
        "tags": {
            "addr:city": "İstanbul",
            "addr:district": null,
            "description": "",
            "opening_hours": null,
            "phone": null,
            "branch": null,
            "amenity": "florist",
            "mobile": null,
            "addr:street": null,
            "cuisine": null,
            "name": "Ladin Çiçekçilik",
            "name:en": null,
            "name:uk": null,
            "name:de": null,
            "name:tr": null,
            "name:ru": null,
            "name:ar": null
        }
    },
    {
        "lat": 40.9812603,
        "lon": 29.089248,
        "tags": {
            "addr:city": "İstanbul",
            "addr:district": null,
            "description": "",
            "opening_hours": null,
            "phone": null,
            "branch": null,
            "amenity": "florist",
            "mobile": null,
            "addr:street": null,
            "cuisine": null,
            "name": "Kalkavan Çiçekçilik",
            "name:en": null,
            "name:uk": null,
            "name:de": null,
            "name:tr": null,
            "name:ru": null,
            "name:ar": null
        }
    },
    {
        "lat": 41.0141226,
        "lon": 29.0953646,
        "tags": {
            "addr:city": "İstanbul",
            "addr:district": "Ümraniye",
            "description": "",
            "opening_hours": "Mo-Sa 09:00-19:00",
            "phone": "+90 216 650 92 80",
            "branch": null,
            "amenity": "florist",
            "mobile": null,
            "addr:street": "Cengiz Topel Caddesi",
            "cuisine": null,
            "name": "Tayze Çiçekçilik",
            "name:en": null,
            "name:uk": null,
            "name:de": null,
            "name:tr": null,
            "name:ru": null,
            "name:ar": null
        }
    },
    {
        "lat": 40.9711732,
        "lon": 29.0526983,
        "tags": {
            "addr:city": "İstanbul",
            "addr:district": null,
            "description": "",
            "opening_hours": null,
            "phone": null,
            "branch": null,
            "amenity": "florist",
            "mobile": null,
            "addr:street": null,
            "cuisine": null,
            "name": "New Florist",
            "name:en": null,
            "name:uk": null,
            "name:de": null,
            "name:tr": null,
            "name:ru": null,
            "name:ar": null
        }
    },
    {
        "lat": 41.0536373,
        "lon": 28.9443481,
        "tags": {
            "addr:city": "İstanbul",
            "addr:district": null,
            "description": "",
            "opening_hours": null,
            "phone": null,
            "branch": null,
            "amenity": "florist",
            "mobile": null,
            "addr:street": null,
            "cuisine": null,
            "name": null,
            "name:en": "Marginal flower Istanbul",
            "name:uk": null,
            "name:de": null,
            "name:tr": null,
            "name:ru": null,
            "name:ar": null
        }
    },
    {
        "lat": 41.0059912,
        "lon": 28.7057524,
        "tags": {
            "addr:city": "İstanbul",
            "addr:district": null,
            "description": "",
            "opening_hours": null,
            "phone": null,
            "branch": null,
            "amenity": "florist",
            "mobile": null,
            "addr:street": null,
            "cuisine": null,
            "name": "Firuz Çiçek",
            "name:en": null,
            "name:uk": null,
            "name:de": null,
            "name:tr": null,
            "name:ru": null,
            "name:ar": null
        }
    },
    {
        "lat": 40.914404,
        "lon": 29.2228402,
        "tags": {
            "addr:city": "İstanbul",
            "addr:district": null,
            "description": "",
            "opening_hours": null,
            "phone": null,
            "branch": null,
            "amenity": "florist",
            "mobile": null,
            "addr:street": null,
            "cuisine": null,
            "name": null,
            "name:en": null,
            "name:uk": null,
            "name:de": null,
            "name:tr": null,
            "name:ru": null,
            "name:ar": null
        }
    },
    {
        "lat": 40.8796062,
        "lon": 29.2725116,
        "tags": {
            "addr:city": "İstanbul",
            "addr:district": "Pendik",
            "description": "",
            "opening_hours": "Mo-Su 09:00-21:00",
            "phone": "216 397 88 67",
            "branch": null,
            "amenity": "florist",
            "mobile": null,
            "addr:street": "Rıfat Ilgaz Caddesi",
            "cuisine": null,
            "name": "PENDİK ÇİÇEKÇİ",
            "name:en": null,
            "name:uk": null,
            "name:de": null,
            "name:tr": null,
            "name:ru": null,
            "name:ar": null
        }
    },
    {
        "lat": 40.869609,
        "lon": 29.3230598,
        "tags": {
            "addr:city": "İstanbul",
            "addr:district": null,
            "description": "",
            "opening_hours": null,
            "phone": null,
            "branch": null,
            "amenity": "florist",
            "mobile": null,
            "addr:street": null,
            "cuisine": null,
            "name": null,
            "name:en": null,
            "name:uk": null,
            "name:de": null,
            "name:tr": null,
            "name:ru": null,
            "name:ar": null
        }
    },
    {
        "lat": 40.9795283,
        "lon": 29.0842376,
        "tags": {
            "addr:city": "İstanbul",
            "addr:district": null,
            "description": "",
            "opening_hours": null,
            "phone": null,
            "branch": null,
            "amenity": "florist",
            "mobile": null,
            "addr:street": null,
            "cuisine": null,
            "name": "Manolya Çiçekçilik",
            "name:en": null,
            "name:uk": null,
            "name:de": null,
            "name:tr": null,
            "name:ru": null,
            "name:ar": null
        }
    },
    {
        "lat": 41.0982345,
        "lon": 28.9014406,
        "tags": {
            "addr:city": "İstanbul",
            "addr:district": null,
            "description": "",
            "opening_hours": null,
            "phone": null,
            "branch": null,
            "amenity": "florist",
            "mobile": null,
            "addr:street": null,
            "cuisine": null,
            "name": "Rose Çiçek",
            "name:en": null,
            "name:uk": null,
            "name:de": null,
            "name:tr": null,
            "name:ru": null,
            "name:ar": null
        }
    },
    {
        "lat": 40.9789755,
        "lon": 28.8825176,
        "tags": {
            "addr:city": "İstanbul",
            "addr:district": null,
            "description": "",
            "opening_hours": null,
            "phone": null,
            "branch": null,
            "amenity": "florist",
            "mobile": null,
            "addr:street": null,
            "cuisine": null,
            "name": "Stil Çiçekçilik",
            "name:en": null,
            "name:uk": null,
            "name:de": null,
            "name:tr": null,
            "name:ru": null,
            "name:ar": null
        }
    },
    {
        "lat": 41.0734821,
        "lon": 28.2482017,
        "tags": {
            "addr:city": "İstanbul",
            "addr:district": null,
            "description": "",
            "opening_hours": null,
            "phone": null,
            "branch": null,
            "amenity": "florist",
            "mobile": null,
            "addr:street": null,
            "cuisine": null,
            "name": "Çiçekçi Çağlar",
            "name:en": null,
            "name:uk": null,
            "name:de": null,
            "name:tr": null,
            "name:ru": null,
            "name:ar": null
        }
    },
    {
        "lat": 40.982026,
        "lon": 29.0230193,
        "tags": {
            "addr:city": "İstanbul",
            "addr:district": null,
            "description": "",
            "opening_hours": null,
            "phone": null,
            "branch": null,
            "amenity": "florist",
            "mobile": null,
            "addr:street": null,
            "cuisine": null,
            "name": null,
            "name:en": null,
            "name:uk": null,
            "name:de": null,
            "name:tr": null,
            "name:ru": null,
            "name:ar": null
        }
    },
    {
        "lat": 41.0015088,
        "lon": 29.0799427,
        "tags": {
            "addr:city": "İstanbul",
            "addr:district": null,
            "description": "",
            "opening_hours": null,
            "phone": null,
            "branch": null,
            "amenity": "florist",
            "mobile": null,
            "addr:street": null,
            "cuisine": null,
            "name": "Çiçekçi",
            "name:en": null,
            "name:uk": null,
            "name:de": null,
            "name:tr": null,
            "name:ru": null,
            "name:ar": null
        }
    },
    {
        "lat": 41.0858647,
        "lon": 29.0042922,
        "tags": {
            "addr:city": "İstanbul",
            "addr:district": null,
            "description": "",
            "opening_hours": null,
            "phone": "+90 05368747242",
            "branch": null,
            "amenity": "florist",
            "mobile": null,
            "addr:street": null,
            "cuisine": null,
            "name": "Ariana Flower Garden",
            "name:en": "Tuana Flower Garden",
            "name:uk": null,
            "name:de": null,
            "name:tr": "Tuana Flower Garden",
            "name:ru": null,
            "name:ar": null
        }
    },
    {
        "lat": 40.9819215,
        "lon": 29.1127632,
        "tags": {
            "addr:city": "İstanbul",
            "addr:district": null,
            "description": "",
            "opening_hours": null,
            "phone": null,
            "branch": null,
            "amenity": "florist",
            "mobile": null,
            "addr:street": null,
            "cuisine": null,
            "name": "Trend Florist",
            "name:en": null,
            "name:uk": null,
            "name:de": null,
            "name:tr": null,
            "name:ru": null,
            "name:ar": null
        }
    },
    {
        "lat": 41.02767,
        "lon": 29.0317808,
        "tags": {
            "addr:city": "İstanbul",
            "addr:district": null,
            "description": "",
            "opening_hours": null,
            "phone": "+902163108021",
            "branch": null,
            "amenity": "florist",
            "mobile": null,
            "addr:street": null,
            "cuisine": null,
            "name": "Ulusoy Çiçekçilik",
            "name:en": null,
            "name:uk": null,
            "name:de": null,
            "name:tr": null,
            "name:ru": null,
            "name:ar": null
        }
    },
    {
        "lat": 41.1006361,
        "lon": 28.8692141,
        "tags": {
            "addr:city": "İstanbul",
            "addr:district": null,
            "description": "",
            "opening_hours": null,
            "phone": null,
            "branch": null,
            "amenity": "florist",
            "mobile": null,
            "addr:street": null,
            "cuisine": null,
            "name": null,
            "name:en": null,
            "name:uk": null,
            "name:de": null,
            "name:tr": null,
            "name:ru": null,
            "name:ar": null
        }
    },
    {
        "lat": 40.8775735,
        "lon": 29.0969908,
        "tags": {
            "addr:city": "İstanbul",
            "addr:district": null,
            "description": "",
            "opening_hours": null,
            "phone": null,
            "branch": null,
            "amenity": "florist",
            "mobile": null,
            "addr:street": null,
            "cuisine": null,
            "name": null,
            "name:en": null,
            "name:uk": null,
            "name:de": null,
            "name:tr": null,
            "name:ru": null,
            "name:ar": null
        }
    },
    {
        "lat": 40.9232593,
        "lon": 29.1333916,
        "tags": {
            "addr:city": "İstanbul",
            "addr:district": null,
            "description": "",
            "opening_hours": null,
            "phone": null,
            "branch": null,
            "amenity": "florist",
            "mobile": null,
            "addr:street": null,
            "cuisine": null,
            "name": null,
            "name:en": null,
            "name:uk": null,
            "name:de": null,
            "name:tr": null,
            "name:ru": null,
            "name:ar": null
        }
    },
    {
        "lat": 41.0488851,
        "lon": 28.8983265,
        "tags": {
            "addr:city": "İstanbul",
            "addr:district": null,
            "description": "",
            "opening_hours": null,
            "phone": null,
            "branch": null,
            "amenity": "florist",
            "mobile": null,
            "addr:street": null,
            "cuisine": null,
            "name": "Parlak Çiçek & Çikolata",
            "name:en": null,
            "name:uk": null,
            "name:de": null,
            "name:tr": null,
            "name:ru": null,
            "name:ar": null
        }
    },
    {
        "lat": 40.9924743,
        "lon": 29.121429,
        "tags": {
            "addr:city": "İstanbul",
            "addr:district": "Ataşehir",
            "description": "",
            "opening_hours": null,
            "phone": "02164562399",
            "branch": null,
            "amenity": "florist",
            "mobile": null,
            "addr:street": "Ataşehir Bulvarı",
            "cuisine": null,
            "name": "Ataşehir Çiçekçilik",
            "name:en": null,
            "name:uk": null,
            "name:de": null,
            "name:tr": null,
            "name:ru": null,
            "name:ar": null
        }
    },
    {
        "lat": 41.0824213,
        "lon": 28.915158,
        "tags": {
            "addr:city": "İstanbul",
            "addr:district": null,
            "description": "",
            "opening_hours": null,
            "phone": null,
            "branch": null,
            "amenity": "florist",
            "mobile": null,
            "addr:street": null,
            "cuisine": null,
            "name": "Özer Çiçekçilik",
            "name:en": null,
            "name:uk": null,
            "name:de": null,
            "name:tr": null,
            "name:ru": null,
            "name:ar": null
        }
    },
    {
        "lat": 41.072153,
        "lon": 28.9390303,
        "tags": {
            "addr:city": "İstanbul",
            "addr:district": null,
            "description": "",
            "opening_hours": null,
            "phone": null,
            "branch": null,
            "amenity": "florist",
            "mobile": null,
            "addr:street": null,
            "cuisine": null,
            "name": "HT Fotoğraf & Çiçekçilik",
            "name:en": null,
            "name:uk": null,
            "name:de": null,
            "name:tr": null,
            "name:ru": null,
            "name:ar": null
        }
    },
    {
        "lat": 41.0763941,
        "lon": 28.1413357,
        "tags": {
            "addr:city": "İstanbul",
            "addr:district": null,
            "description": "",
            "opening_hours": null,
            "phone": null,
            "branch": null,
            "amenity": "florist",
            "mobile": null,
            "addr:street": null,
            "cuisine": null,
            "name": "Aytekin Çiçekçilik",
            "name:en": null,
            "name:uk": null,
            "name:de": null,
            "name:tr": null,
            "name:ru": null,
            "name:ar": null
        }
    },
    {
        "lat": 41.0415571,
        "lon": 29.0078386,
        "tags": {
            "addr:city": "İstanbul",
            "addr:district": null,
            "description": "",
            "opening_hours": null,
            "phone": null,
            "branch": null,
            "amenity": "florist",
            "mobile": null,
            "addr:street": null,
            "cuisine": null,
            "name": "İstanbul Çiçekleri",
            "name:en": null,
            "name:uk": null,
            "name:de": null,
            "name:tr": null,
            "name:ru": null,
            "name:ar": null
        }
    },
    {
        "lat": 40.9746825,
        "lon": 29.0454852,
        "tags": {
            "addr:city": "İstanbul",
            "addr:district": null,
            "description": "",
            "opening_hours": null,
            "phone": null,
            "branch": null,
            "amenity": "florist",
            "mobile": null,
            "addr:street": null,
            "cuisine": null,
            "name": "Kalamış Çiçekçilik",
            "name:en": null,
            "name:uk": null,
            "name:de": null,
            "name:tr": null,
            "name:ru": null,
            "name:ar": null
        }
    },
    {
        "lat": 41.0007875,
        "lon": 28.6964299,
        "tags": {
            "addr:city": "İstanbul",
            "addr:district": "Esenyurt",
            "description": "",
            "opening_hours": null,
            "phone": null,
            "branch": null,
            "amenity": "florist",
            "mobile": null,
            "addr:street": "67. Sokak",
            "cuisine": null,
            "name": "Çiçekçi",
            "name:en": null,
            "name:uk": null,
            "name:de": null,
            "name:tr": null,
            "name:ru": null,
            "name:ar": null
        }
    },
    {
        "lat": 41.0027793,
        "lon": 28.6946845,
        "tags": {
            "addr:city": "İstanbul",
            "addr:district": null,
            "description": "",
            "opening_hours": null,
            "phone": null,
            "branch": null,
            "amenity": "florist",
            "mobile": null,
            "addr:street": null,
            "cuisine": null,
            "name": "Simge Çiçekçilik",
            "name:en": null,
            "name:uk": null,
            "name:de": null,
            "name:tr": null,
            "name:ru": null,
            "name:ar": null
        }
    },
    {
        "lat": 40.9648724,
        "lon": 29.0817434,
        "tags": {
            "addr:city": "İstanbul",
            "addr:district": "Kadıköy",
            "description": "",
            "opening_hours": null,
            "phone": null,
            "branch": null,
            "amenity": "florist",
            "mobile": null,
            "addr:street": "Halim Ağa Sokağı",
            "cuisine": null,
            "name": "Shalimar Boutique De Fleurs",
            "name:en": null,
            "name:uk": null,
            "name:de": null,
            "name:tr": null,
            "name:ru": null,
            "name:ar": null
        }
    },
    {
        "lat": 40.9679678,
        "lon": 29.0821124,
        "tags": {
            "addr:city": "İstanbul",
            "addr:district": null,
            "description": "",
            "opening_hours": null,
            "phone": null,
            "branch": null,
            "amenity": "florist",
            "mobile": null,
            "addr:street": null,
            "cuisine": null,
            "name": "Sahra Çiçekçilik",
            "name:en": null,
            "name:uk": null,
            "name:de": null,
            "name:tr": null,
            "name:ru": null,
            "name:ar": null
        }
    },
    {
        "lat": 40.9753867,
        "lon": 29.0423933,
        "tags": {
            "addr:city": "İstanbul",
            "addr:district": null,
            "description": "",
            "opening_hours": null,
            "phone": null,
            "branch": null,
            "amenity": "florist",
            "mobile": null,
            "addr:street": null,
            "cuisine": null,
            "name": "Çiçekçi",
            "name:en": null,
            "name:uk": null,
            "name:de": null,
            "name:tr": null,
            "name:ru": null,
            "name:ar": null
        }
    },
    {
        "lat": 40.9699854,
        "lon": 29.0625377,
        "tags": {
            "addr:city": "İstanbul",
            "addr:district": null,
            "description": "",
            "opening_hours": null,
            "phone": null,
            "branch": null,
            "amenity": "florist",
            "mobile": null,
            "addr:street": "Bağdat Caddesi",
            "cuisine": null,
            "name": "İstanbul Çiçekleri",
            "name:en": null,
            "name:uk": null,
            "name:de": null,
            "name:tr": null,
            "name:ru": null,
            "name:ar": null
        }
    },
    {
        "lat": 40.9698588,
        "lon": 29.0842142,
        "tags": {
            "addr:city": "İstanbul",
            "addr:district": null,
            "description": "",
            "opening_hours": null,
            "phone": "+90 216 362 2614",
            "branch": null,
            "amenity": "florist",
            "mobile": null,
            "addr:street": null,
            "cuisine": null,
            "name": "Yasemin Çiçek Evi",
            "name:en": null,
            "name:uk": null,
            "name:de": null,
            "name:tr": null,
            "name:ru": null,
            "name:ar": null
        }
    },
    {
        "lat": 40.998115,
        "lon": 29.1022518,
        "tags": {
            "addr:city": "İstanbul",
            "addr:district": null,
            "description": "",
            "opening_hours": null,
            "phone": null,
            "branch": null,
            "amenity": "florist",
            "mobile": null,
            "addr:street": null,
            "cuisine": null,
            "name": "Mola Flora & Kahve",
            "name:en": null,
            "name:uk": null,
            "name:de": null,
            "name:tr": null,
            "name:ru": null,
            "name:ar": null
        }
    },
    {
        "lat": 41.0241221,
        "lon": 29.0369833,
        "tags": {
            "addr:city": "İstanbul",
            "addr:district": "Üsküdar",
            "description": "",
            "opening_hours": null,
            "phone": "+90 216 474 45 10",
            "branch": null,
            "amenity": "florist",
            "mobile": null,
            "addr:street": "İcadiye Bağlarbaşı Caddesi",
            "cuisine": null,
            "name": "Moliva Çiçekçilik",
            "name:en": null,
            "name:uk": null,
            "name:de": null,
            "name:tr": null,
            "name:ru": null,
            "name:ar": null
        }
    },
    {
        "lat": 40.9799543,
        "lon": 29.0778697,
        "tags": {
            "addr:city": "İstanbul",
            "addr:district": null,
            "description": "",
            "opening_hours": null,
            "phone": null,
            "branch": null,
            "amenity": "florist",
            "mobile": null,
            "addr:street": null,
            "cuisine": null,
            "name": "My Life Gareden Çiçekçilik",
            "name:en": null,
            "name:uk": null,
            "name:de": null,
            "name:tr": null,
            "name:ru": null,
            "name:ar": null
        }
    },
    {
        "lat": 40.9666979,
        "lon": 29.0810651,
        "tags": {
            "addr:city": "İstanbul",
            "addr:district": null,
            "description": "",
            "opening_hours": null,
            "phone": null,
            "branch": null,
            "amenity": "florist",
            "mobile": null,
            "addr:street": "Kaptan Arif Sokağı",
            "cuisine": null,
            "name": "Flowers Stories",
            "name:en": null,
            "name:uk": null,
            "name:de": null,
            "name:tr": null,
            "name:ru": null,
            "name:ar": null
        }
    },
    {
        "lat": 40.9737448,
        "lon": 29.0561072,
        "tags": {
            "addr:city": "İstanbul",
            "addr:district": "Kadıköy",
            "description": "",
            "opening_hours": null,
            "phone": null,
            "branch": null,
            "amenity": "florist",
            "mobile": null,
            "addr:street": "Bağdat Caddesi",
            "cuisine": null,
            "name": "Lalezar Çiçekçilik",
            "name:en": null,
            "name:uk": null,
            "name:de": null,
            "name:tr": null,
            "name:ru": null,
            "name:ar": null
        }
    },
    {
        "lat": 40.9808335,
        "lon": 29.0680041,
        "tags": {
            "addr:city": "İstanbul",
            "addr:district": null,
            "description": "",
            "opening_hours": null,
            "phone": null,
            "branch": null,
            "amenity": "florist",
            "mobile": null,
            "addr:street": null,
            "cuisine": null,
            "name": "Çiçek ve Seramik",
            "name:en": null,
            "name:uk": null,
            "name:de": null,
            "name:tr": null,
            "name:ru": null,
            "name:ar": null
        }
    },
    {
        "lat": 40.9847435,
        "lon": 29.0381592,
        "tags": {
            "addr:city": "İstanbul",
            "addr:district": null,
            "description": "",
            "opening_hours": null,
            "phone": null,
            "branch": null,
            "amenity": "florist",
            "mobile": null,
            "addr:street": null,
            "cuisine": null,
            "name": "Yüksel Çiçekçilik",
            "name:en": null,
            "name:uk": null,
            "name:de": null,
            "name:tr": null,
            "name:ru": null,
            "name:ar": null
        }
    },
    {
        "lat": 40.9888365,
        "lon": 29.0268383,
        "tags": {
            "addr:city": "İstanbul",
            "addr:district": null,
            "description": "",
            "opening_hours": null,
            "phone": null,
            "branch": null,
            "amenity": "florist",
            "mobile": null,
            "addr:street": null,
            "cuisine": null,
            "name": "Çiçekçi Mali",
            "name:en": null,
            "name:uk": null,
            "name:de": null,
            "name:tr": null,
            "name:ru": null,
            "name:ar": null
        }
    },
    {
        "lat": 41.0798166,
        "lon": 29.0719584,
        "tags": {
            "addr:city": "İstanbul",
            "addr:district": "Beykoz",
            "description": "Hayal Home & Flowers\nÇiçek, Bitki, Çini Vazo ve Organizasyon.",
            "opening_hours": "Mo-Su 08:30-20:00",
            "phone": "+90 542 529 61 09",
            "branch": null,
            "amenity": "florist",
            "mobile": null,
            "addr:street": "Göksu Caddesi",
            "cuisine": null,
            "name": "Hayal Home & Flowers",
            "name:en": null,
            "name:uk": null,
            "name:de": null,
            "name:tr": null,
            "name:ru": null,
            "name:ar": null
        }
    },
    {
        "lat": 41.184052,
        "lon": 28.6954549,
        "tags": {
            "addr:city": "İstanbul",
            "addr:district": null,
            "description": "",
            "opening_hours": null,
            "phone": null,
            "branch": null,
            "amenity": "florist",
            "mobile": null,
            "addr:street": null,
            "cuisine": null,
            "name": "Demirler Botanik",
            "name:en": null,
            "name:uk": null,
            "name:de": null,
            "name:tr": null,
            "name:ru": null,
            "name:ar": null
        }
    },
    {
        "lat": 40.9260026,
        "lon": 29.1326351,
        "tags": {
            "addr:city": "İstanbul",
            "addr:district": null,
            "description": "",
            "opening_hours": null,
            "phone": null,
            "branch": null,
            "amenity": "florist",
            "mobile": null,
            "addr:street": null,
            "cuisine": null,
            "name": "Marmara Çiçekçilik",
            "name:en": null,
            "name:uk": null,
            "name:de": null,
            "name:tr": null,
            "name:ru": null,
            "name:ar": null
        }
    },
    {
        "lat": 40.9648413,
        "lon": 29.0871414,
        "tags": {
            "addr:city": "İstanbul",
            "addr:district": "Kadıköy",
            "description": "",
            "opening_hours": null,
            "phone": null,
            "branch": null,
            "amenity": "florist",
            "mobile": null,
            "addr:street": "Hakim Kemal Sokağı",
            "cuisine": null,
            "name": "Anzela",
            "name:en": null,
            "name:uk": null,
            "name:de": null,
            "name:tr": null,
            "name:ru": null,
            "name:ar": null
        }
    },
    {
        "lat": 40.9275415,
        "lon": 29.1396057,
        "tags": {
            "addr:city": "İstanbul",
            "addr:district": null,
            "description": "",
            "opening_hours": null,
            "phone": "05322179077",
            "branch": null,
            "amenity": "florist",
            "mobile": null,
            "addr:street": null,
            "cuisine": null,
            "name": "Cadde Çiçek",
            "name:en": null,
            "name:uk": null,
            "name:de": null,
            "name:tr": null,
            "name:ru": null,
            "name:ar": null
        }
    },
    {
        "lat": 41.1319154,
        "lon": 28.9657263,
        "tags": {
            "addr:city": "İstanbul",
            "addr:district": null,
            "description": "",
            "opening_hours": null,
            "phone": null,
            "branch": null,
            "amenity": "florist",
            "mobile": "+90 544 654 22 01",
            "addr:street": null,
            "cuisine": null,
            "name": "İstinye Botanik Süs Bitkileri Peyzaj ve Fidanlık",
            "name:en": null,
            "name:uk": null,
            "name:de": null,
            "name:tr": null,
            "name:ru": null,
            "name:ar": null
        }
    },
    {
        "lat": 40.9275474,
        "lon": 29.3095073,
        "tags": {
            "addr:city": "İstanbul",
            "addr:district": "Pendik",
            "description": "",
            "opening_hours": null,
            "phone": null,
            "branch": null,
            "amenity": "florist",
            "mobile": null,
            "addr:street": "Millet Caddesi",
            "cuisine": null,
            "name": "Tunasya Çiçekçilik",
            "name:en": null,
            "name:uk": null,
            "name:de": null,
            "name:tr": null,
            "name:ru": null,
            "name:ar": null
        }
    },
    {
        "lat": 40.9314873,
        "lon": 29.1352512,
        "tags": {
            "addr:city": "İstanbul",
            "addr:district": null,
            "description": "",
            "opening_hours": null,
            "phone": "05322533254",
            "branch": null,
            "amenity": "florist",
            "mobile": null,
            "addr:street": null,
            "cuisine": null,
            "name": "Kentya Çiçekçilik",
            "name:en": null,
            "name:uk": null,
            "name:de": null,
            "name:tr": null,
            "name:ru": null,
            "name:ar": null
        }
    },
    {
        "lat": 41.0169605,
        "lon": 28.9714289,
        "tags": {
            "addr:city": "İstanbul",
            "addr:district": null,
            "description": "",
            "opening_hours": null,
            "phone": null,
            "branch": null,
            "amenity": "florist",
            "mobile": null,
            "addr:street": null,
            "cuisine": null,
            "name": null,
            "name:en": null,
            "name:uk": null,
            "name:de": null,
            "name:tr": null,
            "name:ru": null,
            "name:ar": null
        }
    },
    {
        "lat": 41.0267251,
        "lon": 28.9805561,
        "tags": {
            "addr:city": "İstanbul",
            "addr:district": null,
            "description": "",
            "opening_hours": null,
            "phone": null,
            "branch": null,
            "amenity": "florist",
            "mobile": null,
            "addr:street": null,
            "cuisine": null,
            "name": null,
            "name:en": null,
            "name:uk": null,
            "name:de": null,
            "name:tr": null,
            "name:ru": null,
            "name:ar": null
        }
    },
    {
        "lat": 41.0543892,
        "lon": 28.3646218,
        "tags": {
            "addr:city": "İstanbul",
            "addr:district": null,
            "description": "",
            "opening_hours": null,
            "phone": null,
            "branch": null,
            "amenity": "florist",
            "mobile": null,
            "addr:street": null,
            "cuisine": null,
            "name": "Bahar Çiçekçilik",
            "name:en": null,
            "name:uk": null,
            "name:de": null,
            "name:tr": null,
            "name:ru": null,
            "name:ar": null
        }
    },
    {
        "lat": 40.9619032,
        "lon": 29.0879006,
        "tags": {
            "addr:city": "İstanbul",
            "addr:district": null,
            "description": "",
            "opening_hours": null,
            "phone": null,
            "branch": null,
            "amenity": "florist",
            "mobile": null,
            "addr:street": null,
            "cuisine": null,
            "name": "The Bloom Room",
            "name:en": null,
            "name:uk": null,
            "name:de": null,
            "name:tr": null,
            "name:ru": null,
            "name:ar": null
        }
    },
    {
        "lat": 40.9928234,
        "lon": 29.2311601,
        "tags": {
            "addr:city": "İstanbul",
            "addr:district": null,
            "description": "",
            "opening_hours": null,
            "phone": null,
            "branch": null,
            "amenity": "florist",
            "mobile": null,
            "addr:street": null,
            "cuisine": null,
            "name": "Gül Bahçesi",
            "name:en": null,
            "name:uk": null,
            "name:de": null,
            "name:tr": null,
            "name:ru": null,
            "name:ar": null
        }
    },
    {
        "lat": 41.0362288,
        "lon": 29.0292311,
        "tags": {
            "addr:city": "İstanbul",
            "addr:district": null,
            "description": "",
            "opening_hours": null,
            "phone": null,
            "branch": null,
            "amenity": "florist",
            "mobile": null,
            "addr:street": null,
            "cuisine": null,
            "name": null,
            "name:en": null,
            "name:uk": null,
            "name:de": null,
            "name:tr": null,
            "name:ru": null,
            "name:ar": null
        }
    },
    {
        "lat": 41.0690932,
        "lon": 29.0105811,
        "tags": {
            "addr:city": "İstanbul",
            "addr:district": null,
            "description": "",
            "opening_hours": null,
            "phone": null,
            "branch": null,
            "amenity": "florist",
            "mobile": null,
            "addr:street": null,
            "cuisine": null,
            "name": "İstanbul Çiçekleri",
            "name:en": null,
            "name:uk": null,
            "name:de": null,
            "name:tr": null,
            "name:ru": null,
            "name:ar": null
        }
    },
    {
        "lat": 40.9927797,
        "lon": 29.11861,
        "tags": {
            "addr:city": "İstanbul",
            "addr:district": null,
            "description": "",
            "opening_hours": null,
            "phone": null,
            "branch": null,
            "amenity": "florist",
            "mobile": null,
            "addr:street": null,
            "cuisine": null,
            "name": "İstanbul Çiçekleri",
            "name:en": null,
            "name:uk": null,
            "name:de": null,
            "name:tr": null,
            "name:ru": null,
            "name:ar": null
        }
    },
    {
        "lat": 40.965999,
        "lon": 29.0733866,
        "tags": {
            "addr:city": "İstanbul",
            "addr:district": null,
            "description": "",
            "opening_hours": null,
            "phone": null,
            "branch": null,
            "amenity": "florist",
            "mobile": null,
            "addr:street": null,
            "cuisine": null,
            "name": "Sera Serap Çiçek Galerisi",
            "name:en": null,
            "name:uk": null,
            "name:de": null,
            "name:tr": null,
            "name:ru": null,
            "name:ar": null
        }
    },
    {
        "lat": 41.0375863,
        "lon": 28.9844185,
        "tags": {
            "addr:city": "İstanbul",
            "addr:district": null,
            "description": "",
            "opening_hours": null,
            "phone": null,
            "branch": null,
            "amenity": "florist",
            "mobile": null,
            "addr:street": null,
            "cuisine": null,
            "name": null,
            "name:en": null,
            "name:uk": null,
            "name:de": null,
            "name:tr": null,
            "name:ru": null,
            "name:ar": null
        }
    },
    {
        "lat": 41.0067142,
        "lon": 28.6660063,
        "tags": {
            "addr:city": "İstanbul",
            "addr:district": null,
            "description": "",
            "opening_hours": "Th-Tu 00:00-24:00",
            "phone": "05396356050",
            "branch": null,
            "amenity": "florist",
            "mobile": null,
            "addr:street": null,
            "cuisine": null,
            "name": null,
            "name:en": "Istacity Flowers and gifts",
            "name:uk": null,
            "name:de": null,
            "name:tr": null,
            "name:ru": null,
            "name:ar": "ورود و هدايا اسطنبول إيستاسيتي"
        }
    },
    {
        "lat": 41.0428526,
        "lon": 29.0058552,
        "tags": {
            "addr:city": "İstanbul",
            "addr:district": null,
            "description": "",
            "opening_hours": "Th-Tu 00:00-24:00",
            "phone": "05396356050",
            "branch": null,
            "amenity": "florist",
            "mobile": null,
            "addr:street": null,
            "cuisine": null,
            "name": null,
            "name:en": "Istacity flowers and gifts çiçekçi",
            "name:uk": null,
            "name:de": null,
            "name:tr": null,
            "name:ru": null,
            "name:ar": "محل ورد و هدايا - ورود طبيعية"
        }
    },
    {
        "lat": 41.0939635,
        "lon": 28.7728536,
        "tags": {
            "addr:city": "İstanbul",
            "addr:district": null,
            "description": "",
            "opening_hours": "Th-Tu 00:00-24:00",
            "phone": "05396356050",
            "branch": null,
            "amenity": "florist",
            "mobile": null,
            "addr:street": null,
            "cuisine": null,
            "name": null,
            "name:en": "Istacitt Flowers and gifts Çiçekçi",
            "name:uk": null,
            "name:de": null,
            "name:tr": null,
            "name:ru": null,
            "name:ar": "متجر ورود و هدايا اسطنبول"
        }
    },
    {
        "lat": 41.0110182,
        "lon": 28.9451019,
        "tags": {
            "addr:city": "İstanbul",
            "addr:district": null,
            "description": "",
            "opening_hours": "Th-Tu 00:00-24:00",
            "phone": "05396356050",
            "branch": null,
            "amenity": "florist",
            "mobile": null,
            "addr:street": null,
            "cuisine": null,
            "name": null,
            "name:en": "Istacity flowers and gifts çiçekçi",
            "name:uk": null,
            "name:de": null,
            "name:tr": null,
            "name:ru": null,
            "name:ar": "متجر ورود و هدايا في اسطنبول"
        }
    },
    {
        "lat": 41.113289,
        "lon": 29.0311962,
        "tags": {
            "addr:city": "İstanbul",
            "addr:district": null,
            "description": "",
            "opening_hours": "Th-Tu 00:00-24:00",
            "phone": "05396356050",
            "branch": null,
            "amenity": "florist",
            "mobile": null,
            "addr:street": null,
            "cuisine": null,
            "name": null,
            "name:en": "Istacity flowers and gifts çiçekçi",
            "name:uk": null,
            "name:de": null,
            "name:tr": null,
            "name:ru": null,
            "name:ar": "محل ورود و هدايا اسطنبول ورد طبيعي"
        }
    },
    {
        "lat": 40.9803048,
        "lon": 28.8809542,
        "tags": {
            "addr:city": "İstanbul",
            "addr:district": null,
            "description": "",
            "opening_hours": "Th-Tu 00:00-24:00",
            "phone": "05396356050",
            "branch": null,
            "amenity": "florist",
            "mobile": null,
            "addr:street": null,
            "cuisine": null,
            "name": null,
            "name:en": "Istacity flowers and gifts çiçekçi",
            "name:uk": null,
            "name:de": null,
            "name:tr": null,
            "name:ru": null,
            "name:ar": "ورود و هدايا اسطنبول ورد طبيعي"
        }
    },
    {
        "lat": 41.0473248,
        "lon": 28.9318756,
        "tags": {
            "addr:city": "İstanbul",
            "addr:district": null,
            "description": "",
            "opening_hours": "Th-Tu 00:00-24:00",
            "phone": "05396356050",
            "branch": null,
            "amenity": "florist",
            "mobile": null,
            "addr:street": null,
            "cuisine": null,
            "name": null,
            "name:en": "Istacity flowers and gifts çiçekçi",
            "name:uk": null,
            "name:de": null,
            "name:tr": null,
            "name:ru": null,
            "name:ar": "محل ورود و هدايا اسطنبول ورد طبيعي"
        }
    },
    {
        "lat": 41.0331425,
        "lon": 28.8514717,
        "tags": {
            "addr:city": "İstanbul",
            "addr:district": null,
            "description": "",
            "opening_hours": "Th-Tu 00:00-24:00",
            "phone": "05396356050",
            "branch": null,
            "amenity": "florist",
            "mobile": null,
            "addr:street": null,
            "cuisine": null,
            "name": null,
            "name:en": "Istacity flowers and gifts çiçekçi",
            "name:uk": null,
            "name:de": null,
            "name:tr": null,
            "name:ru": null,
            "name:ar": "متجر ورود زهور و هدايا اسطنبول"
        }
    },
    {
        "lat": 41.0214855,
        "lon": 28.645802,
        "tags": {
            "addr:city": "İstanbul",
            "addr:district": null,
            "description": "",
            "opening_hours": "Th-Tu 00:00-24:00",
            "phone": "05396356050",
            "branch": null,
            "amenity": "florist",
            "mobile": null,
            "addr:street": null,
            "cuisine": null,
            "name": null,
            "name:en": "Istacity flowers and gifts çiçekçi",
            "name:uk": null,
            "name:de": null,
            "name:tr": null,
            "name:ru": null,
            "name:ar": "متجر ورود زهور و هدايا اسطنبول"
        }
    },
    {
        "lat": 41.0022579,
        "lon": 28.6262072,
        "tags": {
            "addr:city": "İstanbul",
            "addr:district": null,
            "description": "",
            "opening_hours": "Th-Tu 00:00-24:00",
            "phone": "05396356050",
            "branch": null,
            "amenity": "florist",
            "mobile": null,
            "addr:street": null,
            "cuisine": null,
            "name": null,
            "name:en": "Istacity flowers and gifts çiçekçi",
            "name:uk": null,
            "name:de": null,
            "name:tr": null,
            "name:ru": null,
            "name:ar": "متجر ورود زهور و هدايا اسطنبول"
        }
    },
    {
        "lat": 41.0594064,
        "lon": 28.6723086,
        "tags": {
            "addr:city": "İstanbul",
            "addr:district": null,
            "description": "",
            "opening_hours": "Th-Tu 00:00-24:00",
            "phone": "05396356050",
            "branch": null,
            "amenity": "florist",
            "mobile": null,
            "addr:street": null,
            "cuisine": null,
            "name": null,
            "name:en": "Istacity flowers and gifts çiçekçi",
            "name:uk": null,
            "name:de": null,
            "name:tr": null,
            "name:ru": null,
            "name:ar": "متجر ورود زهور و هدايا اسطنبول"
        }
    },
    {
        "lat": 40.9088298,
        "lon": 29.3910036,
        "tags": {
            "addr:city": "İstanbul",
            "addr:district": null,
            "description": "",
            "opening_hours": null,
            "phone": "+905526043725",
            "branch": null,
            "amenity": "florist",
            "mobile": null,
            "addr:street": null,
            "cuisine": null,
            "name": "Gül Cihan Çiçekçilik",
            "name:en": null,
            "name:uk": null,
            "name:de": null,
            "name:tr": null,
            "name:ru": null,
            "name:ar": null
        }
    }
]