[
    {
        "lat": 40.9482885,
        "lon": 29.2837194,
        "tags": {
            "addr:city": "Istanbul",
            "addr:district": "Sultanbeyli",
            "description": "",
            "opening_hours": null,
            "phone": null,
            "branch": null,
            "amenity": "fuel",
            "mobile": null,
            "addr:street": "Antalya Caddesi",
            "cuisine": null,
            "name": "Hisar",
            "name:en": null,
            "name:uk": null,
            "name:de": null,
            "name:tr": null,
            "name:ru": null,
            "name:ar": "منشرة اخشاب هيسار"
        }
    },
    {
        "lat": 41.028186,
        "lon": 28.899395,
        "tags": {
            "addr:city": "İstanbul",
            "addr:district": "Bayrampaşa",
            "description": "",
            "opening_hours": "24/7",
            "phone": "+90 212 493 1700",
            "branch": "Davutpaşa Altyol",
            "amenity": "fuel",
            "mobile": null,
            "addr:street": null,
            "cuisine": null,
            "name": "Shell",
            "name:en": null,
            "name:uk": null,
            "name:de": null,
            "name:tr": null,
            "name:ru": null,
            "name:ar": null
        }
    },
    {
        "lat": 41.0280911,
        "lon": 28.9007152,
        "tags": {
            "addr:city": "Istanbul",
            "addr:district": "Bayrampaşa",
            "description": "",
            "opening_hours": "24/7",
            "phone": "+90 212 493 1600",
            "branch": "Davutpaşa Üstyol",
            "amenity": "fuel",
            "mobile": null,
            "addr:street": null,
            "cuisine": null,
            "name": "Shell",
            "name:en": null,
            "name:uk": null,
            "name:de": null,
            "name:tr": null,
            "name:ru": null,
            "name:ar": null
        }
    },
    {
        "lat": 40.9179366,
        "lon": 29.2566689,
        "tags": {
            "addr:city": "İstanbul",
            "addr:district": null,
            "description": "",
            "opening_hours": null,
            "phone": null,
            "branch": null,
            "amenity": "fuel",
            "mobile": null,
            "addr:street": null,
            "cuisine": null,
            "name": "Oduncu",
            "name:en": null,
            "name:uk": null,
            "name:de": null,
            "name:tr": null,
            "name:ru": null,
            "name:ar": null
        }
    }
]