[
    {
        "lat": 40.9843711,
        "lon": 28.6470359,
        "tags": {
            "addr:city": "İstanbul",
            "addr:district": null,
            "description": "",
            "opening_hours": null,
            "phone": null,
            "branch": null,
            "amenity": "garden_centre",
            "mobile": null,
            "addr:street": null,
            "cuisine": null,
            "name": null,
            "name:en": null,
            "name:uk": null,
            "name:de": null,
            "name:tr": null,
            "name:ru": null,
            "name:ar": null
        }
    },
    {
        "lat": 41.0109152,
        "lon": 28.6569501,
        "tags": {
            "addr:city": "İstanbul",
            "addr:district": null,
            "description": "",
            "opening_hours": null,
            "phone": null,
            "branch": null,
            "amenity": "garden_centre",
            "mobile": null,
            "addr:street": null,
            "cuisine": null,
            "name": "Bahçe Dünyası",
            "name:en": null,
            "name:uk": null,
            "name:de": null,
            "name:tr": null,
            "name:ru": null,
            "name:ar": null
        }
    },
    {
        "lat": 40.9996747,
        "lon": 28.8809267,
        "tags": {
            "addr:city": "İstanbul",
            "addr:district": null,
            "description": "",
            "opening_hours": null,
            "phone": null,
            "branch": null,
            "amenity": "garden_centre",
            "mobile": null,
            "addr:street": null,
            "cuisine": null,
            "name": "Bakırköy Botanik Parkı",
            "name:en": null,
            "name:uk": null,
            "name:de": null,
            "name:tr": null,
            "name:ru": null,
            "name:ar": null
        }
    },
    {
        "lat": 41.0308474,
        "lon": 29.0337542,
        "tags": {
            "addr:city": "İstanbul",
            "addr:district": null,
            "description": "",
            "opening_hours": null,
            "phone": null,
            "branch": null,
            "amenity": "garden_centre",
            "mobile": null,
            "addr:street": "İcadiye Caddesi",
            "cuisine": null,
            "name": "Botanik Bahçe Kuzguncuk",
            "name:en": null,
            "name:uk": null,
            "name:de": null,
            "name:tr": null,
            "name:ru": null,
            "name:ar": null
        }
    },
    {
        "lat": 41.1480976,
        "lon": 29.5657112,
        "tags": {
            "addr:city": "İstanbul",
            "addr:district": null,
            "description": "",
            "opening_hours": null,
            "phone": null,
            "branch": null,
            "amenity": "garden_centre",
            "mobile": null,
            "addr:street": null,
            "cuisine": null,
            "name": "Altunsoy Çiftliği",
            "name:en": null,
            "name:uk": null,
            "name:de": null,
            "name:tr": null,
            "name:ru": null,
            "name:ar": null
        }
    },
    {
        "lat": 41.0972017,
        "lon": 28.1682292,
        "tags": {
            "addr:city": "İstanbul",
            "addr:district": null,
            "description": "",
            "opening_hours": null,
            "phone": null,
            "branch": null,
            "amenity": "garden_centre",
            "mobile": null,
            "addr:street": null,
            "cuisine": null,
            "name": "Malva Permakültür Çiftliği",
            "name:en": null,
            "name:uk": null,
            "name:de": null,
            "name:tr": null,
            "name:ru": null,
            "name:ar": null
        }
    },
    {
        "lat": 41.049442,
        "lon": 29.0627285,
        "tags": {
            "addr:city": "İstanbul",
            "addr:district": "Üsküdar",
            "description": "",
            "opening_hours": null,
            "phone": null,
            "branch": null,
            "amenity": "garden_centre",
            "mobile": null,
            "addr:street": "Defterdaroğlu 2. Sokak",
            "cuisine": null,
            "name": null,
            "name:en": null,
            "name:uk": null,
            "name:de": null,
            "name:tr": null,
            "name:ru": null,
            "name:ar": null
        }
    },
    {
        "lat": 41.2199257,
        "lon": 29.035085,
        "tags": {
            "addr:city": "İstanbul",
            "addr:district": null,
            "description": "",
            "opening_hours": null,
            "phone": null,
            "branch": null,
            "amenity": "garden_centre",
            "mobile": null,
            "addr:street": null,
            "cuisine": null,
            "name": "Life&Garden İstanbul",
            "name:en": null,
            "name:uk": null,
            "name:de": null,
            "name:tr": null,
            "name:ru": null,
            "name:ar": null
        }
    },
    {
        "lat": 40.9366527,
        "lon": 29.3644998,
        "tags": {
            "addr:city": "İstanbul",
            "addr:district": "Tuzla",
            "description": "",
            "opening_hours": "Mo-Su 8:00-19:00",
            "phone": "+90 533 492 69 24",
            "branch": null,
            "amenity": "garden_centre",
            "mobile": null,
            "addr:street": "İstanbul Park Bulvarı",
            "cuisine": null,
            "name": "Garden Shop",
            "name:en": null,
            "name:uk": null,
            "name:de": null,
            "name:tr": null,
            "name:ru": null,
            "name:ar": null
        }
    },
    {
        "lat": 40.9927747,
        "lon": 29.1159095,
        "tags": {
            "addr:city": "İstanbul",
            "addr:district": null,
            "description": "",
            "opening_hours": null,
            "phone": null,
            "branch": null,
            "amenity": "garden_centre",
            "mobile": null,
            "addr:street": "Ataşehir Bulvarı",
            "cuisine": null,
            "name": "Bahçe Market",
            "name:en": null,
            "name:uk": null,
            "name:de": null,
            "name:tr": null,
            "name:ru": null,
            "name:ar": null
        }
    },
    {
        "lat": 40.924928,
        "lon": 29.3069436,
        "tags": {
            "addr:city": "İstanbul",
            "addr:district": "Pendik",
            "description": "",
            "opening_hours": "09:00-18:30",
            "phone": null,
            "branch": null,
            "amenity": "garden_centre",
            "mobile": null,
            "addr:street": "Millet Caddesi",
            "cuisine": null,
            "name": "Bahçe Market",
            "name:en": null,
            "name:uk": null,
            "name:de": null,
            "name:tr": null,
            "name:ru": null,
            "name:ar": null
        }
    },
    {
        "lat": 40.97048,
        "lon": 29.076442,
        "tags": {
            "addr:city": "İstanbul",
            "addr:district": "Kadıköy",
            "description": "",
            "opening_hours": null,
            "phone": "+90 216 3020839",
            "branch": null,
            "amenity": "garden_centre",
            "mobile": null,
            "addr:street": "Eralp Sokağı",
            "cuisine": null,
            "name": "İkizler Çiçek Bahçesi",
            "name:en": null,
            "name:uk": null,
            "name:de": null,
            "name:tr": null,
            "name:ru": null,
            "name:ar": null
        }
    },
    {
        "lat": 40.971376,
        "lon": 29.0598699,
        "tags": {
            "addr:city": "İstanbul",
            "addr:district": "Kadıköy",
            "description": "",
            "opening_hours": "09:00-18:30",
            "phone": null,
            "branch": null,
            "amenity": "garden_centre",
            "mobile": null,
            "addr:street": "Bağdat Caddesi",
            "cuisine": null,
            "name": "Bahçe Market",
            "name:en": null,
            "name:uk": null,
            "name:de": null,
            "name:tr": null,
            "name:ru": null,
            "name:ar": null
        }
    }
]