[
    {
        "lat": 41.0740736,
        "lon": 28.8885174,
        "tags": {
            "addr:city": "İstanbul",
            "addr:district": null,
            "description": "",
            "opening_hours": null,
            "phone": null,
            "branch": null,
            "amenity": "gas",
            "mobile": null,
            "addr:street": null,
            "cuisine": null,
            "name": "İpragaz Tüp Bayii",
            "name:en": null,
            "name:uk": null,
            "name:de": null,
            "name:tr": null,
            "name:ru": null,
            "name:ar": null
        }
    },
    {
        "lat": 40.9458566,
        "lon": 29.1192772,
        "tags": {
            "addr:city": "İstanbul",
            "addr:district": null,
            "description": "",
            "opening_hours": null,
            "phone": null,
            "branch": null,
            "amenity": "gas",
            "mobile": null,
            "addr:street": null,
            "cuisine": null,
            "name": "Demirdöküm Yetkili Servis",
            "name:en": null,
            "name:uk": null,
            "name:de": null,
            "name:tr": null,
            "name:ru": null,
            "name:ar": null
        }
    },
    {
        "lat": 41.0330709,
        "lon": 28.9457147,
        "tags": {
            "addr:city": "Istanbul",
            "addr:district": "Fatih",
            "description": "",
            "opening_hours": null,
            "phone": null,
            "branch": null,
            "amenity": "gas",
            "mobile": null,
            "addr:street": "Düriye Sokağı",
            "cuisine": null,
            "name": "Aygaz",
            "name:en": null,
            "name:uk": null,
            "name:de": null,
            "name:tr": null,
            "name:ru": null,
            "name:ar": "آيغاز لبيع الغاز"
        }
    },
    {
        "lat": 41.0094885,
        "lon": 28.9326222,
        "tags": {
            "addr:city": "Istanbul",
            "addr:district": "Fatih",
            "description": "",
            "opening_hours": null,
            "phone": "02125886505",
            "branch": null,
            "amenity": "gas",
            "mobile": null,
            "addr:street": "Cevdetpaşa Caddesi",
            "cuisine": null,
            "name": "İpragaz Bayii",
            "name:en": null,
            "name:uk": null,
            "name:de": null,
            "name:tr": null,
            "name:ru": null,
            "name:ar": "مركز توزيع إبريغاز"
        }
    },
    {
        "lat": 40.9296234,
        "lon": 29.134671,
        "tags": {
            "addr:city": "İstanbul",
            "addr:district": null,
            "description": "",
            "opening_hours": null,
            "phone": null,
            "branch": null,
            "amenity": "gas",
            "mobile": null,
            "addr:street": null,
            "cuisine": null,
            "name": "AYGAZ BAYİİ",
            "name:en": null,
            "name:uk": null,
            "name:de": null,
            "name:tr": null,
            "name:ru": null,
            "name:ar": null
        }
    },
    {
        "lat": 40.9733384,
        "lon": 29.2667018,
        "tags": {
            "addr:city": "Istanbul",
            "addr:district": "Sultanbeyli",
            "description": "",
            "opening_hours": null,
            "phone": "3985858",
            "branch": null,
            "amenity": "gas",
            "mobile": null,
            "addr:street": "Nezafet Sokağı",
            "cuisine": null,
            "name": "İpragaz",
            "name:en": null,
            "name:uk": null,
            "name:de": null,
            "name:tr": null,
            "name:ru": null,
            "name:ar": "إيبراغاز( موزع مياه )"
        }
    },
    {
        "lat": 41.0495923,
        "lon": 28.8483403,
        "tags": {
            "addr:city": "Istanbul",
            "addr:district": "Zeytinburnu",
            "description": "",
            "opening_hours": null,
            "phone": null,
            "branch": null,
            "amenity": "gas",
            "mobile": null,
            "addr:street": null,
            "cuisine": null,
            "name": "LİKİDGAZ",
            "name:en": null,
            "name:uk": null,
            "name:de": null,
            "name:tr": null,
            "name:ru": null,
            "name:ar": "مركز غاز"
        }
    },
    {
        "lat": 41.0463383,
        "lon": 28.8582374,
        "tags": {
            "addr:city": "Istanbul",
            "addr:district": null,
            "description": "",
            "opening_hours": null,
            "phone": "6345574",
            "branch": null,
            "amenity": "water_point",
            "mobile": null,
            "addr:street": "2067 Sokak",
            "cuisine": null,
            "name": "Gül Tüp & Su",
            "name:en": null,
            "name:uk": null,
            "name:de": null,
            "name:tr": null,
            "name:ru": null,
            "name:ar": null
        }
    },
    {
        "lat": 41.0433474,
        "lon": 28.8507605,
        "tags": {
            "addr:city": "Istanbul",
            "addr:district": null,
            "description": "",
            "opening_hours": null,
            "phone": "4334469",
            "branch": null,
            "amenity": "gas",
            "mobile": null,
            "addr:street": "Namık Kemal Caddesi",
            "cuisine": null,
            "name": "AYGAZ",
            "name:en": null,
            "name:uk": null,
            "name:de": null,
            "name:tr": null,
            "name:ru": null,
            "name:ar": "أي غاز"
        }
    },
    {
        "lat": 41.0007514,
        "lon": 29.0401788,
        "tags": {
            "addr:city": "İstanbul",
            "addr:district": null,
            "description": "",
            "opening_hours": null,
            "phone": null,
            "branch": null,
            "amenity": "gas",
            "mobile": null,
            "addr:street": null,
            "cuisine": null,
            "name": "Aygaz",
            "name:en": null,
            "name:uk": null,
            "name:de": null,
            "name:tr": null,
            "name:ru": null,
            "name:ar": null
        }
    },
    {
        "lat": 40.9854828,
        "lon": 29.0249059,
        "tags": {
            "addr:city": "İstanbul",
            "addr:district": null,
            "description": "",
            "opening_hours": null,
            "phone": null,
            "branch": null,
            "amenity": "gas",
            "mobile": null,
            "addr:street": null,
            "cuisine": null,
            "name": "Aygaz",
            "name:en": null,
            "name:uk": null,
            "name:de": null,
            "name:tr": null,
            "name:ru": null,
            "name:ar": null
        }
    },
    {
        "lat": 40.8758574,
        "lon": 29.2688492,
        "tags": {
            "addr:city": "İstanbul",
            "addr:district": null,
            "description": "",
            "opening_hours": null,
            "phone": null,
            "branch": null,
            "amenity": "gas",
            "mobile": null,
            "addr:street": null,
            "cuisine": null,
            "name": "Fırat Ticaret - Habaş",
            "name:en": null,
            "name:uk": null,
            "name:de": null,
            "name:tr": null,
            "name:ru": null,
            "name:ar": null
        }
    }
]