[
    {
        "lat": 41.0320727,
        "lon": 28.9412965,
        "tags": {
            "addr:city": "Istanbul",
            "addr:district": "Fatih",
            "description": "",
            "opening_hours": null,
            "phone": null,
            "branch": null,
            "amenity": "glaziery",
            "mobile": null,
            "addr:street": "Paşa Hamamı Caddesi",
            "cuisine": null,
            "name": "Turhan Pen",
            "name:en": null,
            "name:uk": null,
            "name:de": null,
            "name:tr": null,
            "name:ru": null,
            "name:ar": "تورهان بين للزجاج"
        }
    },
    {
        "lat": 41.0338207,
        "lon": 28.9463087,
        "tags": {
            "addr:city": "Istanbul",
            "addr:district": "Fatih",
            "description": "",
            "opening_hours": null,
            "phone": null,
            "branch": null,
            "amenity": "glaziery",
            "mobile": null,
            "addr:street": "Leblebiciler Sokağı",
            "cuisine": null,
            "name": "Eray cam ve ayna",
            "name:en": null,
            "name:uk": null,
            "name:de": null,
            "name:tr": null,
            "name:ru": null,
            "name:ar": "إيراي جام في آينا للزجاج والمرايا"
        }
    },
    {
        "lat": 41.0058098,
        "lon": 28.9789805,
        "tags": {
            "addr:city": "Istanbul",
            "addr:district": "Fatih",
            "description": "",
            "opening_hours": null,
            "phone": "02125168874",
            "branch": null,
            "amenity": "glaziery",
            "mobile": null,
            "addr:street": "Utangaç Sokak",
            "cuisine": null,
            "name": "İznik Classics",
            "name:en": null,
            "name:uk": null,
            "name:de": null,
            "name:tr": null,
            "name:ru": null,
            "name:ar": null
        }
    },
    {
        "lat": 40.9633738,
        "lon": 29.2859857,
        "tags": {
            "addr:city": "Istanbul",
            "addr:district": "Sultanbeyli",
            "description": "",
            "opening_hours": "Mo-Fr 07:00-13:30; Mo-Fr 17:00-20:00",
            "phone": "05327126515",
            "branch": null,
            "amenity": "glaziery",
            "mobile": null,
            "addr:street": "Fatih Bulvarı Caddesi",
            "cuisine": null,
            "name": "Gül cam",
            "name:en": null,
            "name:uk": null,
            "name:de": null,
            "name:tr": null,
            "name:ru": null,
            "name:ar": "محل زجاج غول"
        }
    },
    {
        "lat": 40.9624998,
        "lon": 29.2882526,
        "tags": {
            "addr:city": "Istanbul",
            "addr:district": "Sultanbeyli",
            "description": "",
            "opening_hours": "Mo-Fr 07:00-13:30; Mo-Fr 17:00-20:00",
            "phone": "02163987590",
            "branch": null,
            "amenity": "glaziery",
            "mobile": null,
            "addr:street": "Fatih Bulvarı Caddesi",
            "cuisine": null,
            "name": "Jali Cam",
            "name:en": null,
            "name:uk": null,
            "name:de": null,
            "name:tr": null,
            "name:ru": null,
            "name:ar": "زجاج جالي"
        }
    },
    {
        "lat": 41.003634,
        "lon": 28.9020794,
        "tags": {
            "addr:city": "Istanbul",
            "addr:district": "Zeytinburnu",
            "description": "",
            "opening_hours": null,
            "phone": null,
            "branch": null,
            "amenity": "glaziery",
            "mobile": null,
            "addr:street": "Şht. Er Ramazan kırman sk",
            "cuisine": null,
            "name": "Nur YAPI",
            "name:en": null,
            "name:uk": null,
            "name:de": null,
            "name:tr": null,
            "name:ru": null,
            "name:ar": "نور يبي"
        }
    },
    {
        "lat": 41.0048884,
        "lon": 28.9043347,
        "tags": {
            "addr:city": "Istanbul",
            "addr:district": "Zeytinburnu",
            "description": "",
            "opening_hours": null,
            "phone": null,
            "branch": null,
            "amenity": "glaziery",
            "mobile": null,
            "addr:street": "Mevlana Cd",
            "cuisine": null,
            "name": "BOZKIR YAPI",
            "name:en": null,
            "name:uk": null,
            "name:de": null,
            "name:tr": null,
            "name:ru": null,
            "name:ar": "بوزكور"
        }
    },
    {
        "lat": 40.9970543,
        "lon": 28.9118471,
        "tags": {
            "addr:city": "Istanbul",
            "addr:district": "Zeytinburnu",
            "description": "",
            "opening_hours": null,
            "phone": null,
            "branch": null,
            "amenity": "glaziery",
            "mobile": null,
            "addr:street": null,
            "cuisine": null,
            "name": "Evim",
            "name:en": null,
            "name:uk": null,
            "name:de": null,
            "name:tr": null,
            "name:ru": null,
            "name:ar": "افيم"
        }
    },
    {
        "lat": 40.9875147,
        "lon": 28.8947762,
        "tags": {
            "addr:city": "Istanbul",
            "addr:district": "Zeytinburnu",
            "description": "",
            "opening_hours": null,
            "phone": null,
            "branch": null,
            "amenity": "glaziery",
            "mobile": null,
            "addr:street": "Merv Caddesi",
            "cuisine": null,
            "name": "Fıratpen",
            "name:en": null,
            "name:uk": null,
            "name:de": null,
            "name:tr": null,
            "name:ru": null,
            "name:ar": "فراتبن"
        }
    },
    {
        "lat": 40.9877802,
        "lon": 28.8954947,
        "tags": {
            "addr:city": "Istanbul",
            "addr:district": "Zeytinburnu",
            "description": "",
            "opening_hours": null,
            "phone": "02125476522",
            "branch": null,
            "amenity": "glaziery",
            "mobile": null,
            "addr:street": "Şht. Er Yavuz Bahar Sokak",
            "cuisine": null,
            "name": "Koç Cam Dekorasyon",
            "name:en": null,
            "name:uk": null,
            "name:de": null,
            "name:tr": null,
            "name:ru": null,
            "name:ar": "ديكورات كوتش جام"
        }
    },
    {
        "lat": 40.9851623,
        "lon": 28.8953875,
        "tags": {
            "addr:city": "Istanbul",
            "addr:district": "Zeytinburnu",
            "description": "",
            "opening_hours": null,
            "phone": null,
            "branch": null,
            "amenity": "glaziery",
            "mobile": null,
            "addr:street": "8/3. sokak",
            "cuisine": null,
            "name": "winhouse",
            "name:en": null,
            "name:uk": null,
            "name:de": null,
            "name:tr": null,
            "name:ru": null,
            "name:ar": "وين هاوس"
        }
    },
    {
        "lat": 40.9877014,
        "lon": 28.8984299,
        "tags": {
            "addr:city": "Istanbul",
            "addr:district": "Zeytinburnu",
            "description": "",
            "opening_hours": null,
            "phone": null,
            "branch": null,
            "amenity": "glaziery",
            "mobile": null,
            "addr:street": "67. sokak",
            "cuisine": null,
            "name": "ege pen",
            "name:en": null,
            "name:uk": null,
            "name:de": null,
            "name:tr": null,
            "name:ru": null,
            "name:ar": "إيجي بين"
        }
    },
    {
        "lat": 40.984521,
        "lon": 28.8956878,
        "tags": {
            "addr:city": "Istanbul",
            "addr:district": "Zeytinburnu",
            "description": "",
            "opening_hours": null,
            "phone": null,
            "branch": null,
            "amenity": "glaziery",
            "mobile": null,
            "addr:street": "Adnan Kahveci Sokak",
            "cuisine": null,
            "name": "Winhouse",
            "name:en": null,
            "name:uk": null,
            "name:de": null,
            "name:tr": null,
            "name:ru": null,
            "name:ar": "وين هاوس"
        }
    },
    {
        "lat": 40.9843663,
        "lon": 28.8958244,
        "tags": {
            "addr:city": "Istanbul",
            "addr:district": "Zeytinburnu",
            "description": "",
            "opening_hours": null,
            "phone": null,
            "branch": null,
            "amenity": "glaziery",
            "mobile": null,
            "addr:street": "Adnan Kahveci Sokak",
            "cuisine": null,
            "name": "Pimapen",
            "name:en": null,
            "name:uk": null,
            "name:de": null,
            "name:tr": null,
            "name:ru": null,
            "name:ar": "بيمابين"
        }
    },
    {
        "lat": 40.9938183,
        "lon": 28.9028057,
        "tags": {
            "addr:city": "Istanbul",
            "addr:district": "Zeytinburnu",
            "description": "",
            "opening_hours": null,
            "phone": null,
            "branch": null,
            "amenity": "glaziery",
            "mobile": null,
            "addr:street": "53. sokak",
            "cuisine": null,
            "name": "Birlik Demir",
            "name:en": null,
            "name:uk": null,
            "name:de": null,
            "name:tr": null,
            "name:ru": null,
            "name:ar": "حديد مع بعض"
        }
    },
    {
        "lat": 40.9855854,
        "lon": 28.8993362,
        "tags": {
            "addr:city": "Istanbul",
            "addr:district": "Zeytinburnu",
            "description": "",
            "opening_hours": null,
            "phone": null,
            "branch": null,
            "amenity": "glaziery",
            "mobile": null,
            "addr:street": "14. Sokak",
            "cuisine": null,
            "name": "Winsa",
            "name:en": null,
            "name:uk": null,
            "name:de": null,
            "name:tr": null,
            "name:ru": null,
            "name:ar": "وينسا"
        }
    },
    {
        "lat": 40.985665,
        "lon": 28.898932,
        "tags": {
            "addr:city": "Istanbul",
            "addr:district": "Zeytinburnu",
            "description": "",
            "opening_hours": null,
            "phone": null,
            "branch": null,
            "amenity": "glaziery",
            "mobile": null,
            "addr:street": "14. Sokak",
            "cuisine": null,
            "name": "Boğaziçi Elektrik",
            "name:en": null,
            "name:uk": null,
            "name:de": null,
            "name:tr": null,
            "name:ru": null,
            "name:ar": "كهرباء بوازيتشي (دفع فواتير)"
        }
    },
    {
        "lat": 40.9919985,
        "lon": 28.9052354,
        "tags": {
            "addr:city": "Istanbul",
            "addr:district": "Zeytinburnu",
            "description": "",
            "opening_hours": null,
            "phone": null,
            "branch": null,
            "amenity": "glaziery",
            "mobile": null,
            "addr:street": "44/2. sokak",
            "cuisine": null,
            "name": "ERMESTAN",
            "name:en": null,
            "name:uk": null,
            "name:de": null,
            "name:tr": null,
            "name:ru": null,
            "name:ar": "عمرستان"
        }
    },
    {
        "lat": 40.9904278,
        "lon": 28.9057654,
        "tags": {
            "addr:city": "Istanbul",
            "addr:district": "Zeytinburnu",
            "description": "",
            "opening_hours": null,
            "phone": null,
            "branch": null,
            "amenity": "glaziery",
            "mobile": null,
            "addr:street": "49/1. sokak",
            "cuisine": null,
            "name": "FIRATPEN",
            "name:en": null,
            "name:uk": null,
            "name:de": null,
            "name:tr": null,
            "name:ru": null,
            "name:ar": "فيرات بين"
        }
    },
    {
        "lat": 40.992899,
        "lon": 28.9051051,
        "tags": {
            "addr:city": "Istanbul",
            "addr:district": "Zeytinburnu",
            "description": "",
            "opening_hours": null,
            "phone": null,
            "branch": null,
            "amenity": "glaziery",
            "mobile": null,
            "addr:street": "48. sokak",
            "cuisine": null,
            "name": "Pimapen",
            "name:en": null,
            "name:uk": null,
            "name:de": null,
            "name:tr": null,
            "name:ru": null,
            "name:ar": "بايمابن"
        }
    },
    {
        "lat": 40.9942731,
        "lon": 28.9024657,
        "tags": {
            "addr:city": "Istanbul",
            "addr:district": "Zeytinburnu",
            "description": "",
            "opening_hours": "Mo-Su 09:00-18:00",
            "phone": null,
            "branch": null,
            "amenity": "glaziery",
            "mobile": null,
            "addr:street": null,
            "cuisine": null,
            "name": "Aydoğan Cam",
            "name:en": null,
            "name:uk": null,
            "name:de": null,
            "name:tr": null,
            "name:ru": null,
            "name:ar": "ايدوغان للنوافذ والزجاج"
        }
    },
    {
        "lat": 40.9899499,
        "lon": 28.9008715,
        "tags": {
            "addr:city": "Istanbul",
            "addr:district": "Zeytinburnu",
            "description": "",
            "opening_hours": "Mo-Su 09:00-18:00",
            "phone": null,
            "branch": null,
            "amenity": "glaziery",
            "mobile": null,
            "addr:street": null,
            "cuisine": null,
            "name": "Hünerli Cam",
            "name:en": null,
            "name:uk": null,
            "name:de": null,
            "name:tr": null,
            "name:ru": null,
            "name:ar": "هونيرلي للنوافذ والزجاج"
        }
    },
    {
        "lat": 40.9912971,
        "lon": 28.9068786,
        "tags": {
            "addr:city": "Istanbul",
            "addr:district": "Zeytinburnu",
            "description": "",
            "opening_hours": null,
            "phone": null,
            "branch": null,
            "amenity": "glaziery",
            "mobile": null,
            "addr:street": "44/1. Sokak",
            "cuisine": null,
            "name": "Asil Cam",
            "name:en": null,
            "name:uk": null,
            "name:de": null,
            "name:tr": null,
            "name:ru": null,
            "name:ar": "الزجاج الاصيل"
        }
    },
    {
        "lat": 41.0484366,
        "lon": 28.8354362,
        "tags": {
            "addr:city": "Istanbul",
            "addr:district": "Bağcılar",
            "description": "",
            "opening_hours": null,
            "phone": null,
            "branch": null,
            "amenity": "glaziery",
            "mobile": null,
            "addr:street": "Halide Edip Adıvar Caddesi",
            "cuisine": null,
            "name": "Yavuzpen",
            "name:en": null,
            "name:uk": null,
            "name:de": null,
            "name:tr": null,
            "name:ru": null,
            "name:ar": "يافوز بين"
        }
    },
    {
        "lat": 41.0512572,
        "lon": 28.8410321,
        "tags": {
            "addr:city": "Istanbul",
            "addr:district": "Bağcılar",
            "description": "",
            "opening_hours": null,
            "phone": null,
            "branch": null,
            "amenity": "glaziery",
            "mobile": null,
            "addr:street": "Velioğlu caddesi",
            "cuisine": null,
            "name": "Fıratpen",
            "name:en": null,
            "name:uk": null,
            "name:de": null,
            "name:tr": null,
            "name:ru": null,
            "name:ar": "فرات بين"
        }
    },
    {
        "lat": 41.0490259,
        "lon": 28.8396087,
        "tags": {
            "addr:city": "Istanbul",
            "addr:district": "Bağcılar",
            "description": "",
            "opening_hours": null,
            "phone": null,
            "branch": null,
            "amenity": "glaziery",
            "mobile": null,
            "addr:street": "Altınel sokak",
            "cuisine": null,
            "name": "Gür Cam",
            "name:en": null,
            "name:uk": null,
            "name:de": null,
            "name:tr": null,
            "name:ru": null,
            "name:ar": "كور جام"
        }
    },
    {
        "lat": 41.0611998,
        "lon": 28.8527571,
        "tags": {
            "addr:city": "Istanbul",
            "addr:district": "Bağcılar",
            "description": "",
            "opening_hours": null,
            "phone": null,
            "branch": null,
            "amenity": "glaziery",
            "mobile": null,
            "addr:street": "Kışla caddesi",
            "cuisine": null,
            "name": "Kardeşler Cam",
            "name:en": null,
            "name:uk": null,
            "name:de": null,
            "name:tr": null,
            "name:ru": null,
            "name:ar": "كارديشلر جامى"
        }
    },
    {
        "lat": 41.051196,
        "lon": 28.8580223,
        "tags": {
            "addr:city": "Istanbul",
            "addr:district": "Bağcılar",
            "description": "",
            "opening_hours": null,
            "phone": "02124316690",
            "branch": null,
            "amenity": "glaziery",
            "mobile": null,
            "addr:street": "Osmangazi Caddesi",
            "cuisine": null,
            "name": "Fıratpen",
            "name:en": null,
            "name:uk": null,
            "name:de": null,
            "name:tr": null,
            "name:ru": null,
            "name:ar": "فرات بن"
        }
    },
    {
        "lat": 41.0523336,
        "lon": 28.8305253,
        "tags": {
            "addr:city": "Istanbul",
            "addr:district": "Bağcılar",
            "description": "",
            "opening_hours": null,
            "phone": null,
            "branch": null,
            "amenity": "glaziery",
            "mobile": null,
            "addr:street": "1. sokak",
            "cuisine": null,
            "name": "Hazar Cam Alüminyum",
            "name:en": null,
            "name:uk": null,
            "name:de": null,
            "name:tr": null,
            "name:ru": null,
            "name:ar": "هازار"
        }
    },
    {
        "lat": 41.030759,
        "lon": 28.8309999,
        "tags": {
            "addr:city": "Istanbul",
            "addr:district": "Bağcılar",
            "description": "",
            "opening_hours": null,
            "phone": "05373111873",
            "branch": null,
            "amenity": "glaziery",
            "mobile": null,
            "addr:street": "Cumhuriyet Caddesi",
            "cuisine": null,
            "name": "Camcı",
            "name:en": null,
            "name:uk": null,
            "name:de": null,
            "name:tr": null,
            "name:ru": null,
            "name:ar": "جامجه"
        }
    },
    {
        "lat": 41.0262654,
        "lon": 28.8292493,
        "tags": {
            "addr:city": "Istanbul",
            "addr:district": "Bağcılar",
            "description": "",
            "opening_hours": null,
            "phone": null,
            "branch": null,
            "amenity": "glaziery",
            "mobile": null,
            "addr:street": "Atatürk Caddesi",
            "cuisine": null,
            "name": "Egepen Deceuninck",
            "name:en": null,
            "name:uk": null,
            "name:de": null,
            "name:tr": null,
            "name:ru": null,
            "name:ar": "إيجيه بين"
        }
    },
    {
        "lat": 41.040453,
        "lon": 28.8435986,
        "tags": {
            "addr:city": "Istanbul",
            "addr:district": "Bağcılar",
            "description": "",
            "opening_hours": null,
            "phone": null,
            "branch": null,
            "amenity": "glaziery",
            "mobile": null,
            "addr:street": "10.Sokak",
            "cuisine": null,
            "name": "Adopen",
            "name:en": null,
            "name:uk": null,
            "name:de": null,
            "name:tr": null,
            "name:ru": null,
            "name:ar": "ادوبن"
        }
    },
    {
        "lat": 41.0360231,
        "lon": 28.8338058,
        "tags": {
            "addr:city": "Istanbul",
            "addr:district": "Bağcılar",
            "description": "",
            "opening_hours": null,
            "phone": null,
            "branch": null,
            "amenity": "glaziery",
            "mobile": null,
            "addr:street": "Mahmutbey Caddesi",
            "cuisine": null,
            "name": "Katlanır Cam Balkon",
            "name:en": null,
            "name:uk": null,
            "name:de": null,
            "name:tr": null,
            "name:ru": null,
            "name:ar": "كاتلانر جاب بلكون"
        }
    },
    {
        "lat": 41.0395194,
        "lon": 28.8422071,
        "tags": {
            "addr:city": "Istanbul",
            "addr:district": "Bağcılar",
            "description": "",
            "opening_hours": null,
            "phone": null,
            "branch": null,
            "amenity": "glaziery",
            "mobile": null,
            "addr:street": "Tavukcu kopru caddesi",
            "cuisine": null,
            "name": "Firatpen",
            "name:en": null,
            "name:uk": null,
            "name:de": null,
            "name:tr": null,
            "name:ru": null,
            "name:ar": "فيرات بان"
        }
    },
    {
        "lat": 41.0353342,
        "lon": 28.8674572,
        "tags": {
            "addr:city": "Istanbul",
            "addr:district": "Bağcılar",
            "description": "",
            "opening_hours": null,
            "phone": null,
            "branch": null,
            "amenity": "glaziery",
            "mobile": null,
            "addr:street": "773 sokak",
            "cuisine": null,
            "name": "Pimapen",
            "name:en": null,
            "name:uk": null,
            "name:de": null,
            "name:tr": null,
            "name:ru": null,
            "name:ar": "بايمابن"
        }
    },
    {
        "lat": 41.0411782,
        "lon": 28.8562937,
        "tags": {
            "addr:city": "Istanbul",
            "addr:district": null,
            "description": "",
            "opening_hours": null,
            "phone": null,
            "branch": null,
            "amenity": "glaziery",
            "mobile": null,
            "addr:street": "Fatih Caddesi",
            "cuisine": null,
            "name": "BÖLÜKBAŞI CAM",
            "name:en": null,
            "name:uk": null,
            "name:de": null,
            "name:tr": null,
            "name:ru": null,
            "name:ar": null
        }
    },
    {
        "lat": 41.043187,
        "lon": 28.851092,
        "tags": {
            "addr:city": "Istanbul",
            "addr:district": null,
            "description": "",
            "opening_hours": null,
            "phone": "02124360653",
            "branch": null,
            "amenity": "glaziery",
            "mobile": null,
            "addr:street": "Fatih Caddesi",
            "cuisine": null,
            "name": "Mutlu CAM",
            "name:en": null,
            "name:uk": null,
            "name:de": null,
            "name:tr": null,
            "name:ru": null,
            "name:ar": "موتلو جام"
        }
    },
    {
        "lat": 41.0366366,
        "lon": 28.865818,
        "tags": {
            "addr:city": "Istanbul",
            "addr:district": "Bağcılar",
            "description": "",
            "opening_hours": null,
            "phone": null,
            "branch": null,
            "amenity": "glaziery",
            "mobile": null,
            "addr:street": "779 sokak",
            "cuisine": null,
            "name": "CAMCI",
            "name:en": null,
            "name:uk": null,
            "name:de": null,
            "name:tr": null,
            "name:ru": null,
            "name:ar": "زجاج"
        }
    },
    {
        "lat": 41.0356403,
        "lon": 28.8684501,
        "tags": {
            "addr:city": "Istanbul",
            "addr:district": "Bağcılar",
            "description": "",
            "opening_hours": null,
            "phone": "6168453",
            "branch": null,
            "amenity": "glaziery",
            "mobile": null,
            "addr:street": "Esenler Cd",
            "cuisine": null,
            "name": "Fıratpen",
            "name:en": null,
            "name:uk": null,
            "name:de": null,
            "name:tr": null,
            "name:ru": null,
            "name:ar": "فيرات بين"
        }
    }
]