[
    {
        "lat": 41.0149217,
        "lon": 28.9282069,
        "tags": {
            "addr:city": "İstanbul",
            "addr:district": null,
            "description": "",
            "opening_hours": null,
            "phone": null,
            "branch": null,
            "amenity": "greengrocer",
            "mobile": null,
            "addr:street": null,
            "cuisine": null,
            "name": "Manav",
            "name:en": null,
            "name:uk": null,
            "name:de": null,
            "name:tr": null,
            "name:ru": null,
            "name:ar": "ماناف فواكهجي"
        }
    },
    {
        "lat": 41.0669966,
        "lon": 29.0420848,
        "tags": {
            "addr:city": "İstanbul",
            "addr:district": "Beşiktaş",
            "description": "Bu manavın sipariş hattı mevcuttur. (0534 767 42 65)",
            "opening_hours": "Mo-Su 06:00-19:00",
            "phone": "0212 257 57 05",
            "branch": null,
            "amenity": "greengrocer",
            "mobile": null,
            "addr:street": "Bebek Arnavutköy Caddesi",
            "cuisine": null,
            "name": "Kolaylar Tarım",
            "name:en": null,
            "name:uk": null,
            "name:de": null,
            "name:tr": null,
            "name:ru": null,
            "name:ar": null
        }
    },
    {
        "lat": 41.0492778,
        "lon": 29.0762881,
        "tags": {
            "addr:city": "İstanbul",
            "addr:district": null,
            "description": "",
            "opening_hours": null,
            "phone": null,
            "branch": null,
            "amenity": "greengrocer",
            "mobile": null,
            "addr:street": null,
            "cuisine": null,
            "name": null,
            "name:en": null,
            "name:uk": null,
            "name:de": null,
            "name:tr": null,
            "name:ru": null,
            "name:ar": null
        }
    },
    {
        "lat": 41.0305366,
        "lon": 28.9861417,
        "tags": {
            "addr:city": "İstanbul",
            "addr:district": null,
            "description": "",
            "opening_hours": null,
            "phone": null,
            "branch": null,
            "amenity": "greengrocer",
            "mobile": null,
            "addr:street": null,
            "cuisine": null,
            "name": null,
            "name:en": null,
            "name:uk": null,
            "name:de": null,
            "name:tr": null,
            "name:ru": null,
            "name:ar": null
        }
    },
    {
        "lat": 40.9867846,
        "lon": 29.0310821,
        "tags": {
            "addr:city": "İstanbul",
            "addr:district": null,
            "description": "",
            "opening_hours": null,
            "phone": null,
            "branch": null,
            "amenity": "greengrocer",
            "mobile": null,
            "addr:street": null,
            "cuisine": null,
            "name": null,
            "name:en": null,
            "name:uk": null,
            "name:de": null,
            "name:tr": null,
            "name:ru": null,
            "name:ar": null
        }
    },
    {
        "lat": 41.0351647,
        "lon": 28.9771331,
        "tags": {
            "addr:city": "İstanbul",
            "addr:district": null,
            "description": "",
            "opening_hours": null,
            "phone": null,
            "branch": null,
            "amenity": "greengrocer",
            "mobile": null,
            "addr:street": null,
            "cuisine": null,
            "name": null,
            "name:en": null,
            "name:uk": null,
            "name:de": null,
            "name:tr": null,
            "name:ru": null,
            "name:ar": null
        }
    },
    {
        "lat": 41.0267502,
        "lon": 28.9783352,
        "tags": {
            "addr:city": "İstanbul",
            "addr:district": null,
            "description": "",
            "opening_hours": null,
            "phone": null,
            "branch": null,
            "amenity": "greengrocer",
            "mobile": null,
            "addr:street": null,
            "cuisine": null,
            "name": "Çiğköfte",
            "name:en": null,
            "name:uk": null,
            "name:de": null,
            "name:tr": null,
            "name:ru": null,
            "name:ar": null
        }
    },
    {
        "lat": 41.0269683,
        "lon": 28.9788458,
        "tags": {
            "addr:city": "İstanbul",
            "addr:district": null,
            "description": "",
            "opening_hours": null,
            "phone": null,
            "branch": null,
            "amenity": "greengrocer",
            "mobile": null,
            "addr:street": null,
            "cuisine": null,
            "name": null,
            "name:en": null,
            "name:uk": null,
            "name:de": null,
            "name:tr": null,
            "name:ru": null,
            "name:ar": null
        }
    },
    {
        "lat": 41.0502602,
        "lon": 29.0254904,
        "tags": {
            "addr:city": "İstanbul",
            "addr:district": null,
            "description": "",
            "opening_hours": null,
            "phone": null,
            "branch": null,
            "amenity": "greengrocer",
            "mobile": null,
            "addr:street": null,
            "cuisine": null,
            "name": "Yeni Çınartaltı Manav",
            "name:en": null,
            "name:uk": null,
            "name:de": null,
            "name:tr": null,
            "name:ru": null,
            "name:ar": null
        }
    },
    {
        "lat": 41.0503532,
        "lon": 29.0251541,
        "tags": {
            "addr:city": "İstanbul",
            "addr:district": null,
            "description": "",
            "opening_hours": null,
            "phone": null,
            "branch": null,
            "amenity": "greengrocer",
            "mobile": null,
            "addr:street": null,
            "cuisine": null,
            "name": "Vegetables shop",
            "name:en": null,
            "name:uk": null,
            "name:de": null,
            "name:tr": null,
            "name:ru": null,
            "name:ar": null
        }
    },
    {
        "lat": 41.0339666,
        "lon": 28.891093,
        "tags": {
            "addr:city": "İstanbul",
            "addr:district": null,
            "description": "",
            "opening_hours": "Mo-Su 10:00-22:00",
            "phone": null,
            "branch": null,
            "amenity": "greengrocer",
            "mobile": null,
            "addr:street": null,
            "cuisine": null,
            "name": "Semt Manavı",
            "name:en": null,
            "name:uk": null,
            "name:de": null,
            "name:tr": null,
            "name:ru": null,
            "name:ar": null
        }
    },
    {
        "lat": 41.0048683,
        "lon": 28.9584951,
        "tags": {
            "addr:city": "İstanbul",
            "addr:district": null,
            "description": "",
            "opening_hours": null,
            "phone": null,
            "branch": null,
            "amenity": "greengrocer",
            "mobile": null,
            "addr:street": null,
            "cuisine": null,
            "name": "Akel market",
            "name:en": null,
            "name:uk": null,
            "name:de": null,
            "name:tr": null,
            "name:ru": null,
            "name:ar": null
        }
    },
    {
        "lat": 40.9730853,
        "lon": 29.0408695,
        "tags": {
            "addr:city": "İstanbul",
            "addr:district": null,
            "description": "",
            "opening_hours": null,
            "phone": null,
            "branch": null,
            "amenity": "greengrocer",
            "mobile": null,
            "addr:street": null,
            "cuisine": null,
            "name": "Karadeniz Market",
            "name:en": null,
            "name:uk": null,
            "name:de": null,
            "name:tr": "Karadeniz Market",
            "name:ru": null,
            "name:ar": null
        }
    },
    {
        "lat": 41.0140263,
        "lon": 29.1321586,
        "tags": {
            "addr:city": "İstanbul",
            "addr:district": null,
            "description": "",
            "opening_hours": null,
            "phone": null,
            "branch": null,
            "amenity": "greengrocer",
            "mobile": null,
            "addr:street": null,
            "cuisine": null,
            "name": "Sencer Manav",
            "name:en": null,
            "name:uk": null,
            "name:de": null,
            "name:tr": null,
            "name:ru": null,
            "name:ar": null
        }
    },
    {
        "lat": 41.0111663,
        "lon": 29.0384488,
        "tags": {
            "addr:city": "Üsküdar/İstanbul",
            "addr:district": null,
            "description": "",
            "opening_hours": null,
            "phone": null,
            "branch": null,
            "amenity": "greengrocer",
            "mobile": null,
            "addr:street": "Koşuyolu Caddesi",
            "cuisine": null,
            "name": "ÇAMLIBEL MANAV ŞARKÜTERİ",
            "name:en": null,
            "name:uk": null,
            "name:de": null,
            "name:tr": null,
            "name:ru": null,
            "name:ar": null
        }
    },
    {
        "lat": 40.9223873,
        "lon": 29.141465,
        "tags": {
            "addr:city": "İstanbul",
            "addr:district": null,
            "description": "",
            "opening_hours": null,
            "phone": null,
            "branch": null,
            "amenity": "greengrocer",
            "mobile": null,
            "addr:street": null,
            "cuisine": null,
            "name": "Tüzün Manav",
            "name:en": null,
            "name:uk": null,
            "name:de": null,
            "name:tr": null,
            "name:ru": null,
            "name:ar": null
        }
    },
    {
        "lat": 40.9219499,
        "lon": 29.1396779,
        "tags": {
            "addr:city": "İstanbul",
            "addr:district": null,
            "description": "",
            "opening_hours": null,
            "phone": null,
            "branch": null,
            "amenity": "greengrocer",
            "mobile": null,
            "addr:street": null,
            "cuisine": null,
            "name": "Yüksel",
            "name:en": null,
            "name:uk": null,
            "name:de": null,
            "name:tr": null,
            "name:ru": null,
            "name:ar": null
        }
    },
    {
        "lat": 41.0933466,
        "lon": 29.0863842,
        "tags": {
            "addr:city": "İstanbul",
            "addr:district": null,
            "description": "",
            "opening_hours": null,
            "phone": null,
            "branch": null,
            "amenity": "greengrocer",
            "mobile": null,
            "addr:street": null,
            "cuisine": null,
            "name": "mini hal manav",
            "name:en": null,
            "name:uk": null,
            "name:de": null,
            "name:tr": null,
            "name:ru": null,
            "name:ar": null
        }
    },
    {
        "lat": 41.0514632,
        "lon": 28.9835044,
        "tags": {
            "addr:city": "İstanbul",
            "addr:district": null,
            "description": "",
            "opening_hours": null,
            "phone": null,
            "branch": null,
            "amenity": "greengrocer",
            "mobile": null,
            "addr:street": null,
            "cuisine": null,
            "name": "Zirve Ekonomik Pazar",
            "name:en": null,
            "name:uk": null,
            "name:de": null,
            "name:tr": null,
            "name:ru": null,
            "name:ar": null
        }
    },
    {
        "lat": 41.0431779,
        "lon": 28.6472062,
        "tags": {
            "addr:city": "İstanbul",
            "addr:district": null,
            "description": "",
            "opening_hours": "Mo-Su 09:00-21:00",
            "phone": null,
            "branch": null,
            "amenity": "greengrocer",
            "mobile": null,
            "addr:street": null,
            "cuisine": null,
            "name": "Çatalcalı manav",
            "name:en": null,
            "name:uk": null,
            "name:de": null,
            "name:tr": "Çatalcalı manav",
            "name:ru": null,
            "name:ar": null
        }
    },
    {
        "lat": 40.9192226,
        "lon": 29.1320716,
        "tags": {
            "addr:city": "İstanbul",
            "addr:district": null,
            "description": "",
            "opening_hours": null,
            "phone": null,
            "branch": null,
            "amenity": "greengrocer",
            "mobile": null,
            "addr:street": null,
            "cuisine": null,
            "name": null,
            "name:en": null,
            "name:uk": null,
            "name:de": null,
            "name:tr": null,
            "name:ru": null,
            "name:ar": null
        }
    },
    {
        "lat": 40.91836,
        "lon": 29.1338423,
        "tags": {
            "addr:city": "İstanbul",
            "addr:district": null,
            "description": "",
            "opening_hours": null,
            "phone": null,
            "branch": null,
            "amenity": "greengrocer",
            "mobile": null,
            "addr:street": null,
            "cuisine": null,
            "name": null,
            "name:en": null,
            "name:uk": null,
            "name:de": null,
            "name:tr": null,
            "name:ru": null,
            "name:ar": null
        }
    },
    {
        "lat": 41.039057,
        "lon": 28.8987864,
        "tags": {
            "addr:city": "İstanbul",
            "addr:district": null,
            "description": "",
            "opening_hours": null,
            "phone": null,
            "branch": null,
            "amenity": "greengrocer",
            "mobile": null,
            "addr:street": null,
            "cuisine": null,
            "name": null,
            "name:en": null,
            "name:uk": null,
            "name:de": null,
            "name:tr": null,
            "name:ru": null,
            "name:ar": null
        }
    },
    {
        "lat": 41.0389663,
        "lon": 28.8989428,
        "tags": {
            "addr:city": "İstanbul",
            "addr:district": null,
            "description": "",
            "opening_hours": null,
            "phone": null,
            "branch": null,
            "amenity": "greengrocer",
            "mobile": null,
            "addr:street": null,
            "cuisine": null,
            "name": null,
            "name:en": null,
            "name:uk": null,
            "name:de": null,
            "name:tr": null,
            "name:ru": null,
            "name:ar": null
        }
    },
    {
        "lat": 40.9834971,
        "lon": 29.0707856,
        "tags": {
            "addr:city": "İstanbul",
            "addr:district": "kadıköy",
            "description": "",
            "opening_hours": "Mo-Su 07:30-20:30",
            "phone": null,
            "branch": null,
            "amenity": "greengrocer",
            "mobile": null,
            "addr:street": "Günaydın Sokak",
            "cuisine": null,
            "name": "Namık Manav",
            "name:en": null,
            "name:uk": null,
            "name:de": null,
            "name:tr": null,
            "name:ru": null,
            "name:ar": null
        }
    },
    {
        "lat": 41.0151694,
        "lon": 28.9482332,
        "tags": {
            "addr:city": "Istanbul",
            "addr:district": "Fatih",
            "description": "",
            "opening_hours": null,
            "phone": null,
            "branch": null,
            "amenity": "greengrocer",
            "mobile": null,
            "addr:street": "Değnekçi sokak",
            "cuisine": null,
            "name": "Natural urunler gida merkezi",
            "name:en": null,
            "name:uk": null,
            "name:de": null,
            "name:tr": null,
            "name:ru": null,
            "name:ar": "مركز غذائيات المنتجات الطبيعية"
        }
    },
    {
        "lat": 41.0159578,
        "lon": 28.9467993,
        "tags": {
            "addr:city": "Istanbul",
            "addr:district": "Fatih",
            "description": "",
            "opening_hours": "mo-sa 09:00-18:00",
            "phone": "02125218925",
            "branch": null,
            "amenity": "greengrocer",
            "mobile": null,
            "addr:street": "Balipaşa caddesi",
            "cuisine": null,
            "name": "Merkez yufka",
            "name:en": null,
            "name:uk": null,
            "name:de": null,
            "name:tr": null,
            "name:ru": null,
            "name:ar": "مركز غذائيات"
        }
    },
    {
        "lat": 41.0154233,
        "lon": 28.946435,
        "tags": {
            "addr:city": "Istanbul",
            "addr:district": "Fatih",
            "description": "",
            "opening_hours": "mo-su 08:00-23:00",
            "phone": null,
            "branch": null,
            "amenity": "greengrocer",
            "mobile": null,
            "addr:street": "Oksüzler sokak",
            "cuisine": null,
            "name": "Halk pazarı",
            "name:en": null,
            "name:uk": null,
            "name:de": null,
            "name:tr": null,
            "name:ru": null,
            "name:ar": "سوق الشعب للخضار"
        }
    },
    {
        "lat": 41.0144843,
        "lon": 28.9480939,
        "tags": {
            "addr:city": "Istanbul",
            "addr:district": "Fatih",
            "description": "",
            "opening_hours": "mo-su 08:00-23:00",
            "phone": "02125341292",
            "branch": null,
            "amenity": "greengrocer",
            "mobile": null,
            "addr:street": "Karakadı sokak",
            "cuisine": null,
            "name": "Bilal halk pazarı",
            "name:en": null,
            "name:uk": null,
            "name:de": null,
            "name:tr": null,
            "name:ru": null,
            "name:ar": "سوق بلال للخضار"
        }
    },
    {
        "lat": 41.0148873,
        "lon": 28.9378005,
        "tags": {
            "addr:city": "Istanbul",
            "addr:district": "Fatih",
            "description": "",
            "opening_hours": null,
            "phone": "02125328801",
            "branch": null,
            "amenity": "greengrocer",
            "mobile": null,
            "addr:street": "Selim Sabit Sokak",
            "cuisine": null,
            "name": "Elif Gida",
            "name:en": null,
            "name:uk": null,
            "name:de": null,
            "name:tr": null,
            "name:ru": null,
            "name:ar": "غذائيات ايلاف"
        }
    },
    {
        "lat": 41.0143934,
        "lon": 28.9391041,
        "tags": {
            "addr:city": "Istanbul",
            "addr:district": "Fatih",
            "description": "",
            "opening_hours": null,
            "phone": null,
            "branch": null,
            "amenity": "greengrocer",
            "mobile": null,
            "addr:street": "Lutfipaşa Sokak",
            "cuisine": null,
            "name": "Halk Manavı",
            "name:en": null,
            "name:uk": null,
            "name:de": null,
            "name:tr": null,
            "name:ru": null,
            "name:ar": "سوق الخضار"
        }
    },
    {
        "lat": 41.0111512,
        "lon": 28.9454609,
        "tags": {
            "addr:city": "Istanbul",
            "addr:district": "Fatih",
            "description": "",
            "opening_hours": null,
            "phone": null,
            "branch": null,
            "amenity": "greengrocer",
            "mobile": null,
            "addr:street": "Sefai Efendi Sokak",
            "cuisine": null,
            "name": "Gökhan Market",
            "name:en": null,
            "name:uk": null,
            "name:de": null,
            "name:tr": null,
            "name:ru": null,
            "name:ar": "سوق غوكهان"
        }
    },
    {
        "lat": 41.0116167,
        "lon": 28.9437389,
        "tags": {
            "addr:city": "Istanbul",
            "addr:district": "Fatih",
            "description": "",
            "opening_hours": null,
            "phone": null,
            "branch": null,
            "amenity": "greengrocer",
            "mobile": null,
            "addr:street": "Mir-i Alem Sokak",
            "cuisine": null,
            "name": "Hay Alarab",
            "name:en": null,
            "name:uk": null,
            "name:de": null,
            "name:tr": null,
            "name:ru": null,
            "name:ar": "سوبرماركت حي العرب"
        }
    },
    {
        "lat": 41.0129767,
        "lon": 28.9442968,
        "tags": {
            "addr:city": "Istanbul",
            "addr:district": "Fatih",
            "description": "",
            "opening_hours": null,
            "phone": "02125231342",
            "branch": null,
            "amenity": "greengrocer",
            "mobile": null,
            "addr:street": "Tomrukçu Sokak",
            "cuisine": null,
            "name": "Yayla Gida Yufka",
            "name:en": null,
            "name:uk": null,
            "name:de": null,
            "name:tr": null,
            "name:ru": null,
            "name:ar": "غذائيات يايلا"
        }
    },
    {
        "lat": 41.0114373,
        "lon": 28.9431514,
        "tags": {
            "addr:city": "Istanbul",
            "addr:district": "Fatih",
            "description": "",
            "opening_hours": null,
            "phone": null,
            "branch": null,
            "amenity": "greengrocer",
            "mobile": null,
            "addr:street": "Softa Sinan Sokak",
            "cuisine": null,
            "name": "Vatan Gida",
            "name:en": null,
            "name:uk": null,
            "name:de": null,
            "name:tr": null,
            "name:ru": null,
            "name:ar": "غذائيات وطن"
        }
    },
    {
        "lat": 41.0120131,
        "lon": 28.9437771,
        "tags": {
            "addr:city": "Istanbul",
            "addr:district": "Fatih",
            "description": "",
            "opening_hours": null,
            "phone": "02125342594",
            "branch": null,
            "amenity": "greengrocer",
            "mobile": null,
            "addr:street": "Softa Sinan Sokak",
            "cuisine": null,
            "name": "Vizyon Yufka",
            "name:en": null,
            "name:uk": null,
            "name:de": null,
            "name:tr": null,
            "name:ru": null,
            "name:ar": "بقالة فيزيون"
        }
    },
    {
        "lat": 41.0145473,
        "lon": 28.9499617,
        "tags": {
            "addr:city": "Istanbul",
            "addr:district": "Fatih",
            "description": "",
            "opening_hours": null,
            "phone": null,
            "branch": null,
            "amenity": "greengrocer",
            "mobile": null,
            "addr:street": "Yeşil Tekke Sokak",
            "cuisine": null,
            "name": "Murat Gida",
            "name:en": null,
            "name:uk": null,
            "name:de": null,
            "name:tr": null,
            "name:ru": null,
            "name:ar": "غذائيات مراد"
        }
    },
    {
        "lat": 41.0109892,
        "lon": 28.9518692,
        "tags": {
            "addr:city": "Istanbul",
            "addr:district": "Fatih",
            "description": "",
            "opening_hours": null,
            "phone": "02126357125",
            "branch": null,
            "amenity": "greengrocer",
            "mobile": null,
            "addr:street": "Imam Murat Sokak",
            "cuisine": null,
            "name": "Nergiz Şarküteri Tekel Bayii",
            "name:en": null,
            "name:uk": null,
            "name:de": null,
            "name:tr": null,
            "name:ru": null,
            "name:ar": "نيرجيش شاركوتري للغذائيات"
        }
    },
    {
        "lat": 41.0105607,
        "lon": 28.9514418,
        "tags": {
            "addr:city": "Istanbul",
            "addr:district": "Fatih",
            "description": "",
            "opening_hours": null,
            "phone": null,
            "branch": null,
            "amenity": "greengrocer",
            "mobile": null,
            "addr:street": "Şekerci Sokak",
            "cuisine": null,
            "name": "Merkez Gaziantep Gida Pazarı",
            "name:en": null,
            "name:uk": null,
            "name:de": null,
            "name:tr": null,
            "name:ru": null,
            "name:ar": "مركز غازي عنتاب للغذائيات"
        }
    },
    {
        "lat": 41.02289,
        "lon": 28.95842,
        "tags": {
            "addr:city": "Istanbul",
            "addr:district": "Fatih",
            "description": "",
            "opening_hours": null,
            "phone": null,
            "branch": null,
            "amenity": "greengrocer",
            "mobile": null,
            "addr:street": "Salih Paşa Caddesi",
            "cuisine": null,
            "name": "Ekmen Kardeşler Market",
            "name:en": null,
            "name:uk": null,
            "name:de": null,
            "name:tr": null,
            "name:ru": null,
            "name:ar": "بقالة اكمان كارديشلار"
        }
    },
    {
        "lat": 41.0233134,
        "lon": 28.9514125,
        "tags": {
            "addr:city": "Istanbul",
            "addr:district": "Fatih",
            "description": "",
            "opening_hours": null,
            "phone": null,
            "branch": null,
            "amenity": "greengrocer",
            "mobile": null,
            "addr:street": "Haliç Caddesi",
            "cuisine": null,
            "name": "Altın Süpermarket",
            "name:en": null,
            "name:uk": null,
            "name:de": null,
            "name:tr": null,
            "name:ru": null,
            "name:ar": "التن سوبرماركت"
        }
    },
    {
        "lat": 40.9982099,
        "lon": 28.9296011,
        "tags": {
            "addr:city": "Istanbul",
            "addr:district": "Fatih",
            "description": "",
            "opening_hours": null,
            "phone": "0551 553 07 77",
            "branch": null,
            "amenity": "greengrocer",
            "mobile": null,
            "addr:street": "Merhaba caddesi",
            "cuisine": null,
            "name": "Coşkun Manav",
            "name:en": null,
            "name:uk": null,
            "name:de": null,
            "name:tr": null,
            "name:ru": null,
            "name:ar": "ماركت و خضروات جوشكن"
        }
    },
    {
        "lat": 41.0254261,
        "lon": 28.9553938,
        "tags": {
            "addr:city": "Istanbul",
            "addr:district": "Fatih",
            "description": "",
            "opening_hours": null,
            "phone": null,
            "branch": null,
            "amenity": "greengrocer",
            "mobile": null,
            "addr:street": "Karadeniz Caddesi",
            "cuisine": null,
            "name": "Dağdelen Market",
            "name:en": null,
            "name:uk": null,
            "name:de": null,
            "name:tr": null,
            "name:ru": null,
            "name:ar": "داغديلين ماركت"
        }
    },
    {
        "lat": 41.0239959,
        "lon": 28.953117,
        "tags": {
            "addr:city": "Istanbul",
            "addr:district": "Fatih",
            "description": "",
            "opening_hours": null,
            "phone": null,
            "branch": null,
            "amenity": "greengrocer",
            "mobile": null,
            "addr:street": "Kadı Çeşmesi Sokak",
            "cuisine": null,
            "name": "Öz Aras Market",
            "name:en": null,
            "name:uk": null,
            "name:de": null,
            "name:tr": null,
            "name:ru": null,
            "name:ar": "اوز اراس ماركت"
        }
    },
    {
        "lat": 41.0229562,
        "lon": 28.9524587,
        "tags": {
            "addr:city": "Istanbul",
            "addr:district": "Fatih",
            "description": "",
            "opening_hours": null,
            "phone": null,
            "branch": null,
            "amenity": "greengrocer",
            "mobile": null,
            "addr:street": "Kadı Çeşmesi Sokak",
            "cuisine": null,
            "name": "Yıldırım Market",
            "name:en": null,
            "name:uk": null,
            "name:de": null,
            "name:tr": null,
            "name:ru": null,
            "name:ar": "يلدريم ماركت"
        }
    },
    {
        "lat": 40.994702,
        "lon": 28.925172,
        "tags": {
            "addr:city": "Istanbul",
            "addr:district": "Fatih",
            "description": "",
            "opening_hours": null,
            "phone": null,
            "branch": null,
            "amenity": "greengrocer",
            "mobile": null,
            "addr:street": "Yedikule caddesi",
            "cuisine": null,
            "name": "Yedikule halk pazarı",
            "name:en": null,
            "name:uk": null,
            "name:de": null,
            "name:tr": null,
            "name:ru": null,
            "name:ar": "يدي كولي هالك بازاري للخضروات"
        }
    },
    {
        "lat": 40.9968313,
        "lon": 28.9278482,
        "tags": {
            "addr:city": "Istanbul",
            "addr:district": "Fatih",
            "description": "",
            "opening_hours": null,
            "phone": null,
            "branch": null,
            "amenity": "greengrocer",
            "mobile": null,
            "addr:street": "İmrahor ilyasbey caddesi",
            "cuisine": null,
            "name": "Atmaca ekonomik halk pazarı",
            "name:en": null,
            "name:uk": null,
            "name:de": null,
            "name:tr": null,
            "name:ru": null,
            "name:ar": "أتماجا للخضار و المؤونة"
        }
    },
    {
        "lat": 40.9956732,
        "lon": 28.9267556,
        "tags": {
            "addr:city": "Istanbul",
            "addr:district": "Fatih",
            "description": "",
            "opening_hours": null,
            "phone": null,
            "branch": null,
            "amenity": "greengrocer",
            "mobile": null,
            "addr:street": "İmrahor ilyasbey caddesi",
            "cuisine": null,
            "name": "Malatya ekonomik pazarı",
            "name:en": null,
            "name:uk": null,
            "name:de": null,
            "name:tr": null,
            "name:ru": null,
            "name:ar": "بازار مالاطيا الشعبي"
        }
    },
    {
        "lat": 40.9957127,
        "lon": 28.9268062,
        "tags": {
            "addr:city": "Istanbul",
            "addr:district": "Fatih",
            "description": "",
            "opening_hours": null,
            "phone": "02125306477",
            "branch": null,
            "amenity": "greengrocer",
            "mobile": null,
            "addr:street": "İmrahor ilyasbey caddesi",
            "cuisine": null,
            "name": "Beydağı halk pazarı",
            "name:en": null,
            "name:uk": null,
            "name:de": null,
            "name:tr": null,
            "name:ru": null,
            "name:ar": "بيداغي للخضروات"
        }
    },
    {
        "lat": 40.9973781,
        "lon": 28.9297959,
        "tags": {
            "addr:city": "Istanbul",
            "addr:district": "Fatih",
            "description": "",
            "opening_hours": null,
            "phone": "02125862748",
            "branch": null,
            "amenity": "greengrocer",
            "mobile": null,
            "addr:street": "Arap Kuyusu Sokak",
            "cuisine": null,
            "name": "Best Market",
            "name:en": null,
            "name:uk": null,
            "name:de": null,
            "name:tr": null,
            "name:ru": null,
            "name:ar": "بقالية بيست"
        }
    },
    {
        "lat": 41.0036306,
        "lon": 28.9317888,
        "tags": {
            "addr:city": "Istanbul",
            "addr:district": "Fatih",
            "description": "",
            "opening_hours": null,
            "phone": "02125895138",
            "branch": null,
            "amenity": "greengrocer",
            "mobile": null,
            "addr:street": "Cambaziye Mektebi Sokak",
            "cuisine": null,
            "name": "Paşam Meyve Sebze Pazarı",
            "name:en": null,
            "name:uk": null,
            "name:de": null,
            "name:tr": null,
            "name:ru": null,
            "name:ar": "باشام للخضار والفواكه"
        }
    },
    {
        "lat": 40.9993653,
        "lon": 28.927303,
        "tags": {
            "addr:city": "Istanbul",
            "addr:district": "Fatih",
            "description": "",
            "opening_hours": null,
            "phone": null,
            "branch": null,
            "amenity": "greengrocer",
            "mobile": null,
            "addr:street": "Yeni Kemancı Siteleri Sokak",
            "cuisine": null,
            "name": "Mesut Gida",
            "name:en": null,
            "name:uk": null,
            "name:de": null,
            "name:tr": null,
            "name:ru": null,
            "name:ar": "مسعود للأغذية"
        }
    },
    {
        "lat": 41.0045935,
        "lon": 28.9448886,
        "tags": {
            "addr:city": "Istanbul",
            "addr:district": "Fatih",
            "description": "",
            "opening_hours": null,
            "phone": "02125884979",
            "branch": null,
            "amenity": "greengrocer",
            "mobile": null,
            "addr:street": "Küçük Langa Caddesi",
            "cuisine": null,
            "name": "Fırat mini hal",
            "name:en": null,
            "name:uk": null,
            "name:de": null,
            "name:tr": null,
            "name:ru": null,
            "name:ar": "الخضري فرات"
        }
    },
    {
        "lat": 41.0075266,
        "lon": 28.9498771,
        "tags": {
            "addr:city": "Istanbul",
            "addr:district": "Fatih",
            "description": "",
            "opening_hours": null,
            "phone": "05382235948",
            "branch": null,
            "amenity": "greengrocer",
            "mobile": null,
            "addr:street": "Manastırlı rıfat sokağı",
            "cuisine": null,
            "name": "Sürgücü market",
            "name:en": null,
            "name:uk": null,
            "name:de": null,
            "name:tr": null,
            "name:ru": null,
            "name:ar": "ماركت و خضري سورغوجو"
        }
    },
    {
        "lat": 41.0174888,
        "lon": 28.9318325,
        "tags": {
            "addr:city": "Istanbul",
            "addr:district": "Fatih",
            "description": "",
            "opening_hours": null,
            "phone": "02125231019",
            "branch": null,
            "amenity": "greengrocer",
            "mobile": null,
            "addr:street": "Tatlıpınar Caddesi",
            "cuisine": null,
            "name": "Efsane manav",
            "name:en": null,
            "name:uk": null,
            "name:de": null,
            "name:tr": null,
            "name:ru": null,
            "name:ar": "خضري أيفساني"
        }
    },
    {
        "lat": 41.0170218,
        "lon": 28.9313287,
        "tags": {
            "addr:city": "Istanbul",
            "addr:district": "Fatih",
            "description": "",
            "opening_hours": null,
            "phone": null,
            "branch": null,
            "amenity": "greengrocer",
            "mobile": null,
            "addr:street": "Tatlıpınar Caddesi",
            "cuisine": null,
            "name": "Manav",
            "name:en": null,
            "name:uk": null,
            "name:de": null,
            "name:tr": null,
            "name:ru": null,
            "name:ar": "خضري"
        }
    },
    {
        "lat": 41.0175457,
        "lon": 28.9535837,
        "tags": {
            "addr:city": "Istanbul",
            "addr:district": "Fatih",
            "description": "",
            "opening_hours": null,
            "phone": "02125333177",
            "branch": null,
            "amenity": "greengrocer",
            "mobile": null,
            "addr:street": "Ömer Efendi Sokak",
            "cuisine": null,
            "name": "Akman Gida",
            "name:en": null,
            "name:uk": null,
            "name:de": null,
            "name:tr": null,
            "name:ru": null,
            "name:ar": "غذائيات اكمان"
        }
    },
    {
        "lat": 41.0177431,
        "lon": 28.9525486,
        "tags": {
            "addr:city": "Istanbul",
            "addr:district": "Fatih",
            "description": "",
            "opening_hours": null,
            "phone": "02125340102",
            "branch": null,
            "amenity": "greengrocer",
            "mobile": null,
            "addr:street": "Eski Mutaflar Caddesi",
            "cuisine": null,
            "name": "Aydın Supermarket",
            "name:en": null,
            "name:uk": null,
            "name:de": null,
            "name:tr": null,
            "name:ru": null,
            "name:ar": "سوبرماركت ايدن"
        }
    },
    {
        "lat": 41.0194242,
        "lon": 28.9526407,
        "tags": {
            "addr:city": "Istanbul",
            "addr:district": "Fatih",
            "description": "",
            "opening_hours": null,
            "phone": null,
            "branch": null,
            "amenity": "greengrocer",
            "mobile": null,
            "addr:street": "Ders Vekili Sokak",
            "cuisine": null,
            "name": "Ali Bakkal",
            "name:en": null,
            "name:uk": null,
            "name:de": null,
            "name:tr": null,
            "name:ru": null,
            "name:ar": "بقالة علي"
        }
    },
    {
        "lat": 41.0189643,
        "lon": 28.9529865,
        "tags": {
            "addr:city": "Istanbul",
            "addr:district": "Fatih",
            "description": "",
            "opening_hours": null,
            "phone": "05394526023",
            "branch": null,
            "amenity": "greengrocer",
            "mobile": null,
            "addr:street": "Mıhçılar Caddesi",
            "cuisine": null,
            "name": "Kardeşler Gida",
            "name:en": null,
            "name:uk": null,
            "name:de": null,
            "name:tr": null,
            "name:ru": null,
            "name:ar": "كارديشلر للغذائيات"
        }
    },
    {
        "lat": 41.0181988,
        "lon": 28.9562433,
        "tags": {
            "addr:city": "Istanbul",
            "addr:district": "Fatih",
            "description": "",
            "opening_hours": null,
            "phone": "02125324876",
            "branch": null,
            "amenity": "greengrocer",
            "mobile": null,
            "addr:street": "Itfaiye Caddesi",
            "cuisine": null,
            "name": "Keskin Gida",
            "name:en": null,
            "name:uk": null,
            "name:de": null,
            "name:tr": null,
            "name:ru": null,
            "name:ar": "محل كيسكين للغذائيات"
        }
    },
    {
        "lat": 41.0182649,
        "lon": 28.9563163,
        "tags": {
            "addr:city": "Istanbul",
            "addr:district": "Fatih",
            "description": "",
            "opening_hours": null,
            "phone": "02125333714",
            "branch": null,
            "amenity": "greengrocer",
            "mobile": null,
            "addr:street": "Itfaiye Caddesi",
            "cuisine": null,
            "name": "Hacı Şefikoğluları Gida",
            "name:en": null,
            "name:uk": null,
            "name:de": null,
            "name:tr": null,
            "name:ru": null,
            "name:ar": "غذائيات شفيق اوغلو"
        }
    },
    {
        "lat": 41.017313,
        "lon": 28.9555255,
        "tags": {
            "addr:city": "Istanbul",
            "addr:district": "Fatih",
            "description": "",
            "opening_hours": null,
            "phone": "02125334827",
            "branch": null,
            "amenity": "greengrocer",
            "mobile": null,
            "addr:street": "Piri Sokak",
            "cuisine": null,
            "name": "Siirt Fatih Gida",
            "name:en": null,
            "name:uk": null,
            "name:de": null,
            "name:tr": null,
            "name:ru": null,
            "name:ar": "غذائيات سيرت الفاتح"
        }
    },
    {
        "lat": 41.017836,
        "lon": 28.954942,
        "tags": {
            "addr:city": "Istanbul",
            "addr:district": "Fatih",
            "description": "",
            "opening_hours": null,
            "phone": "05333179074",
            "branch": null,
            "amenity": "greengrocer",
            "mobile": null,
            "addr:street": "Kırbacı Sokak",
            "cuisine": null,
            "name": "Divan Gıda",
            "name:en": null,
            "name:uk": null,
            "name:de": null,
            "name:tr": null,
            "name:ru": null,
            "name:ar": "غذائيات ديوان"
        }
    },
    {
        "lat": 41.0170574,
        "lon": 28.9554774,
        "tags": {
            "addr:city": "Istanbul",
            "addr:district": "Fatih",
            "description": "",
            "opening_hours": null,
            "phone": "05356003081",
            "branch": null,
            "amenity": "greengrocer",
            "mobile": null,
            "addr:street": "Hüsambey Sokak",
            "cuisine": null,
            "name": "Mini Halk Pazarı",
            "name:en": null,
            "name:uk": null,
            "name:de": null,
            "name:tr": null,
            "name:ru": null,
            "name:ar": "سوق ميني الشعبي"
        }
    },
    {
        "lat": 41.0170394,
        "lon": 28.9552865,
        "tags": {
            "addr:city": "Istanbul",
            "addr:district": "Fatih",
            "description": "",
            "opening_hours": null,
            "phone": "02125330209",
            "branch": null,
            "amenity": "greengrocer",
            "mobile": null,
            "addr:street": "Hüsambey Sokak",
            "cuisine": null,
            "name": "Bizim Bakal",
            "name:en": null,
            "name:uk": null,
            "name:de": null,
            "name:tr": null,
            "name:ru": null,
            "name:ar": "بقال ييزيم"
        }
    },
    {
        "lat": 41.0255662,
        "lon": 28.9390638,
        "tags": {
            "addr:city": "Istanbul",
            "addr:district": "Turkey",
            "description": "",
            "opening_hours": "mo-su 09:00-21:00",
            "phone": null,
            "branch": null,
            "amenity": "greengrocer",
            "mobile": null,
            "addr:street": "Prof. Naci Şensoy Caddesi",
            "cuisine": null,
            "name": "Malatya Halk pazarı",
            "name:en": null,
            "name:uk": null,
            "name:de": null,
            "name:tr": null,
            "name:ru": null,
            "name:ar": "خضروات ملاطيا"
        }
    },
    {
        "lat": 41.0203757,
        "lon": 28.9415181,
        "tags": {
            "addr:city": "Istanbul",
            "addr:district": "Turkey",
            "description": "",
            "opening_hours": "mo-sa 08:00-23:00",
            "phone": null,
            "branch": null,
            "amenity": "greengrocer",
            "mobile": null,
            "addr:street": "Akşemsettin Caddesi",
            "cuisine": null,
            "name": "Manav İstanbul",
            "name:en": null,
            "name:uk": null,
            "name:de": null,
            "name:tr": null,
            "name:ru": null,
            "name:ar": "اسطنبول للخظروات"
        }
    },
    {
        "lat": 41.0241841,
        "lon": 28.9461181,
        "tags": {
            "addr:city": "Istanbul",
            "addr:district": "Turkey",
            "description": "",
            "opening_hours": "mo-su 08:00-21:00",
            "phone": null,
            "branch": null,
            "amenity": "greengrocer",
            "mobile": null,
            "addr:street": "Nişancı Caddesi",
            "cuisine": null,
            "name": "Burpa Manav",
            "name:en": null,
            "name:uk": null,
            "name:de": null,
            "name:tr": null,
            "name:ru": null,
            "name:ar": "بوربا للخضروات"
        }
    },
    {
        "lat": 41.0139563,
        "lon": 28.9272165,
        "tags": {
            "addr:city": "Istanbul",
            "addr:district": "Turkey",
            "description": "",
            "opening_hours": "mo-sa 08:00-22:00",
            "phone": null,
            "branch": null,
            "amenity": "greengrocer",
            "mobile": null,
            "addr:street": "Küçük Saray Meydanı Caddesi",
            "cuisine": null,
            "name": "Şehremini Manavı",
            "name:en": null,
            "name:uk": null,
            "name:de": null,
            "name:tr": null,
            "name:ru": null,
            "name:ar": "شهري ميني للخضروات"
        }
    },
    {
        "lat": 41.0155268,
        "lon": 28.9310494,
        "tags": {
            "addr:city": "Istanbul",
            "addr:district": "Turkey",
            "description": "",
            "opening_hours": "mo-su 08:00-22:00",
            "phone": null,
            "branch": null,
            "amenity": "greengrocer",
            "mobile": null,
            "addr:street": "Kerpiçhane Sokağı",
            "cuisine": null,
            "name": "Çınar Manav",
            "name:en": null,
            "name:uk": null,
            "name:de": null,
            "name:tr": null,
            "name:ru": null,
            "name:ar": "جينار للخصروات"
        }
    },
    {
        "lat": 41.0148852,
        "lon": 28.9284074,
        "tags": {
            "addr:city": "Istanbul",
            "addr:district": "Turkey",
            "description": "",
            "opening_hours": "Mo-su 08:00-21:00",
            "phone": null,
            "branch": null,
            "amenity": "greengrocer",
            "mobile": null,
            "addr:street": "Büyük Saray Meydanı Caddesi",
            "cuisine": null,
            "name": "Mini Hal Manav",
            "name:en": null,
            "name:uk": null,
            "name:de": null,
            "name:tr": null,
            "name:ru": null,
            "name:ar": "ميني هال للخضروات"
        }
    },
    {
        "lat": 41.0037285,
        "lon": 28.9248543,
        "tags": {
            "addr:city": "Istanbul",
            "addr:district": "Fatih",
            "description": "",
            "opening_hours": null,
            "phone": null,
            "branch": null,
            "amenity": "greengrocer",
            "mobile": null,
            "addr:street": "Alay İmamı Sokak",
            "cuisine": null,
            "name": "İbrahim Bakkal",
            "name:en": null,
            "name:uk": null,
            "name:de": null,
            "name:tr": null,
            "name:ru": null,
            "name:ar": "ابراهيم بكال"
        }
    },
    {
        "lat": 41.0057051,
        "lon": 28.9243488,
        "tags": {
            "addr:city": "Istanbul",
            "addr:district": "Fatih",
            "description": "",
            "opening_hours": null,
            "phone": null,
            "branch": null,
            "amenity": "greengrocer",
            "mobile": null,
            "addr:street": "Hancı Karagöz Sokak",
            "cuisine": null,
            "name": "Doğan Market",
            "name:en": null,
            "name:uk": null,
            "name:de": null,
            "name:tr": null,
            "name:ru": null,
            "name:ar": "دوغان ماركت"
        }
    },
    {
        "lat": 41.0200284,
        "lon": 28.9537224,
        "tags": {
            "addr:city": "Istanbul",
            "addr:district": "Fatih",
            "description": "",
            "opening_hours": null,
            "phone": "02125339405",
            "branch": null,
            "amenity": "greengrocer",
            "mobile": null,
            "addr:street": "Nevşehirli Ibrahim Paşa Caddesi",
            "cuisine": null,
            "name": "Ipek Gida",
            "name:en": null,
            "name:uk": null,
            "name:de": null,
            "name:tr": null,
            "name:ru": null,
            "name:ar": "غذائيتت ايبيك"
        }
    },
    {
        "lat": 41.0205273,
        "lon": 28.9527164,
        "tags": {
            "addr:city": "Istanbul",
            "addr:district": "Fatih",
            "description": "",
            "opening_hours": null,
            "phone": null,
            "branch": null,
            "amenity": "greengrocer",
            "mobile": null,
            "addr:street": "Hattat Fehmi Sokak",
            "cuisine": null,
            "name": "Şarküteri Gida",
            "name:en": null,
            "name:uk": null,
            "name:de": null,
            "name:tr": null,
            "name:ru": null,
            "name:ar": "غذائيات شاركوتتيري"
        }
    },
    {
        "lat": 41.0139153,
        "lon": 28.9771658,
        "tags": {
            "addr:city": "Istanbul",
            "addr:district": "Fatih",
            "description": "",
            "opening_hours": null,
            "phone": "+90 212 512 26 83",
            "branch": null,
            "amenity": "greengrocer",
            "mobile": null,
            "addr:street": "Serdar Sokak",
            "cuisine": null,
            "name": "SİRKECİ MİNİ HAL",
            "name:en": null,
            "name:uk": null,
            "name:de": null,
            "name:tr": null,
            "name:ru": null,
            "name:ar": null
        }
    },
    {
        "lat": 41.0194082,
        "lon": 28.961039,
        "tags": {
            "addr:city": "Istanbul",
            "addr:district": "Fatih",
            "description": "",
            "opening_hours": null,
            "phone": null,
            "branch": null,
            "amenity": "greengrocer",
            "mobile": null,
            "addr:street": "Hacı Kadın Caddesi",
            "cuisine": null,
            "name": "Altay market",
            "name:en": null,
            "name:uk": null,
            "name:de": null,
            "name:tr": null,
            "name:ru": null,
            "name:ar": "التاي ماركت"
        }
    },
    {
        "lat": 41.0067064,
        "lon": 28.9408958,
        "tags": {
            "addr:city": "Istanbul",
            "addr:district": "Fatih",
            "description": "",
            "opening_hours": null,
            "phone": null,
            "branch": null,
            "amenity": "greengrocer",
            "mobile": null,
            "addr:street": "Guzel sebzeci sokak",
            "cuisine": null,
            "name": "Algida",
            "name:en": null,
            "name:uk": null,
            "name:de": null,
            "name:tr": null,
            "name:ru": null,
            "name:ar": "الجيدا"
        }
    },
    {
        "lat": 41.0330947,
        "lon": 28.9461397,
        "tags": {
            "addr:city": "Istanbul",
            "addr:district": "Fatih",
            "description": "",
            "opening_hours": null,
            "phone": null,
            "branch": null,
            "amenity": "greengrocer",
            "mobile": null,
            "addr:street": "Ayan Caddesi",
            "cuisine": null,
            "name": "Manav",
            "name:en": null,
            "name:uk": null,
            "name:de": null,
            "name:tr": null,
            "name:ru": null,
            "name:ar": "محل خضراوات وفواكة"
        }
    },
    {
        "lat": 41.033434,
        "lon": 28.9445549,
        "tags": {
            "addr:city": "Istanbul",
            "addr:district": "Fatih",
            "description": "",
            "opening_hours": null,
            "phone": null,
            "branch": null,
            "amenity": "greengrocer",
            "mobile": null,
            "addr:street": "Sultan Çeşmesi Caddesi",
            "cuisine": null,
            "name": "Aydınlar Mini Hal",
            "name:en": null,
            "name:uk": null,
            "name:de": null,
            "name:tr": null,
            "name:ru": null,
            "name:ar": "آيدنلار ميني هال للخضار والفواكة"
        }
    },
    {
        "lat": 41.0036419,
        "lon": 28.9273989,
        "tags": {
            "addr:city": "Istanbul",
            "addr:district": "Fatih",
            "description": "",
            "opening_hours": null,
            "phone": null,
            "branch": null,
            "amenity": "greengrocer",
            "mobile": null,
            "addr:street": "Ağa Çayırı Caddesi",
            "cuisine": null,
            "name": "Pınarlar Halk Pazarı",
            "name:en": null,
            "name:uk": null,
            "name:de": null,
            "name:tr": null,
            "name:ru": null,
            "name:ar": "بينارلار هالك بازار"
        }
    },
    {
        "lat": 41.0045221,
        "lon": 28.9316241,
        "tags": {
            "addr:city": "Istanbul",
            "addr:district": "Fatih",
            "description": "",
            "opening_hours": null,
            "phone": null,
            "branch": null,
            "amenity": "greengrocer",
            "mobile": null,
            "addr:street": "Kuvayi Milliye Caddesi",
            "cuisine": null,
            "name": "Bağlar Gıda",
            "name:en": null,
            "name:uk": null,
            "name:de": null,
            "name:tr": null,
            "name:ru": null,
            "name:ar": "باغلار غيدا"
        }
    },
    {
        "lat": 41.0151574,
        "lon": 28.9268887,
        "tags": {
            "addr:city": "Istanbul",
            "addr:district": "Fatih",
            "description": "",
            "opening_hours": null,
            "phone": null,
            "branch": null,
            "amenity": "greengrocer",
            "mobile": null,
            "addr:street": "Onbaşı Sokak",
            "cuisine": null,
            "name": "AKBURAK GIDA",
            "name:en": null,
            "name:uk": null,
            "name:de": null,
            "name:tr": null,
            "name:ru": null,
            "name:ar": "بقالة أكبوراك غيدا"
        }
    },
    {
        "lat": 41.0168163,
        "lon": 28.9259337,
        "tags": {
            "addr:city": "Istanbul",
            "addr:district": "Fatih",
            "description": "",
            "opening_hours": null,
            "phone": null,
            "branch": null,
            "amenity": "greengrocer",
            "mobile": null,
            "addr:street": "Kalburcu Mehmet Cami Sokak",
            "cuisine": null,
            "name": "pınar market mahsum dağ",
            "name:en": null,
            "name:uk": null,
            "name:de": null,
            "name:tr": null,
            "name:ru": null,
            "name:ar": "بقالة بنار ماركت مهسوم داغ"
        }
    },
    {
        "lat": 41.0116956,
        "lon": 28.9234688,
        "tags": {
            "addr:city": "Istanbul",
            "addr:district": "Fatih",
            "description": "",
            "opening_hours": null,
            "phone": null,
            "branch": null,
            "amenity": "greengrocer",
            "mobile": null,
            "addr:street": "Güherciler Sokak",
            "cuisine": null,
            "name": "Ramazan Bakkal",
            "name:en": null,
            "name:uk": null,
            "name:de": null,
            "name:tr": null,
            "name:ru": null,
            "name:ar": "بقالة راماظان"
        }
    },
    {
        "lat": 41.0130499,
        "lon": 28.9259247,
        "tags": {
            "addr:city": "Istanbul",
            "addr:district": "Fatih",
            "description": "",
            "opening_hours": null,
            "phone": null,
            "branch": null,
            "amenity": "greengrocer",
            "mobile": null,
            "addr:street": "Elif Lamet Sokak",
            "cuisine": null,
            "name": "Merkez Gıda Pazarı",
            "name:en": null,
            "name:uk": null,
            "name:de": null,
            "name:tr": null,
            "name:ru": null,
            "name:ar": "بقالة مركز غيدا بازار"
        }
    },
    {
        "lat": 41.0264342,
        "lon": 28.9380371,
        "tags": {
            "addr:city": "Istanbul",
            "addr:district": "Fatih",
            "description": "",
            "opening_hours": null,
            "phone": null,
            "branch": null,
            "amenity": "greengrocer",
            "mobile": null,
            "addr:street": "Prof. naci şensoy caddesi",
            "cuisine": null,
            "name": "Varol mini hal",
            "name:en": null,
            "name:uk": null,
            "name:de": null,
            "name:tr": null,
            "name:ru": null,
            "name:ar": "فار اول ميني هال"
        }
    },
    {
        "lat": 41.0077983,
        "lon": 28.9441132,
        "tags": {
            "addr:city": "Istanbul",
            "addr:district": "Fatih",
            "description": "",
            "opening_hours": null,
            "phone": null,
            "branch": null,
            "amenity": "greengrocer",
            "mobile": null,
            "addr:street": "Cerrah Paşa Caddesi",
            "cuisine": null,
            "name": "Manav",
            "name:en": null,
            "name:uk": null,
            "name:de": null,
            "name:tr": null,
            "name:ru": null,
            "name:ar": "مناف"
        }
    },
    {
        "lat": 41.0081475,
        "lon": 28.9401816,
        "tags": {
            "addr:city": "Istanbul",
            "addr:district": "Fatih",
            "description": "",
            "opening_hours": null,
            "phone": null,
            "branch": null,
            "amenity": "greengrocer",
            "mobile": null,
            "addr:street": "Hekimoğlu ali paşa Caddesi",
            "cuisine": null,
            "name": "Dört mevsim",
            "name:en": null,
            "name:uk": null,
            "name:de": null,
            "name:tr": null,
            "name:ru": null,
            "name:ar": "دورت موسم"
        }
    },
    {
        "lat": 41.0283348,
        "lon": 28.9381062,
        "tags": {
            "addr:city": "Istanbul",
            "addr:district": "Fatih",
            "description": "",
            "opening_hours": null,
            "phone": null,
            "branch": null,
            "amenity": "greengrocer",
            "mobile": null,
            "addr:street": "Salma tomruk caddesi",
            "cuisine": null,
            "name": "Menav",
            "name:en": null,
            "name:uk": null,
            "name:de": null,
            "name:tr": null,
            "name:ru": null,
            "name:ar": "مناف"
        }
    },
    {
        "lat": 41.0295428,
        "lon": 28.9391509,
        "tags": {
            "addr:city": "Istanbul",
            "addr:district": "Fatih",
            "description": "",
            "opening_hours": null,
            "phone": null,
            "branch": null,
            "amenity": "greengrocer",
            "mobile": null,
            "addr:street": "Slama tomruk Caddesi",
            "cuisine": null,
            "name": "Manav",
            "name:en": null,
            "name:uk": null,
            "name:de": null,
            "name:tr": null,
            "name:ru": null,
            "name:ar": "محل خضرة"
        }
    },
    {
        "lat": 41.0083125,
        "lon": 28.9538619,
        "tags": {
            "addr:city": "Istanbul",
            "addr:district": "Fatih",
            "description": "",
            "opening_hours": null,
            "phone": null,
            "branch": null,
            "amenity": "greengrocer",
            "mobile": null,
            "addr:street": "Mesihpaşa Caddesi",
            "cuisine": null,
            "name": "My Gross",
            "name:en": null,
            "name:uk": null,
            "name:de": null,
            "name:tr": null,
            "name:ru": null,
            "name:ar": "ماي غروس"
        }
    },
    {
        "lat": 41.000291,
        "lon": 28.9285968,
        "tags": {
            "addr:city": "Istanbul",
            "addr:district": "Fatih",
            "description": "",
            "opening_hours": null,
            "phone": null,
            "branch": null,
            "amenity": "greengrocer",
            "mobile": null,
            "addr:street": "Hacı Kadın Caddesi",
            "cuisine": null,
            "name": "Sebze ve meyve",
            "name:en": null,
            "name:uk": null,
            "name:de": null,
            "name:tr": null,
            "name:ru": null,
            "name:ar": "خضار وفواكه"
        }
    },
    {
        "lat": 41.0069027,
        "lon": 28.9337448,
        "tags": {
            "addr:city": "Istanbul",
            "addr:district": "Fatih",
            "description": "",
            "opening_hours": null,
            "phone": null,
            "branch": null,
            "amenity": "greengrocer",
            "mobile": null,
            "addr:street": "Hekimoğlu Alipaşa Caddesi",
            "cuisine": null,
            "name": "Paşam Meyve",
            "name:en": null,
            "name:uk": null,
            "name:de": null,
            "name:tr": null,
            "name:ru": null,
            "name:ar": "باشام للفواكه"
        }
    },
    {
        "lat": 41.0083674,
        "lon": 28.9279946,
        "tags": {
            "addr:city": "Istanbul",
            "addr:district": "Fatih",
            "description": "",
            "opening_hours": null,
            "phone": null,
            "branch": null,
            "amenity": "greengrocer",
            "mobile": null,
            "addr:street": "Seyfullah Efendi Sokak",
            "cuisine": null,
            "name": "Fakıooğlu",
            "name:en": null,
            "name:uk": null,
            "name:de": null,
            "name:tr": null,
            "name:ru": null,
            "name:ar": "فاكيأوغلو للخضار"
        }
    },
    {
        "lat": 41.0161913,
        "lon": 28.9689883,
        "tags": {
            "addr:city": "Istanbul",
            "addr:district": "Fatih",
            "description": "",
            "opening_hours": null,
            "phone": null,
            "branch": null,
            "amenity": "greengrocer",
            "mobile": null,
            "addr:street": "Tahtakale Caddesi",
            "cuisine": null,
            "name": "Yılmazlar Gıda",
            "name:en": null,
            "name:uk": null,
            "name:de": null,
            "name:tr": null,
            "name:ru": null,
            "name:ar": "يلمازلار غيدا"
        }
    },
    {
        "lat": 41.0169513,
        "lon": 28.9694738,
        "tags": {
            "addr:city": "Istanbul",
            "addr:district": "Fatih",
            "description": "",
            "opening_hours": null,
            "phone": null,
            "branch": null,
            "amenity": "greengrocer",
            "mobile": null,
            "addr:street": "Hasırcılar Caddesi",
            "cuisine": null,
            "name": "Seref Gida",
            "name:en": null,
            "name:uk": null,
            "name:de": null,
            "name:tr": null,
            "name:ru": null,
            "name:ar": "سيريف غيدا"
        }
    },
    {
        "lat": 41.0060601,
        "lon": 28.9658293,
        "tags": {
            "addr:city": "Istanbul",
            "addr:district": "Fatih",
            "description": "",
            "opening_hours": null,
            "phone": null,
            "branch": null,
            "amenity": "greengrocer",
            "mobile": null,
            "addr:street": "Sandalcı İhsan Sokak",
            "cuisine": null,
            "name": "Ulaş Büfe",
            "name:en": null,
            "name:uk": null,
            "name:de": null,
            "name:tr": null,
            "name:ru": null,
            "name:ar": "اولاش بوفي"
        }
    },
    {
        "lat": 40.9760015,
        "lon": 29.2710216,
        "tags": {
            "addr:city": "Istanbul",
            "addr:district": "Sultanbeyli",
            "description": "",
            "opening_hours": "24/7",
            "phone": null,
            "branch": null,
            "amenity": "greengrocer",
            "mobile": null,
            "addr:street": "Yıldırım Caddesi",
            "cuisine": null,
            "name": "Kasap & Şarküteri",
            "name:en": null,
            "name:uk": null,
            "name:de": null,
            "name:tr": null,
            "name:ru": null,
            "name:ar": "اللحام"
        }
    },
    {
        "lat": 40.9747705,
        "lon": 29.2723488,
        "tags": {
            "addr:city": "Istanbul",
            "addr:district": "Sultanbeyli",
            "description": "",
            "opening_hours": "24/7",
            "phone": null,
            "branch": null,
            "amenity": "greengrocer",
            "mobile": null,
            "addr:street": "Kaptani Derya Caddesi",
            "cuisine": null,
            "name": "Vitamin Manav",
            "name:en": null,
            "name:uk": null,
            "name:de": null,
            "name:tr": null,
            "name:ru": null,
            "name:ar": "بائع الخضار فيتامين"
        }
    },
    {
        "lat": 40.9693811,
        "lon": 29.2726403,
        "tags": {
            "addr:city": "Istanbul",
            "addr:district": "Sultanbeyli",
            "description": "",
            "opening_hours": "24/7",
            "phone": "05393019756",
            "branch": null,
            "amenity": "greengrocer",
            "mobile": null,
            "addr:street": "Kaptani Derya Caddesi",
            "cuisine": null,
            "name": "Köy Manavı",
            "name:en": null,
            "name:uk": null,
            "name:de": null,
            "name:tr": null,
            "name:ru": null,
            "name:ar": "كوي منافي"
        }
    },
    {
        "lat": 40.9812933,
        "lon": 29.2616913,
        "tags": {
            "addr:city": "Istanbul",
            "addr:district": "Sultanbeyli",
            "description": "",
            "opening_hours": null,
            "phone": null,
            "branch": null,
            "amenity": "greengrocer",
            "mobile": null,
            "addr:street": "Pelit SOKAĞI",
            "cuisine": null,
            "name": "Mert mini market",
            "name:en": null,
            "name:uk": null,
            "name:de": null,
            "name:tr": null,
            "name:ru": null,
            "name:ar": "سوبر ماركت مارت ميني"
        }
    },
    {
        "lat": 40.9683186,
        "lon": 29.2494568,
        "tags": {
            "addr:city": "Istanbul",
            "addr:district": "Sultanbeyli",
            "description": "",
            "opening_hours": "Mo-Fr 07:00-13:30; Mo-Fr 17:00-20:00",
            "phone": "3983763",
            "branch": null,
            "amenity": "greengrocer",
            "mobile": null,
            "addr:street": "Petrol yolu cadeci جادة شارع البترول",
            "cuisine": null,
            "name": "Akyüz market",
            "name:en": null,
            "name:uk": null,
            "name:de": null,
            "name:tr": null,
            "name:ru": null,
            "name:ar": "اكيوز ماركت"
        }
    },
    {
        "lat": 40.9468433,
        "lon": 29.2993355,
        "tags": {
            "addr:city": "Istanbul",
            "addr:district": "Sultanbeyli",
            "description": "",
            "opening_hours": null,
            "phone": null,
            "branch": null,
            "amenity": "greengrocer",
            "mobile": null,
            "addr:street": "Fatih bulvarı",
            "cuisine": null,
            "name": "Bizas",
            "name:en": null,
            "name:uk": null,
            "name:de": null,
            "name:tr": null,
            "name:ru": null,
            "name:ar": "بيزاس"
        }
    },
    {
        "lat": 40.9760263,
        "lon": 29.2709684,
        "tags": {
            "addr:city": "Istanbul",
            "addr:district": "Sultanbeyli",
            "description": "",
            "opening_hours": "Mo-Fr 07:00-13:30; Mo-Fr 17:00-20:00",
            "phone": null,
            "branch": null,
            "amenity": "greengrocer",
            "mobile": null,
            "addr:street": "yildirim Caddesi",
            "cuisine": null,
            "name": "Kassap",
            "name:en": null,
            "name:uk": null,
            "name:de": null,
            "name:tr": null,
            "name:ru": null,
            "name:ar": "خضرجي كاساب"
        }
    },
    {
        "lat": 40.9677151,
        "lon": 29.2752814,
        "tags": {
            "addr:city": "Istanbul",
            "addr:district": "Sultanbeyli",
            "description": "",
            "opening_hours": "Mo-Fr 07:00-13:30; Mo-Fr 17:00-20:00",
            "phone": null,
            "branch": null,
            "amenity": "greengrocer",
            "mobile": null,
            "addr:street": "çamlik Caddesi",
            "cuisine": null,
            "name": "Vitamin meyve",
            "name:en": null,
            "name:uk": null,
            "name:de": null,
            "name:tr": null,
            "name:ru": null,
            "name:ar": "خضرجي فيتامين"
        }
    },
    {
        "lat": 40.9687593,
        "lon": 29.2472759,
        "tags": {
            "addr:city": "Istanbul",
            "addr:district": "Sultanbeyli",
            "description": "",
            "opening_hours": "Mo-Su 07:00-20:00",
            "phone": null,
            "branch": null,
            "amenity": "greengrocer",
            "mobile": null,
            "addr:street": "necib fadil csddesi جادة نجيب فاضل",
            "cuisine": null,
            "name": "Manav",
            "name:en": null,
            "name:uk": null,
            "name:de": null,
            "name:tr": null,
            "name:ru": null,
            "name:ar": "ماناف للخضار"
        }
    },
    {
        "lat": 40.9457412,
        "lon": 29.2843151,
        "tags": {
            "addr:city": "Istanbul",
            "addr:district": "Sultanbeyli",
            "description": "",
            "opening_hours": "Mo-Fr 07:00-13:30; Mo-Fr 17:00-20:00",
            "phone": "02164873322",
            "branch": null,
            "amenity": "greengrocer",
            "mobile": null,
            "addr:street": "Antalya Caddesi",
            "cuisine": null,
            "name": "Kaya market",
            "name:en": null,
            "name:uk": null,
            "name:de": null,
            "name:tr": null,
            "name:ru": null,
            "name:ar": "خضروات كايا"
        }
    },
    {
        "lat": 40.9696899,
        "lon": 29.2477438,
        "tags": {
            "addr:city": "Istanbul",
            "addr:district": "Sultanbeyli",
            "description": "",
            "opening_hours": "Mo-Fr 07:00-13:30; Mo-Fr 17:00-20:00",
            "phone": null,
            "branch": null,
            "amenity": "greengrocer",
            "mobile": null,
            "addr:street": "necip fadil caddesi جادة نجيب فاضل",
            "cuisine": null,
            "name": "Çakırlar (peynircilik& kahvaltısarayı)",
            "name:en": null,
            "name:uk": null,
            "name:de": null,
            "name:tr": null,
            "name:ru": null,
            "name:ar": "شاكرلار(لوازم فطور و خضراوات)"
        }
    },
    {
        "lat": 40.9902373,
        "lon": 29.0251133,
        "tags": {
            "addr:city": "İstanbul",
            "addr:district": null,
            "description": "",
            "opening_hours": null,
            "phone": null,
            "branch": null,
            "amenity": "greengrocer",
            "mobile": null,
            "addr:street": "Güneşli Bahçe Sokak",
            "cuisine": null,
            "name": null,
            "name:en": "nuts store",
            "name:uk": null,
            "name:de": null,
            "name:tr": null,
            "name:ru": null,
            "name:ar": null
        }
    },
    {
        "lat": 40.9140413,
        "lon": 29.1404944,
        "tags": {
            "addr:city": "İstanbul",
            "addr:district": null,
            "description": "",
            "opening_hours": null,
            "phone": null,
            "branch": null,
            "amenity": "greengrocer",
            "mobile": null,
            "addr:street": null,
            "cuisine": null,
            "name": null,
            "name:en": null,
            "name:uk": null,
            "name:de": null,
            "name:tr": null,
            "name:ru": null,
            "name:ar": null
        }
    },
    {
        "lat": 41.0101246,
        "lon": 28.9119513,
        "tags": {
            "addr:city": "Istanbul",
            "addr:district": "Zeytinburnu",
            "description": "",
            "opening_hours": null,
            "phone": null,
            "branch": null,
            "amenity": "greengrocer",
            "mobile": null,
            "addr:street": "G-61. Sokak",
            "cuisine": null,
            "name": "bakkal",
            "name:en": null,
            "name:uk": null,
            "name:de": null,
            "name:tr": null,
            "name:ru": null,
            "name:ar": "بقالة"
        }
    },
    {
        "lat": 41.0031267,
        "lon": 28.9026832,
        "tags": {
            "addr:city": "Istanbul",
            "addr:district": "Zeytinburnu",
            "description": "",
            "opening_hours": "Mo-Sa 08:00-20:00",
            "phone": null,
            "branch": null,
            "amenity": "greengrocer",
            "mobile": null,
            "addr:street": null,
            "cuisine": null,
            "name": "Şahin Organik",
            "name:en": null,
            "name:uk": null,
            "name:de": null,
            "name:tr": null,
            "name:ru": null,
            "name:ar": "بقالة شاهين لبيع الخضار"
        }
    },
    {
        "lat": 40.9969772,
        "lon": 28.9118844,
        "tags": {
            "addr:city": "Istanbul",
            "addr:district": "Zeytinburnu",
            "description": "",
            "opening_hours": null,
            "phone": null,
            "branch": null,
            "amenity": "greengrocer",
            "mobile": null,
            "addr:street": null,
            "cuisine": null,
            "name": "DÜKKAN",
            "name:en": null,
            "name:uk": null,
            "name:de": null,
            "name:tr": null,
            "name:ru": null,
            "name:ar": "خضرجي"
        }
    },
    {
        "lat": 40.9974794,
        "lon": 28.9116326,
        "tags": {
            "addr:city": "Istanbul",
            "addr:district": "Zeytinburnu",
            "description": "",
            "opening_hours": null,
            "phone": null,
            "branch": null,
            "amenity": "greengrocer",
            "mobile": null,
            "addr:street": null,
            "cuisine": null,
            "name": "Gaziantep gıda",
            "name:en": null,
            "name:uk": null,
            "name:de": null,
            "name:tr": null,
            "name:ru": null,
            "name:ar": "غذائيات غازي عنتاب"
        }
    },
    {
        "lat": 40.9997663,
        "lon": 28.914123,
        "tags": {
            "addr:city": "Istanbul",
            "addr:district": "Zeytinburnu",
            "description": "",
            "opening_hours": null,
            "phone": null,
            "branch": null,
            "amenity": "greengrocer",
            "mobile": null,
            "addr:street": null,
            "cuisine": null,
            "name": "DÜKKAN",
            "name:en": null,
            "name:uk": null,
            "name:de": null,
            "name:tr": null,
            "name:ru": null,
            "name:ar": "خضرجي"
        }
    },
    {
        "lat": 41.0026592,
        "lon": 28.9125293,
        "tags": {
            "addr:city": "Istanbul",
            "addr:district": "Zeytinburnu",
            "description": "",
            "opening_hours": null,
            "phone": null,
            "branch": null,
            "amenity": "greengrocer",
            "mobile": null,
            "addr:street": null,
            "cuisine": null,
            "name": "Manav",
            "name:en": null,
            "name:uk": null,
            "name:de": null,
            "name:tr": null,
            "name:ru": null,
            "name:ar": "بائع خضار"
        }
    },
    {
        "lat": 40.9968519,
        "lon": 28.9118874,
        "tags": {
            "addr:city": "Istanbul",
            "addr:district": "Zeytinburnu",
            "description": "",
            "opening_hours": null,
            "phone": null,
            "branch": null,
            "amenity": "greengrocer",
            "mobile": null,
            "addr:street": null,
            "cuisine": null,
            "name": "Manav",
            "name:en": null,
            "name:uk": null,
            "name:de": null,
            "name:tr": null,
            "name:ru": null,
            "name:ar": null
        }
    },
    {
        "lat": 40.9878996,
        "lon": 28.8955319,
        "tags": {
            "addr:city": "Istanbul",
            "addr:district": "Zeytinburnu",
            "description": "",
            "opening_hours": null,
            "phone": null,
            "branch": null,
            "amenity": "greengrocer",
            "mobile": null,
            "addr:street": "Şht. Er Yavuz Bahar Sokak",
            "cuisine": null,
            "name": "Sebze Meyve Pazarı",
            "name:en": null,
            "name:uk": null,
            "name:de": null,
            "name:tr": null,
            "name:ru": null,
            "name:ar": "بازار الخضروات والفاكهة"
        }
    },
    {
        "lat": 40.9886448,
        "lon": 28.8944626,
        "tags": {
            "addr:city": "Istanbul",
            "addr:district": "Zeytinburnu",
            "description": "",
            "opening_hours": null,
            "phone": null,
            "branch": null,
            "amenity": "greengrocer",
            "mobile": null,
            "addr:street": "28/2 sokak",
            "cuisine": null,
            "name": "Gülbahar Market",
            "name:en": null,
            "name:uk": null,
            "name:de": null,
            "name:tr": null,
            "name:ru": null,
            "name:ar": "غولباهار ماركت"
        }
    },
    {
        "lat": 40.9884793,
        "lon": 28.896648,
        "tags": {
            "addr:city": "Istanbul",
            "addr:district": "Zeytinburnu",
            "description": "",
            "opening_hours": null,
            "phone": null,
            "branch": null,
            "amenity": "greengrocer",
            "mobile": null,
            "addr:street": "27/1. sokak",
            "cuisine": null,
            "name": "gülmar",
            "name:en": null,
            "name:uk": null,
            "name:de": null,
            "name:tr": null,
            "name:ru": null,
            "name:ar": "غولمار"
        }
    },
    {
        "lat": 40.9909512,
        "lon": 28.8998178,
        "tags": {
            "addr:city": "Istanbul",
            "addr:district": "Zeytinburnu",
            "description": "",
            "opening_hours": "Mo-Su 09:00-20:00",
            "phone": null,
            "branch": null,
            "amenity": "marketplace",
            "mobile": null,
            "addr:street": null,
            "cuisine": null,
            "name": "Yeşiltepe Kardeşler Daimi Ekonomik Halk Pazarı",
            "name:en": null,
            "name:uk": null,
            "name:de": null,
            "name:tr": null,
            "name:ru": null,
            "name:ar": "يشيل تبة كارديشلار لبيع الخضروات بسعر اقتصادي"
        }
    },
    {
        "lat": 40.9934793,
        "lon": 28.8964072,
        "tags": {
            "addr:city": "Istanbul",
            "addr:district": "Zeytinburnu",
            "description": "",
            "opening_hours": null,
            "phone": null,
            "branch": null,
            "amenity": "greengrocer",
            "mobile": null,
            "addr:street": "74. Sokak",
            "cuisine": null,
            "name": "Şenlik Market",
            "name:en": null,
            "name:uk": null,
            "name:de": null,
            "name:tr": null,
            "name:ru": null,
            "name:ar": "شينليك ماركيت"
        }
    },
    {
        "lat": 40.9862302,
        "lon": 28.8960213,
        "tags": {
            "addr:city": "Istanbul",
            "addr:district": "Zeytinburnu",
            "description": "",
            "opening_hours": null,
            "phone": null,
            "branch": null,
            "amenity": "greengrocer",
            "mobile": null,
            "addr:street": "29/7. sokak",
            "cuisine": null,
            "name": "cennet market",
            "name:en": null,
            "name:uk": null,
            "name:de": null,
            "name:tr": null,
            "name:ru": null,
            "name:ar": "جنة ماركت"
        }
    },
    {
        "lat": 40.9865644,
        "lon": 28.8948433,
        "tags": {
            "addr:city": "Istanbul",
            "addr:district": "Zeytinburnu",
            "description": "",
            "opening_hours": null,
            "phone": null,
            "branch": null,
            "amenity": "greengrocer",
            "mobile": null,
            "addr:street": "30. sokak",
            "cuisine": null,
            "name": "çimen gida",
            "name:en": null,
            "name:uk": null,
            "name:de": null,
            "name:tr": null,
            "name:ru": null,
            "name:ar": "تشيمان غذاء"
        }
    },
    {
        "lat": 40.9857039,
        "lon": 28.8971305,
        "tags": {
            "addr:city": "Istanbul",
            "addr:district": "Zeytinburnu",
            "description": "",
            "opening_hours": null,
            "phone": null,
            "branch": null,
            "amenity": "greengrocer",
            "mobile": null,
            "addr:street": "Şht. Piyade Er Yaşar Yeşilkır sokak",
            "cuisine": null,
            "name": "Manav",
            "name:en": null,
            "name:uk": null,
            "name:de": null,
            "name:tr": null,
            "name:ru": null,
            "name:ar": null
        }
    },
    {
        "lat": 40.9873904,
        "lon": 28.8969404,
        "tags": {
            "addr:city": "Istanbul",
            "addr:district": "Zeytinburnu",
            "description": "",
            "opening_hours": null,
            "phone": null,
            "branch": null,
            "amenity": "greengrocer",
            "mobile": null,
            "addr:street": "Merv Caddesi",
            "cuisine": null,
            "name": "seyyit kardeşler",
            "name:en": null,
            "name:uk": null,
            "name:de": null,
            "name:tr": null,
            "name:ru": null,
            "name:ar": "سيد كارديشلر"
        }
    },
    {
        "lat": 40.9845625,
        "lon": 28.8950077,
        "tags": {
            "addr:city": "Istanbul",
            "addr:district": "Zeytinburnu",
            "description": "",
            "opening_hours": null,
            "phone": null,
            "branch": null,
            "amenity": "greengrocer",
            "mobile": null,
            "addr:street": "18. sokak",
            "cuisine": null,
            "name": "Karakuş Aile Manavı",
            "name:en": null,
            "name:uk": null,
            "name:de": null,
            "name:tr": null,
            "name:ru": null,
            "name:ar": "كاراكوش"
        }
    },
    {
        "lat": 40.9919022,
        "lon": 28.9062607,
        "tags": {
            "addr:city": "Istanbul",
            "addr:district": "Zeytinburnu",
            "description": "",
            "opening_hours": null,
            "phone": null,
            "branch": null,
            "amenity": "greengrocer",
            "mobile": null,
            "addr:street": "44/2. sokak",
            "cuisine": null,
            "name": "Mevlana",
            "name:en": null,
            "name:uk": null,
            "name:de": null,
            "name:tr": null,
            "name:ru": null,
            "name:ar": "مولانا"
        }
    },
    {
        "lat": 40.9904438,
        "lon": 28.9056019,
        "tags": {
            "addr:city": "Istanbul",
            "addr:district": "Zeytinburnu",
            "description": "",
            "opening_hours": null,
            "phone": null,
            "branch": null,
            "amenity": "greengrocer",
            "mobile": null,
            "addr:street": "49.sokak.",
            "cuisine": null,
            "name": "OKUYUCU HALK",
            "name:en": null,
            "name:uk": null,
            "name:de": null,
            "name:tr": null,
            "name:ru": null,
            "name:ar": "الشعب الدارس"
        }
    },
    {
        "lat": 40.9934022,
        "lon": 28.9002474,
        "tags": {
            "addr:city": "Istanbul",
            "addr:district": "Zeytinburnu",
            "description": "",
            "opening_hours": "Mo-Su 09:00-20:00",
            "phone": null,
            "branch": null,
            "amenity": "marketplace",
            "mobile": null,
            "addr:street": null,
            "cuisine": null,
            "name": "Yeşiltepe Ekonomik Halk Pazarı",
            "name:en": null,
            "name:uk": null,
            "name:de": null,
            "name:tr": null,
            "name:ru": null,
            "name:ar": "سوق يشيل تية الشعبي لبيع الخضار"
        }
    },
    {
        "lat": 41.0475497,
        "lon": 28.8211997,
        "tags": {
            "addr:city": "Istanbul",
            "addr:district": "Bağcılar",
            "description": "",
            "opening_hours": null,
            "phone": null,
            "branch": null,
            "amenity": "greengrocer",
            "mobile": null,
            "addr:street": "Karaoğlanoğlu caddesi",
            "cuisine": null,
            "name": "Yonca manavı",
            "name:en": null,
            "name:uk": null,
            "name:de": null,
            "name:tr": null,
            "name:ru": null,
            "name:ar": "يونجا بياع خضرة"
        }
    },
    {
        "lat": 41.0473208,
        "lon": 28.846148,
        "tags": {
            "addr:city": "Istanbul",
            "addr:district": "Bağcılar",
            "description": "",
            "opening_hours": null,
            "phone": null,
            "branch": null,
            "amenity": "greengrocer",
            "mobile": null,
            "addr:street": null,
            "cuisine": null,
            "name": null,
            "name:en": null,
            "name:uk": null,
            "name:de": null,
            "name:tr": null,
            "name:ru": null,
            "name:ar": "خضرجي"
        }
    },
    {
        "lat": 41.0483505,
        "lon": 28.8485801,
        "tags": {
            "addr:city": "Istanbul",
            "addr:district": "Bağcılar",
            "description": "",
            "opening_hours": null,
            "phone": null,
            "branch": null,
            "amenity": "greengrocer",
            "mobile": null,
            "addr:street": null,
            "cuisine": null,
            "name": "Öz nurs",
            "name:en": null,
            "name:uk": null,
            "name:de": null,
            "name:tr": null,
            "name:ru": null,
            "name:ar": "اوز نورس للخضار"
        }
    },
    {
        "lat": 41.0503503,
        "lon": 28.8493508,
        "tags": {
            "addr:city": "Istanbul",
            "addr:district": "Zeytinburnu",
            "description": "",
            "opening_hours": null,
            "phone": null,
            "branch": null,
            "amenity": "greengrocer",
            "mobile": null,
            "addr:street": null,
            "cuisine": null,
            "name": "NADAS GIDA",
            "name:en": null,
            "name:uk": null,
            "name:de": null,
            "name:tr": null,
            "name:ru": null,
            "name:ar": "خضروات"
        }
    },
    {
        "lat": 41.0642351,
        "lon": 28.854324,
        "tags": {
            "addr:city": "Istanbul",
            "addr:district": "Bağcılar",
            "description": "",
            "opening_hours": null,
            "phone": null,
            "branch": null,
            "amenity": "greengrocer",
            "mobile": null,
            "addr:street": "Pazar Sokak",
            "cuisine": null,
            "name": "Seyitler",
            "name:en": null,
            "name:uk": null,
            "name:de": null,
            "name:tr": null,
            "name:ru": null,
            "name:ar": "سيتلير"
        }
    },
    {
        "lat": 41.0317524,
        "lon": 28.8376354,
        "tags": {
            "addr:city": "Istanbul",
            "addr:district": "Bağcılar",
            "description": "",
            "opening_hours": null,
            "phone": null,
            "branch": null,
            "amenity": "greengrocer",
            "mobile": null,
            "addr:street": "Kirazli merkez caddesi",
            "cuisine": null,
            "name": "Sebzeci",
            "name:en": null,
            "name:uk": null,
            "name:de": null,
            "name:tr": null,
            "name:ru": null,
            "name:ar": "خضرجي"
        }
    },
    {
        "lat": 41.0238032,
        "lon": 28.8461031,
        "tags": {
            "addr:city": "Istanbul",
            "addr:district": "Bağcılar",
            "description": "",
            "opening_hours": null,
            "phone": null,
            "branch": null,
            "amenity": "greengrocer",
            "mobile": null,
            "addr:street": "2. sokak",
            "cuisine": null,
            "name": "Ekonomik halk pazarı",
            "name:en": null,
            "name:uk": null,
            "name:de": null,
            "name:tr": null,
            "name:ru": null,
            "name:ar": "بائع خضروات وفواكه"
        }
    },
    {
        "lat": 41.0342152,
        "lon": 28.8231195,
        "tags": {
            "addr:city": "Istanbul",
            "addr:district": "Bağcılar",
            "description": "",
            "opening_hours": null,
            "phone": "05367401051",
            "branch": null,
            "amenity": "greengrocer",
            "mobile": null,
            "addr:street": "Favziçakmak Caddesi",
            "cuisine": null,
            "name": "İnebolu",
            "name:en": null,
            "name:uk": null,
            "name:de": null,
            "name:tr": null,
            "name:ru": null,
            "name:ar": "انب اولو"
        }
    },
    {
        "lat": 41.0246006,
        "lon": 28.8458789,
        "tags": {
            "addr:city": "Istanbul",
            "addr:district": "Bağcılar",
            "description": "",
            "opening_hours": null,
            "phone": null,
            "branch": null,
            "amenity": "greengrocer",
            "mobile": null,
            "addr:street": "2. sokak",
            "cuisine": null,
            "name": "Uğur sebze ve meyve pazarı",
            "name:en": null,
            "name:uk": null,
            "name:de": null,
            "name:tr": null,
            "name:ru": null,
            "name:ar": "اوغور للخضروات والفواكه"
        }
    },
    {
        "lat": 41.0322626,
        "lon": 28.839206,
        "tags": {
            "addr:city": "Istanbul",
            "addr:district": "Bağcılar",
            "description": "",
            "opening_hours": null,
            "phone": null,
            "branch": null,
            "amenity": "greengrocer",
            "mobile": null,
            "addr:street": "Namal sokak",
            "cuisine": null,
            "name": "Sebzeci",
            "name:en": null,
            "name:uk": null,
            "name:de": null,
            "name:tr": null,
            "name:ru": null,
            "name:ar": "خضرجي"
        }
    },
    {
        "lat": 41.0455903,
        "lon": 28.832224,
        "tags": {
            "addr:city": "Istanbul",
            "addr:district": "Bağcılar",
            "description": "",
            "opening_hours": null,
            "phone": null,
            "branch": null,
            "amenity": "greengrocer",
            "mobile": null,
            "addr:street": "Bağcılar Asf. Caddesi",
            "cuisine": null,
            "name": "Ateştuğla Manav",
            "name:en": null,
            "name:uk": null,
            "name:de": null,
            "name:tr": null,
            "name:ru": null,
            "name:ar": "اتيش توغلا"
        }
    },
    {
        "lat": 41.0446397,
        "lon": 28.8400873,
        "tags": {
            "addr:city": "Istanbul",
            "addr:district": "Bağcılar",
            "description": "",
            "opening_hours": null,
            "phone": null,
            "branch": null,
            "amenity": "greengrocer",
            "mobile": null,
            "addr:street": "Bağcılar Asf. Caddesi",
            "cuisine": null,
            "name": "Bereket Manav",
            "name:en": null,
            "name:uk": null,
            "name:de": null,
            "name:tr": null,
            "name:ru": null,
            "name:ar": "بركت"
        }
    },
    {
        "lat": 41.0406147,
        "lon": 28.844047,
        "tags": {
            "addr:city": "Istanbul",
            "addr:district": "Bağcılar",
            "description": "",
            "opening_hours": null,
            "phone": null,
            "branch": null,
            "amenity": "greengrocer",
            "mobile": null,
            "addr:street": "ahmet kabakli",
            "cuisine": null,
            "name": "Emin",
            "name:en": null,
            "name:uk": null,
            "name:de": null,
            "name:tr": null,
            "name:ru": null,
            "name:ar": "امين"
        }
    },
    {
        "lat": 41.0393168,
        "lon": 28.8413845,
        "tags": {
            "addr:city": "Istanbul",
            "addr:district": "Bağcılar",
            "description": "",
            "opening_hours": null,
            "phone": null,
            "branch": null,
            "amenity": "greengrocer",
            "mobile": null,
            "addr:street": "Tavukcu kopru caddesi",
            "cuisine": null,
            "name": "Elif gida",
            "name:en": null,
            "name:uk": null,
            "name:de": null,
            "name:tr": null,
            "name:ru": null,
            "name:ar": "اليف غدا"
        }
    },
    {
        "lat": 41.032655,
        "lon": 28.8494721,
        "tags": {
            "addr:city": "Istanbul",
            "addr:district": "Bağcılar",
            "description": "",
            "opening_hours": null,
            "phone": null,
            "branch": null,
            "amenity": "greengrocer",
            "mobile": null,
            "addr:street": "Hoca Ahmet Yesevi Caddesi",
            "cuisine": null,
            "name": "Artan manav",
            "name:en": null,
            "name:uk": null,
            "name:de": null,
            "name:tr": null,
            "name:ru": null,
            "name:ar": "ارتان للخضراوات والفواكه"
        }
    },
    {
        "lat": 41.0334677,
        "lon": 28.8598686,
        "tags": {
            "addr:city": "Istanbul",
            "addr:district": "Bağcılar",
            "description": "",
            "opening_hours": null,
            "phone": null,
            "branch": null,
            "amenity": "greengrocer",
            "mobile": null,
            "addr:street": "25.sk",
            "cuisine": null,
            "name": "Pamuk Gıda",
            "name:en": null,
            "name:uk": null,
            "name:de": null,
            "name:tr": null,
            "name:ru": null,
            "name:ar": "اغذية باموك"
        }
    },
    {
        "lat": 41.0396102,
        "lon": 28.8638938,
        "tags": {
            "addr:city": "Istanbul",
            "addr:district": "Bağcılar",
            "description": "",
            "opening_hours": null,
            "phone": null,
            "branch": null,
            "amenity": "greengrocer",
            "mobile": null,
            "addr:street": "fatih Caddesi",
            "cuisine": null,
            "name": "Sebze ve Meyve",
            "name:en": null,
            "name:uk": null,
            "name:de": null,
            "name:tr": null,
            "name:ru": null,
            "name:ar": "خضروات وفواكه"
        }
    },
    {
        "lat": 41.0372426,
        "lon": 28.8586576,
        "tags": {
            "addr:city": "Istanbul",
            "addr:district": "Bağcılar",
            "description": "",
            "opening_hours": null,
            "phone": null,
            "branch": null,
            "amenity": "greengrocer",
            "mobile": null,
            "addr:street": "Osmangazi Caddesi",
            "cuisine": null,
            "name": "Cumaoğlu",
            "name:en": null,
            "name:uk": null,
            "name:de": null,
            "name:tr": null,
            "name:ru": null,
            "name:ar": "جمعة اوغلو"
        }
    },
    {
        "lat": 41.0370825,
        "lon": 28.8615915,
        "tags": {
            "addr:city": "Istanbul",
            "addr:district": "Bağcılar",
            "description": "",
            "opening_hours": null,
            "phone": null,
            "branch": null,
            "amenity": "greengrocer",
            "mobile": null,
            "addr:street": "846 sokak",
            "cuisine": null,
            "name": "MERCANLAR MARKET",
            "name:en": null,
            "name:uk": null,
            "name:de": null,
            "name:tr": null,
            "name:ru": null,
            "name:ar": "مرجان لار ماركت"
        }
    },
    {
        "lat": 41.0294518,
        "lon": 28.8588031,
        "tags": {
            "addr:city": "Istanbul",
            "addr:district": "Bağcılar",
            "description": "",
            "opening_hours": null,
            "phone": null,
            "branch": null,
            "amenity": "greengrocer",
            "mobile": null,
            "addr:street": "1.sk",
            "cuisine": null,
            "name": "market",
            "name:en": null,
            "name:uk": null,
            "name:de": null,
            "name:tr": null,
            "name:ru": null,
            "name:ar": "خضرجي"
        }
    },
    {
        "lat": 41.0305531,
        "lon": 28.8496414,
        "tags": {
            "addr:city": "Istanbul",
            "addr:district": "Bağcılar",
            "description": "",
            "opening_hours": null,
            "phone": null,
            "branch": null,
            "amenity": "greengrocer",
            "mobile": null,
            "addr:street": "30/11. sokak",
            "cuisine": null,
            "name": "Saygın manav",
            "name:en": null,
            "name:uk": null,
            "name:de": null,
            "name:tr": null,
            "name:ru": null,
            "name:ar": "محل سايكن للخضراوات"
        }
    },
    {
        "lat": 41.030324,
        "lon": 28.8498347,
        "tags": {
            "addr:city": "Istanbul",
            "addr:district": "Bağcılar",
            "description": "",
            "opening_hours": null,
            "phone": null,
            "branch": null,
            "amenity": "greengrocer",
            "mobile": null,
            "addr:street": "30/11. sokak",
            "cuisine": null,
            "name": "Önderoğlu halk pazarı",
            "name:en": null,
            "name:uk": null,
            "name:de": null,
            "name:tr": null,
            "name:ru": null,
            "name:ar": "محل اوندراوغلو للخضار"
        }
    },
    {
        "lat": 41.0285655,
        "lon": 28.8535762,
        "tags": {
            "addr:city": "Istanbul",
            "addr:district": "Bağcılar",
            "description": "",
            "opening_hours": null,
            "phone": null,
            "branch": null,
            "amenity": "greengrocer",
            "mobile": null,
            "addr:street": "Şehit Yılmaz Kaan Caddesi",
            "cuisine": null,
            "name": "Beydağı manav",
            "name:en": null,
            "name:uk": null,
            "name:de": null,
            "name:tr": null,
            "name:ru": null,
            "name:ar": "بيداغ للخضراوات والفواكه"
        }
    },
    {
        "lat": 41.0223868,
        "lon": 28.8580263,
        "tags": {
            "addr:city": "Istanbul",
            "addr:district": "Zeytinburnu",
            "description": "",
            "opening_hours": null,
            "phone": null,
            "branch": null,
            "amenity": "greengrocer",
            "mobile": null,
            "addr:street": null,
            "cuisine": null,
            "name": "Yöresel",
            "name:en": null,
            "name:uk": null,
            "name:de": null,
            "name:tr": null,
            "name:ru": null,
            "name:ar": "خضروات يورسال"
        }
    },
    {
        "lat": 41.0316244,
        "lon": 28.8629663,
        "tags": {
            "addr:city": "Istanbul",
            "addr:district": "Bağcılar",
            "description": "",
            "opening_hours": null,
            "phone": null,
            "branch": null,
            "amenity": "greengrocer",
            "mobile": null,
            "addr:street": "Güngören caddesi",
            "cuisine": null,
            "name": "Halcim",
            "name:en": null,
            "name:uk": null,
            "name:de": null,
            "name:tr": null,
            "name:ru": null,
            "name:ar": "هالجيم"
        }
    },
    {
        "lat": 41.0192371,
        "lon": 28.8584346,
        "tags": {
            "addr:city": "Istanbul",
            "addr:district": "Bağcılar",
            "description": "",
            "opening_hours": null,
            "phone": null,
            "branch": null,
            "amenity": "greengrocer",
            "mobile": null,
            "addr:street": "Kıbrıs Caddesi",
            "cuisine": null,
            "name": "Sarcan Ekonomik Mini Hal",
            "name:en": null,
            "name:uk": null,
            "name:de": null,
            "name:tr": null,
            "name:ru": null,
            "name:ar": "خضروات سارجان"
        }
    },
    {
        "lat": 41.0261029,
        "lon": 28.973878,
        "tags": {
            "addr:city": "İstanbul",
            "addr:district": null,
            "description": "",
            "opening_hours": null,
            "phone": "+90 212 292 0768",
            "branch": null,
            "amenity": "greengrocer",
            "mobile": null,
            "addr:street": null,
            "cuisine": null,
            "name": null,
            "name:en": "Sezginler Tarim Urunleri",
            "name:uk": null,
            "name:de": null,
            "name:tr": null,
            "name:ru": null,
            "name:ar": null
        }
    },
    {
        "lat": 40.9757543,
        "lon": 29.264667,
        "tags": {
            "addr:city": "İstanbul",
            "addr:district": null,
            "description": "",
            "opening_hours": null,
            "phone": null,
            "branch": null,
            "amenity": "greengrocer",
            "mobile": null,
            "addr:street": null,
            "cuisine": null,
            "name": "Vitamin MEyve Sebze Dünyası",
            "name:en": null,
            "name:uk": null,
            "name:de": null,
            "name:tr": null,
            "name:ru": null,
            "name:ar": null
        }
    },
    {
        "lat": 40.9765382,
        "lon": 29.2651657,
        "tags": {
            "addr:city": "İstanbul",
            "addr:district": null,
            "description": "",
            "opening_hours": null,
            "phone": null,
            "branch": null,
            "amenity": "greengrocer",
            "mobile": null,
            "addr:street": null,
            "cuisine": null,
            "name": "Manav",
            "name:en": null,
            "name:uk": null,
            "name:de": null,
            "name:tr": null,
            "name:ru": null,
            "name:ar": null
        }
    },
    {
        "lat": 40.9855066,
        "lon": 29.0241459,
        "tags": {
            "addr:city": "İstanbul",
            "addr:district": null,
            "description": "",
            "opening_hours": null,
            "phone": null,
            "branch": null,
            "amenity": "greengrocer",
            "mobile": null,
            "addr:street": "Fırıldak Sokağı",
            "cuisine": null,
            "name": null,
            "name:en": null,
            "name:uk": null,
            "name:de": null,
            "name:tr": null,
            "name:ru": null,
            "name:ar": null
        }
    },
    {
        "lat": 40.9909877,
        "lon": 29.0237575,
        "tags": {
            "addr:city": "İstanbul",
            "addr:district": null,
            "description": "",
            "opening_hours": null,
            "phone": null,
            "branch": null,
            "amenity": "greengrocer",
            "mobile": null,
            "addr:street": null,
            "cuisine": null,
            "name": null,
            "name:en": null,
            "name:uk": null,
            "name:de": "Basar von Kadiköy",
            "name:tr": null,
            "name:ru": null,
            "name:ar": null
        }
    },
    {
        "lat": 40.8672729,
        "lon": 29.3282642,
        "tags": {
            "addr:city": "İstanbul",
            "addr:district": null,
            "description": "",
            "opening_hours": null,
            "phone": null,
            "branch": null,
            "amenity": "greengrocer",
            "mobile": null,
            "addr:street": null,
            "cuisine": null,
            "name": null,
            "name:en": null,
            "name:uk": null,
            "name:de": null,
            "name:tr": null,
            "name:ru": null,
            "name:ar": null
        }
    },
    {
        "lat": 41.0070954,
        "lon": 29.0846812,
        "tags": {
            "addr:city": "İstanbul",
            "addr:district": null,
            "description": "",
            "opening_hours": null,
            "phone": null,
            "branch": null,
            "amenity": "greengrocer",
            "mobile": null,
            "addr:street": null,
            "cuisine": null,
            "name": null,
            "name:en": null,
            "name:uk": null,
            "name:de": null,
            "name:tr": null,
            "name:ru": null,
            "name:ar": null
        }
    },
    {
        "lat": 41.0053565,
        "lon": 29.0865094,
        "tags": {
            "addr:city": "istanbul",
            "addr:district": "ataşehir",
            "description": "",
            "opening_hours": null,
            "phone": null,
            "branch": null,
            "amenity": "greengrocer",
            "mobile": null,
            "addr:street": "atatürk",
            "cuisine": null,
            "name": null,
            "name:en": null,
            "name:uk": null,
            "name:de": null,
            "name:tr": null,
            "name:ru": null,
            "name:ar": null
        }
    },
    {
        "lat": 41.0030875,
        "lon": 28.7929107,
        "tags": {
            "addr:city": "İstanbul",
            "addr:district": null,
            "description": "",
            "opening_hours": null,
            "phone": null,
            "branch": null,
            "amenity": "greengrocer",
            "mobile": null,
            "addr:street": null,
            "cuisine": null,
            "name": "Güneş Tarım",
            "name:en": null,
            "name:uk": null,
            "name:de": null,
            "name:tr": null,
            "name:ru": null,
            "name:ar": null
        }
    },
    {
        "lat": 40.9672823,
        "lon": 29.0631452,
        "tags": {
            "addr:city": "İstanbul",
            "addr:district": "Kadıköy",
            "description": "",
            "opening_hours": "Mo-Sa 09:00-20:00",
            "phone": null,
            "branch": null,
            "amenity": "greengrocer",
            "mobile": null,
            "addr:street": "Ressam Vecihi Bereketoğlu Sokak",
            "cuisine": null,
            "name": "Caddebostan Manavı",
            "name:en": null,
            "name:uk": null,
            "name:de": null,
            "name:tr": null,
            "name:ru": null,
            "name:ar": null
        }
    },
    {
        "lat": 40.9175153,
        "lon": 29.2800852,
        "tags": {
            "addr:city": "İstanbul",
            "addr:district": "Pendik",
            "description": "",
            "opening_hours": null,
            "phone": null,
            "branch": null,
            "amenity": "greengrocer",
            "mobile": null,
            "addr:street": "Semerkant Bulvarı",
            "cuisine": null,
            "name": "Taze Kapıda",
            "name:en": null,
            "name:uk": null,
            "name:de": null,
            "name:tr": null,
            "name:ru": null,
            "name:ar": null
        }
    },
    {
        "lat": 41.0030465,
        "lon": 29.0749332,
        "tags": {
            "addr:city": "İstanbul",
            "addr:district": null,
            "description": "",
            "opening_hours": null,
            "phone": null,
            "branch": null,
            "amenity": "greengrocer",
            "mobile": null,
            "addr:street": null,
            "cuisine": null,
            "name": "Taze Pazar",
            "name:en": null,
            "name:uk": null,
            "name:de": null,
            "name:tr": null,
            "name:ru": null,
            "name:ar": null
        }
    },
    {
        "lat": 40.9090971,
        "lon": 29.2218151,
        "tags": {
            "addr:city": "İstanbul",
            "addr:district": null,
            "description": "",
            "opening_hours": null,
            "phone": null,
            "branch": null,
            "amenity": "greengrocer",
            "mobile": null,
            "addr:street": null,
            "cuisine": null,
            "name": null,
            "name:en": null,
            "name:uk": null,
            "name:de": null,
            "name:tr": null,
            "name:ru": null,
            "name:ar": null
        }
    },
    {
        "lat": 41.0131623,
        "lon": 29.021372,
        "tags": {
            "addr:city": "İstanbul",
            "addr:district": null,
            "description": "",
            "opening_hours": null,
            "phone": null,
            "branch": null,
            "amenity": "greengrocer",
            "mobile": null,
            "addr:street": null,
            "cuisine": null,
            "name": "Kastamonu Yerel Ürünler Pazar’ı",
            "name:en": "Kastamonu Natural Bazaar",
            "name:uk": null,
            "name:de": null,
            "name:tr": "Kastamonu Doğal Ürünler Pazarı",
            "name:ru": null,
            "name:ar": null
        }
    },
    {
        "lat": 40.8693005,
        "lon": 29.3043085,
        "tags": {
            "addr:city": "İstanbul",
            "addr:district": null,
            "description": "",
            "opening_hours": null,
            "phone": null,
            "branch": null,
            "amenity": "greengrocer",
            "mobile": null,
            "addr:street": null,
            "cuisine": null,
            "name": null,
            "name:en": null,
            "name:uk": null,
            "name:de": null,
            "name:tr": null,
            "name:ru": null,
            "name:ar": null
        }
    },
    {
        "lat": 40.8790185,
        "lon": 29.2346527,
        "tags": {
            "addr:city": "İstanbul",
            "addr:district": "Pendik",
            "description": "",
            "opening_hours": null,
            "phone": null,
            "branch": null,
            "amenity": "greengrocer",
            "mobile": null,
            "addr:street": "Dr.Orhan Maltepe Caddesi",
            "cuisine": null,
            "name": "Adanalı Manav",
            "name:en": null,
            "name:uk": null,
            "name:de": null,
            "name:tr": null,
            "name:ru": null,
            "name:ar": null
        }
    },
    {
        "lat": 40.8677231,
        "lon": 29.3033718,
        "tags": {
            "addr:city": "İstanbul",
            "addr:district": null,
            "description": "",
            "opening_hours": null,
            "phone": null,
            "branch": null,
            "amenity": "greengrocer",
            "mobile": null,
            "addr:street": null,
            "cuisine": null,
            "name": null,
            "name:en": null,
            "name:uk": null,
            "name:de": null,
            "name:tr": null,
            "name:ru": null,
            "name:ar": null
        }
    },
    {
        "lat": 41.0513426,
        "lon": 28.8041246,
        "tags": {
            "addr:city": "İstanbul",
            "addr:district": null,
            "description": "",
            "opening_hours": null,
            "phone": null,
            "branch": null,
            "amenity": "greengrocer",
            "mobile": null,
            "addr:street": null,
            "cuisine": null,
            "name": null,
            "name:en": null,
            "name:uk": null,
            "name:de": null,
            "name:tr": null,
            "name:ru": null,
            "name:ar": null
        }
    },
    {
        "lat": 41.0461513,
        "lon": 28.890547,
        "tags": {
            "addr:city": "İstanbul",
            "addr:district": "Bayrampaşa",
            "description": "",
            "opening_hours": null,
            "phone": null,
            "branch": null,
            "amenity": "greengrocer",
            "mobile": null,
            "addr:street": "Hal Yolu Sokak",
            "cuisine": null,
            "name": "338/1",
            "name:en": null,
            "name:uk": null,
            "name:de": null,
            "name:tr": null,
            "name:ru": null,
            "name:ar": null
        }
    },
    {
        "lat": 41.0459942,
        "lon": 28.8900358,
        "tags": {
            "addr:city": "İstanbul",
            "addr:district": "Bayrampaşa",
            "description": "",
            "opening_hours": null,
            "phone": null,
            "branch": null,
            "amenity": "greengrocer",
            "mobile": null,
            "addr:street": "Hal Yolu Sokak",
            "cuisine": null,
            "name": "322-AbubekirGüleryüz",
            "name:en": null,
            "name:uk": null,
            "name:de": null,
            "name:tr": null,
            "name:ru": null,
            "name:ar": null
        }
    },
    {
        "lat": 41.0462994,
        "lon": 28.8900486,
        "tags": {
            "addr:city": "İstanbul",
            "addr:district": "Bayrampaşa",
            "description": "",
            "opening_hours": null,
            "phone": null,
            "branch": null,
            "amenity": "greengrocer",
            "mobile": null,
            "addr:street": "Hal Yolu Sokak",
            "cuisine": null,
            "name": "325-Özbek Gıda",
            "name:en": null,
            "name:uk": null,
            "name:de": null,
            "name:tr": null,
            "name:ru": null,
            "name:ar": null
        }
    },
    {
        "lat": 41.0460863,
        "lon": 28.8900397,
        "tags": {
            "addr:city": "İstanbul",
            "addr:district": "Bayrampaşa",
            "description": "",
            "opening_hours": null,
            "phone": null,
            "branch": null,
            "amenity": "greengrocer",
            "mobile": null,
            "addr:street": "Hal Yolu Sokak",
            "cuisine": null,
            "name": "323-Efe Tarım",
            "name:en": null,
            "name:uk": null,
            "name:de": null,
            "name:tr": null,
            "name:ru": null,
            "name:ar": null
        }
    },
    {
        "lat": 41.0461959,
        "lon": 28.8900443,
        "tags": {
            "addr:city": "İstanbul",
            "addr:district": "Bayrampaşa",
            "description": "",
            "opening_hours": null,
            "phone": null,
            "branch": null,
            "amenity": "greengrocer",
            "mobile": null,
            "addr:street": "Hal Yolu Sokak",
            "cuisine": null,
            "name": "324-Engin Şahin",
            "name:en": null,
            "name:uk": null,
            "name:de": null,
            "name:tr": null,
            "name:ru": null,
            "name:ar": null
        }
    },
    {
        "lat": 41.0459396,
        "lon": 28.8902176,
        "tags": {
            "addr:city": "İstanbul",
            "addr:district": "Bayrampaşa",
            "description": "",
            "opening_hours": null,
            "phone": null,
            "branch": null,
            "amenity": "greengrocer",
            "mobile": null,
            "addr:street": "Hal Yolu Sokak",
            "cuisine": null,
            "name": "338-Karakulak",
            "name:en": null,
            "name:uk": null,
            "name:de": null,
            "name:tr": null,
            "name:ru": null,
            "name:ar": null
        }
    },
    {
        "lat": 40.9839933,
        "lon": 29.0276552,
        "tags": {
            "addr:city": "İstanbul",
            "addr:district": null,
            "description": "",
            "opening_hours": "09:00 - 22:00",
            "phone": null,
            "branch": null,
            "amenity": "greengrocer",
            "mobile": null,
            "addr:street": null,
            "cuisine": null,
            "name": "Food Project",
            "name:en": null,
            "name:uk": null,
            "name:de": null,
            "name:tr": null,
            "name:ru": null,
            "name:ar": null
        }
    },
    {
        "lat": 40.9839167,
        "lon": 29.0274251,
        "tags": {
            "addr:city": "İstanbul",
            "addr:district": null,
            "description": "",
            "opening_hours": null,
            "phone": null,
            "branch": null,
            "amenity": "greengrocer",
            "mobile": null,
            "addr:street": null,
            "cuisine": null,
            "name": "Mopaş",
            "name:en": null,
            "name:uk": null,
            "name:de": null,
            "name:tr": null,
            "name:ru": null,
            "name:ar": null
        }
    },
    {
        "lat": 41.1210719,
        "lon": 29.100447,
        "tags": {
            "addr:city": "İstanbul",
            "addr:district": null,
            "description": "",
            "opening_hours": null,
            "phone": null,
            "branch": null,
            "amenity": "greengrocer",
            "mobile": null,
            "addr:street": null,
            "cuisine": null,
            "name": null,
            "name:en": null,
            "name:uk": null,
            "name:de": null,
            "name:tr": null,
            "name:ru": null,
            "name:ar": null
        }
    },
    {
        "lat": 41.1499647,
        "lon": 29.0921248,
        "tags": {
            "addr:city": "İstanbul",
            "addr:district": null,
            "description": "",
            "opening_hours": null,
            "phone": null,
            "branch": null,
            "amenity": "greengrocer",
            "mobile": null,
            "addr:street": null,
            "cuisine": null,
            "name": null,
            "name:en": null,
            "name:uk": null,
            "name:de": null,
            "name:tr": null,
            "name:ru": null,
            "name:ar": null
        }
    },
    {
        "lat": 41.1175441,
        "lon": 29.0641431,
        "tags": {
            "addr:city": "istanbul",
            "addr:district": "sarıyer",
            "description": "",
            "opening_hours": null,
            "phone": "+90 (212) 262 13 31",
            "branch": null,
            "amenity": "greengrocer",
            "mobile": null,
            "addr:street": "Köybaşı Caddesi",
            "cuisine": null,
            "name": "Arzu manav",
            "name:en": null,
            "name:uk": null,
            "name:de": null,
            "name:tr": null,
            "name:ru": null,
            "name:ar": null
        }
    },
    {
        "lat": 40.9831005,
        "lon": 29.1179382,
        "tags": {
            "addr:city": "İstanbul",
            "addr:district": null,
            "description": "",
            "opening_hours": null,
            "phone": null,
            "branch": null,
            "amenity": "greengrocer",
            "mobile": null,
            "addr:street": null,
            "cuisine": null,
            "name": "Bahçevan Manav",
            "name:en": null,
            "name:uk": null,
            "name:de": null,
            "name:tr": null,
            "name:ru": null,
            "name:ar": null
        }
    },
    {
        "lat": 41.037456,
        "lon": 28.976254,
        "tags": {
            "addr:city": "İstanbul",
            "addr:district": null,
            "description": "",
            "opening_hours": "Su 09:00-18:00",
            "phone": null,
            "branch": null,
            "amenity": "greengrocer",
            "mobile": null,
            "addr:street": null,
            "cuisine": null,
            "name": null,
            "name:en": "Sunday market",
            "name:uk": null,
            "name:de": null,
            "name:tr": "Sunday market",
            "name:ru": "Воскресный рынок",
            "name:ar": null
        }
    },
    {
        "lat": 41.0001596,
        "lon": 29.0399336,
        "tags": {
            "addr:city": "İstanbul",
            "addr:district": null,
            "description": "",
            "opening_hours": null,
            "phone": null,
            "branch": null,
            "amenity": "greengrocer",
            "mobile": null,
            "addr:street": null,
            "cuisine": null,
            "name": "Bizim Manav",
            "name:en": null,
            "name:uk": null,
            "name:de": null,
            "name:tr": null,
            "name:ru": null,
            "name:ar": null
        }
    },
    {
        "lat": 41.2503958,
        "lon": 28.4228969,
        "tags": {
            "addr:city": "İstanbul",
            "addr:district": null,
            "description": "",
            "opening_hours": null,
            "phone": null,
            "branch": null,
            "amenity": "greengrocer",
            "mobile": null,
            "addr:street": null,
            "cuisine": null,
            "name": "Manavlar",
            "name:en": null,
            "name:uk": null,
            "name:de": null,
            "name:tr": null,
            "name:ru": null,
            "name:ar": null
        }
    },
    {
        "lat": 41.2238865,
        "lon": 28.4556949,
        "tags": {
            "addr:city": "İstanbul",
            "addr:district": null,
            "description": "",
            "opening_hours": null,
            "phone": null,
            "branch": null,
            "amenity": "greengrocer",
            "mobile": null,
            "addr:street": null,
            "cuisine": null,
            "name": "Subaşı Manav ve Köy Ürünleri",
            "name:en": null,
            "name:uk": null,
            "name:de": null,
            "name:tr": null,
            "name:ru": null,
            "name:ar": null
        }
    },
    {
        "lat": 40.9029322,
        "lon": 29.2323828,
        "tags": {
            "addr:city": "İstanbul",
            "addr:district": null,
            "description": "",
            "opening_hours": null,
            "phone": null,
            "branch": null,
            "amenity": "greengrocer",
            "mobile": null,
            "addr:street": null,
            "cuisine": null,
            "name": "Vitamin Manav",
            "name:en": null,
            "name:uk": null,
            "name:de": null,
            "name:tr": null,
            "name:ru": null,
            "name:ar": null
        }
    },
    {
        "lat": 40.9816534,
        "lon": 29.0262703,
        "tags": {
            "addr:city": "İstanbul",
            "addr:district": null,
            "description": "",
            "opening_hours": null,
            "phone": null,
            "branch": null,
            "amenity": "greengrocer",
            "mobile": null,
            "addr:street": null,
            "cuisine": null,
            "name": "Umut tekel ve şarküteri",
            "name:en": null,
            "name:uk": null,
            "name:de": null,
            "name:tr": null,
            "name:ru": null,
            "name:ar": null
        }
    },
    {
        "lat": 40.981913,
        "lon": 29.0239354,
        "tags": {
            "addr:city": "İstanbul",
            "addr:district": null,
            "description": "",
            "opening_hours": null,
            "phone": null,
            "branch": null,
            "amenity": "greengrocer",
            "mobile": null,
            "addr:street": null,
            "cuisine": null,
            "name": "Moda Manavı",
            "name:en": null,
            "name:uk": null,
            "name:de": null,
            "name:tr": null,
            "name:ru": null,
            "name:ar": null
        }
    },
    {
        "lat": 40.9804465,
        "lon": 29.1187916,
        "tags": {
            "addr:city": "İstanbul",
            "addr:district": null,
            "description": "",
            "opening_hours": null,
            "phone": null,
            "branch": null,
            "amenity": "greengrocer",
            "mobile": null,
            "addr:street": null,
            "cuisine": null,
            "name": "Mini Hal",
            "name:en": null,
            "name:uk": null,
            "name:de": null,
            "name:tr": null,
            "name:ru": null,
            "name:ar": null
        }
    },
    {
        "lat": 40.9788872,
        "lon": 29.1200359,
        "tags": {
            "addr:city": "İstanbul",
            "addr:district": null,
            "description": "",
            "opening_hours": null,
            "phone": null,
            "branch": null,
            "amenity": "greengrocer",
            "mobile": null,
            "addr:street": null,
            "cuisine": null,
            "name": "Manav",
            "name:en": null,
            "name:uk": null,
            "name:de": null,
            "name:tr": null,
            "name:ru": null,
            "name:ar": null
        }
    },
    {
        "lat": 40.950854,
        "lon": 29.1165336,
        "tags": {
            "addr:city": "İstanbul",
            "addr:district": null,
            "description": "",
            "opening_hours": null,
            "phone": null,
            "branch": null,
            "amenity": "greengrocer",
            "mobile": null,
            "addr:street": null,
            "cuisine": null,
            "name": "Mestay Manavı",
            "name:en": null,
            "name:uk": null,
            "name:de": null,
            "name:tr": null,
            "name:ru": null,
            "name:ar": null
        }
    },
    {
        "lat": 40.9940753,
        "lon": 29.0269536,
        "tags": {
            "addr:city": "İstanbul",
            "addr:district": null,
            "description": "",
            "opening_hours": null,
            "phone": null,
            "branch": null,
            "amenity": "greengrocer",
            "mobile": null,
            "addr:street": null,
            "cuisine": null,
            "name": "Depo Süper Market",
            "name:en": null,
            "name:uk": null,
            "name:de": null,
            "name:tr": null,
            "name:ru": null,
            "name:ar": null
        }
    },
    {
        "lat": 40.9797143,
        "lon": 29.1052547,
        "tags": {
            "addr:city": "İstanbul",
            "addr:district": null,
            "description": "",
            "opening_hours": null,
            "phone": null,
            "branch": null,
            "amenity": "greengrocer",
            "mobile": null,
            "addr:street": null,
            "cuisine": null,
            "name": "İnn Tarım Ürünleri",
            "name:en": null,
            "name:uk": null,
            "name:de": null,
            "name:tr": null,
            "name:ru": null,
            "name:ar": null
        }
    },
    {
        "lat": 40.9815565,
        "lon": 29.0702159,
        "tags": {
            "addr:city": "İstanbul",
            "addr:district": null,
            "description": "",
            "opening_hours": null,
            "phone": null,
            "branch": null,
            "amenity": "greengrocer",
            "mobile": null,
            "addr:street": null,
            "cuisine": null,
            "name": "Selen Mini Hal",
            "name:en": null,
            "name:uk": null,
            "name:de": null,
            "name:tr": null,
            "name:ru": null,
            "name:ar": null
        }
    },
    {
        "lat": 41.0280806,
        "lon": 28.9772928,
        "tags": {
            "addr:city": "İstanbul",
            "addr:district": null,
            "description": "",
            "opening_hours": null,
            "phone": null,
            "branch": null,
            "amenity": "greengrocer",
            "mobile": null,
            "addr:street": null,
            "cuisine": null,
            "name": "Yalova Market",
            "name:en": null,
            "name:uk": null,
            "name:de": null,
            "name:tr": null,
            "name:ru": null,
            "name:ar": null
        }
    },
    {
        "lat": 41.0517699,
        "lon": 28.9181293,
        "tags": {
            "addr:city": "İstanbul",
            "addr:district": "Eyüpsultan",
            "description": "",
            "opening_hours": null,
            "phone": null,
            "branch": null,
            "amenity": "greengrocer",
            "mobile": null,
            "addr:street": "Mazharbey Caddesi",
            "cuisine": null,
            "name": "Yağmur Mini Hal",
            "name:en": null,
            "name:uk": null,
            "name:de": null,
            "name:tr": null,
            "name:ru": null,
            "name:ar": null
        }
    },
    {
        "lat": 40.9826556,
        "lon": 28.8691903,
        "tags": {
            "addr:city": "İstanbul",
            "addr:district": null,
            "description": "",
            "opening_hours": null,
            "phone": null,
            "branch": null,
            "amenity": "greengrocer",
            "mobile": null,
            "addr:street": null,
            "cuisine": null,
            "name": "Manav'ım",
            "name:en": null,
            "name:uk": null,
            "name:de": null,
            "name:tr": null,
            "name:ru": null,
            "name:ar": null
        }
    },
    {
        "lat": 41.0360637,
        "lon": 28.9919021,
        "tags": {
            "addr:city": "İstanbul",
            "addr:district": null,
            "description": "",
            "opening_hours": null,
            "phone": null,
            "branch": null,
            "amenity": "greengrocer",
            "mobile": null,
            "addr:street": null,
            "cuisine": null,
            "name": "Ulaş Gıda",
            "name:en": null,
            "name:uk": null,
            "name:de": null,
            "name:tr": null,
            "name:ru": null,
            "name:ar": null
        }
    },
    {
        "lat": 41.0202656,
        "lon": 28.5794808,
        "tags": {
            "addr:city": "İstanbul",
            "addr:district": null,
            "description": "",
            "opening_hours": null,
            "phone": null,
            "branch": null,
            "amenity": "greengrocer",
            "mobile": null,
            "addr:street": null,
            "cuisine": null,
            "name": "Manav Şarküteri",
            "name:en": null,
            "name:uk": null,
            "name:de": null,
            "name:tr": null,
            "name:ru": null,
            "name:ar": null
        }
    },
    {
        "lat": 40.8776736,
        "lon": 29.0997591,
        "tags": {
            "addr:city": "İstanbul",
            "addr:district": null,
            "description": "",
            "opening_hours": null,
            "phone": null,
            "branch": null,
            "amenity": "greengrocer",
            "mobile": null,
            "addr:street": null,
            "cuisine": null,
            "name": null,
            "name:en": null,
            "name:uk": null,
            "name:de": null,
            "name:tr": null,
            "name:ru": null,
            "name:ar": null
        }
    },
    {
        "lat": 40.8775107,
        "lon": 29.1002368,
        "tags": {
            "addr:city": "İstanbul",
            "addr:district": null,
            "description": "",
            "opening_hours": null,
            "phone": null,
            "branch": null,
            "amenity": "greengrocer",
            "mobile": null,
            "addr:street": null,
            "cuisine": null,
            "name": "Namli",
            "name:en": null,
            "name:uk": null,
            "name:de": null,
            "name:tr": null,
            "name:ru": null,
            "name:ar": null
        }
    },
    {
        "lat": 41.0009931,
        "lon": 28.8571015,
        "tags": {
            "addr:city": "İstanbul",
            "addr:district": null,
            "description": "",
            "opening_hours": null,
            "phone": null,
            "branch": null,
            "amenity": "greengrocer",
            "mobile": null,
            "addr:street": null,
            "cuisine": null,
            "name": "Meyve Sebze Dünyası",
            "name:en": null,
            "name:uk": null,
            "name:de": null,
            "name:tr": null,
            "name:ru": null,
            "name:ar": null
        }
    },
    {
        "lat": 41.0327449,
        "lon": 28.8300051,
        "tags": {
            "addr:city": "İstanbul",
            "addr:district": null,
            "description": "",
            "opening_hours": null,
            "phone": null,
            "branch": null,
            "amenity": "greengrocer",
            "mobile": null,
            "addr:street": null,
            "cuisine": null,
            "name": "Güneşli Sebze Meyve Pazarı 4",
            "name:en": null,
            "name:uk": null,
            "name:de": null,
            "name:tr": null,
            "name:ru": null,
            "name:ar": null
        }
    },
    {
        "lat": 41.102305,
        "lon": 28.867095,
        "tags": {
            "addr:city": "İstanbul",
            "addr:district": null,
            "description": "",
            "opening_hours": null,
            "phone": null,
            "branch": null,
            "amenity": "greengrocer",
            "mobile": null,
            "addr:street": null,
            "cuisine": null,
            "name": null,
            "name:en": null,
            "name:uk": null,
            "name:de": null,
            "name:tr": null,
            "name:ru": null,
            "name:ar": null
        }
    },
    {
        "lat": 41.0754524,
        "lon": 28.9322839,
        "tags": {
            "addr:city": "İstanbul",
            "addr:district": null,
            "description": "",
            "opening_hours": null,
            "phone": null,
            "branch": null,
            "amenity": "greengrocer",
            "mobile": "+905362825713",
            "addr:street": null,
            "cuisine": null,
            "name": "Kumluca Mini Hal",
            "name:en": null,
            "name:uk": null,
            "name:de": null,
            "name:tr": null,
            "name:ru": null,
            "name:ar": null
        }
    },
    {
        "lat": 41.0761687,
        "lon": 28.9299725,
        "tags": {
            "addr:city": "İstanbul",
            "addr:district": null,
            "description": "",
            "opening_hours": null,
            "phone": null,
            "branch": null,
            "amenity": "greengrocer",
            "mobile": null,
            "addr:street": null,
            "cuisine": null,
            "name": "Kısmet",
            "name:en": null,
            "name:uk": null,
            "name:de": null,
            "name:tr": null,
            "name:ru": null,
            "name:ar": null
        }
    },
    {
        "lat": 40.9718791,
        "lon": 29.0514709,
        "tags": {
            "addr:city": "İstanbul",
            "addr:district": "Kadıköy",
            "description": "",
            "opening_hours": null,
            "phone": null,
            "branch": null,
            "amenity": "greengrocer",
            "mobile": null,
            "addr:street": "Operatör Cemil Topuzlu Caddesi",
            "cuisine": null,
            "name": "Vitamix",
            "name:en": null,
            "name:uk": null,
            "name:de": null,
            "name:tr": null,
            "name:ru": null,
            "name:ar": null
        }
    },
    {
        "lat": 40.9742579,
        "lon": 29.0466079,
        "tags": {
            "addr:city": "İstanbul",
            "addr:district": null,
            "description": "",
            "opening_hours": null,
            "phone": null,
            "branch": null,
            "amenity": "greengrocer",
            "mobile": null,
            "addr:street": null,
            "cuisine": null,
            "name": "Kalamış Manav",
            "name:en": null,
            "name:uk": null,
            "name:de": null,
            "name:tr": null,
            "name:ru": null,
            "name:ar": null
        }
    },
    {
        "lat": 41.0010847,
        "lon": 28.6942696,
        "tags": {
            "addr:city": "İstanbul",
            "addr:district": null,
            "description": "",
            "opening_hours": null,
            "phone": null,
            "branch": null,
            "amenity": "greengrocer",
            "mobile": null,
            "addr:street": null,
            "cuisine": null,
            "name": "Denizli Güney Gıda Pazarı",
            "name:en": null,
            "name:uk": null,
            "name:de": null,
            "name:tr": null,
            "name:ru": null,
            "name:ar": null
        }
    },
    {
        "lat": 41.0363253,
        "lon": 28.8199172,
        "tags": {
            "addr:city": "İstanbul",
            "addr:district": null,
            "description": "",
            "opening_hours": "Mo-Su 07:00-23:00",
            "phone": null,
            "branch": null,
            "amenity": "greengrocer",
            "mobile": null,
            "addr:street": "İstiklal Caddesi",
            "cuisine": null,
            "name": "Hilal Market",
            "name:en": null,
            "name:uk": null,
            "name:de": null,
            "name:tr": null,
            "name:ru": null,
            "name:ar": null
        }
    },
    {
        "lat": 41.0362705,
        "lon": 28.8197626,
        "tags": {
            "addr:city": "İstanbul",
            "addr:district": null,
            "description": "",
            "opening_hours": null,
            "phone": null,
            "branch": null,
            "amenity": "greengrocer",
            "mobile": null,
            "addr:street": "İstiklal Caddesi",
            "cuisine": null,
            "name": "Kısmet Toplu Tüketim",
            "name:en": null,
            "name:uk": null,
            "name:de": null,
            "name:tr": null,
            "name:ru": null,
            "name:ar": null
        }
    },
    {
        "lat": 41.0367783,
        "lon": 28.8198644,
        "tags": {
            "addr:city": "İstanbul",
            "addr:district": null,
            "description": "",
            "opening_hours": null,
            "phone": null,
            "branch": null,
            "amenity": "greengrocer",
            "mobile": null,
            "addr:street": null,
            "cuisine": null,
            "name": "Dört Mevsim",
            "name:en": null,
            "name:uk": null,
            "name:de": null,
            "name:tr": null,
            "name:ru": null,
            "name:ar": null
        }
    },
    {
        "lat": 40.9637762,
        "lon": 29.0861664,
        "tags": {
            "addr:city": "İstanbul",
            "addr:district": null,
            "description": "",
            "opening_hours": null,
            "phone": "+90 216 372 0951",
            "branch": null,
            "amenity": "greengrocer",
            "mobile": null,
            "addr:street": null,
            "cuisine": null,
            "name": "Suadiye Manavı",
            "name:en": null,
            "name:uk": null,
            "name:de": null,
            "name:tr": null,
            "name:ru": null,
            "name:ar": null
        }
    },
    {
        "lat": 40.9707276,
        "lon": 29.0630422,
        "tags": {
            "addr:city": "İstanbul",
            "addr:district": null,
            "description": "",
            "opening_hours": null,
            "phone": null,
            "branch": null,
            "amenity": "greengrocer",
            "mobile": null,
            "addr:street": null,
            "cuisine": null,
            "name": "Caddebostan Manavı",
            "name:en": null,
            "name:uk": null,
            "name:de": null,
            "name:tr": null,
            "name:ru": null,
            "name:ar": null
        }
    },
    {
        "lat": 41.0355171,
        "lon": 28.9732396,
        "tags": {
            "addr:city": "İstanbul",
            "addr:district": null,
            "description": "",
            "opening_hours": null,
            "phone": null,
            "branch": null,
            "amenity": "greengrocer",
            "mobile": null,
            "addr:street": null,
            "cuisine": null,
            "name": null,
            "name:en": null,
            "name:uk": null,
            "name:de": null,
            "name:tr": null,
            "name:ru": null,
            "name:ar": null
        }
    },
    {
        "lat": 41.0345825,
        "lon": 28.8266292,
        "tags": {
            "addr:city": "İstanbul",
            "addr:district": null,
            "description": "",
            "opening_hours": null,
            "phone": null,
            "branch": null,
            "amenity": "greengrocer",
            "mobile": null,
            "addr:street": null,
            "cuisine": null,
            "name": null,
            "name:en": null,
            "name:uk": null,
            "name:de": null,
            "name:tr": null,
            "name:ru": null,
            "name:ar": null
        }
    },
    {
        "lat": 40.9440469,
        "lon": 29.1600046,
        "tags": {
            "addr:city": "İstanbul",
            "addr:district": null,
            "description": "",
            "opening_hours": null,
            "phone": null,
            "branch": null,
            "amenity": "greengrocer",
            "mobile": null,
            "addr:street": null,
            "cuisine": null,
            "name": "Pazarcı İsmail'in Yeri",
            "name:en": null,
            "name:uk": null,
            "name:de": null,
            "name:tr": null,
            "name:ru": null,
            "name:ar": null
        }
    },
    {
        "lat": 41.0366457,
        "lon": 28.9771186,
        "tags": {
            "addr:city": "İstanbul",
            "addr:district": null,
            "description": "",
            "opening_hours": null,
            "phone": null,
            "branch": null,
            "amenity": "greengrocer",
            "mobile": null,
            "addr:street": null,
            "cuisine": null,
            "name": "Alkan Market",
            "name:en": null,
            "name:uk": null,
            "name:de": null,
            "name:tr": null,
            "name:ru": null,
            "name:ar": null
        }
    },
    {
        "lat": 41.0366537,
        "lon": 28.9770259,
        "tags": {
            "addr:city": "İstanbul",
            "addr:district": null,
            "description": "",
            "opening_hours": null,
            "phone": null,
            "branch": null,
            "amenity": "greengrocer",
            "mobile": null,
            "addr:street": null,
            "cuisine": null,
            "name": "Disa Market",
            "name:en": null,
            "name:uk": null,
            "name:de": null,
            "name:tr": null,
            "name:ru": null,
            "name:ar": null
        }
    },
    {
        "lat": 41.0435759,
        "lon": 28.9568482,
        "tags": {
            "addr:city": "İstanbul",
            "addr:district": null,
            "description": "",
            "opening_hours": null,
            "phone": null,
            "branch": null,
            "amenity": "greengrocer",
            "mobile": null,
            "addr:street": null,
            "cuisine": null,
            "name": "Çelebi halk Pazarı",
            "name:en": null,
            "name:uk": null,
            "name:de": null,
            "name:tr": null,
            "name:ru": null,
            "name:ar": null
        }
    },
    {
        "lat": 41.0452141,
        "lon": 28.9529903,
        "tags": {
            "addr:city": "İstanbul",
            "addr:district": null,
            "description": "",
            "opening_hours": null,
            "phone": null,
            "branch": null,
            "amenity": "greengrocer",
            "mobile": null,
            "addr:street": null,
            "cuisine": null,
            "name": null,
            "name:en": null,
            "name:uk": null,
            "name:de": null,
            "name:tr": null,
            "name:ru": null,
            "name:ar": null
        }
    },
    {
        "lat": 40.9998201,
        "lon": 29.227013,
        "tags": {
            "addr:city": "İstanbul",
            "addr:district": null,
            "description": "",
            "opening_hours": null,
            "phone": null,
            "branch": null,
            "amenity": "greengrocer",
            "mobile": null,
            "addr:street": null,
            "cuisine": null,
            "name": "Kardeşler Manav",
            "name:en": null,
            "name:uk": null,
            "name:de": null,
            "name:tr": null,
            "name:ru": null,
            "name:ar": null
        }
    },
    {
        "lat": 41.0360473,
        "lon": 28.9776432,
        "tags": {
            "addr:city": "İstanbul",
            "addr:district": null,
            "description": "",
            "opening_hours": null,
            "phone": null,
            "branch": null,
            "amenity": "greengrocer",
            "mobile": null,
            "addr:street": "Tarlabaşı Bulvarı",
            "cuisine": null,
            "name": "Koç Manav",
            "name:en": null,
            "name:uk": null,
            "name:de": null,
            "name:tr": null,
            "name:ru": null,
            "name:ar": null
        }
    },
    {
        "lat": 41.0494323,
        "lon": 28.9586864,
        "tags": {
            "addr:city": "İstanbul",
            "addr:district": null,
            "description": "",
            "opening_hours": null,
            "phone": null,
            "branch": null,
            "amenity": "greengrocer",
            "mobile": null,
            "addr:street": null,
            "cuisine": null,
            "name": "Balıkçı & manav",
            "name:en": null,
            "name:uk": null,
            "name:de": null,
            "name:tr": null,
            "name:ru": null,
            "name:ar": null
        }
    }
]