[
    {
        "lat": 40.9599711,
        "lon": 29.0913516,
        "tags": {
            "addr:city": "İstanbul",
            "addr:district": null,
            "description": "",
            "opening_hours": null,
            "phone": null,
            "branch": null,
            "amenity": "herbalist",
            "mobile": null,
            "addr:street": null,
            "cuisine": null,
            "name": "Durak Kuruyemiş",
            "name:en": null,
            "name:uk": null,
            "name:de": null,
            "name:tr": null,
            "name:ru": null,
            "name:ar": null
        }
    },
    {
        "lat": 41.0164803,
        "lon": 28.9710936,
        "tags": {
            "addr:city": "Istanbul",
            "addr:district": "Fatih",
            "description": "",
            "opening_hours": null,
            "phone": null,
            "branch": null,
            "amenity": "herbalist",
            "mobile": null,
            "addr:street": "Bankacılar Sokak",
            "cuisine": null,
            "name": "Çiçekçi İbrahim",
            "name:en": null,
            "name:uk": null,
            "name:de": null,
            "name:tr": "Çiçekçi İbrahim",
            "name:ru": null,
            "name:ar": "جيجيكجي إبراهيم"
        }
    },
    {
        "lat": 41.0167543,
        "lon": 28.9713384,
        "tags": {
            "addr:city": "Istanbul",
            "addr:district": "Fatih",
            "description": "",
            "opening_hours": null,
            "phone": null,
            "branch": null,
            "amenity": "herbalist",
            "mobile": null,
            "addr:street": "Bankacilar sokak",
            "cuisine": null,
            "name": "Birtas and ayup sultan",
            "name:en": null,
            "name:uk": null,
            "name:de": null,
            "name:tr": null,
            "name:ru": null,
            "name:ar": "بيرتاش و ايوب سلطان"
        }
    },
    {
        "lat": 41.0234154,
        "lon": 28.9485336,
        "tags": {
            "addr:city": "Istanbul",
            "addr:district": "Fatih",
            "description": "",
            "opening_hours": null,
            "phone": null,
            "branch": null,
            "amenity": "herbalist",
            "mobile": null,
            "addr:street": "Darüşşafaka caddesi",
            "cuisine": null,
            "name": "Aktar efendi",
            "name:en": null,
            "name:uk": null,
            "name:de": null,
            "name:tr": null,
            "name:ru": null,
            "name:ar": "اكتار افندي"
        }
    },
    {
        "lat": 41.0210997,
        "lon": 28.9486278,
        "tags": {
            "addr:city": "Istanbul",
            "addr:district": "Fatih",
            "description": "",
            "opening_hours": null,
            "phone": null,
            "branch": null,
            "amenity": "herbalist",
            "mobile": null,
            "addr:street": "Boyacı kapısı sokak",
            "cuisine": null,
            "name": "Bizim bağ",
            "name:en": null,
            "name:uk": null,
            "name:de": null,
            "name:tr": null,
            "name:ru": null,
            "name:ar": "بيزيم باغ"
        }
    },
    {
        "lat": 41.0206991,
        "lon": 28.9477687,
        "tags": {
            "addr:city": "Istanbul",
            "addr:district": "Fatih",
            "description": "",
            "opening_hours": null,
            "phone": null,
            "branch": null,
            "amenity": "herbalist",
            "mobile": null,
            "addr:street": "Başimam sokak",
            "cuisine": null,
            "name": "Aksuvital",
            "name:en": null,
            "name:uk": null,
            "name:de": null,
            "name:tr": null,
            "name:ru": null,
            "name:ar": "اكسوفيتال"
        }
    },
    {
        "lat": 41.0148747,
        "lon": 28.9661799,
        "tags": {
            "addr:city": "Istanbul",
            "addr:district": "Fatih",
            "description": "",
            "opening_hours": null,
            "phone": null,
            "branch": null,
            "amenity": "herbalist",
            "mobile": null,
            "addr:street": "İsmetiye caddesi",
            "cuisine": null,
            "name": "Troy soapun",
            "name:en": null,
            "name:uk": null,
            "name:de": null,
            "name:tr": null,
            "name:ru": null,
            "name:ar": "صابون تروي"
        }
    },
    {
        "lat": 41.027467,
        "lon": 28.9382765,
        "tags": {
            "addr:city": "Istanbul",
            "addr:district": "Fatih",
            "description": "",
            "opening_hours": null,
            "phone": null,
            "branch": null,
            "amenity": "herbalist",
            "mobile": null,
            "addr:street": "Fevzi paşa caddesi",
            "cuisine": null,
            "name": "Raan aktar",
            "name:en": null,
            "name:uk": null,
            "name:de": null,
            "name:tr": null,
            "name:ru": null,
            "name:ar": "ران اكتار"
        }
    },
    {
        "lat": 41.0054043,
        "lon": 28.9740107,
        "tags": {
            "addr:city": "Istanbul",
            "addr:district": "Fatih",
            "description": "",
            "opening_hours": null,
            "phone": null,
            "branch": null,
            "amenity": "herbalist",
            "mobile": null,
            "addr:street": "Üçler sokak",
            "cuisine": null,
            "name": "Hurmacı",
            "name:en": null,
            "name:uk": null,
            "name:de": null,
            "name:tr": null,
            "name:ru": null,
            "name:ar": "هورماجى"
        }
    },
    {
        "lat": 41.0267184,
        "lon": 28.9411871,
        "tags": {
            "addr:city": "Istanbul",
            "addr:district": "Fatih",
            "description": "",
            "opening_hours": null,
            "phone": null,
            "branch": null,
            "amenity": "herbalist",
            "mobile": null,
            "addr:street": "Canfeda cami sokak",
            "cuisine": null,
            "name": "Aktar dunyasi",
            "name:en": null,
            "name:uk": null,
            "name:de": null,
            "name:tr": null,
            "name:ru": null,
            "name:ar": "اكتار دونياسي"
        }
    },
    {
        "lat": 41.0040647,
        "lon": 28.9326718,
        "tags": {
            "addr:city": "Istanbul",
            "addr:district": "Fatih",
            "description": "",
            "opening_hours": null,
            "phone": "02125853890",
            "branch": null,
            "amenity": "herbalist",
            "mobile": null,
            "addr:street": "Kocamustafapaşa Caddesi",
            "cuisine": null,
            "name": "Öz Malatya Pazarı",
            "name:en": null,
            "name:uk": null,
            "name:de": null,
            "name:tr": null,
            "name:ru": null,
            "name:ar": "أوز مالاتيا"
        }
    },
    {
        "lat": 41.0086452,
        "lon": 28.9698113,
        "tags": {
            "addr:city": "Istanbul",
            "addr:district": "Fatih",
            "description": "",
            "opening_hours": null,
            "phone": "+90 212 526 06 53",
            "branch": null,
            "amenity": "herbalist",
            "mobile": null,
            "addr:street": "Yeniçeriler Caddesi",
            "cuisine": null,
            "name": "Tarihi Çarşıkapı Baharatçısı",
            "name:en": null,
            "name:uk": null,
            "name:de": null,
            "name:tr": null,
            "name:ru": null,
            "name:ar": "تاريهي نشارشيكابي بهاراتجيسي"
        }
    },
    {
        "lat": 41.1070201,
        "lon": 28.8625466,
        "tags": {
            "addr:city": "İstanbul",
            "addr:district": null,
            "description": "",
            "opening_hours": null,
            "phone": null,
            "branch": null,
            "amenity": "herbalist",
            "mobile": null,
            "addr:street": null,
            "cuisine": null,
            "name": "Mollazade",
            "name:en": null,
            "name:uk": null,
            "name:de": null,
            "name:tr": null,
            "name:ru": null,
            "name:ar": null
        }
    },
    {
        "lat": 41.1035222,
        "lon": 28.8641444,
        "tags": {
            "addr:city": "İstanbul",
            "addr:district": null,
            "description": "",
            "opening_hours": null,
            "phone": null,
            "branch": null,
            "amenity": "herbalist",
            "mobile": null,
            "addr:street": null,
            "cuisine": null,
            "name": "Mahsül Bahçesi",
            "name:en": null,
            "name:uk": null,
            "name:de": null,
            "name:tr": null,
            "name:ru": null,
            "name:ar": null
        }
    },
    {
        "lat": 40.9693123,
        "lon": 29.0853821,
        "tags": {
            "addr:city": "İstanbul",
            "addr:district": null,
            "description": "",
            "opening_hours": null,
            "phone": null,
            "branch": null,
            "amenity": "herbalist",
            "mobile": null,
            "addr:street": null,
            "cuisine": null,
            "name": "Aktar",
            "name:en": null,
            "name:uk": null,
            "name:de": null,
            "name:tr": null,
            "name:ru": null,
            "name:ar": null
        }
    },
    {
        "lat": 41.0187669,
        "lon": 29.1922635,
        "tags": {
            "addr:city": "İstanbul",
            "addr:district": null,
            "description": "",
            "opening_hours": null,
            "phone": null,
            "branch": null,
            "amenity": "herbalist",
            "mobile": null,
            "addr:street": null,
            "cuisine": null,
            "name": "Ardıç Baharat",
            "name:en": null,
            "name:uk": null,
            "name:de": null,
            "name:tr": null,
            "name:ru": null,
            "name:ar": null
        }
    },
    {
        "lat": 40.9874285,
        "lon": 28.8959528,
        "tags": {
            "addr:city": "Istanbul",
            "addr:district": "Zeytinburnu",
            "description": "",
            "opening_hours": null,
            "phone": null,
            "branch": null,
            "amenity": "herbalist",
            "mobile": null,
            "addr:street": "Marshall",
            "cuisine": null,
            "name": "şahı şifa",
            "name:en": null,
            "name:uk": null,
            "name:de": null,
            "name:tr": null,
            "name:ru": null,
            "name:ar": "شاهي شفا"
        }
    },
    {
        "lat": 40.9865003,
        "lon": 28.895166,
        "tags": {
            "addr:city": "Istanbul",
            "addr:district": "Zeytinburnu",
            "description": "",
            "opening_hours": null,
            "phone": null,
            "branch": null,
            "amenity": "herbalist",
            "mobile": null,
            "addr:street": "30. sokak",
            "cuisine": null,
            "name": "Tıbbi Şifa",
            "name:en": null,
            "name:uk": null,
            "name:de": null,
            "name:tr": null,
            "name:ru": null,
            "name:ar": "طبي شفاء"
        }
    },
    {
        "lat": 40.9843629,
        "lon": 28.8942541,
        "tags": {
            "addr:city": "Istanbul",
            "addr:district": "Zeytinburnu",
            "description": "",
            "opening_hours": null,
            "phone": null,
            "branch": null,
            "amenity": "herbalist",
            "mobile": null,
            "addr:street": "18. sokak",
            "cuisine": null,
            "name": "Shiffa Home",
            "name:en": null,
            "name:uk": null,
            "name:de": null,
            "name:tr": null,
            "name:ru": null,
            "name:ar": "شفاء هوم"
        }
    },
    {
        "lat": 41.0709531,
        "lon": 28.8540129,
        "tags": {
            "addr:city": "Istanbul",
            "addr:district": "Bağcılar",
            "description": "",
            "opening_hours": null,
            "phone": null,
            "branch": null,
            "amenity": "herbalist",
            "mobile": null,
            "addr:street": "Veysel Karani Caddesi",
            "cuisine": null,
            "name": "Gıda gida",
            "name:en": null,
            "name:uk": null,
            "name:de": null,
            "name:tr": null,
            "name:ru": null,
            "name:ar": "بورلو غذاء"
        }
    },
    {
        "lat": 41.0276498,
        "lon": 28.8439765,
        "tags": {
            "addr:city": "Istanbul",
            "addr:district": "Bağcılar",
            "description": "",
            "opening_hours": null,
            "phone": null,
            "branch": null,
            "amenity": "herbalist",
            "mobile": null,
            "addr:street": "2. sokak",
            "cuisine": null,
            "name": "Şifa dünyası",
            "name:en": null,
            "name:uk": null,
            "name:de": null,
            "name:tr": null,
            "name:ru": null,
            "name:ar": "دنيا الشفاء"
        }
    },
    {
        "lat": 40.9140104,
        "lon": 29.2083521,
        "tags": {
            "addr:city": "İstanbul",
            "addr:district": "Kartal",
            "description": "",
            "opening_hours": null,
            "phone": null,
            "branch": null,
            "amenity": "herbalist",
            "mobile": null,
            "addr:street": "Yalniz Selvi Caddesi",
            "cuisine": null,
            "name": "Palmiye Şarküteri-Aktar",
            "name:en": null,
            "name:uk": null,
            "name:de": null,
            "name:tr": null,
            "name:ru": null,
            "name:ar": null
        }
    },
    {
        "lat": 41.0306112,
        "lon": 28.975763,
        "tags": {
            "addr:city": "İstanbul",
            "addr:district": null,
            "description": "",
            "opening_hours": null,
            "phone": null,
            "branch": null,
            "amenity": "herbalist",
            "mobile": null,
            "addr:street": "İstiklal Caddesi",
            "cuisine": null,
            "name": "Özçiçek Kuruyemiş",
            "name:en": null,
            "name:uk": null,
            "name:de": null,
            "name:tr": null,
            "name:ru": null,
            "name:ar": null
        }
    },
    {
        "lat": 40.8790033,
        "lon": 29.2345971,
        "tags": {
            "addr:city": "İstanbul",
            "addr:district": "Pendik",
            "description": "",
            "opening_hours": null,
            "phone": null,
            "branch": null,
            "amenity": "herbalist",
            "mobile": null,
            "addr:street": "Dr.Orhan Maltepe Caddesi",
            "cuisine": null,
            "name": "Bayramlar Baharat & Şifalı Bitkiler",
            "name:en": null,
            "name:uk": null,
            "name:de": null,
            "name:tr": null,
            "name:ru": null,
            "name:ar": null
        }
    },
    {
        "lat": 40.9157151,
        "lon": 29.2850173,
        "tags": {
            "addr:city": "İstanbul",
            "addr:district": null,
            "description": "",
            "opening_hours": null,
            "phone": null,
            "branch": null,
            "amenity": "herbalist",
            "mobile": null,
            "addr:street": null,
            "cuisine": null,
            "name": "Has Doğal Ürünler",
            "name:en": null,
            "name:uk": null,
            "name:de": null,
            "name:tr": null,
            "name:ru": null,
            "name:ar": null
        }
    },
    {
        "lat": 40.9145527,
        "lon": 29.3021759,
        "tags": {
            "addr:city": "İstanbul",
            "addr:district": null,
            "description": "",
            "opening_hours": null,
            "phone": null,
            "branch": null,
            "amenity": "herbalist",
            "mobile": null,
            "addr:street": null,
            "cuisine": null,
            "name": "Palmiye Kuruyemiş & Aktar",
            "name:en": null,
            "name:uk": null,
            "name:de": null,
            "name:tr": null,
            "name:ru": null,
            "name:ar": null
        }
    },
    {
        "lat": 40.9769089,
        "lon": 28.7206626,
        "tags": {
            "addr:city": "İstanbul",
            "addr:district": null,
            "description": "",
            "opening_hours": null,
            "phone": null,
            "branch": null,
            "amenity": "herbalist",
            "mobile": null,
            "addr:street": null,
            "cuisine": null,
            "name": "Hatay Pazarı",
            "name:en": null,
            "name:uk": null,
            "name:de": null,
            "name:tr": null,
            "name:ru": null,
            "name:ar": null
        }
    },
    {
        "lat": 40.9798253,
        "lon": 29.1146867,
        "tags": {
            "addr:city": "İstanbul",
            "addr:district": null,
            "description": "",
            "opening_hours": null,
            "phone": null,
            "branch": null,
            "amenity": "herbalist",
            "mobile": null,
            "addr:street": null,
            "cuisine": null,
            "name": "Furkan Doğal Ürünler",
            "name:en": null,
            "name:uk": null,
            "name:de": null,
            "name:tr": null,
            "name:ru": null,
            "name:ar": null
        }
    },
    {
        "lat": 41.0223803,
        "lon": 28.5803334,
        "tags": {
            "addr:city": "İstanbul",
            "addr:district": null,
            "description": "",
            "opening_hours": null,
            "phone": null,
            "branch": null,
            "amenity": "herbalist",
            "mobile": null,
            "addr:street": null,
            "cuisine": null,
            "name": "İkram Doğal Ürünler Pazarı",
            "name:en": null,
            "name:uk": null,
            "name:de": null,
            "name:tr": null,
            "name:ru": null,
            "name:ar": null
        }
    },
    {
        "lat": 41.003014,
        "lon": 29.0750056,
        "tags": {
            "addr:city": "İstanbul",
            "addr:district": null,
            "description": "",
            "opening_hours": null,
            "phone": null,
            "branch": null,
            "amenity": "herbalist",
            "mobile": null,
            "addr:street": null,
            "cuisine": null,
            "name": "Şair Doğal Ürünler",
            "name:en": null,
            "name:uk": null,
            "name:de": null,
            "name:tr": null,
            "name:ru": null,
            "name:ar": null
        }
    },
    {
        "lat": 40.9952172,
        "lon": 29.024889,
        "tags": {
            "addr:city": "İstanbul",
            "addr:district": null,
            "description": "",
            "opening_hours": null,
            "phone": null,
            "branch": null,
            "amenity": "herbalist",
            "mobile": null,
            "addr:street": null,
            "cuisine": null,
            "name": "Prof Saraçoğlu",
            "name:en": null,
            "name:uk": null,
            "name:de": null,
            "name:tr": null,
            "name:ru": null,
            "name:ar": null
        }
    },
    {
        "lat": 41.0215772,
        "lon": 28.5795585,
        "tags": {
            "addr:city": "İstanbul",
            "addr:district": null,
            "description": "",
            "opening_hours": null,
            "phone": null,
            "branch": null,
            "amenity": "herbalist",
            "mobile": null,
            "addr:street": null,
            "cuisine": null,
            "name": "Laves",
            "name:en": null,
            "name:uk": null,
            "name:de": null,
            "name:tr": null,
            "name:ru": null,
            "name:ar": null
        }
    },
    {
        "lat": 41.1345307,
        "lon": 29.0925877,
        "tags": {
            "addr:city": "İstanbul",
            "addr:district": null,
            "description": "",
            "opening_hours": null,
            "phone": null,
            "branch": null,
            "amenity": "herbalist",
            "mobile": null,
            "addr:street": null,
            "cuisine": null,
            "name": "Akzer",
            "name:en": null,
            "name:uk": null,
            "name:de": null,
            "name:tr": null,
            "name:ru": null,
            "name:ar": null
        }
    },
    {
        "lat": 40.97953,
        "lon": 29.1138511,
        "tags": {
            "addr:city": "İstanbul",
            "addr:district": null,
            "description": "",
            "opening_hours": null,
            "phone": null,
            "branch": null,
            "amenity": "herbalist",
            "mobile": null,
            "addr:street": null,
            "cuisine": null,
            "name": "Em Şifa Merkezi",
            "name:en": null,
            "name:uk": null,
            "name:de": null,
            "name:tr": null,
            "name:ru": null,
            "name:ar": null
        }
    },
    {
        "lat": 40.9353471,
        "lon": 29.1243398,
        "tags": {
            "addr:city": "İstanbul",
            "addr:district": null,
            "description": "",
            "opening_hours": null,
            "phone": null,
            "branch": null,
            "amenity": "herbalist",
            "mobile": null,
            "addr:street": null,
            "cuisine": null,
            "name": "Prof. Saraçoğlu",
            "name:en": null,
            "name:uk": null,
            "name:de": null,
            "name:tr": null,
            "name:ru": null,
            "name:ar": null
        }
    },
    {
        "lat": 40.9856514,
        "lon": 29.0480082,
        "tags": {
            "addr:city": "İstanbul",
            "addr:district": null,
            "description": "",
            "opening_hours": null,
            "phone": null,
            "branch": null,
            "amenity": "herbalist",
            "mobile": null,
            "addr:street": null,
            "cuisine": null,
            "name": "Cadde Organik",
            "name:en": null,
            "name:uk": null,
            "name:de": null,
            "name:tr": null,
            "name:ru": null,
            "name:ar": null
        }
    },
    {
        "lat": 41.0432765,
        "lon": 29.0055805,
        "tags": {
            "addr:city": "İstanbul",
            "addr:district": null,
            "description": "",
            "opening_hours": null,
            "phone": null,
            "branch": null,
            "amenity": "herbalist",
            "mobile": null,
            "addr:street": null,
            "cuisine": null,
            "name": "Kırk Ambar",
            "name:en": null,
            "name:uk": null,
            "name:de": null,
            "name:tr": null,
            "name:ru": null,
            "name:ar": null
        }
    },
    {
        "lat": 40.9821394,
        "lon": 29.0668448,
        "tags": {
            "addr:city": "İstanbul",
            "addr:district": null,
            "description": "",
            "opening_hours": null,
            "phone": null,
            "branch": null,
            "amenity": "herbalist",
            "mobile": null,
            "addr:street": null,
            "cuisine": null,
            "name": "Nurbal Şifa Merkezi",
            "name:en": null,
            "name:uk": null,
            "name:de": null,
            "name:tr": null,
            "name:ru": null,
            "name:ar": null
        }
    },
    {
        "lat": 40.9842623,
        "lon": 29.1088919,
        "tags": {
            "addr:city": "İstanbul",
            "addr:district": null,
            "description": "",
            "opening_hours": null,
            "phone": null,
            "branch": null,
            "amenity": "herbalist",
            "mobile": null,
            "addr:street": null,
            "cuisine": null,
            "name": "Fit & Alive",
            "name:en": null,
            "name:uk": null,
            "name:de": null,
            "name:tr": null,
            "name:ru": null,
            "name:ar": null
        }
    },
    {
        "lat": 41.0818198,
        "lon": 28.9737909,
        "tags": {
            "addr:city": "İstanbul",
            "addr:district": null,
            "description": "",
            "opening_hours": null,
            "phone": null,
            "branch": null,
            "amenity": "herbalist",
            "mobile": null,
            "addr:street": null,
            "cuisine": null,
            "name": "Yöresel Aktar",
            "name:en": null,
            "name:uk": null,
            "name:de": null,
            "name:tr": null,
            "name:ru": null,
            "name:ar": null
        }
    },
    {
        "lat": 41.0219468,
        "lon": 28.5801495,
        "tags": {
            "addr:city": "İstanbul",
            "addr:district": null,
            "description": "",
            "opening_hours": null,
            "phone": null,
            "branch": null,
            "amenity": "herbalist",
            "mobile": null,
            "addr:street": null,
            "cuisine": null,
            "name": "İkram Doğal Ürünler Pazarı",
            "name:en": null,
            "name:uk": null,
            "name:de": null,
            "name:tr": null,
            "name:ru": null,
            "name:ar": null
        }
    },
    {
        "lat": 41.179107,
        "lon": 28.9914173,
        "tags": {
            "addr:city": "İstanbul",
            "addr:district": null,
            "description": "",
            "opening_hours": null,
            "phone": null,
            "branch": null,
            "amenity": "herbalist",
            "mobile": null,
            "addr:street": null,
            "cuisine": null,
            "name": "Bahçeköy Baharatçısı",
            "name:en": null,
            "name:uk": null,
            "name:de": null,
            "name:tr": null,
            "name:ru": null,
            "name:ar": null
        }
    },
    {
        "lat": 41.032695,
        "lon": 28.8294183,
        "tags": {
            "addr:city": "İstanbul",
            "addr:district": null,
            "description": "",
            "opening_hours": null,
            "phone": null,
            "branch": null,
            "amenity": "herbalist",
            "mobile": null,
            "addr:street": null,
            "cuisine": null,
            "name": "Şahı Şifa",
            "name:en": null,
            "name:uk": null,
            "name:de": null,
            "name:tr": null,
            "name:ru": null,
            "name:ar": null
        }
    },
    {
        "lat": 40.9823711,
        "lon": 29.0661015,
        "tags": {
            "addr:city": "İstanbul",
            "addr:district": null,
            "description": "",
            "opening_hours": null,
            "phone": null,
            "branch": null,
            "amenity": "herbalist",
            "mobile": null,
            "addr:street": null,
            "cuisine": null,
            "name": "Prof. Saraçoğlu",
            "name:en": null,
            "name:uk": null,
            "name:de": null,
            "name:tr": null,
            "name:ru": null,
            "name:ar": null
        }
    }
]