[
    {
        "lat": 41.010055,
        "lon": 28.9715818,
        "tags": {
            "addr:city": "Istanbul",
            "addr:district": "Fatih",
            "description": "",
            "opening_hours": null,
            "phone": null,
            "branch": null,
            "amenity": "home_good_store",
            "mobile": null,
            "addr:street": "Ali Baba Türbe Sokak",
            "cuisine": null,
            "name": "Ar Yıldız",
            "name:en": null,
            "name:uk": null,
            "name:de": null,
            "name:tr": null,
            "name:ru": null,
            "name:ar": "أر يلدز"
        }
    },
    {
        "lat": 41.0101237,
        "lon": 28.9725435,
        "tags": {
            "addr:city": "Istanbul",
            "addr:district": "Fatih",
            "description": "",
            "opening_hours": null,
            "phone": null,
            "branch": null,
            "amenity": "home_good_store",
            "mobile": null,
            "addr:street": "Nuru Osmaniye Caddesi",
            "cuisine": null,
            "name": "Armaggan",
            "name:en": null,
            "name:uk": null,
            "name:de": null,
            "name:tr": null,
            "name:ru": null,
            "name:ar": "أرماغان"
        }
    },
    {
        "lat": 41.0178217,
        "lon": 28.9673522,
        "tags": {
            "addr:city": "Istanbul",
            "addr:district": "Fatih",
            "description": "",
            "opening_hours": null,
            "phone": null,
            "branch": null,
            "amenity": "home_good_store",
            "mobile": null,
            "addr:street": "Hallaç Abdurahman Sokağı",
            "cuisine": null,
            "name": "Ahsen Hırdavat Tahtakake",
            "name:en": null,
            "name:uk": null,
            "name:de": null,
            "name:tr": null,
            "name:ru": null,
            "name:ar": null
        }
    },
    {
        "lat": 41.0177316,
        "lon": 28.9674815,
        "tags": {
            "addr:city": "Istanbul",
            "addr:district": "Fatih",
            "description": "",
            "opening_hours": null,
            "phone": null,
            "branch": null,
            "amenity": "home_good_store",
            "mobile": null,
            "addr:street": "Kantarcılar Caddesi",
            "cuisine": null,
            "name": "Çakır Ticaret",
            "name:en": null,
            "name:uk": null,
            "name:de": null,
            "name:tr": null,
            "name:ru": null,
            "name:ar": null
        }
    }
]