[
    {
        "lat": 41.0129379,
        "lon": 28.9661878,
        "tags": {
            "addr:city": "Istanbul",
            "addr:district": "Fatih",
            "description": "",
            "opening_hours": null,
            "phone": null,
            "branch": null,
            "amenity": "hookah",
            "mobile": null,
            "addr:street": "Fuat Paşa Caddesi",
            "cuisine": null,
            "name": "Kaya Nargile",
            "name:en": null,
            "name:uk": null,
            "name:de": null,
            "name:tr": null,
            "name:ru": null,
            "name:ar": "كايا نرغيله للنرجيلة"
        }
    },
    {
        "lat": 41.0143069,
        "lon": 28.9673358,
        "tags": {
            "addr:city": "Istanbul",
            "addr:district": "Fatih",
            "description": "",
            "opening_hours": null,
            "phone": null,
            "branch": null,
            "amenity": "hookah",
            "mobile": null,
            "addr:street": "Uzun Çarşı Caddesi",
            "cuisine": null,
            "name": "Serdar nergile bakır",
            "name:en": null,
            "name:uk": null,
            "name:de": null,
            "name:tr": null,
            "name:ru": null,
            "name:ar": "سيردار نيرغيله باكر للنرجيلة"
        }
    },
    {
        "lat": 41.0143842,
        "lon": 28.9673302,
        "tags": {
            "addr:city": "Istanbul",
            "addr:district": "Fatih",
            "description": "",
            "opening_hours": null,
            "phone": null,
            "branch": null,
            "amenity": "hookah",
            "mobile": null,
            "addr:street": "Uzun Çarşı Caddesi",
            "cuisine": null,
            "name": "Pipsan Pipoları",
            "name:en": null,
            "name:uk": null,
            "name:de": null,
            "name:tr": null,
            "name:ru": null,
            "name:ar": "بيبسان بيبولاره للنرجيلة"
        }
    },
    {
        "lat": 41.014256,
        "lon": 28.9675458,
        "tags": {
            "addr:city": "Istanbul",
            "addr:district": "Fatih",
            "description": "",
            "opening_hours": null,
            "phone": null,
            "branch": null,
            "amenity": "hookah",
            "mobile": null,
            "addr:street": "Uzun Çarşı Caddesi",
            "cuisine": null,
            "name": "Demirkan Nargile",
            "name:en": null,
            "name:uk": null,
            "name:de": null,
            "name:tr": null,
            "name:ru": null,
            "name:ar": "ديميركان نرغيله للنرجيلة"
        }
    },
    {
        "lat": 41.0145931,
        "lon": 28.9661313,
        "tags": {
            "addr:city": "Istanbul",
            "addr:district": "Fatih",
            "description": "",
            "opening_hours": null,
            "phone": null,
            "branch": null,
            "amenity": "hookah",
            "mobile": null,
            "addr:street": "Havancı Sokağı",
            "cuisine": null,
            "name": "Marmaram Nergile",
            "name:en": null,
            "name:uk": null,
            "name:de": null,
            "name:tr": null,
            "name:ru": null,
            "name:ar": "مرمارام نيرغيلا لبيع النرجيلة"
        }
    }
]