[
    {
        "lat": 40.9985351,
        "lon": 29.0381172,
        "tags": {
            "addr:city": "İstanbul",
            "addr:district": null,
            "description": "",
            "opening_hours": null,
            "phone": null,
            "branch": null,
            "amenity": "household_linen",
            "mobile": null,
            "addr:street": null,
            "cuisine": null,
            "name": "Arçelik",
            "name:en": null,
            "name:uk": null,
            "name:de": null,
            "name:tr": null,
            "name:ru": null,
            "name:ar": null
        }
    },
    {
        "lat": 41.0008648,
        "lon": 29.0403291,
        "tags": {
            "addr:city": "İstanbul",
            "addr:district": null,
            "description": "",
            "opening_hours": null,
            "phone": null,
            "branch": null,
            "amenity": "household_linen",
            "mobile": null,
            "addr:street": null,
            "cuisine": null,
            "name": "Arçelik",
            "name:en": null,
            "name:uk": null,
            "name:de": null,
            "name:tr": null,
            "name:ru": null,
            "name:ar": null
        }
    },
    {
        "lat": 41.0716191,
        "lon": 28.9037225,
        "tags": {
            "addr:city": "İstanbul",
            "addr:district": "Gaziosmanpaşa",
            "description": "",
            "opening_hours": "Mo-Sa 09:00-21:00; Su 10:00-21:00",
            "phone": null,
            "branch": null,
            "amenity": "household_linen",
            "mobile": null,
            "addr:street": "758/8. Sokak",
            "cuisine": null,
            "name": "Sürpriz Ev Tekstil Ürünleri",
            "name:en": null,
            "name:uk": null,
            "name:de": null,
            "name:tr": null,
            "name:ru": null,
            "name:ar": null
        }
    },
    {
        "lat": 40.9648657,
        "lon": 29.0803677,
        "tags": {
            "addr:city": "İstanbul",
            "addr:district": "Kadıköy",
            "description": "",
            "opening_hours": null,
            "phone": null,
            "branch": null,
            "amenity": "household_linen",
            "mobile": null,
            "addr:street": "Tonozlu Sokağı",
            "cuisine": null,
            "name": "Eymen Home Perde",
            "name:en": null,
            "name:uk": null,
            "name:de": null,
            "name:tr": null,
            "name:ru": null,
            "name:ar": null
        }
    },
    {
        "lat": 40.959074,
        "lon": 29.083694,
        "tags": {
            "addr:city": "İstanbul",
            "addr:district": "Kadıköy",
            "description": "",
            "opening_hours": null,
            "phone": null,
            "branch": null,
            "amenity": "household_linen",
            "mobile": null,
            "addr:street": "Bağdat Caddesi",
            "cuisine": null,
            "name": "Penelope",
            "name:en": null,
            "name:uk": null,
            "name:de": null,
            "name:tr": null,
            "name:ru": null,
            "name:ar": null
        }
    },
    {
        "lat": 40.9632725,
        "lon": 29.0769007,
        "tags": {
            "addr:city": "İstanbul",
            "addr:district": null,
            "description": "",
            "opening_hours": null,
            "phone": null,
            "branch": null,
            "amenity": "household_linen",
            "mobile": null,
            "addr:street": null,
            "cuisine": null,
            "name": "Yonca Tuhafiye",
            "name:en": null,
            "name:uk": null,
            "name:de": null,
            "name:tr": null,
            "name:ru": null,
            "name:ar": null
        }
    },
    {
        "lat": 41.0713283,
        "lon": 28.9030628,
        "tags": {
            "addr:city": "İstanbul",
            "addr:district": "Gaziosmanpaşa",
            "description": "",
            "opening_hours": "Mo-Sa 09:00-21:00; Su 10:00-21:00",
            "phone": null,
            "branch": null,
            "amenity": "household_linen",
            "mobile": "+90 545 650 20 30",
            "addr:street": "757. Sokak",
            "cuisine": null,
            "name": "Miraç Ev Tekstil Ürünleri",
            "name:en": null,
            "name:uk": null,
            "name:de": null,
            "name:tr": null,
            "name:ru": null,
            "name:ar": null
        }
    },
    {
        "lat": 41.004612,
        "lon": 28.6887124,
        "tags": {
            "addr:city": "İstanbul",
            "addr:district": null,
            "description": "",
            "opening_hours": null,
            "phone": null,
            "branch": null,
            "amenity": "household_linen",
            "mobile": null,
            "addr:street": null,
            "cuisine": null,
            "name": "English Home",
            "name:en": null,
            "name:uk": null,
            "name:de": null,
            "name:tr": null,
            "name:ru": null,
            "name:ar": null
        }
    },
    {
        "lat": 40.9802711,
        "lon": 29.0412689,
        "tags": {
            "addr:city": "İstanbul",
            "addr:district": "Kadıköy",
            "description": "",
            "opening_hours": null,
            "phone": null,
            "branch": null,
            "amenity": "household_linen",
            "mobile": null,
            "addr:street": "Fener Kalamış Caddesi",
            "cuisine": null,
            "name": "Evdekor",
            "name:en": null,
            "name:uk": null,
            "name:de": null,
            "name:tr": null,
            "name:ru": null,
            "name:ar": null
        }
    },
    {
        "lat": 40.9688173,
        "lon": 29.092336,
        "tags": {
            "addr:city": "İstanbul",
            "addr:district": "Kadıköy",
            "description": "",
            "opening_hours": null,
            "phone": null,
            "branch": null,
            "amenity": "household_linen",
            "mobile": null,
            "addr:street": "Şakacı Sokağı",
            "cuisine": null,
            "name": "Persan",
            "name:en": null,
            "name:uk": null,
            "name:de": null,
            "name:tr": null,
            "name:ru": null,
            "name:ar": null
        }
    },
    {
        "lat": 40.925468,
        "lon": 29.1363368,
        "tags": {
            "addr:city": "İstanbul",
            "addr:district": null,
            "description": "",
            "opening_hours": null,
            "phone": null,
            "branch": null,
            "amenity": "household_linen",
            "mobile": null,
            "addr:street": null,
            "cuisine": null,
            "name": "Çeyiz Home",
            "name:en": null,
            "name:uk": null,
            "name:de": null,
            "name:tr": null,
            "name:ru": null,
            "name:ar": null
        }
    }
]