[
    {
        "lat": 41.0150009,
        "lon": 28.9678549,
        "tags": {
            "addr:city": "Istanbul",
            "addr:district": "Fatih",
            "description": "",
            "opening_hours": null,
            "phone": null,
            "branch": null,
            "amenity": "household_items_shop",
            "mobile": null,
            "addr:street": "Vasıf Çınar Caddesi",
            "cuisine": null,
            "name": "Aydema Aydemir Raf",
            "name:en": null,
            "name:uk": null,
            "name:de": null,
            "name:tr": null,
            "name:ru": null,
            "name:ar": "آيديما آيديمير راف للمستلزمات المنزلية"
        }
    },
    {
        "lat": 41.0149381,
        "lon": 28.9664639,
        "tags": {
            "addr:city": "Istanbul",
            "addr:district": "Fatih",
            "description": "",
            "opening_hours": null,
            "phone": null,
            "branch": null,
            "amenity": "household_items_shop",
            "mobile": null,
            "addr:street": "İsmetiye Caddesi",
            "cuisine": null,
            "name": "Demir Ticaret",
            "name:en": null,
            "name:uk": null,
            "name:de": null,
            "name:tr": null,
            "name:ru": null,
            "name:ar": "ديمير تيجاريت للأدوات المنزلية"
        }
    },
    {
        "lat": 41.0148022,
        "lon": 28.9661448,
        "tags": {
            "addr:city": "Istanbul",
            "addr:district": "Fatih",
            "description": "",
            "opening_hours": null,
            "phone": null,
            "branch": null,
            "amenity": "household_items_shop",
            "mobile": null,
            "addr:street": "Fuat Paşa Caddesi",
            "cuisine": null,
            "name": "Depa",
            "name:en": null,
            "name:uk": null,
            "name:de": null,
            "name:tr": null,
            "name:ru": null,
            "name:ar": "ديبا للأدوات المنزلية"
        }
    },
    {
        "lat": 41.0144514,
        "lon": 28.9661355,
        "tags": {
            "addr:city": "Istanbul",
            "addr:district": "Fatih",
            "description": "",
            "opening_hours": null,
            "phone": null,
            "branch": null,
            "amenity": "household_items_shop",
            "mobile": null,
            "addr:street": "Fuat Paşa Caddesi",
            "cuisine": null,
            "name": "Polat Demir",
            "name:en": null,
            "name:uk": null,
            "name:de": null,
            "name:tr": null,
            "name:ru": null,
            "name:ar": "بولات ديمير للأدوات المنزلية"
        }
    },
    {
        "lat": 41.0143826,
        "lon": 28.9666474,
        "tags": {
            "addr:city": "Istanbul",
            "addr:district": "Fatih",
            "description": "",
            "opening_hours": null,
            "phone": null,
            "branch": null,
            "amenity": "household_items_shop",
            "mobile": null,
            "addr:street": "Tacirhane Sokağı",
            "cuisine": null,
            "name": "Dost Aksesuar",
            "name:en": null,
            "name:uk": null,
            "name:de": null,
            "name:tr": null,
            "name:ru": null,
            "name:ar": "دوست للاكسسوارات"
        }
    },
    {
        "lat": 41.0146605,
        "lon": 28.9666121,
        "tags": {
            "addr:city": "Istanbul",
            "addr:district": "Fatih",
            "description": "",
            "opening_hours": null,
            "phone": null,
            "branch": null,
            "amenity": "household_items_shop",
            "mobile": null,
            "addr:street": "Tacirhane Sokağı",
            "cuisine": null,
            "name": "Ar Bi Plastik",
            "name:en": null,
            "name:uk": null,
            "name:de": null,
            "name:tr": null,
            "name:ru": null,
            "name:ar": "آر بي بلاستيك للأدوات المنزلية البلاستيكية"
        }
    },
    {
        "lat": 41.0149419,
        "lon": 28.9668351,
        "tags": {
            "addr:city": "Istanbul",
            "addr:district": "Fatih",
            "description": "",
            "opening_hours": null,
            "phone": null,
            "branch": null,
            "amenity": "household_items_shop",
            "mobile": null,
            "addr:street": "Tacirhane Sokağı",
            "cuisine": null,
            "name": "İnci cam",
            "name:en": null,
            "name:uk": null,
            "name:de": null,
            "name:tr": null,
            "name:ru": null,
            "name:ar": "إنجي جام للأدوات المنزلية الزجاجية"
        }
    },
    {
        "lat": 41.0147134,
        "lon": 28.9668558,
        "tags": {
            "addr:city": "Istanbul",
            "addr:district": "Fatih",
            "description": "",
            "opening_hours": null,
            "phone": null,
            "branch": null,
            "amenity": "household_items_shop",
            "mobile": null,
            "addr:street": "Tacirhane Sokağı",
            "cuisine": null,
            "name": "Kavis Plastik",
            "name:en": null,
            "name:uk": null,
            "name:de": null,
            "name:tr": null,
            "name:ru": null,
            "name:ar": "كافيس بلاستيك للأدوات المنزلية البلاستيكية"
        }
    },
    {
        "lat": 41.0324312,
        "lon": 28.9456883,
        "tags": {
            "addr:city": "Istanbul",
            "addr:district": "Fatih",
            "description": "",
            "opening_hours": null,
            "phone": null,
            "branch": null,
            "amenity": "household_items_shop",
            "mobile": null,
            "addr:street": "Ayan Caddesi",
            "cuisine": null,
            "name": "Özcan Mobilya",
            "name:en": null,
            "name:uk": null,
            "name:de": null,
            "name:tr": null,
            "name:ru": null,
            "name:ar": "أوزجان موبيليا للأدوات المنزلية"
        }
    },
    {
        "lat": 41.0319772,
        "lon": 28.9453681,
        "tags": {
            "addr:city": "Istanbul",
            "addr:district": "Fatih",
            "description": "",
            "opening_hours": null,
            "phone": null,
            "branch": null,
            "amenity": "household_items_shop",
            "mobile": null,
            "addr:street": "Ayan Caddesi",
            "cuisine": null,
            "name": "Yılmaz Züccaciye Mobiliye",
            "name:en": null,
            "name:uk": null,
            "name:de": null,
            "name:tr": null,
            "name:ru": null,
            "name:ar": "يلماز زوجاجييه موبيليا للأدوات المنزلية"
        }
    }
]