[
    {
        "lat": 40.9704771,
        "lon": 29.2497827,
        "tags": {
            "addr:city": "Istanbul",
            "addr:district": "Sultanbeyli",
            "description": "",
            "opening_hours": null,
            "phone": null,
            "branch": null,
            "amenity": "hvac",
            "mobile": null,
            "addr:street": "fatih bulvarı",
            "cuisine": null,
            "name": "Demirdöküm",
            "name:en": null,
            "name:uk": null,
            "name:de": null,
            "name:tr": null,
            "name:ru": null,
            "name:ar": "ديمير دوكوم"
        }
    },
    {
        "lat": 41.0071343,
        "lon": 28.8989575,
        "tags": {
            "addr:city": "Istanbul",
            "addr:district": "Zeytinburnu",
            "description": "",
            "opening_hours": null,
            "phone": null,
            "branch": null,
            "amenity": "hvac",
            "mobile": null,
            "addr:street": "Demirciler sitesi 6 Cd",
            "cuisine": null,
            "name": "Beda enerji",
            "name:en": null,
            "name:uk": null,
            "name:de": null,
            "name:tr": null,
            "name:ru": null,
            "name:ar": "بدا للطاقة"
        }
    },
    {
        "lat": 40.9912506,
        "lon": 28.9024852,
        "tags": {
            "addr:city": "Istanbul",
            "addr:district": "Zeytinburnu",
            "description": "",
            "opening_hours": null,
            "phone": "0212 546 55 46",
            "branch": null,
            "amenity": "hvac",
            "mobile": null,
            "addr:street": null,
            "cuisine": null,
            "name": "Mega Mist Buhar Nemlendirici",
            "name:en": null,
            "name:uk": null,
            "name:de": null,
            "name:tr": null,
            "name:ru": null,
            "name:ar": "ميجاميست اجهزة تبريد"
        }
    },
    {
        "lat": 41.0464434,
        "lon": 28.8464427,
        "tags": {
            "addr:city": "Istanbul",
            "addr:district": "Bağcılar",
            "description": "",
            "opening_hours": null,
            "phone": null,
            "branch": null,
            "amenity": "hvac",
            "mobile": null,
            "addr:street": null,
            "cuisine": null,
            "name": "Uğur doğalgaz",
            "name:en": null,
            "name:uk": null,
            "name:de": null,
            "name:tr": null,
            "name:ru": null,
            "name:ar": "اوغور لانظمة التدفئة"
        }
    },
    {
        "lat": 41.037516,
        "lon": 28.8415011,
        "tags": {
            "addr:city": "Istanbul",
            "addr:district": "Bağcılar",
            "description": "",
            "opening_hours": null,
            "phone": null,
            "branch": null,
            "amenity": "hvac",
            "mobile": null,
            "addr:street": "Mevlana caddesi",
            "cuisine": null,
            "name": "Termikel",
            "name:en": null,
            "name:uk": null,
            "name:de": null,
            "name:tr": null,
            "name:ru": null,
            "name:ar": "تيرميكل للادوات المنزلية"
        }
    },
    {
        "lat": 41.0242356,
        "lon": 28.8566012,
        "tags": {
            "addr:city": "Istanbul",
            "addr:district": "Bağcılar",
            "description": "",
            "opening_hours": null,
            "phone": null,
            "branch": null,
            "amenity": "hvac",
            "mobile": null,
            "addr:street": "Hasan Hüseyin Aksoy Caddesi",
            "cuisine": null,
            "name": "DemirDöküm",
            "name:en": null,
            "name:uk": null,
            "name:de": null,
            "name:tr": null,
            "name:ru": null,
            "name:ar": "دميردوكوم"
        }
    },
    {
        "lat": 40.9103993,
        "lon": 29.2054873,
        "tags": {
            "addr:city": "İstanbul",
            "addr:district": null,
            "description": "",
            "opening_hours": null,
            "phone": null,
            "branch": null,
            "amenity": "hvac",
            "mobile": null,
            "addr:street": null,
            "cuisine": null,
            "name": null,
            "name:en": null,
            "name:uk": null,
            "name:de": null,
            "name:tr": null,
            "name:ru": null,
            "name:ar": null
        }
    }
]