[
    {
        "lat": 41.0312967,
        "lon": 28.9848463,
        "tags": {
            "addr:city": "İstanbul",
            "addr:district": null,
            "description": "",
            "opening_hours": null,
            "phone": "02122936898",
            "branch": null,
            "amenity": "ice_cream",
            "mobile": null,
            "addr:street": "Bakraç Sokak",
            "cuisine": null,
            "name": "Yaşar Usta'nın Dondurması",
            "name:en": null,
            "name:uk": null,
            "name:de": null,
            "name:tr": null,
            "name:ru": null,
            "name:ar": null
        }
    },
    {
        "lat": 41.0530073,
        "lon": 28.8464081,
        "tags": {
            "addr:city": "Istanbul",
            "addr:district": "Bağcılar",
            "description": "",
            "opening_hours": null,
            "phone": null,
            "branch": null,
            "amenity": "ice_cream",
            "mobile": null,
            "addr:street": null,
            "cuisine": null,
            "name": "Karkayalar dondurma",
            "name:en": null,
            "name:uk": null,
            "name:de": null,
            "name:tr": null,
            "name:ru": null,
            "name:ar": "كاركايالار للمثلجات"
        }
    },
    {
        "lat": 41.0282692,
        "lon": 28.8305933,
        "tags": {
            "addr:city": "Istanbul",
            "addr:district": "Bağcılar",
            "description": "",
            "opening_hours": null,
            "phone": null,
            "branch": null,
            "amenity": "ice_cream",
            "mobile": null,
            "addr:street": "Menderes Caddesi",
            "cuisine": "ice_cream",
            "name": "Kahramanmaraş Karkayalar Dondurma",
            "name:en": null,
            "name:uk": null,
            "name:de": null,
            "name:tr": null,
            "name:ru": null,
            "name:ar": "مثلجات كهرمان مرعش كاركايالار"
        }
    },
    {
        "lat": 41.1251256,
        "lon": 29.1021582,
        "tags": {
            "addr:city": "İstanbul",
            "addr:district": null,
            "description": "",
            "opening_hours": null,
            "phone": null,
            "branch": null,
            "amenity": "ice_cream",
            "mobile": null,
            "addr:street": null,
            "cuisine": null,
            "name": "Hakiki Maraş Dondurması",
            "name:en": null,
            "name:uk": null,
            "name:de": null,
            "name:tr": null,
            "name:ru": null,
            "name:ar": null
        }
    },
    {
        "lat": 41.1367254,
        "lon": 29.0868472,
        "tags": {
            "addr:city": "İstanbul",
            "addr:district": null,
            "description": "",
            "opening_hours": null,
            "phone": null,
            "branch": null,
            "amenity": "ice_cream",
            "mobile": null,
            "addr:street": null,
            "cuisine": null,
            "name": "Roma Dondurmacısı",
            "name:en": null,
            "name:uk": null,
            "name:de": null,
            "name:tr": null,
            "name:ru": null,
            "name:ar": null
        }
    }
]