[
    {
        "lat": 41.0314395,
        "lon": 28.9803843,
        "tags": {
            "addr:city": "Beyoğlu/İstanbul",
            "addr:district": null,
            "description": "",
            "opening_hours": null,
            "phone": "+90 5437323633",
            "branch": null,
            "amenity": "interior_decoration",
            "mobile": null,
            "addr:street": "Çukurcuma Caddesi",
            "cuisine": null,
            "name": "3rd Culture",
            "name:en": null,
            "name:uk": null,
            "name:de": null,
            "name:tr": null,
            "name:ru": null,
            "name:ar": null
        }
    },
    {
        "lat": 41.0087083,
        "lon": 28.5365502,
        "tags": {
            "addr:city": "İstanbul",
            "addr:district": null,
            "description": "",
            "opening_hours": null,
            "phone": null,
            "branch": null,
            "amenity": "interior_decoration",
            "mobile": null,
            "addr:street": null,
            "cuisine": null,
            "name": "Merinos",
            "name:en": null,
            "name:uk": null,
            "name:de": null,
            "name:tr": null,
            "name:ru": null,
            "name:ar": null
        }
    },
    {
        "lat": 40.9252828,
        "lon": 29.1295799,
        "tags": {
            "addr:city": "İstanbul",
            "addr:district": null,
            "description": "",
            "opening_hours": null,
            "phone": null,
            "branch": null,
            "amenity": "interior_decoration",
            "mobile": null,
            "addr:street": null,
            "cuisine": null,
            "name": "Deko Keyif İthal Duvar Kağıtları",
            "name:en": null,
            "name:uk": null,
            "name:de": null,
            "name:tr": null,
            "name:ru": null,
            "name:ar": null
        }
    },
    {
        "lat": 41.012047,
        "lon": 28.9413476,
        "tags": {
            "addr:city": "Istanbul",
            "addr:district": "Fatih",
            "description": "",
            "opening_hours": null,
            "phone": null,
            "branch": null,
            "amenity": "interior_decoration",
            "mobile": null,
            "addr:street": "Molla Gürani caddesi",
            "cuisine": null,
            "name": "Şamna LTD",
            "name:en": null,
            "name:uk": null,
            "name:de": null,
            "name:tr": null,
            "name:ru": null,
            "name:ar": "شامنا للديكور"
        }
    },
    {
        "lat": 41.0272664,
        "lon": 28.9550419,
        "tags": {
            "addr:city": "Istanbul",
            "addr:district": "Fatih",
            "description": "",
            "opening_hours": null,
            "phone": null,
            "branch": null,
            "amenity": "interior_decoration",
            "mobile": null,
            "addr:street": "Miralay Nazımbey Caddesi",
            "cuisine": null,
            "name": "Yıldız Mobilya Dekorasyon",
            "name:en": null,
            "name:uk": null,
            "name:de": null,
            "name:tr": null,
            "name:ru": null,
            "name:ar": "يلديز موبيليا ديكوراسيون"
        }
    },
    {
        "lat": 40.9944752,
        "lon": 28.9243512,
        "tags": {
            "addr:city": "Istanbul",
            "addr:district": "Fatih",
            "description": "",
            "opening_hours": null,
            "phone": null,
            "branch": null,
            "amenity": "interior_decoration",
            "mobile": null,
            "addr:street": "Yedi kule caddesi",
            "cuisine": null,
            "name": "Formet çelik kapı",
            "name:en": null,
            "name:uk": null,
            "name:de": null,
            "name:tr": null,
            "name:ru": null,
            "name:ar": "فورميت للتعديلات"
        }
    },
    {
        "lat": 40.9945138,
        "lon": 28.9248977,
        "tags": {
            "addr:city": "Istanbul",
            "addr:district": "Fatih",
            "description": "",
            "opening_hours": null,
            "phone": "05384240950",
            "branch": null,
            "amenity": "interior_decoration",
            "mobile": null,
            "addr:street": "Yedikule caddesi",
            "cuisine": null,
            "name": "Star çelik kapı",
            "name:en": null,
            "name:uk": null,
            "name:de": null,
            "name:tr": null,
            "name:ru": null,
            "name:ar": "ستار للأبواب الفولاذية"
        }
    },
    {
        "lat": 40.9966328,
        "lon": 28.9275432,
        "tags": {
            "addr:city": "Istanbul",
            "addr:district": "Fatih",
            "description": "",
            "opening_hours": null,
            "phone": null,
            "branch": null,
            "amenity": "interior_decoration",
            "mobile": null,
            "addr:street": "İmrahor ilyasbey caddesi",
            "cuisine": null,
            "name": "Gülüm nalpur",
            "name:en": null,
            "name:uk": null,
            "name:de": null,
            "name:tr": null,
            "name:ru": null,
            "name:ar": "غولوم للخردوات و الدهانات"
        }
    },
    {
        "lat": 40.9980133,
        "lon": 28.9297041,
        "tags": {
            "addr:city": "Istanbul",
            "addr:district": "Fatih",
            "description": "",
            "opening_hours": null,
            "phone": "02125870058",
            "branch": null,
            "amenity": "interior_decoration",
            "mobile": null,
            "addr:street": "İmrahor ilyasbey caddesi",
            "cuisine": null,
            "name": "Adil malzeme",
            "name:en": null,
            "name:uk": null,
            "name:de": null,
            "name:tr": null,
            "name:ru": null,
            "name:ar": "عادل للديكورات والدهانات"
        }
    },
    {
        "lat": 41.0001185,
        "lon": 28.9312931,
        "tags": {
            "addr:city": "Istanbul",
            "addr:district": "Fatih",
            "description": "",
            "opening_hours": null,
            "phone": "02125895149",
            "branch": null,
            "amenity": "interior_decoration",
            "mobile": null,
            "addr:street": "Sarraf Tahsin Sokak",
            "cuisine": null,
            "name": "Renk Dekorasyon",
            "name:en": null,
            "name:uk": null,
            "name:de": null,
            "name:tr": null,
            "name:ru": null,
            "name:ar": "رينك للديكور"
        }
    },
    {
        "lat": 41.0080874,
        "lon": 28.946045,
        "tags": {
            "addr:city": "Istanbul",
            "addr:district": "Fatih",
            "description": "",
            "opening_hours": "Mo-Su 08:30-19:30",
            "phone": "(0212) 588 35 18",
            "branch": null,
            "amenity": "interior_decoration",
            "mobile": null,
            "addr:street": "Şemi Molla Mektebi Sokağı",
            "cuisine": null,
            "name": "mo-sun 08:30-19:30",
            "name:en": null,
            "name:uk": null,
            "name:de": null,
            "name:tr": null,
            "name:ru": null,
            "name:ar": "فرهاد للخردوات و الديكرات"
        }
    },
    {
        "lat": 41.0075288,
        "lon": 28.9440988,
        "tags": {
            "addr:city": "Istanbul",
            "addr:district": "Fatih",
            "description": "",
            "opening_hours": null,
            "phone": "05376808863",
            "branch": null,
            "amenity": "interior_decoration",
            "mobile": null,
            "addr:street": "Seyit Yakuphan Sokağı",
            "cuisine": null,
            "name": "Kardeşler dekorasyon",
            "name:en": null,
            "name:uk": null,
            "name:de": null,
            "name:tr": null,
            "name:ru": null,
            "name:ar": "كارديشلر للديكور"
        }
    },
    {
        "lat": 41.0175719,
        "lon": 28.9312325,
        "tags": {
            "addr:city": "Istanbul",
            "addr:district": "Fatih",
            "description": "",
            "opening_hours": null,
            "phone": null,
            "branch": null,
            "amenity": "interior_decoration",
            "mobile": null,
            "addr:street": "Kürkçü Bostanı Sokağı",
            "cuisine": null,
            "name": "Seçkin dekorasyon",
            "name:en": null,
            "name:uk": null,
            "name:de": null,
            "name:tr": null,
            "name:ru": null,
            "name:ar": "سيجكين للديكورات"
        }
    },
    {
        "lat": 41.0150011,
        "lon": 28.9679312,
        "tags": {
            "addr:city": "Istanbul",
            "addr:district": "Fatih",
            "description": "",
            "opening_hours": null,
            "phone": null,
            "branch": null,
            "amenity": "interior_decoration",
            "mobile": null,
            "addr:street": "Vasıf Çınar Caddesi",
            "cuisine": null,
            "name": "Kankashop",
            "name:en": null,
            "name:uk": null,
            "name:de": null,
            "name:tr": null,
            "name:ru": null,
            "name:ar": "كانكا شوب للديكور"
        }
    },
    {
        "lat": 41.0149542,
        "lon": 28.9666517,
        "tags": {
            "addr:city": "Istanbul",
            "addr:district": "Fatih",
            "description": "",
            "opening_hours": null,
            "phone": null,
            "branch": null,
            "amenity": "interior_decoration",
            "mobile": null,
            "addr:street": "İsmetiye Caddesi",
            "cuisine": null,
            "name": "Gökhan Dekorasyon",
            "name:en": null,
            "name:uk": null,
            "name:de": null,
            "name:tr": null,
            "name:ru": null,
            "name:ar": "غوكهان ديكوراسيون للديكور"
        }
    },
    {
        "lat": 41.0149502,
        "lon": 28.9665738,
        "tags": {
            "addr:city": "Istanbul",
            "addr:district": "Fatih",
            "description": "",
            "opening_hours": null,
            "phone": null,
            "branch": null,
            "amenity": "interior_decoration",
            "mobile": null,
            "addr:street": "İsmetiye Caddesi",
            "cuisine": null,
            "name": "Ball Hediyelik",
            "name:en": null,
            "name:uk": null,
            "name:de": null,
            "name:tr": null,
            "name:ru": null,
            "name:ar": "بال هدياليك للهدايا"
        }
    },
    {
        "lat": 41.0147435,
        "lon": 28.9661449,
        "tags": {
            "addr:city": "Istanbul",
            "addr:district": "Fatih",
            "description": "",
            "opening_hours": null,
            "phone": null,
            "branch": null,
            "amenity": "interior_decoration",
            "mobile": null,
            "addr:street": "Fuat Paşa Caddesi",
            "cuisine": null,
            "name": "Şirin Kristal",
            "name:en": null,
            "name:uk": null,
            "name:de": null,
            "name:tr": null,
            "name:ru": null,
            "name:ar": "شيرين كريستال"
        }
    },
    {
        "lat": 41.014614,
        "lon": 28.9661342,
        "tags": {
            "addr:city": "Istanbul",
            "addr:district": "Fatih",
            "description": "",
            "opening_hours": null,
            "phone": null,
            "branch": null,
            "amenity": "interior_decoration",
            "mobile": null,
            "addr:street": "Fuat Paşa Caddesi",
            "cuisine": null,
            "name": "ECA",
            "name:en": null,
            "name:uk": null,
            "name:de": null,
            "name:tr": null,
            "name:ru": null,
            "name:ar": "إيجا للديكور"
        }
    },
    {
        "lat": 41.0144046,
        "lon": 28.9661352,
        "tags": {
            "addr:city": "Istanbul",
            "addr:district": "Fatih",
            "description": "",
            "opening_hours": null,
            "phone": null,
            "branch": null,
            "amenity": "interior_decoration",
            "mobile": null,
            "addr:street": "Fuat Paşa Caddesi",
            "cuisine": null,
            "name": "Nazlı Kristal",
            "name:en": null,
            "name:uk": null,
            "name:de": null,
            "name:tr": null,
            "name:ru": null,
            "name:ar": "نازلي كريستال"
        }
    },
    {
        "lat": 41.0142994,
        "lon": 28.9661246,
        "tags": {
            "addr:city": "Istanbul",
            "addr:district": "Fatih",
            "description": "",
            "opening_hours": null,
            "phone": null,
            "branch": null,
            "amenity": "interior_decoration",
            "mobile": null,
            "addr:street": "Fuat Paşa Caddesi",
            "cuisine": null,
            "name": "Yeni Kristal",
            "name:en": null,
            "name:uk": null,
            "name:de": null,
            "name:tr": null,
            "name:ru": null,
            "name:ar": "يني كريستال"
        }
    },
    {
        "lat": 41.0143507,
        "lon": 28.9661383,
        "tags": {
            "addr:city": "Istanbul",
            "addr:district": "Fatih",
            "description": "",
            "opening_hours": null,
            "phone": null,
            "branch": null,
            "amenity": "interior_decoration",
            "mobile": null,
            "addr:street": "Fuat Paşa Caddesi",
            "cuisine": null,
            "name": "Sever Kristal",
            "name:en": null,
            "name:uk": null,
            "name:de": null,
            "name:tr": null,
            "name:ru": null,
            "name:ar": "سيفير كريستال"
        }
    },
    {
        "lat": 41.0142513,
        "lon": 28.9661223,
        "tags": {
            "addr:city": "Istanbul",
            "addr:district": "Fatih",
            "description": "",
            "opening_hours": null,
            "phone": null,
            "branch": null,
            "amenity": "interior_decoration",
            "mobile": null,
            "addr:street": "Fuat Paşa Caddesi",
            "cuisine": null,
            "name": "Özel Kristal",
            "name:en": null,
            "name:uk": null,
            "name:de": null,
            "name:tr": null,
            "name:ru": null,
            "name:ar": "أوزيل كريستال"
        }
    },
    {
        "lat": 41.0139389,
        "lon": 28.966026,
        "tags": {
            "addr:city": "Istanbul",
            "addr:district": "Fatih",
            "description": "",
            "opening_hours": null,
            "phone": null,
            "branch": null,
            "amenity": "interior_decoration",
            "mobile": null,
            "addr:street": "Fuatpaşa Caddesi",
            "cuisine": null,
            "name": "Onur Porselen",
            "name:en": null,
            "name:uk": null,
            "name:de": null,
            "name:tr": null,
            "name:ru": null,
            "name:ar": "أونور بورسالان للديكور"
        }
    },
    {
        "lat": 41.0130465,
        "lon": 28.9661653,
        "tags": {
            "addr:city": "Istanbul",
            "addr:district": "Fatih",
            "description": "",
            "opening_hours": null,
            "phone": null,
            "branch": null,
            "amenity": "interior_decoration",
            "mobile": null,
            "addr:street": "Fuat Paşa Caddesi",
            "cuisine": null,
            "name": "İstanbul Mozaik",
            "name:en": null,
            "name:uk": null,
            "name:de": null,
            "name:tr": null,
            "name:ru": null,
            "name:ar": "اسطنبول موزاييك للديكور"
        }
    },
    {
        "lat": 41.0148425,
        "lon": 28.9666257,
        "tags": {
            "addr:city": "Istanbul",
            "addr:district": "Fatih",
            "description": "",
            "opening_hours": null,
            "phone": null,
            "branch": null,
            "amenity": "interior_decoration",
            "mobile": null,
            "addr:street": "Tacirhane Sokağı",
            "cuisine": null,
            "name": "Güral Porselen",
            "name:en": null,
            "name:uk": null,
            "name:de": null,
            "name:tr": null,
            "name:ru": null,
            "name:ar": "غورال بورسالان للديكور"
        }
    },
    {
        "lat": 41.0135805,
        "lon": 28.9673973,
        "tags": {
            "addr:city": "Istanbul",
            "addr:district": "Fatih",
            "description": "",
            "opening_hours": null,
            "phone": null,
            "branch": null,
            "amenity": "interior_decoration",
            "mobile": null,
            "addr:street": "Uzun Çarşı Caddesi",
            "cuisine": null,
            "name": "Güven Bronz Dekorasyon",
            "name:en": null,
            "name:uk": null,
            "name:de": null,
            "name:tr": null,
            "name:ru": null,
            "name:ar": "غوفين برونز ديكوراسيون للديكور"
        }
    },
    {
        "lat": 41.0140542,
        "lon": 28.9673682,
        "tags": {
            "addr:city": "Istanbul",
            "addr:district": "Fatih",
            "description": "",
            "opening_hours": null,
            "phone": null,
            "branch": null,
            "amenity": "interior_decoration",
            "mobile": null,
            "addr:street": "Uzun Çarşı Caddesi",
            "cuisine": null,
            "name": "Bronz Eşya",
            "name:en": null,
            "name:uk": null,
            "name:de": null,
            "name:tr": null,
            "name:ru": null,
            "name:ar": "برونز إشيا"
        }
    },
    {
        "lat": 41.0140132,
        "lon": 28.9673713,
        "tags": {
            "addr:city": "Istanbul",
            "addr:district": "Fatih",
            "description": "",
            "opening_hours": null,
            "phone": null,
            "branch": null,
            "amenity": "interior_decoration",
            "mobile": null,
            "addr:street": "Uzun Çarşı Caddesi",
            "cuisine": null,
            "name": "Madeni Dekorasyon",
            "name:en": null,
            "name:uk": null,
            "name:de": null,
            "name:tr": null,
            "name:ru": null,
            "name:ar": "ماديني ديكوراسيون للديكور"
        }
    },
    {
        "lat": 41.0146851,
        "lon": 28.9673739,
        "tags": {
            "addr:city": "Istanbul",
            "addr:district": "Fatih",
            "description": "",
            "opening_hours": null,
            "phone": null,
            "branch": null,
            "amenity": "interior_decoration",
            "mobile": null,
            "addr:street": "Uzun Çarşı Caddesi",
            "cuisine": null,
            "name": "Tek Dekorasyon",
            "name:en": null,
            "name:uk": null,
            "name:de": null,
            "name:tr": null,
            "name:ru": null,
            "name:ar": "تيك ديكوراسيون للديكور"
        }
    },
    {
        "lat": 41.0148039,
        "lon": 28.967367,
        "tags": {
            "addr:city": "Istanbul",
            "addr:district": "Fatih",
            "description": "",
            "opening_hours": null,
            "phone": null,
            "branch": null,
            "amenity": "interior_decoration",
            "mobile": null,
            "addr:street": "Uzun Çarşı Caddesi",
            "cuisine": null,
            "name": "İlgi Dekorasyon",
            "name:en": null,
            "name:uk": null,
            "name:de": null,
            "name:tr": null,
            "name:ru": null,
            "name:ar": "إلغي ديكوراسيون للديكور"
        }
    },
    {
        "lat": 41.0148538,
        "lon": 28.9673761,
        "tags": {
            "addr:city": "Istanbul",
            "addr:district": "Fatih",
            "description": "",
            "opening_hours": null,
            "phone": null,
            "branch": null,
            "amenity": "interior_decoration",
            "mobile": null,
            "addr:street": "Uzun Çarşı Caddesi",
            "cuisine": null,
            "name": "ÖZ-İŞ bronz dekorasyon",
            "name:en": null,
            "name:uk": null,
            "name:de": null,
            "name:tr": null,
            "name:ru": null,
            "name:ar": "أوز إيش برونز ديكوراسيون للديكور"
        }
    },
    {
        "lat": 41.0149771,
        "lon": 28.9675742,
        "tags": {
            "addr:city": "Istanbul",
            "addr:district": "Fatih",
            "description": "",
            "opening_hours": null,
            "phone": null,
            "branch": null,
            "amenity": "interior_decoration",
            "mobile": null,
            "addr:street": "Uzun Çarşı Caddesi",
            "cuisine": null,
            "name": "Galip Bronz",
            "name:en": null,
            "name:uk": null,
            "name:de": null,
            "name:tr": null,
            "name:ru": null,
            "name:ar": "غاليب برونز للديكور"
        }
    },
    {
        "lat": 41.0149117,
        "lon": 28.9675744,
        "tags": {
            "addr:city": "Istanbul",
            "addr:district": "Fatih",
            "description": "",
            "opening_hours": null,
            "phone": null,
            "branch": null,
            "amenity": "interior_decoration",
            "mobile": null,
            "addr:street": "Uzun Çarşı Caddesi",
            "cuisine": null,
            "name": "Yiğit Bronz Dekorasyon",
            "name:en": null,
            "name:uk": null,
            "name:de": null,
            "name:tr": null,
            "name:ru": null,
            "name:ar": "ييت برونز ديكوراسيون للديكور"
        }
    },
    {
        "lat": 41.01486,
        "lon": 28.9675689,
        "tags": {
            "addr:city": "Istanbul",
            "addr:district": "Fatih",
            "description": "",
            "opening_hours": null,
            "phone": null,
            "branch": null,
            "amenity": "interior_decoration",
            "mobile": null,
            "addr:street": "Uzun Çarşı Caddesi",
            "cuisine": null,
            "name": "Yasin Bronz",
            "name:en": null,
            "name:uk": null,
            "name:de": null,
            "name:tr": null,
            "name:ru": null,
            "name:ar": "ياسين برونز للديكور"
        }
    },
    {
        "lat": 41.0134736,
        "lon": 28.9676041,
        "tags": {
            "addr:city": "Istanbul",
            "addr:district": "Fatih",
            "description": "",
            "opening_hours": null,
            "phone": null,
            "branch": null,
            "amenity": "interior_decoration",
            "mobile": null,
            "addr:street": "Uzun Çarşı Caddesi",
            "cuisine": null,
            "name": "Koçak Madeni Dekorasyon",
            "name:en": null,
            "name:uk": null,
            "name:de": null,
            "name:tr": null,
            "name:ru": null,
            "name:ar": "كوجاك ماديني ديكوراسيون للديكور"
        }
    },
    {
        "lat": 41.0141812,
        "lon": 28.9666107,
        "tags": {
            "addr:city": "Istanbul",
            "addr:district": "Fatih",
            "description": "",
            "opening_hours": null,
            "phone": null,
            "branch": null,
            "amenity": "interior_decoration",
            "mobile": null,
            "addr:street": "Nargileci Sokağı",
            "cuisine": null,
            "name": "Dünya Cam",
            "name:en": null,
            "name:uk": null,
            "name:de": null,
            "name:tr": null,
            "name:ru": null,
            "name:ar": "دونيا جام للزجاج"
        }
    },
    {
        "lat": 41.0140075,
        "lon": 28.9663476,
        "tags": {
            "addr:city": "Istanbul",
            "addr:district": "Fatih",
            "description": "",
            "opening_hours": null,
            "phone": null,
            "branch": null,
            "amenity": "interior_decoration",
            "mobile": null,
            "addr:street": "Nargileci Sokağı",
            "cuisine": null,
            "name": "Nurcam Kristal",
            "name:en": null,
            "name:uk": null,
            "name:de": null,
            "name:tr": null,
            "name:ru": null,
            "name:ar": "نورجام كريستال"
        }
    },
    {
        "lat": 41.0146077,
        "lon": 28.9676108,
        "tags": {
            "addr:city": "Istanbul",
            "addr:district": "Fatih",
            "description": "",
            "opening_hours": null,
            "phone": null,
            "branch": null,
            "amenity": "interior_decoration",
            "mobile": null,
            "addr:street": "Paşa Cami Sokağı",
            "cuisine": null,
            "name": "Umut Dekorasyon",
            "name:en": null,
            "name:uk": null,
            "name:de": null,
            "name:tr": null,
            "name:ru": null,
            "name:ar": "أوموت ديكوراسيون للديكور"
        }
    },
    {
        "lat": 41.0187557,
        "lon": 28.9525003,
        "tags": {
            "addr:city": "Istanbul",
            "addr:district": "Turkey",
            "description": "",
            "opening_hours": null,
            "phone": null,
            "branch": null,
            "amenity": "interior_decoration",
            "mobile": null,
            "addr:street": "Mıhçılar caddesi",
            "cuisine": null,
            "name": "Apaydın yapı malz",
            "name:en": null,
            "name:uk": null,
            "name:de": null,
            "name:tr": null,
            "name:ru": null,
            "name:ar": null
        }
    },
    {
        "lat": 41.0223264,
        "lon": 28.9506912,
        "tags": {
            "addr:city": "Istanbul",
            "addr:district": "Fatih",
            "description": "",
            "opening_hours": null,
            "phone": "05077022577",
            "branch": null,
            "amenity": "interior_decoration",
            "mobile": null,
            "addr:street": "Haliç caddesi",
            "cuisine": null,
            "name": "Medar yapı market",
            "name:en": null,
            "name:uk": null,
            "name:de": null,
            "name:tr": null,
            "name:ru": null,
            "name:ar": "مدار يابى مركز"
        }
    },
    {
        "lat": 41.0218818,
        "lon": 28.9504467,
        "tags": {
            "addr:city": "Istanbul",
            "addr:district": "Fatih",
            "description": "",
            "opening_hours": null,
            "phone": null,
            "branch": null,
            "amenity": "interior_decoration",
            "mobile": null,
            "addr:street": "Haliç caddesi",
            "cuisine": null,
            "name": "Çağdaş yapım",
            "name:en": null,
            "name:uk": null,
            "name:de": null,
            "name:tr": null,
            "name:ru": null,
            "name:ar": "جاغداش يابيم"
        }
    },
    {
        "lat": 41.0239777,
        "lon": 28.9357315,
        "tags": {
            "addr:city": "Istanbul",
            "addr:district": "Fatih",
            "description": "",
            "opening_hours": null,
            "phone": null,
            "branch": null,
            "amenity": "interior_decoration",
            "mobile": null,
            "addr:street": "Sofali çeşme caddesi",
            "cuisine": null,
            "name": "Rama yapı",
            "name:en": null,
            "name:uk": null,
            "name:de": null,
            "name:tr": null,
            "name:ru": null,
            "name:ar": "راما يابى"
        }
    },
    {
        "lat": 41.0260197,
        "lon": 28.9383898,
        "tags": {
            "addr:city": "Istanbul",
            "addr:district": "Fatih",
            "description": "",
            "opening_hours": null,
            "phone": null,
            "branch": null,
            "amenity": "interior_decoration",
            "mobile": null,
            "addr:street": "Prof. naci şensoy caddesi",
            "cuisine": null,
            "name": "Koçkar yapı malz",
            "name:en": null,
            "name:uk": null,
            "name:de": null,
            "name:tr": null,
            "name:ru": null,
            "name:ar": "كوجكار يابى ملزماليري"
        }
    },
    {
        "lat": 41.026967,
        "lon": 28.937217,
        "tags": {
            "addr:city": "Istanbul",
            "addr:district": "Fatih",
            "description": "",
            "opening_hours": null,
            "phone": null,
            "branch": null,
            "amenity": "interior_decoration",
            "mobile": null,
            "addr:street": "Prof. naci şensoy caddesi",
            "cuisine": null,
            "name": "Fıratpen",
            "name:en": null,
            "name:uk": null,
            "name:de": null,
            "name:tr": null,
            "name:ru": null,
            "name:ar": "فرات بين"
        }
    },
    {
        "lat": 41.0274091,
        "lon": 28.9374627,
        "tags": {
            "addr:city": "Istanbul",
            "addr:district": "Fatih",
            "description": "",
            "opening_hours": null,
            "phone": null,
            "branch": null,
            "amenity": "interior_decoration",
            "mobile": null,
            "addr:street": "Hatice sultan sokak",
            "cuisine": null,
            "name": "Kale",
            "name:en": null,
            "name:uk": null,
            "name:de": null,
            "name:tr": null,
            "name:ru": null,
            "name:ar": "كالى"
        }
    },
    {
        "lat": 41.0252404,
        "lon": 28.9385676,
        "tags": {
            "addr:city": "Istanbul",
            "addr:district": "Fatih",
            "description": "",
            "opening_hours": null,
            "phone": null,
            "branch": null,
            "amenity": "interior_decoration",
            "mobile": null,
            "addr:street": "Melek hoca caddesi",
            "cuisine": null,
            "name": "Ermestan çelik kapi",
            "name:en": null,
            "name:uk": null,
            "name:de": null,
            "name:tr": null,
            "name:ru": null,
            "name:ar": "ارميستان جيليك كابى"
        }
    },
    {
        "lat": 41.02727,
        "lon": 28.9413006,
        "tags": {
            "addr:city": "Istanbul",
            "addr:district": "Fatih",
            "description": "",
            "opening_hours": null,
            "phone": null,
            "branch": null,
            "amenity": "interior_decoration",
            "mobile": null,
            "addr:street": "Canfeda cami sokak",
            "cuisine": null,
            "name": "Yılmaz halı",
            "name:en": null,
            "name:uk": null,
            "name:de": null,
            "name:tr": null,
            "name:ru": null,
            "name:ar": "يلماز سجادات"
        }
    },
    {
        "lat": 41.0298754,
        "lon": 28.9398048,
        "tags": {
            "addr:city": "Istanbul",
            "addr:district": "Fatih",
            "description": "",
            "opening_hours": null,
            "phone": null,
            "branch": null,
            "amenity": "interior_decoration",
            "mobile": null,
            "addr:street": "Slama tomruk Caddesi",
            "cuisine": null,
            "name": "Engin AVM",
            "name:en": null,
            "name:uk": null,
            "name:de": null,
            "name:tr": null,
            "name:ru": null,
            "name:ar": "انغين مركز تسوق"
        }
    },
    {
        "lat": 41.0084139,
        "lon": 28.9262687,
        "tags": {
            "addr:city": "Istanbul",
            "addr:district": "Fatih",
            "description": "",
            "opening_hours": null,
            "phone": "05354570399",
            "branch": null,
            "amenity": "interior_decoration",
            "mobile": null,
            "addr:street": "Lalezar Cami Sokak",
            "cuisine": null,
            "name": "Murat Dekorasyon",
            "name:en": null,
            "name:uk": null,
            "name:de": null,
            "name:tr": null,
            "name:ru": null,
            "name:ar": "مراد للديكور"
        }
    },
    {
        "lat": 41.0070907,
        "lon": 28.927666,
        "tags": {
            "addr:city": "Istanbul",
            "addr:district": "Fatih",
            "description": "",
            "opening_hours": null,
            "phone": null,
            "branch": null,
            "amenity": "interior_decoration",
            "mobile": null,
            "addr:street": "Silivrikapı Caddesi",
            "cuisine": null,
            "name": "Mutfak ve Dekorasyon",
            "name:en": null,
            "name:uk": null,
            "name:de": null,
            "name:tr": null,
            "name:ru": null,
            "name:ar": "ديكورات ومطابخ"
        }
    },
    {
        "lat": 41.002312,
        "lon": 28.9314983,
        "tags": {
            "addr:city": "Istanbul",
            "addr:district": "Fatih",
            "description": "",
            "opening_hours": null,
            "phone": "02125862890",
            "branch": null,
            "amenity": "interior_decoration",
            "mobile": null,
            "addr:street": "Milli Müdafaa Caddesi",
            "cuisine": null,
            "name": "Emek Mobilya Ve Dekorasyon",
            "name:en": null,
            "name:uk": null,
            "name:de": null,
            "name:tr": null,
            "name:ru": null,
            "name:ar": "إيميك للموبيليا والديكور"
        }
    },
    {
        "lat": 41.0168009,
        "lon": 28.9697842,
        "tags": {
            "addr:city": "Istanbul",
            "addr:district": "Fatih",
            "description": "",
            "opening_hours": null,
            "phone": null,
            "branch": null,
            "amenity": "interior_decoration",
            "mobile": null,
            "addr:street": "Hasırcılar Caddesi",
            "cuisine": null,
            "name": "Can Süs Dekorasyon",
            "name:en": null,
            "name:uk": null,
            "name:de": null,
            "name:tr": null,
            "name:ru": null,
            "name:ar": "جان سوس ديكوراسيون"
        }
    },
    {
        "lat": 41.0152262,
        "lon": 28.969554,
        "tags": {
            "addr:city": "Istanbul",
            "addr:district": "Fatih",
            "description": "",
            "opening_hours": null,
            "phone": null,
            "branch": null,
            "amenity": "interior_decoration",
            "mobile": null,
            "addr:street": "Sabuncu Hanı Sokak",
            "cuisine": null,
            "name": "Aksoy İplik Tuhafiye",
            "name:en": null,
            "name:uk": null,
            "name:de": null,
            "name:tr": null,
            "name:ru": null,
            "name:ar": null
        }
    },
    {
        "lat": 41.0272692,
        "lon": 28.9792755,
        "tags": {
            "addr:city": "İstanbul",
            "addr:district": null,
            "description": "",
            "opening_hours": null,
            "phone": null,
            "branch": null,
            "amenity": "interior_decoration",
            "mobile": null,
            "addr:street": null,
            "cuisine": null,
            "name": "Baska",
            "name:en": null,
            "name:uk": null,
            "name:de": null,
            "name:tr": null,
            "name:ru": null,
            "name:ar": null
        }
    },
    {
        "lat": 41.0024031,
        "lon": 28.8966291,
        "tags": {
            "addr:city": "Istanbul",
            "addr:district": "Zeytinburnu",
            "description": "",
            "opening_hours": null,
            "phone": null,
            "branch": null,
            "amenity": "interior_decoration",
            "mobile": null,
            "addr:street": "Demirciler Sitesi 9 Cd",
            "cuisine": null,
            "name": "DÜNYA DEKOR",
            "name:en": null,
            "name:uk": null,
            "name:de": null,
            "name:tr": null,
            "name:ru": null,
            "name:ar": "دنيا للديكورات"
        }
    },
    {
        "lat": 40.9939068,
        "lon": 28.9022746,
        "tags": {
            "addr:city": "Istanbul",
            "addr:district": "Zeytinburnu",
            "description": "",
            "opening_hours": "Mo-Su 09:00-19:00",
            "phone": null,
            "branch": null,
            "amenity": "interior_decoration",
            "mobile": null,
            "addr:street": null,
            "cuisine": null,
            "name": "İstanbul Yapı Dekorasyon",
            "name:en": null,
            "name:uk": null,
            "name:de": null,
            "name:tr": null,
            "name:ru": null,
            "name:ar": "اسطنبول للديكور"
        }
    },
    {
        "lat": 40.9941512,
        "lon": 28.9004203,
        "tags": {
            "addr:city": "Istanbul",
            "addr:district": "Zeytinburnu",
            "description": "",
            "opening_hours": "Mo-Su 09:00-19:00",
            "phone": null,
            "branch": null,
            "amenity": "interior_decoration",
            "mobile": null,
            "addr:street": null,
            "cuisine": null,
            "name": "Ev Mutfak Dekor",
            "name:en": null,
            "name:uk": null,
            "name:de": null,
            "name:tr": null,
            "name:ru": null,
            "name:ar": "ديكور البيت والمطبخ"
        }
    },
    {
        "lat": 40.9874981,
        "lon": 28.8969404,
        "tags": {
            "addr:city": "Istanbul",
            "addr:district": "Zeytinburnu",
            "description": "",
            "opening_hours": null,
            "phone": null,
            "branch": null,
            "amenity": "interior_decoration",
            "mobile": null,
            "addr:street": "Merv Caddesi",
            "cuisine": null,
            "name": "can mobilya",
            "name:en": null,
            "name:uk": null,
            "name:de": null,
            "name:tr": null,
            "name:ru": null,
            "name:ar": "جان موبيليا"
        }
    },
    {
        "lat": 40.9857222,
        "lon": 28.9024389,
        "tags": {
            "addr:city": "Istanbul",
            "addr:district": "Zeytinburnu",
            "description": "",
            "opening_hours": null,
            "phone": null,
            "branch": null,
            "amenity": "interior_decoration",
            "mobile": null,
            "addr:street": "14. Sokak",
            "cuisine": null,
            "name": "Art Yapı Dekorasyon",
            "name:en": null,
            "name:uk": null,
            "name:de": null,
            "name:tr": null,
            "name:ru": null,
            "name:ar": "آرت للديكور"
        }
    },
    {
        "lat": 40.9929865,
        "lon": 28.9051683,
        "tags": {
            "addr:city": "Istanbul",
            "addr:district": "Zeytinburnu",
            "description": "",
            "opening_hours": null,
            "phone": null,
            "branch": null,
            "amenity": "interior_decoration",
            "mobile": null,
            "addr:street": "48. sokak",
            "cuisine": null,
            "name": "ORFA DEKOR",
            "name:en": null,
            "name:uk": null,
            "name:de": null,
            "name:tr": null,
            "name:ru": null,
            "name:ar": "ديكور اورفا"
        }
    },
    {
        "lat": 41.0487664,
        "lon": 28.8585484,
        "tags": {
            "addr:city": "Istanbul",
            "addr:district": "Bağcılar",
            "description": "",
            "opening_hours": null,
            "phone": "05324634568",
            "branch": null,
            "amenity": "interior_decoration",
            "mobile": null,
            "addr:street": "2/17A Sokak",
            "cuisine": null,
            "name": "Serhan Dekorasyon",
            "name:en": null,
            "name:uk": null,
            "name:de": null,
            "name:tr": null,
            "name:ru": null,
            "name:ar": "سرحان داكوراسيون"
        }
    },
    {
        "lat": 41.0454572,
        "lon": 28.858102,
        "tags": {
            "addr:city": "Istanbul",
            "addr:district": null,
            "description": "",
            "opening_hours": null,
            "phone": "05357495370",
            "branch": null,
            "amenity": "interior_decoration",
            "mobile": null,
            "addr:street": "2067 Sokak",
            "cuisine": null,
            "name": "Mobilya & Dekarasyon",
            "name:en": null,
            "name:uk": null,
            "name:de": null,
            "name:tr": null,
            "name:ru": null,
            "name:ar": "موبيليا & دكراسيون"
        }
    },
    {
        "lat": 41.0417306,
        "lon": 28.8589388,
        "tags": {
            "addr:city": "Istanbul",
            "addr:district": null,
            "description": "",
            "opening_hours": null,
            "phone": "05323458345",
            "branch": null,
            "amenity": "interior_decoration",
            "mobile": null,
            "addr:street": "1995 Sokak",
            "cuisine": null,
            "name": "Detay Alçı Dekorasyon",
            "name:en": null,
            "name:uk": null,
            "name:de": null,
            "name:tr": null,
            "name:ru": null,
            "name:ar": "دتاي اكش ديكورسيون"
        }
    },
    {
        "lat": 41.0455703,
        "lon": 28.8584617,
        "tags": {
            "addr:city": "Istanbul",
            "addr:district": null,
            "description": "",
            "opening_hours": null,
            "phone": null,
            "branch": null,
            "amenity": "interior_decoration",
            "mobile": null,
            "addr:street": "2004 Sokak",
            "cuisine": null,
            "name": "Duşa Kabin",
            "name:en": null,
            "name:uk": null,
            "name:de": null,
            "name:tr": null,
            "name:ru": null,
            "name:ar": "دوشا كابين"
        }
    },
    {
        "lat": 41.0272652,
        "lon": 28.9744897,
        "tags": {
            "addr:city": "İstanbul",
            "addr:district": null,
            "description": "",
            "opening_hours": null,
            "phone": null,
            "branch": null,
            "amenity": "interior_decoration",
            "mobile": null,
            "addr:street": null,
            "cuisine": null,
            "name": "MONI Mr. & Mrs. Accessories",
            "name:en": null,
            "name:uk": null,
            "name:de": null,
            "name:tr": null,
            "name:ru": null,
            "name:ar": null
        }
    },
    {
        "lat": 40.9571647,
        "lon": 29.0967932,
        "tags": {
            "addr:city": "İstanbul",
            "addr:district": null,
            "description": "",
            "opening_hours": null,
            "phone": null,
            "branch": null,
            "amenity": "interior_decoration",
            "mobile": null,
            "addr:street": null,
            "cuisine": null,
            "name": "Barış Yapı",
            "name:en": null,
            "name:uk": null,
            "name:de": null,
            "name:tr": null,
            "name:ru": null,
            "name:ar": null
        }
    },
    {
        "lat": 41.0404615,
        "lon": 28.8121444,
        "tags": {
            "addr:city": "İstanbul",
            "addr:district": null,
            "description": "",
            "opening_hours": null,
            "phone": null,
            "branch": null,
            "amenity": "interior_decoration",
            "mobile": null,
            "addr:street": null,
            "cuisine": null,
            "name": "Porland",
            "name:en": null,
            "name:uk": null,
            "name:de": null,
            "name:tr": null,
            "name:ru": null,
            "name:ar": null
        }
    },
    {
        "lat": 41.0459164,
        "lon": 28.805927,
        "tags": {
            "addr:city": "İstanbul",
            "addr:district": null,
            "description": "",
            "opening_hours": null,
            "phone": null,
            "branch": null,
            "amenity": "interior_decoration",
            "mobile": null,
            "addr:street": null,
            "cuisine": null,
            "name": "Avize Sarayı & Halı",
            "name:en": null,
            "name:uk": null,
            "name:de": null,
            "name:tr": null,
            "name:ru": null,
            "name:ar": null
        }
    },
    {
        "lat": 41.0390179,
        "lon": 29.0783101,
        "tags": {
            "addr:city": "Mehmet Akif Ersoy Mahallesi",
            "addr:district": "Üsküdar",
            "description": "",
            "opening_hours": "Mo-Sa 08:00-19:00",
            "phone": null,
            "branch": null,
            "amenity": "interior_decoration",
            "mobile": null,
            "addr:street": "Bosna Bulvarı",
            "cuisine": null,
            "name": "İndemo - Mutfak | Banyo | Dekorasyon | Mimarlık",
            "name:en": null,
            "name:uk": null,
            "name:de": null,
            "name:tr": null,
            "name:ru": null,
            "name:ar": null
        }
    },
    {
        "lat": 40.9785554,
        "lon": 29.0417891,
        "tags": {
            "addr:city": "İstanbul",
            "addr:district": null,
            "description": "",
            "opening_hours": null,
            "phone": null,
            "branch": null,
            "amenity": "interior_decoration",
            "mobile": null,
            "addr:street": null,
            "cuisine": null,
            "name": "Lineadecor",
            "name:en": null,
            "name:uk": null,
            "name:de": null,
            "name:tr": null,
            "name:ru": null,
            "name:ar": null
        }
    },
    {
        "lat": 40.9705802,
        "lon": 29.0532148,
        "tags": {
            "addr:city": "İstanbul",
            "addr:district": null,
            "description": "",
            "opening_hours": null,
            "phone": null,
            "branch": null,
            "amenity": "interior_decoration",
            "mobile": null,
            "addr:street": null,
            "cuisine": null,
            "name": "Archidecors",
            "name:en": null,
            "name:uk": null,
            "name:de": null,
            "name:tr": null,
            "name:ru": null,
            "name:ar": null
        }
    },
    {
        "lat": 40.973641,
        "lon": 29.0487686,
        "tags": {
            "addr:city": "İstanbul",
            "addr:district": null,
            "description": "",
            "opening_hours": null,
            "phone": null,
            "branch": null,
            "amenity": "interior_decoration",
            "mobile": null,
            "addr:street": null,
            "cuisine": null,
            "name": "Bakır İstanbul",
            "name:en": null,
            "name:uk": null,
            "name:de": null,
            "name:tr": null,
            "name:ru": null,
            "name:ar": null
        }
    },
    {
        "lat": 40.9722259,
        "lon": 29.0505889,
        "tags": {
            "addr:city": "İstanbul",
            "addr:district": null,
            "description": "",
            "opening_hours": null,
            "phone": null,
            "branch": null,
            "amenity": "interior_decoration",
            "mobile": null,
            "addr:street": null,
            "cuisine": null,
            "name": "Indoor Life",
            "name:en": null,
            "name:uk": null,
            "name:de": null,
            "name:tr": null,
            "name:ru": null,
            "name:ar": null
        }
    },
    {
        "lat": 40.9786688,
        "lon": 29.1270098,
        "tags": {
            "addr:city": "İstanbul",
            "addr:district": null,
            "description": "",
            "opening_hours": null,
            "phone": null,
            "branch": null,
            "amenity": "interior_decoration",
            "mobile": null,
            "addr:street": null,
            "cuisine": null,
            "name": "Kütahya Seramik",
            "name:en": null,
            "name:uk": null,
            "name:de": null,
            "name:tr": null,
            "name:ru": null,
            "name:ar": null
        }
    },
    {
        "lat": 40.9757082,
        "lon": 29.0802611,
        "tags": {
            "addr:city": "İstanbul",
            "addr:district": null,
            "description": "",
            "opening_hours": null,
            "phone": null,
            "branch": null,
            "amenity": "interior_decoration",
            "mobile": null,
            "addr:street": null,
            "cuisine": null,
            "name": "Atak Mobilya & Tasarım",
            "name:en": null,
            "name:uk": null,
            "name:de": null,
            "name:tr": null,
            "name:ru": null,
            "name:ar": null
        }
    },
    {
        "lat": 40.9795228,
        "lon": 29.0841415,
        "tags": {
            "addr:city": "İstanbul",
            "addr:district": null,
            "description": "",
            "opening_hours": null,
            "phone": null,
            "branch": null,
            "amenity": "interior_decoration",
            "mobile": null,
            "addr:street": null,
            "cuisine": null,
            "name": "Ayrıntı Home Design",
            "name:en": null,
            "name:uk": null,
            "name:de": null,
            "name:tr": null,
            "name:ru": null,
            "name:ar": null
        }
    },
    {
        "lat": 40.9795474,
        "lon": 29.0830417,
        "tags": {
            "addr:city": "İstanbul",
            "addr:district": null,
            "description": "",
            "opening_hours": null,
            "phone": null,
            "branch": null,
            "amenity": "interior_decoration",
            "mobile": null,
            "addr:street": null,
            "cuisine": null,
            "name": "Miray Dolap",
            "name:en": null,
            "name:uk": null,
            "name:de": null,
            "name:tr": null,
            "name:ru": null,
            "name:ar": null
        }
    },
    {
        "lat": 40.9820195,
        "lon": 29.1320611,
        "tags": {
            "addr:city": "İstanbul",
            "addr:district": null,
            "description": "",
            "opening_hours": null,
            "phone": null,
            "branch": null,
            "amenity": "interior_decoration",
            "mobile": null,
            "addr:street": null,
            "cuisine": null,
            "name": "Kervan",
            "name:en": null,
            "name:uk": null,
            "name:de": null,
            "name:tr": null,
            "name:ru": null,
            "name:ar": null
        }
    },
    {
        "lat": 40.981235,
        "lon": 29.090479,
        "tags": {
            "addr:city": "İstanbul",
            "addr:district": "Kadıköy",
            "description": "",
            "opening_hours": "Mo-Fr 10:00 - 19:00; Sa-Su 10:00 - 18:00",
            "phone": null,
            "branch": null,
            "amenity": "interior_decoration",
            "mobile": null,
            "addr:street": "Atatürk Caddesi",
            "cuisine": null,
            "name": "Mirage",
            "name:en": null,
            "name:uk": null,
            "name:de": null,
            "name:tr": null,
            "name:ru": null,
            "name:ar": null
        }
    },
    {
        "lat": 41.0818921,
        "lon": 28.9691939,
        "tags": {
            "addr:city": "İstanbul",
            "addr:district": null,
            "description": "",
            "opening_hours": null,
            "phone": null,
            "branch": null,
            "amenity": "interior_decoration",
            "mobile": null,
            "addr:street": null,
            "cuisine": null,
            "name": "New Dekorasyon",
            "name:en": null,
            "name:uk": null,
            "name:de": null,
            "name:tr": null,
            "name:ru": null,
            "name:ar": null
        }
    },
    {
        "lat": 41.0203884,
        "lon": 28.5800093,
        "tags": {
            "addr:city": "İstanbul",
            "addr:district": null,
            "description": "",
            "opening_hours": null,
            "phone": null,
            "branch": null,
            "amenity": "interior_decoration",
            "mobile": null,
            "addr:street": null,
            "cuisine": null,
            "name": "Venga Tasarım",
            "name:en": null,
            "name:uk": null,
            "name:de": null,
            "name:tr": null,
            "name:ru": null,
            "name:ar": null
        }
    },
    {
        "lat": 40.9663897,
        "lon": 29.0686413,
        "tags": {
            "addr:city": "İstanbul",
            "addr:district": "Kadıköy",
            "description": "",
            "opening_hours": "10:00-21:00",
            "phone": null,
            "branch": null,
            "amenity": "interior_decoration",
            "mobile": null,
            "addr:street": "Bağdat Caddesi",
            "cuisine": null,
            "name": "Paşabahçe",
            "name:en": null,
            "name:uk": null,
            "name:de": null,
            "name:tr": null,
            "name:ru": null,
            "name:ar": null
        }
    },
    {
        "lat": 40.9807507,
        "lon": 29.0789724,
        "tags": {
            "addr:city": "İstanbul",
            "addr:district": null,
            "description": "",
            "opening_hours": null,
            "phone": null,
            "branch": null,
            "amenity": "interior_decoration",
            "mobile": null,
            "addr:street": null,
            "cuisine": null,
            "name": "Artdolap Tasarım",
            "name:en": null,
            "name:uk": null,
            "name:de": null,
            "name:tr": null,
            "name:ru": null,
            "name:ar": null
        }
    },
    {
        "lat": 40.9808495,
        "lon": 29.0791577,
        "tags": {
            "addr:city": "İstanbul",
            "addr:district": null,
            "description": "",
            "opening_hours": null,
            "phone": null,
            "branch": null,
            "amenity": "interior_decoration",
            "mobile": null,
            "addr:street": null,
            "cuisine": null,
            "name": "Deronidecor",
            "name:en": null,
            "name:uk": null,
            "name:de": null,
            "name:tr": null,
            "name:ru": null,
            "name:ar": null
        }
    },
    {
        "lat": 40.9809436,
        "lon": 29.080262,
        "tags": {
            "addr:city": "İstanbul",
            "addr:district": null,
            "description": "",
            "opening_hours": null,
            "phone": null,
            "branch": null,
            "amenity": "interior_decoration",
            "mobile": null,
            "addr:street": null,
            "cuisine": null,
            "name": "Tuna Ray Dolap",
            "name:en": null,
            "name:uk": null,
            "name:de": null,
            "name:tr": null,
            "name:ru": null,
            "name:ar": null
        }
    },
    {
        "lat": 41.0838724,
        "lon": 28.9119769,
        "tags": {
            "addr:city": "İstanbul",
            "addr:district": null,
            "description": "",
            "opening_hours": null,
            "phone": null,
            "branch": null,
            "amenity": "interior_decoration",
            "mobile": null,
            "addr:street": null,
            "cuisine": null,
            "name": "Bien Seramik",
            "name:en": null,
            "name:uk": null,
            "name:de": null,
            "name:tr": null,
            "name:ru": null,
            "name:ar": null
        }
    },
    {
        "lat": 41.0769855,
        "lon": 28.9353161,
        "tags": {
            "addr:city": "İstanbul",
            "addr:district": null,
            "description": "",
            "opening_hours": null,
            "phone": null,
            "branch": null,
            "amenity": "interior_decoration",
            "mobile": null,
            "addr:street": null,
            "cuisine": null,
            "name": "Öz Sayar Alçı İç ve Dış Tasarım",
            "name:en": null,
            "name:uk": null,
            "name:de": null,
            "name:tr": null,
            "name:ru": null,
            "name:ar": null
        }
    },
    {
        "lat": 40.9277827,
        "lon": 29.3204632,
        "tags": {
            "addr:city": "İstanbul",
            "addr:district": null,
            "description": "",
            "opening_hours": null,
            "phone": null,
            "branch": null,
            "amenity": "interior_decoration",
            "mobile": null,
            "addr:street": null,
            "cuisine": null,
            "name": "Gaggo Home",
            "name:en": null,
            "name:uk": null,
            "name:de": null,
            "name:tr": null,
            "name:ru": null,
            "name:ar": null
        }
    },
    {
        "lat": 41.0237981,
        "lon": 28.9741636,
        "tags": {
            "addr:city": "İstanbul",
            "addr:district": null,
            "description": "",
            "opening_hours": null,
            "phone": null,
            "branch": null,
            "amenity": "interior_decoration",
            "mobile": null,
            "addr:street": "Bankalar Caddesi",
            "cuisine": null,
            "name": "Esvednâme",
            "name:en": null,
            "name:uk": null,
            "name:de": null,
            "name:tr": null,
            "name:ru": null,
            "name:ar": null
        }
    },
    {
        "lat": 40.9789721,
        "lon": 29.1562774,
        "tags": {
            "addr:city": "İstanbul",
            "addr:district": "Ataşehir",
            "description": "",
            "opening_hours": null,
            "phone": null,
            "branch": null,
            "amenity": "interior_decoration",
            "mobile": null,
            "addr:street": "Canan Sokağı",
            "cuisine": null,
            "name": "Bsign Dekorasyon",
            "name:en": null,
            "name:uk": null,
            "name:de": null,
            "name:tr": null,
            "name:ru": null,
            "name:ar": null
        }
    },
    {
        "lat": 40.9789486,
        "lon": 29.156524,
        "tags": {
            "addr:city": "İstanbul",
            "addr:district": "Ataşehir",
            "description": "",
            "opening_hours": null,
            "phone": "+905350203990",
            "branch": null,
            "amenity": "interior_decoration",
            "mobile": null,
            "addr:street": "Hediye Sokağı",
            "cuisine": null,
            "name": "Aksoy Koltuk Koruma Kılıfları",
            "name:en": null,
            "name:uk": null,
            "name:de": null,
            "name:tr": null,
            "name:ru": null,
            "name:ar": null
        }
    },
    {
        "lat": 41.016054,
        "lon": 28.555689,
        "tags": {
            "addr:city": "İstanbul",
            "addr:district": null,
            "description": "",
            "opening_hours": null,
            "phone": null,
            "branch": null,
            "amenity": "interior_decoration",
            "mobile": null,
            "addr:street": null,
            "cuisine": null,
            "name": "banyoduragi.com",
            "name:en": null,
            "name:uk": null,
            "name:de": null,
            "name:tr": null,
            "name:ru": null,
            "name:ar": null
        }
    },
    {
        "lat": 40.9810162,
        "lon": 29.0233224,
        "tags": {
            "addr:city": "İstanbul",
            "addr:district": null,
            "description": "",
            "opening_hours": null,
            "phone": null,
            "branch": null,
            "amenity": "interior_decoration",
            "mobile": null,
            "addr:street": null,
            "cuisine": null,
            "name": "Artdepo",
            "name:en": null,
            "name:uk": null,
            "name:de": null,
            "name:tr": null,
            "name:ru": null,
            "name:ar": null
        }
    },
    {
        "lat": 41.0194488,
        "lon": 28.5772419,
        "tags": {
            "addr:city": "İstanbul",
            "addr:district": null,
            "description": "",
            "opening_hours": null,
            "phone": null,
            "branch": null,
            "amenity": "interior_decoration",
            "mobile": null,
            "addr:street": null,
            "cuisine": null,
            "name": "İç Mimar Hürana Güngör",
            "name:en": null,
            "name:uk": null,
            "name:de": null,
            "name:tr": null,
            "name:ru": null,
            "name:ar": null
        }
    },
    {
        "lat": 41.0291589,
        "lon": 28.9794816,
        "tags": {
            "addr:city": "İstanbul",
            "addr:district": null,
            "description": "",
            "opening_hours": null,
            "phone": null,
            "branch": null,
            "amenity": "interior_decoration",
            "mobile": null,
            "addr:street": null,
            "cuisine": null,
            "name": "Cicekisleri",
            "name:en": null,
            "name:uk": null,
            "name:de": null,
            "name:tr": null,
            "name:ru": null,
            "name:ar": null
        }
    },
    {
        "lat": 40.9796219,
        "lon": 29.067019,
        "tags": {
            "addr:city": "İstanbul",
            "addr:district": "Kadıköy",
            "description": "",
            "opening_hours": "10:00 - 22:00",
            "phone": null,
            "branch": null,
            "amenity": "interior_decoration",
            "mobile": null,
            "addr:street": "Tütüncü Mehmet Efendi Caddesi",
            "cuisine": null,
            "name": "English Home",
            "name:en": null,
            "name:uk": null,
            "name:de": null,
            "name:tr": null,
            "name:ru": null,
            "name:ar": null
        }
    },
    {
        "lat": 40.989056,
        "lon": 29.0325587,
        "tags": {
            "addr:city": "İstanbul",
            "addr:district": "Kadıköy",
            "description": "",
            "opening_hours": null,
            "phone": null,
            "branch": null,
            "amenity": "interior_decoration",
            "mobile": null,
            "addr:street": "Kuşdili Caddesi",
            "cuisine": null,
            "name": "Modül Dekorasyon",
            "name:en": null,
            "name:uk": null,
            "name:de": null,
            "name:tr": null,
            "name:ru": null,
            "name:ar": null
        }
    },
    {
        "lat": 41.0746128,
        "lon": 28.6227107,
        "tags": {
            "addr:city": "İstanbul",
            "addr:district": null,
            "description": "",
            "opening_hours": null,
            "phone": null,
            "branch": null,
            "amenity": "interior_decoration",
            "mobile": null,
            "addr:street": null,
            "cuisine": null,
            "name": "Design 2000 İç Mimarlık & Tasarım by Betül Atlı",
            "name:en": null,
            "name:uk": null,
            "name:de": null,
            "name:tr": null,
            "name:ru": null,
            "name:ar": null
        }
    },
    {
        "lat": 40.9229004,
        "lon": 29.1339058,
        "tags": {
            "addr:city": "İstanbul",
            "addr:district": null,
            "description": "",
            "opening_hours": null,
            "phone": null,
            "branch": null,
            "amenity": "interior_decoration",
            "mobile": null,
            "addr:street": null,
            "cuisine": null,
            "name": "English Home",
            "name:en": null,
            "name:uk": null,
            "name:de": null,
            "name:tr": null,
            "name:ru": null,
            "name:ar": null
        }
    },
    {
        "lat": 40.8781382,
        "lon": 29.2334327,
        "tags": {
            "addr:city": "İstanbul",
            "addr:district": null,
            "description": "",
            "opening_hours": null,
            "phone": null,
            "branch": null,
            "amenity": "interior_decoration",
            "mobile": null,
            "addr:street": null,
            "cuisine": null,
            "name": "Yön AVM",
            "name:en": null,
            "name:uk": null,
            "name:de": null,
            "name:tr": null,
            "name:ru": null,
            "name:ar": null
        }
    },
    {
        "lat": 40.9625433,
        "lon": 29.0799594,
        "tags": {
            "addr:city": "İstanbul",
            "addr:district": null,
            "description": "",
            "opening_hours": null,
            "phone": null,
            "branch": null,
            "amenity": "interior_decoration",
            "mobile": null,
            "addr:street": null,
            "cuisine": null,
            "name": "UKJ Concept Store",
            "name:en": null,
            "name:uk": null,
            "name:de": null,
            "name:tr": null,
            "name:ru": null,
            "name:ar": null
        }
    },
    {
        "lat": 40.9618506,
        "lon": 29.08804,
        "tags": {
            "addr:city": "İstanbul",
            "addr:district": null,
            "description": "",
            "opening_hours": null,
            "phone": null,
            "branch": null,
            "amenity": "interior_decoration",
            "mobile": null,
            "addr:street": null,
            "cuisine": null,
            "name": "Helios",
            "name:en": null,
            "name:uk": null,
            "name:de": null,
            "name:tr": null,
            "name:ru": null,
            "name:ar": null
        }
    },
    {
        "lat": 40.958866,
        "lon": 29.0824516,
        "tags": {
            "addr:city": "İstanbul",
            "addr:district": null,
            "description": "",
            "opening_hours": null,
            "phone": null,
            "branch": null,
            "amenity": "interior_decoration",
            "mobile": null,
            "addr:street": null,
            "cuisine": null,
            "name": null,
            "name:en": null,
            "name:uk": null,
            "name:de": null,
            "name:tr": null,
            "name:ru": null,
            "name:ar": null
        }
    }
]