[
    {
        "lat": 41.0307461,
        "lon": 28.9789857,
        "tags": {
            "addr:city": "İstanbul",
            "addr:district": null,
            "description": "",
            "opening_hours": null,
            "phone": null,
            "branch": null,
            "amenity": "kiosk",
            "mobile": null,
            "addr:street": null,
            "cuisine": null,
            "name": null,
            "name:en": null,
            "name:uk": null,
            "name:de": null,
            "name:tr": null,
            "name:ru": null,
            "name:ar": null
        }
    },
    {
        "lat": 41.0338391,
        "lon": 28.976658,
        "tags": {
            "addr:city": "İstanbul",
            "addr:district": null,
            "description": "",
            "opening_hours": null,
            "phone": null,
            "branch": null,
            "amenity": "kiosk",
            "mobile": null,
            "addr:street": null,
            "cuisine": null,
            "name": null,
            "name:en": null,
            "name:uk": null,
            "name:de": null,
            "name:tr": null,
            "name:ru": null,
            "name:ar": null
        }
    },
    {
        "lat": 41.003645,
        "lon": 28.9792479,
        "tags": {
            "addr:city": "İstanbul",
            "addr:district": null,
            "description": "",
            "opening_hours": null,
            "phone": null,
            "branch": null,
            "amenity": "kiosk",
            "mobile": null,
            "addr:street": null,
            "cuisine": null,
            "name": null,
            "name:en": null,
            "name:uk": null,
            "name:de": null,
            "name:tr": null,
            "name:ru": null,
            "name:ar": null
        }
    },
    {
        "lat": 40.9926866,
        "lon": 29.1278558,
        "tags": {
            "addr:city": "İstanbul",
            "addr:district": null,
            "description": "",
            "opening_hours": null,
            "phone": null,
            "branch": null,
            "amenity": "kiosk",
            "mobile": null,
            "addr:street": null,
            "cuisine": null,
            "name": "İHE",
            "name:en": null,
            "name:uk": null,
            "name:de": null,
            "name:tr": null,
            "name:ru": null,
            "name:ar": null
        }
    },
    {
        "lat": 41.0839448,
        "lon": 29.0525993,
        "tags": {
            "addr:city": "İstanbul",
            "addr:district": null,
            "description": "",
            "opening_hours": null,
            "phone": null,
            "branch": null,
            "amenity": "kiosk",
            "mobile": null,
            "addr:street": null,
            "cuisine": null,
            "name": null,
            "name:en": null,
            "name:uk": null,
            "name:de": null,
            "name:tr": null,
            "name:ru": null,
            "name:ar": null
        }
    },
    {
        "lat": 41.0119172,
        "lon": 28.6505454,
        "tags": {
            "addr:city": "İstanbul",
            "addr:district": null,
            "description": "",
            "opening_hours": null,
            "phone": null,
            "branch": null,
            "amenity": "kiosk",
            "mobile": null,
            "addr:street": null,
            "cuisine": null,
            "name": "İstanbulkart Para Yükleme Merkezi",
            "name:en": null,
            "name:uk": null,
            "name:de": null,
            "name:tr": null,
            "name:ru": null,
            "name:ar": null
        }
    },
    {
        "lat": 41.0851221,
        "lon": 29.0436867,
        "tags": {
            "addr:city": "İstanbul",
            "addr:district": null,
            "description": "Akbil",
            "opening_hours": null,
            "phone": null,
            "branch": null,
            "amenity": "kiosk",
            "mobile": null,
            "addr:street": null,
            "cuisine": null,
            "name": "Gökçe Büfe",
            "name:en": null,
            "name:uk": null,
            "name:de": null,
            "name:tr": null,
            "name:ru": null,
            "name:ar": null
        }
    },
    {
        "lat": 41.0073253,
        "lon": 29.1377065,
        "tags": {
            "addr:city": "İstanbul",
            "addr:district": null,
            "description": "",
            "opening_hours": null,
            "phone": null,
            "branch": null,
            "amenity": "kiosk",
            "mobile": null,
            "addr:street": null,
            "cuisine": null,
            "name": "1453",
            "name:en": null,
            "name:uk": null,
            "name:de": null,
            "name:tr": null,
            "name:ru": null,
            "name:ar": null
        }
    },
    {
        "lat": 40.900512,
        "lon": 29.1675408,
        "tags": {
            "addr:city": "İstanbul",
            "addr:district": null,
            "description": "",
            "opening_hours": null,
            "phone": null,
            "branch": null,
            "amenity": "kiosk",
            "mobile": null,
            "addr:street": null,
            "cuisine": null,
            "name": "İddaa-Ganyan bayi",
            "name:en": null,
            "name:uk": null,
            "name:de": null,
            "name:tr": null,
            "name:ru": null,
            "name:ar": null
        }
    },
    {
        "lat": 40.9014737,
        "lon": 29.1665901,
        "tags": {
            "addr:city": "İstanbul",
            "addr:district": null,
            "description": "",
            "opening_hours": null,
            "phone": null,
            "branch": null,
            "amenity": "kiosk",
            "mobile": null,
            "addr:street": null,
            "cuisine": null,
            "name": "Tekel",
            "name:en": null,
            "name:uk": null,
            "name:de": null,
            "name:tr": null,
            "name:ru": null,
            "name:ar": null
        }
    },
    {
        "lat": 40.9005661,
        "lon": 29.1680478,
        "tags": {
            "addr:city": "İstanbul",
            "addr:district": null,
            "description": "",
            "opening_hours": null,
            "phone": null,
            "branch": null,
            "amenity": "kiosk",
            "mobile": null,
            "addr:street": null,
            "cuisine": null,
            "name": "Tekel",
            "name:en": null,
            "name:uk": null,
            "name:de": null,
            "name:tr": null,
            "name:ru": null,
            "name:ar": null
        }
    },
    {
        "lat": 41.0098028,
        "lon": 28.9814916,
        "tags": {
            "addr:city": "İstanbul",
            "addr:district": null,
            "description": "",
            "opening_hours": null,
            "phone": null,
            "branch": null,
            "amenity": "kiosk",
            "mobile": null,
            "addr:street": null,
            "cuisine": null,
            "name": "Museum Kiosk",
            "name:en": null,
            "name:uk": null,
            "name:de": null,
            "name:tr": null,
            "name:ru": null,
            "name:ar": null
        }
    },
    {
        "lat": 41.0105316,
        "lon": 29.0105699,
        "tags": {
            "addr:city": "İstanbul",
            "addr:district": null,
            "description": "",
            "opening_hours": null,
            "phone": null,
            "branch": null,
            "amenity": "kiosk",
            "mobile": null,
            "addr:street": null,
            "cuisine": null,
            "name": null,
            "name:en": null,
            "name:uk": null,
            "name:de": null,
            "name:tr": null,
            "name:ru": null,
            "name:ar": null
        }
    },
    {
        "lat": 41.0871646,
        "lon": 29.0070862,
        "tags": {
            "addr:city": "İstanbul",
            "addr:district": null,
            "description": "",
            "opening_hours": null,
            "phone": null,
            "branch": null,
            "amenity": "kiosk",
            "mobile": null,
            "addr:street": null,
            "cuisine": null,
            "name": null,
            "name:en": null,
            "name:uk": null,
            "name:de": null,
            "name:tr": null,
            "name:ru": null,
            "name:ar": null
        }
    },
    {
        "lat": 40.9659067,
        "lon": 29.0699795,
        "tags": {
            "addr:city": "İstanbul",
            "addr:district": null,
            "description": "",
            "opening_hours": null,
            "phone": null,
            "branch": null,
            "amenity": "kiosk",
            "mobile": null,
            "addr:street": null,
            "cuisine": null,
            "name": null,
            "name:en": null,
            "name:uk": null,
            "name:de": null,
            "name:tr": null,
            "name:ru": null,
            "name:ar": null
        }
    },
    {
        "lat": 41.0121736,
        "lon": 29.1203926,
        "tags": {
            "addr:city": "İstanbul",
            "addr:district": null,
            "description": "",
            "opening_hours": null,
            "phone": null,
            "branch": null,
            "amenity": "kiosk",
            "mobile": null,
            "addr:street": null,
            "cuisine": null,
            "name": null,
            "name:en": null,
            "name:uk": null,
            "name:de": null,
            "name:tr": null,
            "name:ru": null,
            "name:ar": null
        }
    },
    {
        "lat": 40.9939278,
        "lon": 28.9246495,
        "tags": {
            "addr:city": "Istanbul",
            "addr:district": "Fatih",
            "description": "",
            "opening_hours": null,
            "phone": null,
            "branch": null,
            "amenity": "kiosk",
            "mobile": null,
            "addr:street": "Cami sokagi",
            "cuisine": null,
            "name": "Istanbul halk ekmek",
            "name:en": null,
            "name:uk": null,
            "name:de": null,
            "name:tr": null,
            "name:ru": null,
            "name:ar": "خبز اسطنبول"
        }
    },
    {
        "lat": 41.0168524,
        "lon": 28.9503318,
        "tags": {
            "addr:city": "Istanbul",
            "addr:district": "Fatih",
            "description": "",
            "opening_hours": null,
            "phone": null,
            "branch": null,
            "amenity": "kiosk",
            "mobile": null,
            "addr:street": "Macar kardeşler Caddesi",
            "cuisine": null,
            "name": "Akbil Bayii",
            "name:en": null,
            "name:uk": null,
            "name:de": null,
            "name:tr": null,
            "name:ru": null,
            "name:ar": "كشك مبيع"
        }
    },
    {
        "lat": 41.0255358,
        "lon": 28.9554321,
        "tags": {
            "addr:city": "Istanbul",
            "addr:district": "Fatih",
            "description": "",
            "opening_hours": null,
            "phone": null,
            "branch": null,
            "amenity": "kiosk",
            "mobile": null,
            "addr:street": "Karadeniz Caddesi",
            "cuisine": null,
            "name": "Sırma Su",
            "name:en": null,
            "name:uk": null,
            "name:de": null,
            "name:tr": null,
            "name:ru": null,
            "name:ar": "سيرما سو"
        }
    },
    {
        "lat": 41.0245728,
        "lon": 28.9544417,
        "tags": {
            "addr:city": "Istanbul",
            "addr:district": "Fatih",
            "description": "",
            "opening_hours": null,
            "phone": null,
            "branch": null,
            "amenity": "kiosk",
            "mobile": null,
            "addr:street": "Aşık Paşa Sokak",
            "cuisine": null,
            "name": "Saka Su",
            "name:en": null,
            "name:uk": null,
            "name:de": null,
            "name:tr": null,
            "name:ru": null,
            "name:ar": "ساكا سو"
        }
    },
    {
        "lat": 40.9987324,
        "lon": 28.9307228,
        "tags": {
            "addr:city": "Istanbul",
            "addr:district": "Fatih",
            "description": "",
            "opening_hours": null,
            "phone": null,
            "branch": null,
            "amenity": "kiosk",
            "mobile": null,
            "addr:street": "Abdurrahman Nafiz Gürman Caddesi",
            "cuisine": null,
            "name": "mo-sa 7:00-19:30",
            "name:en": null,
            "name:uk": null,
            "name:de": null,
            "name:tr": null,
            "name:ru": null,
            "name:ar": "خبز اسطنبول الشعبي"
        }
    },
    {
        "lat": 41.1085087,
        "lon": 29.0156475,
        "tags": {
            "addr:city": "İstanbul",
            "addr:district": null,
            "description": "",
            "opening_hours": null,
            "phone": null,
            "branch": null,
            "amenity": "kiosk",
            "mobile": null,
            "addr:street": null,
            "cuisine": null,
            "name": "Özkan Büfe",
            "name:en": null,
            "name:uk": null,
            "name:de": null,
            "name:tr": null,
            "name:ru": null,
            "name:ar": null
        }
    },
    {
        "lat": 41.0157581,
        "lon": 28.9535778,
        "tags": {
            "addr:city": "Istanbul",
            "addr:district": "Fatih",
            "description": "",
            "opening_hours": null,
            "phone": null,
            "branch": null,
            "amenity": "kiosk",
            "mobile": null,
            "addr:street": "Itfaiye Caddesi",
            "cuisine": null,
            "name": "Fatih Meydan Büfe",
            "name:en": null,
            "name:uk": null,
            "name:de": null,
            "name:tr": null,
            "name:ru": null,
            "name:ar": "بوفيه ميدان فاتح"
        }
    },
    {
        "lat": 41.0070196,
        "lon": 28.9311259,
        "tags": {
            "addr:city": "Istanbul",
            "addr:district": "Fatih",
            "description": "",
            "opening_hours": null,
            "phone": null,
            "branch": null,
            "amenity": "kiosk",
            "mobile": null,
            "addr:street": "Altımermer Caddesi",
            "cuisine": null,
            "name": "Korusu Su",
            "name:en": null,
            "name:uk": null,
            "name:de": null,
            "name:tr": null,
            "name:ru": null,
            "name:ar": "كوروسو سو"
        }
    },
    {
        "lat": 41.014105,
        "lon": 28.9773639,
        "tags": {
            "addr:city": "Istanbul",
            "addr:district": "Fatih",
            "description": "",
            "opening_hours": null,
            "phone": "+90 212 522 71 67",
            "branch": null,
            "amenity": "kiosk",
            "mobile": null,
            "addr:street": "Nöbethane caddesi",
            "cuisine": null,
            "name": "Güven Büfe ve Tekel Bayii",
            "name:en": null,
            "name:uk": null,
            "name:de": null,
            "name:tr": null,
            "name:ru": null,
            "name:ar": null
        }
    },
    {
        "lat": 41.0145971,
        "lon": 28.9773812,
        "tags": {
            "addr:city": "Istanbul",
            "addr:district": "Fatih",
            "description": "",
            "opening_hours": null,
            "phone": null,
            "branch": null,
            "amenity": "kiosk",
            "mobile": null,
            "addr:street": "İstasyon Arkası Sokak",
            "cuisine": null,
            "name": "Peron Büfe",
            "name:en": null,
            "name:uk": null,
            "name:de": null,
            "name:tr": null,
            "name:ru": null,
            "name:ar": null
        }
    },
    {
        "lat": 41.021998,
        "lon": 28.9740712,
        "tags": {
            "addr:city": "İstanbul",
            "addr:district": null,
            "description": "",
            "opening_hours": null,
            "phone": null,
            "branch": null,
            "amenity": "kiosk",
            "mobile": null,
            "addr:street": null,
            "cuisine": null,
            "name": "Tatar Büfe",
            "name:en": null,
            "name:uk": null,
            "name:de": null,
            "name:tr": null,
            "name:ru": null,
            "name:ar": null
        }
    },
    {
        "lat": 41.0002522,
        "lon": 28.9242754,
        "tags": {
            "addr:city": "Istanbul",
            "addr:district": "Fatih",
            "description": "",
            "opening_hours": null,
            "phone": null,
            "branch": null,
            "amenity": "kiosk",
            "mobile": null,
            "addr:street": "Hacı Kadın Caddesi",
            "cuisine": null,
            "name": "İstanbul Halk Ekmek",
            "name:en": null,
            "name:uk": null,
            "name:de": null,
            "name:tr": null,
            "name:ru": null,
            "name:ar": "إستطنبول هالك لبيع الخبز والمعجنات"
        }
    },
    {
        "lat": 41.0097457,
        "lon": 28.9612363,
        "tags": {
            "addr:city": "Istanbul",
            "addr:district": "Fatih",
            "description": "",
            "opening_hours": null,
            "phone": null,
            "branch": null,
            "amenity": "kiosk",
            "mobile": null,
            "addr:street": "Ordu Caddesi",
            "cuisine": null,
            "name": "Akbil İstanbul Kart Gazete",
            "name:en": null,
            "name:uk": null,
            "name:de": null,
            "name:tr": null,
            "name:ru": null,
            "name:ar": "كشك جرائد وأكبيل"
        }
    },
    {
        "lat": 41.0090266,
        "lon": 28.9529467,
        "tags": {
            "addr:city": "Istanbul",
            "addr:district": "Fatih",
            "description": "",
            "opening_hours": null,
            "phone": null,
            "branch": null,
            "amenity": "kiosk",
            "mobile": null,
            "addr:street": "Teceddüt sokağı",
            "cuisine": null,
            "name": "Kayaalp büfe",
            "name:en": null,
            "name:uk": null,
            "name:de": null,
            "name:tr": null,
            "name:ru": null,
            "name:ar": "كشك كايا ألب"
        }
    },
    {
        "lat": 41.0076909,
        "lon": 28.9537082,
        "tags": {
            "addr:city": "Istanbul",
            "addr:district": "Fatih",
            "description": "",
            "opening_hours": null,
            "phone": null,
            "branch": null,
            "amenity": "kiosk",
            "mobile": null,
            "addr:street": "Gazi Mustafa Kemal Paşa Caddesi",
            "cuisine": null,
            "name": "İstanbul Kart Dolum Bayi",
            "name:en": null,
            "name:uk": null,
            "name:de": null,
            "name:tr": null,
            "name:ru": null,
            "name:ar": "استنبول كارت دولوم بايي"
        }
    },
    {
        "lat": 41.0070123,
        "lon": 28.9760525,
        "tags": {
            "addr:city": "Istanbul",
            "addr:district": "Fatih",
            "description": "",
            "opening_hours": null,
            "phone": null,
            "branch": null,
            "amenity": "kiosk",
            "mobile": null,
            "addr:street": "Atmeydanı caddesi",
            "cuisine": null,
            "name": "Ersoy Büfe",
            "name:en": null,
            "name:uk": null,
            "name:de": null,
            "name:tr": null,
            "name:ru": null,
            "name:ar": "ارسوي بوفه"
        }
    },
    {
        "lat": 41.010482,
        "lon": 28.9416854,
        "tags": {
            "addr:city": "Istanbul",
            "addr:district": "Fatih",
            "description": "",
            "opening_hours": null,
            "phone": null,
            "branch": null,
            "amenity": "kiosk",
            "mobile": null,
            "addr:street": "Darüşşifa Sokak",
            "cuisine": null,
            "name": "Gıda",
            "name:en": null,
            "name:uk": null,
            "name:de": null,
            "name:tr": null,
            "name:ru": null,
            "name:ar": "غذاء"
        }
    },
    {
        "lat": 41.0095346,
        "lon": 28.9412593,
        "tags": {
            "addr:city": "Istanbul",
            "addr:district": "Fatih",
            "description": "",
            "opening_hours": null,
            "phone": null,
            "branch": null,
            "amenity": "kiosk",
            "mobile": null,
            "addr:street": "Darüşşifa Sokak",
            "cuisine": null,
            "name": "Ada Şarkuteri",
            "name:en": null,
            "name:uk": null,
            "name:de": null,
            "name:tr": null,
            "name:ru": null,
            "name:ar": "اضا شاركوتري"
        }
    },
    {
        "lat": 41.0096259,
        "lon": 28.9420026,
        "tags": {
            "addr:city": "Istanbul",
            "addr:district": "Fatih",
            "description": "",
            "opening_hours": null,
            "phone": null,
            "branch": null,
            "amenity": "kiosk",
            "mobile": null,
            "addr:street": "Bakibey Sokak",
            "cuisine": null,
            "name": "Mavi karadeniz Gıda",
            "name:en": null,
            "name:uk": null,
            "name:de": null,
            "name:tr": null,
            "name:ru": null,
            "name:ar": "مافي كارا دينز غذاء"
        }
    },
    {
        "lat": 41.009784,
        "lon": 28.9427424,
        "tags": {
            "addr:city": "Istanbul",
            "addr:district": "Fatih",
            "description": "",
            "opening_hours": null,
            "phone": null,
            "branch": null,
            "amenity": "kiosk",
            "mobile": null,
            "addr:street": "Suphi Paşa sokak",
            "cuisine": null,
            "name": "Turcel Tekel",
            "name:en": null,
            "name:uk": null,
            "name:de": null,
            "name:tr": null,
            "name:ru": null,
            "name:ar": "تورجل تيكيل"
        }
    },
    {
        "lat": 41.0078273,
        "lon": 28.943004,
        "tags": {
            "addr:city": "Istanbul",
            "addr:district": "Fatih",
            "description": "",
            "opening_hours": null,
            "phone": null,
            "branch": null,
            "amenity": "kiosk",
            "mobile": null,
            "addr:street": "Haseki Kadın Sokak",
            "cuisine": null,
            "name": "Şengitler Market",
            "name:en": null,
            "name:uk": null,
            "name:de": null,
            "name:tr": null,
            "name:ru": null,
            "name:ar": "ماركت شينغيتلار"
        }
    },
    {
        "lat": 41.0084682,
        "lon": 28.9462727,
        "tags": {
            "addr:city": "Istanbul",
            "addr:district": "Fatih",
            "description": "",
            "opening_hours": null,
            "phone": null,
            "branch": null,
            "amenity": "kiosk",
            "mobile": null,
            "addr:street": "Cerrah Paşa Caddesi",
            "cuisine": null,
            "name": "Deniz Gıda",
            "name:en": null,
            "name:uk": null,
            "name:de": null,
            "name:tr": null,
            "name:ru": null,
            "name:ar": "دنيز غذاء"
        }
    },
    {
        "lat": 41.0089389,
        "lon": 28.9476599,
        "tags": {
            "addr:city": "Istanbul",
            "addr:district": "Fatih",
            "description": "",
            "opening_hours": null,
            "phone": null,
            "branch": null,
            "amenity": "kiosk",
            "mobile": null,
            "addr:street": "Cerrah Paşa Caddesi",
            "cuisine": null,
            "name": "S.O.S Kuruyemiş Tekel",
            "name:en": null,
            "name:uk": null,
            "name:de": null,
            "name:tr": null,
            "name:ru": null,
            "name:ar": "اس.او.اس"
        }
    },
    {
        "lat": 41.0090329,
        "lon": 28.9377313,
        "tags": {
            "addr:city": "Istanbul",
            "addr:district": "Turkey",
            "description": "",
            "opening_hours": null,
            "phone": null,
            "branch": null,
            "amenity": "kiosk",
            "mobile": null,
            "addr:street": "KIZILELMA CADDESİ",
            "cuisine": null,
            "name": "TÜTÜN ZADE",
            "name:en": null,
            "name:uk": null,
            "name:de": null,
            "name:tr": null,
            "name:ru": null,
            "name:ar": "توتن زادى"
        }
    },
    {
        "lat": 41.0073602,
        "lon": 28.9368834,
        "tags": {
            "addr:city": "Istanbul",
            "addr:district": "Turkey",
            "description": "",
            "opening_hours": null,
            "phone": null,
            "branch": null,
            "amenity": "kiosk",
            "mobile": null,
            "addr:street": "KIZILELMA CADDESİ",
            "cuisine": null,
            "name": "anahtarcı",
            "name:en": null,
            "name:uk": null,
            "name:de": null,
            "name:tr": null,
            "name:ru": null,
            "name:ar": "اناهتارجي"
        }
    },
    {
        "lat": 41.0109347,
        "lon": 28.9423753,
        "tags": {
            "addr:city": "Istanbul",
            "addr:district": "Turkey",
            "description": "",
            "opening_hours": null,
            "phone": null,
            "branch": null,
            "amenity": "kiosk",
            "mobile": null,
            "addr:street": "Turgut özal millet caddesi",
            "cuisine": null,
            "name": "Şenol Teke",
            "name:en": null,
            "name:uk": null,
            "name:de": null,
            "name:tr": null,
            "name:ru": null,
            "name:ar": "شينوول تيكي"
        }
    },
    {
        "lat": 41.0105463,
        "lon": 28.9387605,
        "tags": {
            "addr:city": "Istanbul",
            "addr:district": "Fatih",
            "description": "",
            "opening_hours": null,
            "phone": "05325077273",
            "branch": null,
            "amenity": "kiosk",
            "mobile": null,
            "addr:street": "Munif paşa sokak",
            "cuisine": null,
            "name": "Anahtarcı",
            "name:en": null,
            "name:uk": null,
            "name:de": null,
            "name:tr": null,
            "name:ru": null,
            "name:ar": "اناهتارجي"
        }
    },
    {
        "lat": 41.0104156,
        "lon": 28.939616,
        "tags": {
            "addr:city": "Istanbul",
            "addr:district": "Fatih",
            "description": "",
            "opening_hours": null,
            "phone": null,
            "branch": null,
            "amenity": "kiosk",
            "mobile": null,
            "addr:street": "Munif paşa sokak",
            "cuisine": null,
            "name": "Deri market",
            "name:en": null,
            "name:uk": null,
            "name:de": null,
            "name:tr": null,
            "name:ru": null,
            "name:ar": "مخزن الديري"
        }
    },
    {
        "lat": 41.0104976,
        "lon": 28.9399337,
        "tags": {
            "addr:city": "Istanbul",
            "addr:district": "Fatih",
            "description": "",
            "opening_hours": null,
            "phone": null,
            "branch": null,
            "amenity": "kiosk",
            "mobile": null,
            "addr:street": "Tevfik fikret Sokak",
            "cuisine": null,
            "name": "Şahin",
            "name:en": null,
            "name:uk": null,
            "name:de": null,
            "name:tr": null,
            "name:ru": null,
            "name:ar": "شاهين"
        }
    },
    {
        "lat": 41.009999,
        "lon": 28.9397628,
        "tags": {
            "addr:city": "Istanbul",
            "addr:district": "Fatih",
            "description": "",
            "opening_hours": null,
            "phone": null,
            "branch": null,
            "amenity": "kiosk",
            "mobile": null,
            "addr:street": "Hatip naci sokak",
            "cuisine": null,
            "name": "Ada market",
            "name:en": null,
            "name:uk": null,
            "name:de": null,
            "name:tr": null,
            "name:ru": null,
            "name:ar": "اضا ماركت"
        }
    },
    {
        "lat": 41.0087446,
        "lon": 28.9399228,
        "tags": {
            "addr:city": "Istanbul",
            "addr:district": "Fatih",
            "description": "",
            "opening_hours": null,
            "phone": null,
            "branch": null,
            "amenity": "kiosk",
            "mobile": null,
            "addr:street": "Ahmet hikmet Sokak",
            "cuisine": null,
            "name": "Yaşam tekel",
            "name:en": null,
            "name:uk": null,
            "name:de": null,
            "name:tr": null,
            "name:ru": null,
            "name:ar": "ياشام تيكيل"
        }
    },
    {
        "lat": 41.0077791,
        "lon": 28.939504,
        "tags": {
            "addr:city": "Istanbul",
            "addr:district": "Fatih",
            "description": "",
            "opening_hours": null,
            "phone": null,
            "branch": null,
            "amenity": "kiosk",
            "mobile": null,
            "addr:street": "Hekimoğlu ali paşa Caddesi",
            "cuisine": null,
            "name": "Cezer market",
            "name:en": null,
            "name:uk": null,
            "name:de": null,
            "name:tr": null,
            "name:ru": null,
            "name:ar": "جزر ماركت"
        }
    },
    {
        "lat": 41.0088683,
        "lon": 28.9381736,
        "tags": {
            "addr:city": "Istanbul",
            "addr:district": "Fatih",
            "description": "",
            "opening_hours": null,
            "phone": null,
            "branch": null,
            "amenity": "kiosk",
            "mobile": null,
            "addr:street": "Ahmet Hikmet Sokağı",
            "cuisine": null,
            "name": "Turcel Gıda",
            "name:en": null,
            "name:uk": null,
            "name:de": null,
            "name:tr": null,
            "name:ru": null,
            "name:ar": "ترجل غذاء"
        }
    },
    {
        "lat": 41.0285228,
        "lon": 28.9382546,
        "tags": {
            "addr:city": "Istanbul",
            "addr:district": "Fatih",
            "description": "",
            "opening_hours": null,
            "phone": null,
            "branch": null,
            "amenity": "kiosk",
            "mobile": null,
            "addr:street": "Salma tomruk caddesi",
            "cuisine": null,
            "name": "Stad bufe",
            "name:en": null,
            "name:uk": null,
            "name:de": null,
            "name:tr": null,
            "name:ru": null,
            "name:ar": "ستاد بوفي"
        }
    },
    {
        "lat": 41.0261444,
        "lon": 28.940421,
        "tags": {
            "addr:city": "Istanbul",
            "addr:district": "Fatih",
            "description": "",
            "opening_hours": null,
            "phone": null,
            "branch": null,
            "amenity": "kiosk",
            "mobile": null,
            "addr:street": "Hasan fehmipaşa Caddesi",
            "cuisine": null,
            "name": "Bedirler kuruyemiş",
            "name:en": null,
            "name:uk": null,
            "name:de": null,
            "name:tr": null,
            "name:ru": null,
            "name:ar": "بيديرلار مكسرات"
        }
    },
    {
        "lat": 41.025972,
        "lon": 28.9406445,
        "tags": {
            "addr:city": "Istanbul",
            "addr:district": "Fatih",
            "description": "",
            "opening_hours": null,
            "phone": null,
            "branch": null,
            "amenity": "kiosk",
            "mobile": null,
            "addr:street": "Nureddin tekesi Sokak",
            "cuisine": null,
            "name": "Filiz kuruyemiş",
            "name:en": null,
            "name:uk": null,
            "name:de": null,
            "name:tr": null,
            "name:ru": null,
            "name:ar": "فلز مكسرات"
        }
    },
    {
        "lat": 41.0258584,
        "lon": 28.9402766,
        "tags": {
            "addr:city": "Istanbul",
            "addr:district": "Fatih",
            "description": "",
            "opening_hours": null,
            "phone": null,
            "branch": null,
            "amenity": "kiosk",
            "mobile": null,
            "addr:street": "Fevzi paşa Caddesi",
            "cuisine": null,
            "name": "Karagümrük bufe",
            "name:en": null,
            "name:uk": null,
            "name:de": null,
            "name:tr": null,
            "name:ru": null,
            "name:ar": "كشك كارا غومروك"
        }
    },
    {
        "lat": 41.028028,
        "lon": 28.9381152,
        "tags": {
            "addr:city": "Istanbul",
            "addr:district": "Fatih",
            "description": "",
            "opening_hours": null,
            "phone": null,
            "branch": null,
            "amenity": "kiosk",
            "mobile": null,
            "addr:street": "Fevzi paşa Caddesi",
            "cuisine": null,
            "name": "Bakkal",
            "name:en": null,
            "name:uk": null,
            "name:de": null,
            "name:tr": null,
            "name:ru": null,
            "name:ar": "بقال"
        }
    },
    {
        "lat": 41.0181334,
        "lon": 28.9450291,
        "tags": {
            "addr:city": "Istanbul",
            "addr:district": "Turkey",
            "description": "",
            "opening_hours": null,
            "phone": null,
            "branch": null,
            "amenity": "kiosk",
            "mobile": null,
            "addr:street": "Akdeniz Caddesi",
            "cuisine": null,
            "name": "Balsam",
            "name:en": null,
            "name:uk": null,
            "name:de": null,
            "name:tr": null,
            "name:ru": null,
            "name:ar": "بالسام"
        }
    },
    {
        "lat": 41.0189837,
        "lon": 28.9464649,
        "tags": {
            "addr:city": "Istanbul",
            "addr:district": "Turkey",
            "description": "",
            "opening_hours": null,
            "phone": null,
            "branch": null,
            "amenity": "kiosk",
            "mobile": null,
            "addr:street": "Akdeniz Caddesi",
            "cuisine": null,
            "name": "Çanta",
            "name:en": null,
            "name:uk": null,
            "name:de": null,
            "name:tr": null,
            "name:ru": null,
            "name:ar": "كشك"
        }
    },
    {
        "lat": 41.0185895,
        "lon": 28.9453203,
        "tags": {
            "addr:city": "Istanbul",
            "addr:district": "Turkey",
            "description": "",
            "opening_hours": null,
            "phone": null,
            "branch": null,
            "amenity": "kiosk",
            "mobile": null,
            "addr:street": "Akdeniz Caddesi",
            "cuisine": null,
            "name": "HAC & UMRE",
            "name:en": null,
            "name:uk": null,
            "name:de": null,
            "name:tr": null,
            "name:ru": null,
            "name:ar": "حج و عمرة"
        }
    },
    {
        "lat": 41.0187707,
        "lon": 28.946078,
        "tags": {
            "addr:city": "Istanbul",
            "addr:district": "Turkey",
            "description": "",
            "opening_hours": null,
            "phone": null,
            "branch": null,
            "amenity": "kiosk",
            "mobile": null,
            "addr:street": "Akdeniz Caddesi",
            "cuisine": null,
            "name": "BK office",
            "name:en": null,
            "name:uk": null,
            "name:de": null,
            "name:tr": null,
            "name:ru": null,
            "name:ar": "بي كي اوفيس"
        }
    },
    {
        "lat": 41.0206278,
        "lon": 28.944158,
        "tags": {
            "addr:city": "Istanbul",
            "addr:district": "Turkey",
            "description": "",
            "opening_hours": null,
            "phone": null,
            "branch": null,
            "amenity": "kiosk",
            "mobile": null,
            "addr:street": "SARIGUZEL cadde",
            "cuisine": null,
            "name": "Temik gida",
            "name:en": null,
            "name:uk": null,
            "name:de": null,
            "name:tr": null,
            "name:ru": null,
            "name:ar": "تنيك للتغذية"
        }
    },
    {
        "lat": 41.0164668,
        "lon": 28.9463474,
        "tags": {
            "addr:city": "Istanbul",
            "addr:district": "Turkey",
            "description": "",
            "opening_hours": null,
            "phone": null,
            "branch": null,
            "amenity": "kiosk",
            "mobile": null,
            "addr:street": "PALIPASA caddesi",
            "cuisine": null,
            "name": "Zevk tursilari",
            "name:en": null,
            "name:uk": null,
            "name:de": null,
            "name:tr": null,
            "name:ru": null,
            "name:ar": "مخللات ذوق"
        }
    },
    {
        "lat": 41.0319126,
        "lon": 28.9483513,
        "tags": {
            "addr:city": "Istanbul",
            "addr:district": "Turkey",
            "description": "",
            "opening_hours": null,
            "phone": null,
            "branch": null,
            "amenity": "kiosk",
            "mobile": null,
            "addr:street": "Vodina Caddesi",
            "cuisine": null,
            "name": "Bakkal",
            "name:en": null,
            "name:uk": null,
            "name:de": null,
            "name:tr": null,
            "name:ru": null,
            "name:ar": "بقال"
        }
    },
    {
        "lat": 40.9875596,
        "lon": 29.0612322,
        "tags": {
            "addr:city": "İstanbul",
            "addr:district": null,
            "description": "",
            "opening_hours": null,
            "phone": null,
            "branch": null,
            "amenity": "kiosk",
            "mobile": null,
            "addr:street": null,
            "cuisine": null,
            "name": null,
            "name:en": null,
            "name:uk": null,
            "name:de": null,
            "name:tr": null,
            "name:ru": null,
            "name:ar": null
        }
    },
    {
        "lat": 40.9877517,
        "lon": 29.062743,
        "tags": {
            "addr:city": "İstanbul",
            "addr:district": null,
            "description": "",
            "opening_hours": null,
            "phone": null,
            "branch": null,
            "amenity": "kiosk",
            "mobile": null,
            "addr:street": null,
            "cuisine": null,
            "name": null,
            "name:en": null,
            "name:uk": null,
            "name:de": null,
            "name:tr": null,
            "name:ru": null,
            "name:ar": null
        }
    },
    {
        "lat": 40.9843749,
        "lon": 29.0627014,
        "tags": {
            "addr:city": "İstanbul",
            "addr:district": null,
            "description": "",
            "opening_hours": null,
            "phone": null,
            "branch": null,
            "amenity": "kiosk",
            "mobile": null,
            "addr:street": null,
            "cuisine": null,
            "name": null,
            "name:en": null,
            "name:uk": null,
            "name:de": null,
            "name:tr": null,
            "name:ru": null,
            "name:ar": null
        }
    },
    {
        "lat": 40.8769051,
        "lon": 29.2453903,
        "tags": {
            "addr:city": "İstanbul",
            "addr:district": null,
            "description": "",
            "opening_hours": null,
            "phone": null,
            "branch": null,
            "amenity": "kiosk",
            "mobile": null,
            "addr:street": null,
            "cuisine": null,
            "name": "İmren Büfe",
            "name:en": null,
            "name:uk": null,
            "name:de": null,
            "name:tr": null,
            "name:ru": null,
            "name:ar": null
        }
    },
    {
        "lat": 40.9553784,
        "lon": 29.0953699,
        "tags": {
            "addr:city": "İstanbul",
            "addr:district": "Kadıköy",
            "description": "",
            "opening_hours": null,
            "phone": null,
            "branch": null,
            "amenity": "kiosk",
            "mobile": null,
            "addr:street": "Prof. Dr. Ali Nihat Tarlan Caddesi",
            "cuisine": null,
            "name": "Jest Büfe",
            "name:en": null,
            "name:uk": null,
            "name:de": null,
            "name:tr": null,
            "name:ru": null,
            "name:ar": null
        }
    },
    {
        "lat": 40.9557637,
        "lon": 29.0945695,
        "tags": {
            "addr:city": "Istanbul",
            "addr:district": "Kadıköy",
            "description": "",
            "opening_hours": null,
            "phone": null,
            "branch": null,
            "amenity": "kiosk",
            "mobile": null,
            "addr:street": "Vukela Caddesi",
            "cuisine": null,
            "name": "Kır Pidecisi",
            "name:en": null,
            "name:uk": null,
            "name:de": null,
            "name:tr": null,
            "name:ru": null,
            "name:ar": null
        }
    },
    {
        "lat": 40.955602,
        "lon": 29.0941152,
        "tags": {
            "addr:city": "Istanbul",
            "addr:district": "Kadıköy",
            "description": "",
            "opening_hours": null,
            "phone": null,
            "branch": null,
            "amenity": "kiosk",
            "mobile": null,
            "addr:street": "Vukela Caddesi",
            "cuisine": null,
            "name": "Oses Çiğköfte",
            "name:en": null,
            "name:uk": null,
            "name:de": null,
            "name:tr": null,
            "name:ru": null,
            "name:ar": null
        }
    },
    {
        "lat": 40.9556938,
        "lon": 29.0907329,
        "tags": {
            "addr:city": "İstanbul",
            "addr:district": "Kadıköy",
            "description": "",
            "opening_hours": null,
            "phone": null,
            "branch": null,
            "amenity": "kiosk",
            "mobile": null,
            "addr:street": "Bağdat Caddesi",
            "cuisine": null,
            "name": "Öztürkler Hamburger",
            "name:en": null,
            "name:uk": null,
            "name:de": null,
            "name:tr": null,
            "name:ru": null,
            "name:ar": null
        }
    },
    {
        "lat": 40.9565559,
        "lon": 29.0985677,
        "tags": {
            "addr:city": "İstanbul",
            "addr:district": null,
            "description": "",
            "opening_hours": null,
            "phone": null,
            "branch": null,
            "amenity": "kiosk",
            "mobile": null,
            "addr:street": "Emin Ali Paşa Caddesi",
            "cuisine": null,
            "name": "Güllüoğlu",
            "name:en": null,
            "name:uk": null,
            "name:de": null,
            "name:tr": null,
            "name:ru": null,
            "name:ar": null
        }
    },
    {
        "lat": 40.9565488,
        "lon": 29.098647,
        "tags": {
            "addr:city": "İstanbul",
            "addr:district": "Kadıköy",
            "description": "",
            "opening_hours": null,
            "phone": null,
            "branch": null,
            "amenity": "kiosk",
            "mobile": null,
            "addr:street": "Emin Ali Paşa Caddesi",
            "cuisine": null,
            "name": "Adımayan Çiğköfte",
            "name:en": null,
            "name:uk": null,
            "name:de": null,
            "name:tr": null,
            "name:ru": null,
            "name:ar": null
        }
    },
    {
        "lat": 40.9564198,
        "lon": 29.0993795,
        "tags": {
            "addr:city": "İstanbul",
            "addr:district": "Kadıköy",
            "description": "",
            "opening_hours": null,
            "phone": null,
            "branch": null,
            "amenity": "kiosk",
            "mobile": null,
            "addr:street": "Emin Ali Paşa Caddesi",
            "cuisine": null,
            "name": "Sampi Pide",
            "name:en": null,
            "name:uk": null,
            "name:de": null,
            "name:tr": null,
            "name:ru": null,
            "name:ar": null
        }
    },
    {
        "lat": 40.9563291,
        "lon": 29.0995028,
        "tags": {
            "addr:city": "İstanbul",
            "addr:district": "Kadıköy",
            "description": "",
            "opening_hours": null,
            "phone": null,
            "branch": null,
            "amenity": "kiosk",
            "mobile": null,
            "addr:street": "Emin Ali Paşa Caddesi",
            "cuisine": null,
            "name": "Bostancı Tantuni",
            "name:en": null,
            "name:uk": null,
            "name:de": null,
            "name:tr": null,
            "name:ru": null,
            "name:ar": null
        }
    },
    {
        "lat": 40.9562127,
        "lon": 29.0990884,
        "tags": {
            "addr:city": "İstanbul",
            "addr:district": "Kadıköy",
            "description": "",
            "opening_hours": null,
            "phone": null,
            "branch": null,
            "amenity": "kiosk",
            "mobile": null,
            "addr:street": "Emin Ali Paşa Caddesi",
            "cuisine": null,
            "name": "Sarıyer Börekçisi",
            "name:en": null,
            "name:uk": null,
            "name:de": null,
            "name:tr": null,
            "name:ru": null,
            "name:ar": null
        }
    },
    {
        "lat": 40.9561173,
        "lon": 29.0992655,
        "tags": {
            "addr:city": "İstanbul",
            "addr:district": "Kadıköy",
            "description": "",
            "opening_hours": null,
            "phone": null,
            "branch": null,
            "amenity": "kiosk",
            "mobile": null,
            "addr:street": "Emin Ali Paşa Caddesi",
            "cuisine": null,
            "name": "Fıstık Ağacı",
            "name:en": null,
            "name:uk": null,
            "name:de": null,
            "name:tr": null,
            "name:ru": null,
            "name:ar": null
        }
    },
    {
        "lat": 40.9555728,
        "lon": 29.1004886,
        "tags": {
            "addr:city": "İstanbul",
            "addr:district": "Kadıköy",
            "description": "",
            "opening_hours": null,
            "phone": null,
            "branch": null,
            "amenity": "kiosk",
            "mobile": null,
            "addr:street": "Emin Ali Paşa Caddesi",
            "cuisine": null,
            "name": "Sarıyer Balıkçısı",
            "name:en": null,
            "name:uk": null,
            "name:de": null,
            "name:tr": null,
            "name:ru": null,
            "name:ar": null
        }
    },
    {
        "lat": 40.9513163,
        "lon": 29.0959171,
        "tags": {
            "addr:city": "İstanbul",
            "addr:district": "Kadıköy",
            "description": "",
            "opening_hours": null,
            "phone": null,
            "branch": null,
            "amenity": "kiosk",
            "mobile": null,
            "addr:street": "Çetin Emeç Bulvarı",
            "cuisine": null,
            "name": "Sahil Büfe",
            "name:en": null,
            "name:uk": null,
            "name:de": null,
            "name:tr": null,
            "name:ru": null,
            "name:ar": null
        }
    },
    {
        "lat": 40.8989336,
        "lon": 29.1709338,
        "tags": {
            "addr:city": "İstanbul",
            "addr:district": null,
            "description": "",
            "opening_hours": null,
            "phone": null,
            "branch": null,
            "amenity": "kiosk",
            "mobile": null,
            "addr:street": null,
            "cuisine": null,
            "name": "Tekel",
            "name:en": null,
            "name:uk": null,
            "name:de": null,
            "name:tr": null,
            "name:ru": null,
            "name:ar": null
        }
    },
    {
        "lat": 40.8989569,
        "lon": 29.1700492,
        "tags": {
            "addr:city": "İstanbul",
            "addr:district": null,
            "description": "",
            "opening_hours": null,
            "phone": null,
            "branch": null,
            "amenity": "kiosk",
            "mobile": null,
            "addr:street": null,
            "cuisine": null,
            "name": "Tekel",
            "name:en": null,
            "name:uk": null,
            "name:de": null,
            "name:tr": null,
            "name:ru": null,
            "name:ar": null
        }
    },
    {
        "lat": 40.9566064,
        "lon": 29.0881266,
        "tags": {
            "addr:city": "İstanbul",
            "addr:district": "Kadıköy",
            "description": "",
            "opening_hours": null,
            "phone": null,
            "branch": null,
            "amenity": "kiosk",
            "mobile": null,
            "addr:street": "Bağdat Caddesi",
            "cuisine": null,
            "name": "Avşa Büfe",
            "name:en": null,
            "name:uk": null,
            "name:de": null,
            "name:tr": null,
            "name:ru": null,
            "name:ar": null
        }
    },
    {
        "lat": 40.9619781,
        "lon": 29.0922984,
        "tags": {
            "addr:city": "İstanbul",
            "addr:district": "Kadıköy",
            "description": "",
            "opening_hours": null,
            "phone": null,
            "branch": null,
            "amenity": "kiosk",
            "mobile": null,
            "addr:street": "Şemsettin Günaltay Caddesi",
            "cuisine": null,
            "name": "Fuska Su",
            "name:en": null,
            "name:uk": null,
            "name:de": null,
            "name:tr": null,
            "name:ru": null,
            "name:ar": null
        }
    },
    {
        "lat": 40.9633909,
        "lon": 29.0898362,
        "tags": {
            "addr:city": "İstanbul",
            "addr:district": "Kadıköy",
            "description": "",
            "opening_hours": null,
            "phone": null,
            "branch": null,
            "amenity": "kiosk",
            "mobile": null,
            "addr:street": "Şemsettin Günaltay Caddesi",
            "cuisine": null,
            "name": "Halk Ekmek",
            "name:en": null,
            "name:uk": null,
            "name:de": null,
            "name:tr": null,
            "name:ru": null,
            "name:ar": null
        }
    },
    {
        "lat": 40.9636138,
        "lon": 29.0895507,
        "tags": {
            "addr:city": "İstanbul",
            "addr:district": "Kadıköy",
            "description": "",
            "opening_hours": null,
            "phone": null,
            "branch": null,
            "amenity": "kiosk",
            "mobile": null,
            "addr:street": "Şemsettin Günaltay Caddesi",
            "cuisine": null,
            "name": "Büfe",
            "name:en": null,
            "name:uk": null,
            "name:de": null,
            "name:tr": null,
            "name:ru": null,
            "name:ar": null
        }
    },
    {
        "lat": 40.9021521,
        "lon": 29.1735306,
        "tags": {
            "addr:city": "İstanbul",
            "addr:district": null,
            "description": "",
            "opening_hours": null,
            "phone": null,
            "branch": null,
            "amenity": "kiosk",
            "mobile": null,
            "addr:street": null,
            "cuisine": null,
            "name": "Mavi Tekel",
            "name:en": null,
            "name:uk": null,
            "name:de": null,
            "name:tr": null,
            "name:ru": null,
            "name:ar": null
        }
    },
    {
        "lat": 40.9038624,
        "lon": 29.1703018,
        "tags": {
            "addr:city": "İstanbul",
            "addr:district": null,
            "description": "",
            "opening_hours": null,
            "phone": null,
            "branch": null,
            "amenity": "kiosk",
            "mobile": null,
            "addr:street": null,
            "cuisine": null,
            "name": "Yeşil Büfe",
            "name:en": null,
            "name:uk": null,
            "name:de": null,
            "name:tr": null,
            "name:ru": null,
            "name:ar": null
        }
    },
    {
        "lat": 40.9611831,
        "lon": 29.0839478,
        "tags": {
            "addr:city": "İstanbul",
            "addr:district": "Kadıköy",
            "description": "",
            "opening_hours": null,
            "phone": "+90 216 373 3863",
            "branch": null,
            "amenity": "kiosk",
            "mobile": null,
            "addr:street": "Ayşe Çavuş Caddesi",
            "cuisine": null,
            "name": "Eve Getir Tekel",
            "name:en": null,
            "name:uk": null,
            "name:de": null,
            "name:tr": null,
            "name:ru": null,
            "name:ar": null
        }
    },
    {
        "lat": 40.9617909,
        "lon": 29.092025,
        "tags": {
            "addr:city": "İstanbul",
            "addr:district": "Kadıköy",
            "description": "",
            "opening_hours": null,
            "phone": null,
            "branch": null,
            "amenity": "kiosk",
            "mobile": null,
            "addr:street": "Şemsettin Günaltay Caddesi",
            "cuisine": null,
            "name": "Lokanta",
            "name:en": null,
            "name:uk": null,
            "name:de": null,
            "name:tr": null,
            "name:ru": null,
            "name:ar": null
        }
    },
    {
        "lat": 40.9629062,
        "lon": 29.0900732,
        "tags": {
            "addr:city": "İstanbul",
            "addr:district": "Kadıköy",
            "description": "",
            "opening_hours": null,
            "phone": null,
            "branch": null,
            "amenity": "kiosk",
            "mobile": null,
            "addr:street": "Şemsettin Günaltay Caddesi",
            "cuisine": null,
            "name": "Başak Tekel",
            "name:en": null,
            "name:uk": null,
            "name:de": null,
            "name:tr": null,
            "name:ru": null,
            "name:ar": null
        }
    },
    {
        "lat": 40.9609089,
        "lon": 29.0895142,
        "tags": {
            "addr:city": "İstanbul",
            "addr:district": "Kadıköy",
            "description": "",
            "opening_hours": null,
            "phone": null,
            "branch": null,
            "amenity": "kiosk",
            "mobile": null,
            "addr:street": "Emin Ali Paşa Caddesi",
            "cuisine": null,
            "name": "Polat Büfe",
            "name:en": null,
            "name:uk": null,
            "name:de": null,
            "name:tr": null,
            "name:ru": null,
            "name:ar": null
        }
    },
    {
        "lat": 40.9600106,
        "lon": 29.0914075,
        "tags": {
            "addr:city": "İstanbul",
            "addr:district": "Kadıköy",
            "description": "",
            "opening_hours": null,
            "phone": null,
            "branch": null,
            "amenity": "kiosk",
            "mobile": null,
            "addr:street": "Emin Ali Paşa Caddesi",
            "cuisine": null,
            "name": "Durak Tekel",
            "name:en": null,
            "name:uk": null,
            "name:de": null,
            "name:tr": null,
            "name:ru": null,
            "name:ar": null
        }
    },
    {
        "lat": 40.9673757,
        "lon": 29.1230302,
        "tags": {
            "addr:city": "İstanbul",
            "addr:district": null,
            "description": "",
            "opening_hours": null,
            "phone": null,
            "branch": null,
            "amenity": "kiosk",
            "mobile": null,
            "addr:street": null,
            "cuisine": null,
            "name": null,
            "name:en": null,
            "name:uk": null,
            "name:de": null,
            "name:tr": null,
            "name:ru": null,
            "name:ar": null
        }
    },
    {
        "lat": 40.977216,
        "lon": 29.2593346,
        "tags": {
            "addr:city": "Istanbul",
            "addr:district": "Sultanbeyli",
            "description": "",
            "opening_hours": null,
            "phone": "05354061901",
            "branch": null,
            "amenity": "kiosk",
            "mobile": null,
            "addr:street": "Süleymaniye Caddesi",
            "cuisine": null,
            "name": "Buhari Yapı",
            "name:en": null,
            "name:uk": null,
            "name:de": null,
            "name:tr": null,
            "name:ru": null,
            "name:ar": "بهاري للزجاج"
        }
    },
    {
        "lat": 40.975601,
        "lon": 29.2611233,
        "tags": {
            "addr:city": "Istanbul",
            "addr:district": "Sultanbeyli",
            "description": "",
            "opening_hours": "Mo-Fr 07:00-13:30; Mo-Fr 17:00-20:00",
            "phone": null,
            "branch": null,
            "amenity": "kiosk",
            "mobile": null,
            "addr:street": "Beykoz Gaddesi",
            "cuisine": null,
            "name": "ALTIN KÖŞK",
            "name:en": null,
            "name:uk": null,
            "name:de": null,
            "name:tr": null,
            "name:ru": null,
            "name:ar": "التين كشك"
        }
    },
    {
        "lat": 40.9803917,
        "lon": 29.2648262,
        "tags": {
            "addr:city": "Istanbul",
            "addr:district": "Sultanbeyli",
            "description": "",
            "opening_hours": null,
            "phone": null,
            "branch": null,
            "amenity": "kiosk",
            "mobile": null,
            "addr:street": "Yosun Sokağı",
            "cuisine": null,
            "name": "Kuş Dünyası",
            "name:en": null,
            "name:uk": null,
            "name:de": null,
            "name:tr": null,
            "name:ru": null,
            "name:ar": "دنيا العصافير لبيع العصافير"
        }
    },
    {
        "lat": 40.9818226,
        "lon": 29.2661042,
        "tags": {
            "addr:city": "Istanbul",
            "addr:district": "Sultanbeyli",
            "description": "",
            "opening_hours": null,
            "phone": null,
            "branch": null,
            "amenity": "kiosk",
            "mobile": null,
            "addr:street": "Beyan Sokağı",
            "cuisine": null,
            "name": "Huzur",
            "name:en": null,
            "name:uk": null,
            "name:de": null,
            "name:tr": null,
            "name:ru": null,
            "name:ar": "كشك هوزور للمشروبات"
        }
    },
    {
        "lat": 40.9876085,
        "lon": 29.2828131,
        "tags": {
            "addr:city": "Istanbul",
            "addr:district": "Sultanbeyli",
            "description": "",
            "opening_hours": "Mo-Fr 07:00-13:30; Mo-Fr 17:00-20:00",
            "phone": null,
            "branch": null,
            "amenity": "kiosk",
            "mobile": null,
            "addr:street": "paşaköy Caddesi",
            "cuisine": null,
            "name": "Cihan",
            "name:en": null,
            "name:uk": null,
            "name:de": null,
            "name:tr": null,
            "name:ru": null,
            "name:ar": "كشك جيهان"
        }
    },
    {
        "lat": 40.9518512,
        "lon": 29.297576,
        "tags": {
            "addr:city": "Istanbul",
            "addr:district": "Sultanbeyli",
            "description": "",
            "opening_hours": null,
            "phone": null,
            "branch": null,
            "amenity": "kiosk",
            "mobile": null,
            "addr:street": "Akşemsettin",
            "cuisine": null,
            "name": "tiryaibüfe",
            "name:en": null,
            "name:uk": null,
            "name:de": null,
            "name:tr": null,
            "name:ru": null,
            "name:ar": "ترياكي بوفيه"
        }
    },
    {
        "lat": 40.9422304,
        "lon": 29.2948459,
        "tags": {
            "addr:city": "Istanbul",
            "addr:district": "Sultanbeyli",
            "description": "",
            "opening_hours": null,
            "phone": null,
            "branch": null,
            "amenity": "kiosk",
            "mobile": null,
            "addr:street": "Aelda Sokağı",
            "cuisine": null,
            "name": "Huzur gıda",
            "name:en": null,
            "name:uk": null,
            "name:de": null,
            "name:tr": null,
            "name:ru": null,
            "name:ar": "(محل بقاله)هوزور كيدا"
        }
    },
    {
        "lat": 40.9677151,
        "lon": 29.2627501,
        "tags": {
            "addr:city": "Istanbul",
            "addr:district": "Sultanbeyli",
            "description": "",
            "opening_hours": "Mo-Fr 07:00-13:30; Mo-Fr 17:00-20:00",
            "phone": "05323058266",
            "branch": null,
            "amenity": "kiosk",
            "mobile": null,
            "addr:street": "Ferah Caddesi",
            "cuisine": null,
            "name": "Kaya Çiçekçilik hediyelik",
            "name:en": null,
            "name:uk": null,
            "name:de": null,
            "name:tr": null,
            "name:ru": null,
            "name:ar": "محل بيع زهور كايا"
        }
    },
    {
        "lat": 40.9669698,
        "lon": 29.262042,
        "tags": {
            "addr:city": "Istanbul",
            "addr:district": "Sultanbeyli",
            "description": "",
            "opening_hours": "Mo-Fr 07:00-13:30; Mo-Fr 17:00-20:00",
            "phone": null,
            "branch": null,
            "amenity": "kiosk",
            "mobile": null,
            "addr:street": "Şanlıurfa Caddesi",
            "cuisine": null,
            "name": "Aygaz",
            "name:en": null,
            "name:uk": null,
            "name:de": null,
            "name:tr": null,
            "name:ru": null,
            "name:ar": "محل بيع ماء وغاز"
        }
    },
    {
        "lat": 40.9674397,
        "lon": 29.2628145,
        "tags": {
            "addr:city": "Istanbul",
            "addr:district": "Sultanbeyli",
            "description": "",
            "opening_hours": "Mo-Fr 07:00-13:30; Mo-Fr 17:00-20:00",
            "phone": "02164960910",
            "branch": null,
            "amenity": "kiosk",
            "mobile": null,
            "addr:street": "Ferah Caddesi",
            "cuisine": null,
            "name": "Umut Çiçekçilik",
            "name:en": null,
            "name:uk": null,
            "name:de": null,
            "name:tr": null,
            "name:ru": null,
            "name:ar": "محل زهور اومات"
        }
    },
    {
        "lat": 40.9660949,
        "lon": 29.2609692,
        "tags": {
            "addr:city": "Istanbul",
            "addr:district": "Sultanbeyli",
            "description": "",
            "opening_hours": "Mo-Fr 07:00-13:30; Mo-Fr 17:00-20:00",
            "phone": null,
            "branch": null,
            "amenity": "kiosk",
            "mobile": null,
            "addr:street": "Hayat Caddesi",
            "cuisine": null,
            "name": "Kaya su",
            "name:en": null,
            "name:uk": null,
            "name:de": null,
            "name:tr": null,
            "name:ru": null,
            "name:ar": "متجر بيع مياه كايا"
        }
    },
    {
        "lat": 40.9523528,
        "lon": 29.2968704,
        "tags": {
            "addr:city": "Istanbul",
            "addr:district": "Sultanbeyli",
            "description": "",
            "opening_hours": null,
            "phone": "05516018913",
            "branch": null,
            "amenity": "kiosk",
            "mobile": null,
            "addr:street": "mürşit",
            "cuisine": null,
            "name": "Ayylldlz çilingir",
            "name:en": null,
            "name:uk": null,
            "name:de": null,
            "name:tr": null,
            "name:ru": null,
            "name:ar": "ايالديز شيلنجير"
        }
    },
    {
        "lat": 40.951151,
        "lon": 29.2976851,
        "tags": {
            "addr:city": "Istanbul",
            "addr:district": "Sultanbeyli",
            "description": "",
            "opening_hours": null,
            "phone": "4872543",
            "branch": null,
            "amenity": "kiosk",
            "mobile": null,
            "addr:street": "Sina iyi",
            "cuisine": null,
            "name": "tadım",
            "name:en": null,
            "name:uk": null,
            "name:de": null,
            "name:tr": null,
            "name:ru": null,
            "name:ar": "تاديم"
        }
    },
    {
        "lat": 40.9507978,
        "lon": 29.2982626,
        "tags": {
            "addr:city": "Istanbul",
            "addr:district": "Sultanbeyli",
            "description": "",
            "opening_hours": null,
            "phone": null,
            "branch": null,
            "amenity": "kiosk",
            "mobile": null,
            "addr:street": "Nabibe Sokak",
            "cuisine": null,
            "name": "çaeevi uğrak",
            "name:en": null,
            "name:uk": null,
            "name:de": null,
            "name:tr": null,
            "name:ru": null,
            "name:ar": "تشاي ايفي اوغراك"
        }
    },
    {
        "lat": 40.9674235,
        "lon": 29.2750883,
        "tags": {
            "addr:city": "Istanbul",
            "addr:district": "Sultanbeyli",
            "description": "",
            "opening_hours": "Mo-Fr 07:00-13:30; Mo-Fr 17:00-20:00",
            "phone": "05353889823",
            "branch": null,
            "amenity": "kiosk",
            "mobile": null,
            "addr:street": "çamlik Cadde",
            "cuisine": null,
            "name": "Adiyaman çelikhan",
            "name:en": null,
            "name:uk": null,
            "name:de": null,
            "name:tr": null,
            "name:ru": null,
            "name:ar": "تبغ اديامان"
        }
    },
    {
        "lat": 40.9432218,
        "lon": 29.2956842,
        "tags": {
            "addr:city": "Istanbul",
            "addr:district": "Sultanbeyli",
            "description": "",
            "opening_hours": null,
            "phone": "05340872846",
            "branch": null,
            "amenity": "kiosk",
            "mobile": null,
            "addr:street": "Kamacı sokğı",
            "cuisine": null,
            "name": "Kralçiğköfte",
            "name:en": null,
            "name:uk": null,
            "name:de": null,
            "name:tr": null,
            "name:ru": null,
            "name:ar": "كشك كفته"
        }
    },
    {
        "lat": 40.9684118,
        "lon": 29.2760754,
        "tags": {
            "addr:city": "Istanbul",
            "addr:district": "Sultanbeyli",
            "description": "",
            "opening_hours": "Mo-Fr 07:00-13:30; Mo-Fr 17:00-20:00",
            "phone": null,
            "branch": null,
            "amenity": "kiosk",
            "mobile": null,
            "addr:street": "çamlik Caddesi",
            "cuisine": null,
            "name": "Anadul kuruyemiş",
            "name:en": null,
            "name:uk": null,
            "name:de": null,
            "name:tr": null,
            "name:ru": null,
            "name:ar": "كشك موالح انادول"
        }
    },
    {
        "lat": 40.9789456,
        "lon": 29.2695924,
        "tags": {
            "addr:city": "Istanbul",
            "addr:district": "Sultanbeyli",
            "description": "",
            "opening_hours": "Mo-Fr 07:00-13:30; Mo-Fr 17:00-20:00",
            "phone": null,
            "branch": null,
            "amenity": "kiosk",
            "mobile": null,
            "addr:street": "selçukhan Caddesi",
            "cuisine": null,
            "name": "Tutyn",
            "name:en": null,
            "name:uk": null,
            "name:de": null,
            "name:tr": null,
            "name:ru": null,
            "name:ar": "تتن"
        }
    },
    {
        "lat": 40.9678852,
        "lon": 29.2754316,
        "tags": {
            "addr:city": "Istanbul",
            "addr:district": "Sultanbeyli",
            "description": "",
            "opening_hours": "Mo-Fr 07:00-13:30; Mo-Fr 17:00-20:00",
            "phone": "02164198843",
            "branch": null,
            "amenity": "kiosk",
            "mobile": null,
            "addr:street": "çamlik Caddesi",
            "cuisine": null,
            "name": "Ozgur kuruyemis",
            "name:en": null,
            "name:uk": null,
            "name:de": null,
            "name:tr": null,
            "name:ru": null,
            "name:ar": "كشك موالح اوزور"
        }
    },
    {
        "lat": 40.9409598,
        "lon": 29.2882204,
        "tags": {
            "addr:city": "Istanbul",
            "addr:district": "Sultanbeyli",
            "description": "",
            "opening_hours": null,
            "phone": null,
            "branch": null,
            "amenity": "kiosk",
            "mobile": null,
            "addr:street": "Kızïlca Sokak سباق حاجات",
            "cuisine": null,
            "name": "Kardeşler Büfe",
            "name:en": null,
            "name:uk": null,
            "name:de": null,
            "name:tr": null,
            "name:ru": null,
            "name:ar": "بوفيه وجبات سريعه"
        }
    },
    {
        "lat": 40.9797604,
        "lon": 29.2733073,
        "tags": {
            "addr:city": "Istanbul",
            "addr:district": "Sultanbeyli",
            "description": "",
            "opening_hours": "Mo-Fr 07:00-13:30; Mo-Fr 17:00-20:00",
            "phone": null,
            "branch": null,
            "amenity": "kiosk",
            "mobile": null,
            "addr:street": "selçukhan Caddesi",
            "cuisine": null,
            "name": "Seder",
            "name:en": null,
            "name:uk": null,
            "name:de": null,
            "name:tr": null,
            "name:ru": null,
            "name:ar": "كشك سيدر"
        }
    },
    {
        "lat": 40.9510606,
        "lon": 29.2996916,
        "tags": {
            "addr:city": "Istanbul",
            "addr:district": "Sultanbeyli",
            "description": "",
            "opening_hours": null,
            "phone": "05357385355",
            "branch": null,
            "amenity": "kiosk",
            "mobile": null,
            "addr:street": "seni ayı",
            "cuisine": null,
            "name": "çay ocağı",
            "name:en": null,
            "name:uk": null,
            "name:de": null,
            "name:tr": null,
            "name:ru": null,
            "name:ar": "تشاي اوجاشي"
        }
    },
    {
        "lat": 40.950576,
        "lon": 29.2990923,
        "tags": {
            "addr:city": "Istanbul",
            "addr:district": "Sultanbeyli",
            "description": "",
            "opening_hours": null,
            "phone": null,
            "branch": null,
            "amenity": "kiosk",
            "mobile": null,
            "addr:street": "seni ayı",
            "cuisine": null,
            "name": "klas sofe",
            "name:en": null,
            "name:uk": null,
            "name:de": null,
            "name:tr": null,
            "name:ru": null,
            "name:ar": "كلاس سوفه"
        }
    },
    {
        "lat": 40.9678557,
        "lon": 29.2536853,
        "tags": {
            "addr:city": "Istanbul",
            "addr:district": "Sultanbeyli",
            "description": "",
            "opening_hours": "Mo-Su 07:00-20:00",
            "phone": null,
            "branch": null,
            "amenity": "kiosk",
            "mobile": null,
            "addr:street": "Dumlupinar caddesiدوملو بينار جاديسي",
            "cuisine": null,
            "name": "Şimart büfe",
            "name:en": null,
            "name:uk": null,
            "name:de": null,
            "name:tr": null,
            "name:ru": null,
            "name:ar": "شيمارت بوفيه"
        }
    },
    {
        "lat": 41.0101033,
        "lon": 28.9110426,
        "tags": {
            "addr:city": "Istanbul",
            "addr:district": "Zeytinburnu",
            "description": "",
            "opening_hours": null,
            "phone": null,
            "branch": null,
            "amenity": "kiosk",
            "mobile": null,
            "addr:street": "G-46. Sokak",
            "cuisine": null,
            "name": "melisa bufe",
            "name:en": null,
            "name:uk": null,
            "name:de": null,
            "name:tr": null,
            "name:ru": null,
            "name:ar": "مسلسل بوفي"
        }
    },
    {
        "lat": 41.0312028,
        "lon": 28.8233989,
        "tags": {
            "addr:city": "Istanbul",
            "addr:district": "Bağcılar",
            "description": "",
            "opening_hours": null,
            "phone": null,
            "branch": null,
            "amenity": "restaurant",
            "mobile": null,
            "addr:street": "Osman Paşa Caddesi",
            "cuisine": null,
            "name": "Total",
            "name:en": null,
            "name:uk": null,
            "name:de": null,
            "name:tr": null,
            "name:ru": null,
            "name:ar": "توتال"
        }
    },
    {
        "lat": 41.0306708,
        "lon": 28.8501199,
        "tags": {
            "addr:city": "Istanbul",
            "addr:district": "Bağcılar",
            "description": "",
            "opening_hours": null,
            "phone": null,
            "branch": null,
            "amenity": "kiosk",
            "mobile": null,
            "addr:street": "30/6C. sokak",
            "cuisine": null,
            "name": "Bağcılar belediyesi halk ekmek",
            "name:en": null,
            "name:uk": null,
            "name:de": null,
            "name:tr": null,
            "name:ru": null,
            "name:ar": "مركز بيع الخبز الشعبي"
        }
    },
    {
        "lat": 41.0613798,
        "lon": 29.0375197,
        "tags": {
            "addr:city": "İstanbul",
            "addr:district": "Beşiktaş",
            "description": "",
            "opening_hours": null,
            "phone": null,
            "branch": null,
            "amenity": "kiosk",
            "mobile": null,
            "addr:street": "Arnavutköy Kuruçeşme Caddesi",
            "cuisine": null,
            "name": "Pala Büfe",
            "name:en": null,
            "name:uk": null,
            "name:de": null,
            "name:tr": null,
            "name:ru": null,
            "name:ar": null
        }
    },
    {
        "lat": 41.3396189,
        "lon": 28.6795633,
        "tags": {
            "addr:city": "İstanbul",
            "addr:district": null,
            "description": "",
            "opening_hours": null,
            "phone": null,
            "branch": null,
            "amenity": "kiosk",
            "mobile": null,
            "addr:street": null,
            "cuisine": null,
            "name": "Bakkal",
            "name:en": null,
            "name:uk": null,
            "name:de": null,
            "name:tr": null,
            "name:ru": null,
            "name:ar": null
        }
    },
    {
        "lat": 40.9722277,
        "lon": 29.1433402,
        "tags": {
            "addr:city": "İstanbul",
            "addr:district": null,
            "description": "",
            "opening_hours": null,
            "phone": null,
            "branch": null,
            "amenity": "kiosk",
            "mobile": null,
            "addr:street": null,
            "cuisine": null,
            "name": null,
            "name:en": null,
            "name:uk": null,
            "name:de": null,
            "name:tr": null,
            "name:ru": null,
            "name:ar": null
        }
    },
    {
        "lat": 41.1230793,
        "lon": 29.0984648,
        "tags": {
            "addr:city": "İstanbul",
            "addr:district": null,
            "description": "",
            "opening_hours": null,
            "phone": null,
            "branch": null,
            "amenity": "kiosk",
            "mobile": null,
            "addr:street": null,
            "cuisine": null,
            "name": null,
            "name:en": null,
            "name:uk": null,
            "name:de": null,
            "name:tr": null,
            "name:ru": null,
            "name:ar": null
        }
    },
    {
        "lat": 41.014711,
        "lon": 28.9758843,
        "tags": {
            "addr:city": "İstanbul",
            "addr:district": null,
            "description": "",
            "opening_hours": null,
            "phone": null,
            "branch": null,
            "amenity": "kiosk",
            "mobile": null,
            "addr:street": null,
            "cuisine": null,
            "name": "Büfe",
            "name:en": null,
            "name:uk": null,
            "name:de": null,
            "name:tr": null,
            "name:ru": null,
            "name:ar": null
        }
    },
    {
        "lat": 40.9802637,
        "lon": 28.8701963,
        "tags": {
            "addr:city": "İstanbul",
            "addr:district": null,
            "description": "",
            "opening_hours": null,
            "phone": null,
            "branch": null,
            "amenity": "kiosk",
            "mobile": null,
            "addr:street": null,
            "cuisine": null,
            "name": "Kaan Büfe",
            "name:en": null,
            "name:uk": null,
            "name:de": null,
            "name:tr": null,
            "name:ru": null,
            "name:ar": null
        }
    },
    {
        "lat": 41.0902414,
        "lon": 29.0106084,
        "tags": {
            "addr:city": "İstanbul",
            "addr:district": null,
            "description": "",
            "opening_hours": null,
            "phone": null,
            "branch": null,
            "amenity": "kiosk",
            "mobile": null,
            "addr:street": null,
            "cuisine": null,
            "name": "Pal Gıda",
            "name:en": null,
            "name:uk": null,
            "name:de": null,
            "name:tr": null,
            "name:ru": null,
            "name:ar": null
        }
    },
    {
        "lat": 41.0116141,
        "lon": 28.648091,
        "tags": {
            "addr:city": "İstanbul",
            "addr:district": null,
            "description": "",
            "opening_hours": null,
            "phone": null,
            "branch": null,
            "amenity": "kiosk",
            "mobile": null,
            "addr:street": null,
            "cuisine": null,
            "name": "Büyükşehir Büfe",
            "name:en": null,
            "name:uk": null,
            "name:de": null,
            "name:tr": null,
            "name:ru": null,
            "name:ar": null
        }
    },
    {
        "lat": 41.2201311,
        "lon": 29.0330116,
        "tags": {
            "addr:city": "İstanbul",
            "addr:district": null,
            "description": "",
            "opening_hours": null,
            "phone": null,
            "branch": null,
            "amenity": "kiosk",
            "mobile": null,
            "addr:street": null,
            "cuisine": null,
            "name": "Dörtyol Tekel",
            "name:en": null,
            "name:uk": null,
            "name:de": null,
            "name:tr": null,
            "name:ru": null,
            "name:ar": null
        }
    },
    {
        "lat": 41.0045028,
        "lon": 29.1408879,
        "tags": {
            "addr:city": "İstanbul",
            "addr:district": null,
            "description": "",
            "opening_hours": null,
            "phone": null,
            "branch": null,
            "amenity": "kiosk",
            "mobile": null,
            "addr:street": null,
            "cuisine": null,
            "name": null,
            "name:en": null,
            "name:uk": null,
            "name:de": null,
            "name:tr": null,
            "name:ru": null,
            "name:ar": null
        }
    },
    {
        "lat": 40.9906732,
        "lon": 29.1362718,
        "tags": {
            "addr:city": "İstanbul",
            "addr:district": null,
            "description": "",
            "opening_hours": null,
            "phone": null,
            "branch": null,
            "amenity": "kiosk",
            "mobile": null,
            "addr:street": null,
            "cuisine": null,
            "name": null,
            "name:en": null,
            "name:uk": null,
            "name:de": null,
            "name:tr": null,
            "name:ru": null,
            "name:ar": null
        }
    },
    {
        "lat": 40.9991549,
        "lon": 29.1417973,
        "tags": {
            "addr:city": "İstanbul",
            "addr:district": null,
            "description": "",
            "opening_hours": null,
            "phone": null,
            "branch": null,
            "amenity": "kiosk",
            "mobile": null,
            "addr:street": null,
            "cuisine": null,
            "name": "Seven",
            "name:en": null,
            "name:uk": null,
            "name:de": null,
            "name:tr": null,
            "name:ru": null,
            "name:ar": null
        }
    },
    {
        "lat": 41.004973,
        "lon": 29.1326938,
        "tags": {
            "addr:city": "İstanbul",
            "addr:district": null,
            "description": "",
            "opening_hours": null,
            "phone": null,
            "branch": null,
            "amenity": "kiosk",
            "mobile": null,
            "addr:street": null,
            "cuisine": null,
            "name": null,
            "name:en": null,
            "name:uk": null,
            "name:de": null,
            "name:tr": null,
            "name:ru": null,
            "name:ar": null
        }
    },
    {
        "lat": 41.0974219,
        "lon": 28.8054241,
        "tags": {
            "addr:city": "İstanbul",
            "addr:district": null,
            "description": "",
            "opening_hours": null,
            "phone": null,
            "branch": null,
            "amenity": "kiosk",
            "mobile": null,
            "addr:street": null,
            "cuisine": null,
            "name": "İrem Tekel Bayi",
            "name:en": null,
            "name:uk": null,
            "name:de": null,
            "name:tr": null,
            "name:ru": null,
            "name:ar": null
        }
    },
    {
        "lat": 41.0972059,
        "lon": 28.8056467,
        "tags": {
            "addr:city": "İstanbul",
            "addr:district": null,
            "description": "",
            "opening_hours": null,
            "phone": null,
            "branch": null,
            "amenity": "kiosk",
            "mobile": null,
            "addr:street": null,
            "cuisine": null,
            "name": "Etiler Marmaris Büfe",
            "name:en": null,
            "name:uk": null,
            "name:de": null,
            "name:tr": null,
            "name:ru": null,
            "name:ar": null
        }
    },
    {
        "lat": 41.0646057,
        "lon": 28.82269,
        "tags": {
            "addr:city": "İstanbul",
            "addr:district": null,
            "description": "",
            "opening_hours": null,
            "phone": null,
            "branch": null,
            "amenity": "kiosk",
            "mobile": null,
            "addr:street": null,
            "cuisine": null,
            "name": "Uğur büfe",
            "name:en": null,
            "name:uk": null,
            "name:de": null,
            "name:tr": null,
            "name:ru": null,
            "name:ar": null
        }
    },
    {
        "lat": 41.0656027,
        "lon": 28.8248412,
        "tags": {
            "addr:city": "İstanbul",
            "addr:district": null,
            "description": "",
            "opening_hours": null,
            "phone": null,
            "branch": null,
            "amenity": "kiosk",
            "mobile": null,
            "addr:street": null,
            "cuisine": null,
            "name": "Gözde malatya pazarı kuruyemiş",
            "name:en": null,
            "name:uk": null,
            "name:de": null,
            "name:tr": null,
            "name:ru": null,
            "name:ar": null
        }
    },
    {
        "lat": 40.9935076,
        "lon": 28.6360002,
        "tags": {
            "addr:city": "İstanbul",
            "addr:district": null,
            "description": "",
            "opening_hours": null,
            "phone": null,
            "branch": null,
            "amenity": "kiosk",
            "mobile": null,
            "addr:street": null,
            "cuisine": null,
            "name": "Selçuk Büfe",
            "name:en": null,
            "name:uk": null,
            "name:de": null,
            "name:tr": null,
            "name:ru": null,
            "name:ar": null
        }
    },
    {
        "lat": 41.0030018,
        "lon": 28.6381017,
        "tags": {
            "addr:city": "İstanbul",
            "addr:district": null,
            "description": "",
            "opening_hours": null,
            "phone": null,
            "branch": null,
            "amenity": "kiosk",
            "mobile": null,
            "addr:street": null,
            "cuisine": null,
            "name": "Marmaris 1964 Büfe",
            "name:en": null,
            "name:uk": null,
            "name:de": null,
            "name:tr": null,
            "name:ru": null,
            "name:ar": null
        }
    },
    {
        "lat": 41.0538754,
        "lon": 28.9327248,
        "tags": {
            "addr:city": "İstanbul",
            "addr:district": null,
            "description": "",
            "opening_hours": null,
            "phone": null,
            "branch": null,
            "amenity": "kiosk",
            "mobile": null,
            "addr:street": null,
            "cuisine": null,
            "name": "Pierre Loti Büfe",
            "name:en": null,
            "name:uk": null,
            "name:de": null,
            "name:tr": null,
            "name:ru": null,
            "name:ar": null
        }
    },
    {
        "lat": 41.0482832,
        "lon": 28.9205852,
        "tags": {
            "addr:city": "İstanbul",
            "addr:district": null,
            "description": "",
            "opening_hours": null,
            "phone": null,
            "branch": null,
            "amenity": "kiosk",
            "mobile": null,
            "addr:street": null,
            "cuisine": null,
            "name": "Meydan Büfe",
            "name:en": null,
            "name:uk": null,
            "name:de": null,
            "name:tr": null,
            "name:ru": null,
            "name:ar": null
        }
    },
    {
        "lat": 41.0465606,
        "lon": 28.9129924,
        "tags": {
            "addr:city": "İstanbul",
            "addr:district": null,
            "description": "",
            "opening_hours": null,
            "phone": null,
            "branch": null,
            "amenity": "kiosk",
            "mobile": null,
            "addr:street": null,
            "cuisine": null,
            "name": "Eren Büfe",
            "name:en": null,
            "name:uk": null,
            "name:de": null,
            "name:tr": null,
            "name:ru": null,
            "name:ar": null
        }
    },
    {
        "lat": 41.0251944,
        "lon": 29.0998315,
        "tags": {
            "addr:city": "İstanbul",
            "addr:district": null,
            "description": "",
            "opening_hours": null,
            "phone": null,
            "branch": null,
            "amenity": "kiosk",
            "mobile": null,
            "addr:street": null,
            "cuisine": null,
            "name": "Sondurak Gazete Büfesi",
            "name:en": null,
            "name:uk": null,
            "name:de": null,
            "name:tr": null,
            "name:ru": null,
            "name:ar": null
        }
    },
    {
        "lat": 41.0961134,
        "lon": 28.8635775,
        "tags": {
            "addr:city": "İstanbul",
            "addr:district": null,
            "description": "",
            "opening_hours": null,
            "phone": null,
            "branch": null,
            "amenity": "kiosk",
            "mobile": null,
            "addr:street": null,
            "cuisine": null,
            "name": "Çağlayan Büfe",
            "name:en": null,
            "name:uk": null,
            "name:de": null,
            "name:tr": null,
            "name:ru": null,
            "name:ar": null
        }
    },
    {
        "lat": 41.0099323,
        "lon": 28.657169,
        "tags": {
            "addr:city": "İstanbul",
            "addr:district": null,
            "description": "",
            "opening_hours": null,
            "phone": null,
            "branch": null,
            "amenity": "kiosk",
            "mobile": null,
            "addr:street": null,
            "cuisine": null,
            "name": "Harmoni Büfe",
            "name:en": null,
            "name:uk": null,
            "name:de": null,
            "name:tr": null,
            "name:ru": null,
            "name:ar": null
        }
    },
    {
        "lat": 41.0174932,
        "lon": 28.9198421,
        "tags": {
            "addr:city": "İstanbul",
            "addr:district": null,
            "description": "",
            "opening_hours": null,
            "phone": null,
            "branch": null,
            "amenity": "kiosk",
            "mobile": null,
            "addr:street": null,
            "cuisine": null,
            "name": null,
            "name:en": null,
            "name:uk": null,
            "name:de": null,
            "name:tr": null,
            "name:ru": null,
            "name:ar": null
        }
    },
    {
        "lat": 41.0491052,
        "lon": 28.9203317,
        "tags": {
            "addr:city": "İstanbul",
            "addr:district": "Eyüpsultan",
            "description": "",
            "opening_hours": null,
            "phone": null,
            "branch": null,
            "amenity": "kiosk",
            "mobile": null,
            "addr:street": "Bağlar Caddesi",
            "cuisine": null,
            "name": "Yeşim Büfe",
            "name:en": null,
            "name:uk": null,
            "name:de": null,
            "name:tr": null,
            "name:ru": null,
            "name:ar": null
        }
    },
    {
        "lat": 40.9689236,
        "lon": 29.0853335,
        "tags": {
            "addr:city": "İstanbul",
            "addr:district": null,
            "description": "",
            "opening_hours": null,
            "phone": null,
            "branch": null,
            "amenity": "kiosk",
            "mobile": null,
            "addr:street": null,
            "cuisine": null,
            "name": "Galaxi Büfe",
            "name:en": null,
            "name:uk": null,
            "name:de": null,
            "name:tr": null,
            "name:ru": null,
            "name:ar": null
        }
    },
    {
        "lat": 41.0410592,
        "lon": 28.9234565,
        "tags": {
            "addr:city": "İstanbul",
            "addr:district": "Eyüpsultan",
            "description": "",
            "opening_hours": null,
            "phone": null,
            "branch": null,
            "amenity": "kiosk",
            "mobile": null,
            "addr:street": "Önder Sokağı",
            "cuisine": null,
            "name": "Yılmaz Gıda",
            "name:en": null,
            "name:uk": null,
            "name:de": null,
            "name:tr": null,
            "name:ru": null,
            "name:ar": null
        }
    },
    {
        "lat": 41.0766346,
        "lon": 29.0433091,
        "tags": {
            "addr:city": "İstanbul",
            "addr:district": null,
            "description": "",
            "opening_hours": null,
            "phone": null,
            "branch": null,
            "amenity": "kiosk",
            "mobile": null,
            "addr:street": null,
            "cuisine": null,
            "name": "Bebek Büfe",
            "name:en": "Bebek Buffet",
            "name:uk": null,
            "name:de": null,
            "name:tr": null,
            "name:ru": null,
            "name:ar": null
        }
    },
    {
        "lat": 41.0657629,
        "lon": 28.9945298,
        "tags": {
            "addr:city": "İstanbul",
            "addr:district": null,
            "description": "",
            "opening_hours": null,
            "phone": null,
            "branch": null,
            "amenity": "kiosk",
            "mobile": null,
            "addr:street": null,
            "cuisine": null,
            "name": "Simit Sarayı",
            "name:en": null,
            "name:uk": null,
            "name:de": null,
            "name:tr": null,
            "name:ru": null,
            "name:ar": null
        }
    },
    {
        "lat": 41.1168679,
        "lon": 28.8507873,
        "tags": {
            "addr:city": "İstanbul",
            "addr:district": null,
            "description": "",
            "opening_hours": null,
            "phone": null,
            "branch": null,
            "amenity": "kiosk",
            "mobile": null,
            "addr:street": null,
            "cuisine": null,
            "name": null,
            "name:en": null,
            "name:uk": null,
            "name:de": null,
            "name:tr": null,
            "name:ru": null,
            "name:ar": null
        }
    },
    {
        "lat": 41.0359448,
        "lon": 28.924369,
        "tags": {
            "addr:city": "İstanbul",
            "addr:district": null,
            "description": "",
            "opening_hours": null,
            "phone": null,
            "branch": null,
            "amenity": "kiosk",
            "mobile": null,
            "addr:street": null,
            "cuisine": null,
            "name": "Sultan Büfe",
            "name:en": null,
            "name:uk": null,
            "name:de": null,
            "name:tr": null,
            "name:ru": null,
            "name:ar": null
        }
    },
    {
        "lat": 41.0942975,
        "lon": 29.0956899,
        "tags": {
            "addr:city": "İstanbul",
            "addr:district": null,
            "description": "",
            "opening_hours": null,
            "phone": null,
            "branch": null,
            "amenity": "kiosk",
            "mobile": null,
            "addr:street": null,
            "cuisine": null,
            "name": null,
            "name:en": null,
            "name:uk": null,
            "name:de": null,
            "name:tr": null,
            "name:ru": null,
            "name:ar": null
        }
    },
    {
        "lat": 41.0200317,
        "lon": 28.90037,
        "tags": {
            "addr:city": "İstanbul",
            "addr:district": null,
            "description": "",
            "opening_hours": null,
            "phone": null,
            "branch": null,
            "amenity": "kiosk",
            "mobile": null,
            "addr:street": null,
            "cuisine": null,
            "name": null,
            "name:en": null,
            "name:uk": null,
            "name:de": null,
            "name:tr": null,
            "name:ru": null,
            "name:ar": null
        }
    },
    {
        "lat": 41.0475063,
        "lon": 28.9340295,
        "tags": {
            "addr:city": "İstanbul",
            "addr:district": null,
            "description": "",
            "opening_hours": null,
            "phone": null,
            "branch": null,
            "amenity": "kiosk",
            "mobile": null,
            "addr:street": null,
            "cuisine": null,
            "name": null,
            "name:en": null,
            "name:uk": null,
            "name:de": null,
            "name:tr": null,
            "name:ru": null,
            "name:ar": null
        }
    },
    {
        "lat": 41.0089536,
        "lon": 29.2130546,
        "tags": {
            "addr:city": "İstanbul",
            "addr:district": null,
            "description": "",
            "opening_hours": null,
            "phone": null,
            "branch": null,
            "amenity": "kiosk",
            "mobile": null,
            "addr:street": null,
            "cuisine": null,
            "name": "Seral Tekel",
            "name:en": null,
            "name:uk": null,
            "name:de": null,
            "name:tr": null,
            "name:ru": null,
            "name:ar": null
        }
    },
    {
        "lat": 40.97679,
        "lon": 29.092723,
        "tags": {
            "addr:city": "İstanbul",
            "addr:district": "Kadıköy",
            "description": "",
            "opening_hours": null,
            "phone": null,
            "branch": null,
            "amenity": "kiosk",
            "mobile": null,
            "addr:street": null,
            "cuisine": null,
            "name": "Park Büfe & Gazete Bayii",
            "name:en": null,
            "name:uk": null,
            "name:de": null,
            "name:tr": null,
            "name:ru": null,
            "name:ar": null
        }
    },
    {
        "lat": 40.9803217,
        "lon": 29.0657563,
        "tags": {
            "addr:city": "İstanbul",
            "addr:district": "Kadıköy",
            "description": "",
            "opening_hours": null,
            "phone": "+90 552 495 34 24",
            "branch": null,
            "amenity": "kiosk",
            "mobile": null,
            "addr:street": "Nadir Ağa Sokağı",
            "cuisine": null,
            "name": "Fıçı Tekel",
            "name:en": null,
            "name:uk": null,
            "name:de": null,
            "name:tr": null,
            "name:ru": null,
            "name:ar": null
        }
    },
    {
        "lat": 40.9798455,
        "lon": 29.0801286,
        "tags": {
            "addr:city": "İstanbul",
            "addr:district": null,
            "description": "",
            "opening_hours": null,
            "phone": null,
            "branch": null,
            "amenity": "kiosk",
            "mobile": null,
            "addr:street": null,
            "cuisine": null,
            "name": null,
            "name:en": null,
            "name:uk": null,
            "name:de": null,
            "name:tr": null,
            "name:ru": null,
            "name:ar": null
        }
    },
    {
        "lat": 40.9719414,
        "lon": 29.0765336,
        "tags": {
            "addr:city": "İstanbul",
            "addr:district": null,
            "description": "",
            "opening_hours": null,
            "phone": null,
            "branch": null,
            "amenity": "kiosk",
            "mobile": null,
            "addr:street": null,
            "cuisine": null,
            "name": "Çeşminar Büfe",
            "name:en": null,
            "name:uk": null,
            "name:de": null,
            "name:tr": null,
            "name:ru": null,
            "name:ar": null
        }
    },
    {
        "lat": 40.97165,
        "lon": 29.0909424,
        "tags": {
            "addr:city": "İstanbul",
            "addr:district": null,
            "description": "",
            "opening_hours": null,
            "phone": null,
            "branch": null,
            "amenity": "kiosk",
            "mobile": null,
            "addr:street": null,
            "cuisine": null,
            "name": null,
            "name:en": null,
            "name:uk": null,
            "name:de": null,
            "name:tr": null,
            "name:ru": null,
            "name:ar": null
        }
    },
    {
        "lat": 40.8777815,
        "lon": 29.1000511,
        "tags": {
            "addr:city": "İstanbul",
            "addr:district": null,
            "description": "",
            "opening_hours": null,
            "phone": null,
            "branch": null,
            "amenity": "kiosk",
            "mobile": null,
            "addr:street": null,
            "cuisine": null,
            "name": null,
            "name:en": null,
            "name:uk": null,
            "name:de": null,
            "name:tr": null,
            "name:ru": null,
            "name:ar": null
        }
    },
    {
        "lat": 40.9692127,
        "lon": 29.0834208,
        "tags": {
            "addr:city": "İstanbul",
            "addr:district": null,
            "description": "",
            "opening_hours": null,
            "phone": "+90 216 390 48 18",
            "branch": null,
            "amenity": "kiosk",
            "mobile": null,
            "addr:street": null,
            "cuisine": null,
            "name": "Nur Gurme Şarküteri Meze",
            "name:en": null,
            "name:uk": null,
            "name:de": null,
            "name:tr": null,
            "name:ru": null,
            "name:ar": null
        }
    },
    {
        "lat": 40.966161,
        "lon": 29.0700343,
        "tags": {
            "addr:city": "İstanbul",
            "addr:district": null,
            "description": "",
            "opening_hours": null,
            "phone": null,
            "branch": null,
            "amenity": "kiosk",
            "mobile": null,
            "addr:street": null,
            "cuisine": null,
            "name": null,
            "name:en": null,
            "name:uk": null,
            "name:de": null,
            "name:tr": null,
            "name:ru": null,
            "name:ar": null
        }
    },
    {
        "lat": 40.9691026,
        "lon": 29.075412,
        "tags": {
            "addr:city": "İstanbul",
            "addr:district": "Kadıköy",
            "description": "",
            "opening_hours": null,
            "phone": null,
            "branch": null,
            "amenity": "kiosk",
            "mobile": null,
            "addr:street": "Eralp Sokağı",
            "cuisine": null,
            "name": "Çınar Tekel Market & Manav",
            "name:en": null,
            "name:uk": null,
            "name:de": null,
            "name:tr": null,
            "name:ru": null,
            "name:ar": null
        }
    },
    {
        "lat": 41.0548222,
        "lon": 28.9132874,
        "tags": {
            "addr:city": "İstanbul",
            "addr:district": "Gaziosmanpaşa",
            "description": "",
            "opening_hours": null,
            "phone": null,
            "branch": null,
            "amenity": "kiosk",
            "mobile": null,
            "addr:street": "Uysallar Sokağı",
            "cuisine": null,
            "name": "Can Büfe",
            "name:en": null,
            "name:uk": null,
            "name:de": null,
            "name:tr": null,
            "name:ru": null,
            "name:ar": null
        }
    },
    {
        "lat": 41.0009569,
        "lon": 29.1238672,
        "tags": {
            "addr:city": "İstanbul",
            "addr:district": null,
            "description": "",
            "opening_hours": null,
            "phone": "0216 594 75 64",
            "branch": null,
            "amenity": "kiosk",
            "mobile": null,
            "addr:street": null,
            "cuisine": null,
            "name": "Yıldırım Market",
            "name:en": null,
            "name:uk": null,
            "name:de": null,
            "name:tr": null,
            "name:ru": null,
            "name:ar": null
        }
    },
    {
        "lat": 41.2168644,
        "lon": 29.1534973,
        "tags": {
            "addr:city": "İstanbul",
            "addr:district": null,
            "description": "",
            "opening_hours": null,
            "phone": null,
            "branch": null,
            "amenity": "kiosk",
            "mobile": null,
            "addr:street": null,
            "cuisine": null,
            "name": null,
            "name:en": null,
            "name:uk": null,
            "name:de": null,
            "name:tr": null,
            "name:ru": null,
            "name:ar": null
        }
    },
    {
        "lat": 41.0815537,
        "lon": 29.0542926,
        "tags": {
            "addr:city": "İstanbul",
            "addr:district": null,
            "description": "",
            "opening_hours": null,
            "phone": null,
            "branch": null,
            "amenity": "kiosk",
            "mobile": null,
            "addr:street": null,
            "cuisine": null,
            "name": "Beltur",
            "name:en": null,
            "name:uk": null,
            "name:de": null,
            "name:tr": null,
            "name:ru": null,
            "name:ar": null
        }
    },
    {
        "lat": 41.1073898,
        "lon": 29.0576352,
        "tags": {
            "addr:city": "İstanbul",
            "addr:district": null,
            "description": "",
            "opening_hours": null,
            "phone": null,
            "branch": null,
            "amenity": "kiosk",
            "mobile": null,
            "addr:street": null,
            "cuisine": null,
            "name": "Koru Büfe",
            "name:en": null,
            "name:uk": null,
            "name:de": null,
            "name:tr": null,
            "name:ru": null,
            "name:ar": null
        }
    },
    {
        "lat": 41.1596656,
        "lon": 28.1682771,
        "tags": {
            "addr:city": "İstanbul",
            "addr:district": null,
            "description": "",
            "opening_hours": null,
            "phone": null,
            "branch": null,
            "amenity": "kiosk",
            "mobile": null,
            "addr:street": null,
            "cuisine": null,
            "name": "Seymen Büfe",
            "name:en": null,
            "name:uk": null,
            "name:de": null,
            "name:tr": null,
            "name:ru": null,
            "name:ar": null
        }
    },
    {
        "lat": 40.9454292,
        "lon": 29.1128816,
        "tags": {
            "addr:city": "İstanbul",
            "addr:district": null,
            "description": "",
            "opening_hours": null,
            "phone": null,
            "branch": null,
            "amenity": "kiosk",
            "mobile": null,
            "addr:street": null,
            "cuisine": null,
            "name": "Halk Ekmek",
            "name:en": null,
            "name:uk": null,
            "name:de": null,
            "name:tr": null,
            "name:ru": null,
            "name:ar": null
        }
    },
    {
        "lat": 40.9717141,
        "lon": 29.0766322,
        "tags": {
            "addr:city": "İstanbul",
            "addr:district": null,
            "description": "",
            "opening_hours": null,
            "phone": null,
            "branch": null,
            "amenity": "kiosk",
            "mobile": null,
            "addr:street": null,
            "cuisine": null,
            "name": "İstasyon Büfe",
            "name:en": null,
            "name:uk": null,
            "name:de": null,
            "name:tr": null,
            "name:ru": null,
            "name:ar": null
        }
    },
    {
        "lat": 40.9693757,
        "lon": 29.0796236,
        "tags": {
            "addr:city": "İstanbul",
            "addr:district": "Kadıköy",
            "description": "",
            "opening_hours": "08:00 - 24:00",
            "phone": null,
            "branch": null,
            "amenity": "kiosk",
            "mobile": null,
            "addr:street": null,
            "cuisine": null,
            "name": "Ekomini",
            "name:en": null,
            "name:uk": null,
            "name:de": null,
            "name:tr": null,
            "name:ru": null,
            "name:ar": null
        }
    },
    {
        "lat": 40.9638982,
        "lon": 29.0793096,
        "tags": {
            "addr:city": "İstanbul",
            "addr:district": null,
            "description": "",
            "opening_hours": null,
            "phone": "+90 555 019 3833",
            "branch": null,
            "amenity": "kiosk",
            "mobile": null,
            "addr:street": null,
            "cuisine": null,
            "name": "Çelik Tekel",
            "name:en": null,
            "name:uk": null,
            "name:de": null,
            "name:tr": null,
            "name:ru": null,
            "name:ar": null
        }
    },
    {
        "lat": 40.9633867,
        "lon": 29.0801522,
        "tags": {
            "addr:city": "İstanbul",
            "addr:district": null,
            "description": "",
            "opening_hours": null,
            "phone": null,
            "branch": null,
            "amenity": "kiosk",
            "mobile": null,
            "addr:street": null,
            "cuisine": null,
            "name": "Nehir Tekel",
            "name:en": null,
            "name:uk": null,
            "name:de": null,
            "name:tr": null,
            "name:ru": null,
            "name:ar": null
        }
    },
    {
        "lat": 40.9692805,
        "lon": 29.0721851,
        "tags": {
            "addr:city": "İstanbul",
            "addr:district": "Kadıköy",
            "description": "",
            "opening_hours": null,
            "phone": null,
            "branch": null,
            "amenity": "kiosk",
            "mobile": null,
            "addr:street": "Ethem Efendi Caddesi",
            "cuisine": null,
            "name": "Aelia Tekel & Tobacco Shop",
            "name:en": null,
            "name:uk": null,
            "name:de": null,
            "name:tr": null,
            "name:ru": null,
            "name:ar": null
        }
    },
    {
        "lat": 40.9693896,
        "lon": 29.0362834,
        "tags": {
            "addr:city": "İstanbul",
            "addr:district": null,
            "description": "",
            "opening_hours": null,
            "phone": null,
            "branch": null,
            "amenity": "kiosk",
            "mobile": null,
            "addr:street": null,
            "cuisine": null,
            "name": "Büfe",
            "name:en": null,
            "name:uk": null,
            "name:de": null,
            "name:tr": null,
            "name:ru": null,
            "name:ar": null
        }
    },
    {
        "lat": 41.0740229,
        "lon": 29.0583585,
        "tags": {
            "addr:city": "İstanbul",
            "addr:district": null,
            "description": "",
            "opening_hours": null,
            "phone": null,
            "branch": null,
            "amenity": "kiosk",
            "mobile": null,
            "addr:street": null,
            "cuisine": null,
            "name": "Kandilli Sahil Büfe",
            "name:en": null,
            "name:uk": null,
            "name:de": null,
            "name:tr": null,
            "name:ru": null,
            "name:ar": null
        }
    },
    {
        "lat": 41.0737386,
        "lon": 29.0585091,
        "tags": {
            "addr:city": "İstanbul",
            "addr:district": "Üsküdar",
            "description": "",
            "opening_hours": null,
            "phone": null,
            "branch": null,
            "amenity": "kiosk",
            "mobile": null,
            "addr:street": "Kandilli İskele Caddesi",
            "cuisine": null,
            "name": "Kandilli Büfe",
            "name:en": null,
            "name:uk": null,
            "name:de": null,
            "name:tr": null,
            "name:ru": null,
            "name:ar": null
        }
    },
    {
        "lat": 40.9848827,
        "lon": 29.0511862,
        "tags": {
            "addr:city": "İstanbul",
            "addr:district": null,
            "description": "",
            "opening_hours": null,
            "phone": null,
            "branch": null,
            "amenity": "kiosk",
            "mobile": null,
            "addr:street": null,
            "cuisine": null,
            "name": null,
            "name:en": null,
            "name:uk": null,
            "name:de": null,
            "name:tr": null,
            "name:ru": null,
            "name:ar": null
        }
    },
    {
        "lat": 40.9857235,
        "lon": 29.0482311,
        "tags": {
            "addr:city": "İstanbul",
            "addr:district": null,
            "description": "",
            "opening_hours": null,
            "phone": null,
            "branch": null,
            "amenity": "kiosk",
            "mobile": null,
            "addr:street": null,
            "cuisine": null,
            "name": null,
            "name:en": null,
            "name:uk": null,
            "name:de": null,
            "name:tr": null,
            "name:ru": null,
            "name:ar": null
        }
    },
    {
        "lat": 40.9594663,
        "lon": 29.0826743,
        "tags": {
            "addr:city": "İstanbul",
            "addr:district": null,
            "description": "",
            "opening_hours": null,
            "phone": null,
            "branch": null,
            "amenity": "kiosk",
            "mobile": null,
            "addr:street": null,
            "cuisine": null,
            "name": null,
            "name:en": null,
            "name:uk": null,
            "name:de": null,
            "name:tr": null,
            "name:ru": null,
            "name:ar": null
        }
    },
    {
        "lat": 40.985057,
        "lon": 29.0516085,
        "tags": {
            "addr:city": "İstanbul",
            "addr:district": null,
            "description": "",
            "opening_hours": null,
            "phone": null,
            "branch": null,
            "amenity": "kiosk",
            "mobile": null,
            "addr:street": null,
            "cuisine": null,
            "name": null,
            "name:en": null,
            "name:uk": null,
            "name:de": null,
            "name:tr": null,
            "name:ru": null,
            "name:ar": null
        }
    },
    {
        "lat": 41.0671833,
        "lon": 28.9927739,
        "tags": {
            "addr:city": "İstanbul",
            "addr:district": null,
            "description": "",
            "opening_hours": null,
            "phone": null,
            "branch": null,
            "amenity": "kiosk",
            "mobile": null,
            "addr:street": null,
            "cuisine": null,
            "name": "Durak Büfe",
            "name:en": null,
            "name:uk": null,
            "name:de": null,
            "name:tr": null,
            "name:ru": null,
            "name:ar": null
        }
    },
    {
        "lat": 40.9752381,
        "lon": 29.0984821,
        "tags": {
            "addr:city": "İstanbul",
            "addr:district": null,
            "description": "",
            "opening_hours": null,
            "phone": null,
            "branch": null,
            "amenity": "kiosk",
            "mobile": null,
            "addr:street": null,
            "cuisine": null,
            "name": null,
            "name:en": null,
            "name:uk": null,
            "name:de": null,
            "name:tr": null,
            "name:ru": null,
            "name:ar": null
        }
    },
    {
        "lat": 40.8807302,
        "lon": 29.2314782,
        "tags": {
            "addr:city": "İstanbul",
            "addr:district": null,
            "description": "",
            "opening_hours": null,
            "phone": null,
            "branch": null,
            "amenity": "kiosk",
            "mobile": null,
            "addr:street": null,
            "cuisine": null,
            "name": null,
            "name:en": null,
            "name:uk": null,
            "name:de": null,
            "name:tr": null,
            "name:ru": null,
            "name:ar": null
        }
    },
    {
        "lat": 41.2339111,
        "lon": 29.1116342,
        "tags": {
            "addr:city": "İstanbul",
            "addr:district": null,
            "description": "",
            "opening_hours": null,
            "phone": null,
            "branch": null,
            "amenity": "kiosk",
            "mobile": null,
            "addr:street": null,
            "cuisine": null,
            "name": null,
            "name:en": null,
            "name:uk": null,
            "name:de": null,
            "name:tr": null,
            "name:ru": null,
            "name:ar": null
        }
    },
    {
        "lat": 41.0245221,
        "lon": 29.0362882,
        "tags": {
            "addr:city": "İstanbul",
            "addr:district": null,
            "description": "",
            "opening_hours": null,
            "phone": null,
            "branch": null,
            "amenity": "kiosk",
            "mobile": null,
            "addr:street": null,
            "cuisine": null,
            "name": "Bağlarbaşı Büfe",
            "name:en": null,
            "name:uk": null,
            "name:de": null,
            "name:tr": null,
            "name:ru": null,
            "name:ar": null
        }
    },
    {
        "lat": 40.9740425,
        "lon": 29.0553312,
        "tags": {
            "addr:city": "İstanbul",
            "addr:district": null,
            "description": "",
            "opening_hours": null,
            "phone": null,
            "branch": null,
            "amenity": "kiosk",
            "mobile": null,
            "addr:street": null,
            "cuisine": null,
            "name": null,
            "name:en": null,
            "name:uk": null,
            "name:de": null,
            "name:tr": null,
            "name:ru": null,
            "name:ar": null
        }
    },
    {
        "lat": 40.8162743,
        "lon": 29.2979713,
        "tags": {
            "addr:city": "İstanbul",
            "addr:district": null,
            "description": "",
            "opening_hours": null,
            "phone": null,
            "branch": null,
            "amenity": "kiosk",
            "mobile": null,
            "addr:street": null,
            "cuisine": null,
            "name": null,
            "name:en": null,
            "name:uk": null,
            "name:de": null,
            "name:tr": null,
            "name:ru": null,
            "name:ar": null
        }
    },
    {
        "lat": 41.0687802,
        "lon": 28.8829319,
        "tags": {
            "addr:city": "İstanbul",
            "addr:district": null,
            "description": "",
            "opening_hours": null,
            "phone": null,
            "branch": null,
            "amenity": "kiosk",
            "mobile": null,
            "addr:street": null,
            "cuisine": null,
            "name": "Bayrampaşa Bilgi Merkezi",
            "name:en": null,
            "name:uk": null,
            "name:de": null,
            "name:tr": null,
            "name:ru": null,
            "name:ar": null
        }
    },
    {
        "lat": 40.8285116,
        "lon": 29.3213074,
        "tags": {
            "addr:city": "İstanbul",
            "addr:district": null,
            "description": "",
            "opening_hours": null,
            "phone": null,
            "branch": null,
            "amenity": "kiosk",
            "mobile": null,
            "addr:street": null,
            "cuisine": null,
            "name": "Büfe 44",
            "name:en": null,
            "name:uk": null,
            "name:de": null,
            "name:tr": null,
            "name:ru": null,
            "name:ar": null
        }
    },
    {
        "lat": 40.8292762,
        "lon": 29.3216418,
        "tags": {
            "addr:city": "İstanbul",
            "addr:district": null,
            "description": "",
            "opening_hours": null,
            "phone": null,
            "branch": null,
            "amenity": "kiosk",
            "mobile": null,
            "addr:street": null,
            "cuisine": null,
            "name": "İstasyon Büfe",
            "name:en": null,
            "name:uk": null,
            "name:de": null,
            "name:tr": null,
            "name:ru": null,
            "name:ar": null
        }
    },
    {
        "lat": 41.097828,
        "lon": 28.8629061,
        "tags": {
            "addr:city": "İstanbul",
            "addr:district": null,
            "description": "",
            "opening_hours": null,
            "phone": null,
            "branch": null,
            "amenity": "kiosk",
            "mobile": null,
            "addr:street": null,
            "cuisine": "burger",
            "name": "Durak Büfe",
            "name:en": null,
            "name:uk": null,
            "name:de": null,
            "name:tr": null,
            "name:ru": null,
            "name:ar": null
        }
    },
    {
        "lat": 41.0055086,
        "lon": 29.0460733,
        "tags": {
            "addr:city": "İstanbul",
            "addr:district": null,
            "description": "",
            "opening_hours": null,
            "phone": null,
            "branch": null,
            "amenity": "kiosk",
            "mobile": null,
            "addr:street": null,
            "cuisine": null,
            "name": "Metin Büfe",
            "name:en": null,
            "name:uk": null,
            "name:de": null,
            "name:tr": null,
            "name:ru": null,
            "name:ar": null
        }
    },
    {
        "lat": 41.082698,
        "lon": 28.2579861,
        "tags": {
            "addr:city": "İstanbul",
            "addr:district": null,
            "description": "",
            "opening_hours": null,
            "phone": null,
            "branch": null,
            "amenity": "kiosk",
            "mobile": null,
            "addr:street": null,
            "cuisine": null,
            "name": "Can Büfe & Tekel",
            "name:en": null,
            "name:uk": null,
            "name:de": null,
            "name:tr": null,
            "name:ru": null,
            "name:ar": null
        }
    },
    {
        "lat": 41.0742158,
        "lon": 28.2477495,
        "tags": {
            "addr:city": "İstanbul",
            "addr:district": null,
            "description": "",
            "opening_hours": null,
            "phone": null,
            "branch": null,
            "amenity": "kiosk",
            "mobile": null,
            "addr:street": null,
            "cuisine": null,
            "name": "19 Mayıs Kafe",
            "name:en": null,
            "name:uk": null,
            "name:de": null,
            "name:tr": null,
            "name:ru": null,
            "name:ar": null
        }
    },
    {
        "lat": 41.1113667,
        "lon": 28.8751042,
        "tags": {
            "addr:city": "İstanbul",
            "addr:district": null,
            "description": "",
            "opening_hours": null,
            "phone": null,
            "branch": null,
            "amenity": "kiosk",
            "mobile": null,
            "addr:street": null,
            "cuisine": null,
            "name": null,
            "name:en": null,
            "name:uk": null,
            "name:de": null,
            "name:tr": null,
            "name:ru": null,
            "name:ar": null
        }
    },
    {
        "lat": 40.9860859,
        "lon": 29.087422,
        "tags": {
            "addr:city": "İstanbul",
            "addr:district": null,
            "description": "",
            "opening_hours": null,
            "phone": null,
            "branch": null,
            "amenity": "kiosk",
            "mobile": null,
            "addr:street": null,
            "cuisine": null,
            "name": "Yeşil Büfe",
            "name:en": null,
            "name:uk": null,
            "name:de": null,
            "name:tr": null,
            "name:ru": null,
            "name:ar": null
        }
    },
    {
        "lat": 40.9264524,
        "lon": 29.1235651,
        "tags": {
            "addr:city": "İstanbul",
            "addr:district": null,
            "description": "",
            "opening_hours": null,
            "phone": null,
            "branch": null,
            "amenity": "kiosk",
            "mobile": null,
            "addr:street": null,
            "cuisine": null,
            "name": "Sahil Büfe",
            "name:en": null,
            "name:uk": null,
            "name:de": null,
            "name:tr": null,
            "name:ru": null,
            "name:ar": null
        }
    },
    {
        "lat": 40.948912,
        "lon": 29.1611628,
        "tags": {
            "addr:city": "İstanbul",
            "addr:district": null,
            "description": "",
            "opening_hours": null,
            "phone": null,
            "branch": null,
            "amenity": "kiosk",
            "mobile": null,
            "addr:street": null,
            "cuisine": null,
            "name": "Mini Market",
            "name:en": null,
            "name:uk": null,
            "name:de": null,
            "name:tr": null,
            "name:ru": null,
            "name:ar": null
        }
    },
    {
        "lat": 41.036089,
        "lon": 28.8266543,
        "tags": {
            "addr:city": "İstanbul",
            "addr:district": null,
            "description": "",
            "opening_hours": null,
            "phone": null,
            "branch": null,
            "amenity": "kiosk",
            "mobile": null,
            "addr:street": null,
            "cuisine": null,
            "name": null,
            "name:en": null,
            "name:uk": null,
            "name:de": null,
            "name:tr": null,
            "name:ru": null,
            "name:ar": null
        }
    },
    {
        "lat": 40.9850445,
        "lon": 29.0516613,
        "tags": {
            "addr:city": "İstanbul",
            "addr:district": null,
            "description": "",
            "opening_hours": null,
            "phone": null,
            "branch": null,
            "amenity": "kiosk",
            "mobile": null,
            "addr:street": null,
            "cuisine": null,
            "name": "Akbil Gişesi",
            "name:en": null,
            "name:uk": null,
            "name:de": null,
            "name:tr": null,
            "name:ru": null,
            "name:ar": null
        }
    },
    {
        "lat": 41.0265054,
        "lon": 29.0156614,
        "tags": {
            "addr:city": "İstanbul",
            "addr:district": null,
            "description": "",
            "opening_hours": "Mo-Su 08:00-19:30",
            "phone": null,
            "branch": null,
            "amenity": "kiosk",
            "mobile": null,
            "addr:street": null,
            "cuisine": null,
            "name": "İstanbul Halk Ekmek",
            "name:en": null,
            "name:uk": null,
            "name:de": null,
            "name:tr": null,
            "name:ru": null,
            "name:ar": null
        }
    },
    {
        "lat": 41.0287838,
        "lon": 29.124351,
        "tags": {
            "addr:city": "İstanbul",
            "addr:district": null,
            "description": "",
            "opening_hours": null,
            "phone": null,
            "branch": null,
            "amenity": "kiosk",
            "mobile": null,
            "addr:street": null,
            "cuisine": null,
            "name": null,
            "name:en": null,
            "name:uk": null,
            "name:de": null,
            "name:tr": null,
            "name:ru": null,
            "name:ar": null
        }
    },
    {
        "lat": 40.9924379,
        "lon": 29.0347716,
        "tags": {
            "addr:city": "İstanbul",
            "addr:district": null,
            "description": "",
            "opening_hours": null,
            "phone": null,
            "branch": null,
            "amenity": "kiosk",
            "mobile": null,
            "addr:street": null,
            "cuisine": null,
            "name": "Söğütlüçeşme Gazete Bayii",
            "name:en": null,
            "name:uk": null,
            "name:de": null,
            "name:tr": null,
            "name:ru": null,
            "name:ar": null
        }
    },
    {
        "lat": 41.0617117,
        "lon": 28.9681896,
        "tags": {
            "addr:city": "İstanbul",
            "addr:district": null,
            "description": "",
            "opening_hours": null,
            "phone": null,
            "branch": null,
            "amenity": "kiosk",
            "mobile": null,
            "addr:street": null,
            "cuisine": null,
            "name": "Gazete & Akbil Bayi",
            "name:en": null,
            "name:uk": null,
            "name:de": null,
            "name:tr": null,
            "name:ru": null,
            "name:ar": null
        }
    },
    {
        "lat": 41.0217694,
        "lon": 28.9761166,
        "tags": {
            "addr:city": "İstanbul",
            "addr:district": null,
            "description": "",
            "opening_hours": null,
            "phone": null,
            "branch": null,
            "amenity": "kiosk",
            "mobile": null,
            "addr:street": null,
            "cuisine": null,
            "name": null,
            "name:en": null,
            "name:uk": null,
            "name:de": null,
            "name:tr": null,
            "name:ru": null,
            "name:ar": null
        }
    }
]