[
    {
        "lat": 41.0144429,
        "lon": 28.9298998,
        "tags": {
            "addr:city": "İstanbul",
            "addr:district": null,
            "description": "",
            "opening_hours": null,
            "phone": null,
            "branch": null,
            "amenity": "laundry",
            "mobile": null,
            "addr:street": null,
            "cuisine": null,
            "name": null,
            "name:en": null,
            "name:uk": null,
            "name:de": null,
            "name:tr": null,
            "name:ru": null,
            "name:ar": null
        }
    },
    {
        "lat": 41.0059609,
        "lon": 28.9822489,
        "tags": {
            "addr:city": "İstanbul",
            "addr:district": null,
            "description": "",
            "opening_hours": null,
            "phone": null,
            "branch": null,
            "amenity": "laundry",
            "mobile": null,
            "addr:street": "Ishakpaşa Caddesi",
            "cuisine": null,
            "name": "Expres Laundry",
            "name:en": null,
            "name:uk": null,
            "name:de": null,
            "name:tr": null,
            "name:ru": null,
            "name:ar": null
        }
    },
    {
        "lat": 40.9780828,
        "lon": 28.8700288,
        "tags": {
            "addr:city": "İstanbul",
            "addr:district": null,
            "description": "",
            "opening_hours": null,
            "phone": null,
            "branch": null,
            "amenity": "laundry",
            "mobile": null,
            "addr:street": null,
            "cuisine": null,
            "name": null,
            "name:en": null,
            "name:uk": null,
            "name:de": null,
            "name:tr": null,
            "name:ru": null,
            "name:ar": null
        }
    },
    {
        "lat": 41.0167232,
        "lon": 28.6530782,
        "tags": {
            "addr:city": "İstanbul",
            "addr:district": null,
            "description": "",
            "opening_hours": null,
            "phone": null,
            "branch": null,
            "amenity": "laundry",
            "mobile": null,
            "addr:street": null,
            "cuisine": null,
            "name": "Garden Kuru Temizleme",
            "name:en": null,
            "name:uk": null,
            "name:de": null,
            "name:tr": null,
            "name:ru": null,
            "name:ar": null
        }
    },
    {
        "lat": 41.0318808,
        "lon": 28.9842645,
        "tags": {
            "addr:city": "İstanbul",
            "addr:district": null,
            "description": "",
            "opening_hours": null,
            "phone": null,
            "branch": null,
            "amenity": "laundry",
            "mobile": null,
            "addr:street": "Oba Sokak",
            "cuisine": null,
            "name": "Dryjet Cleaning",
            "name:en": null,
            "name:uk": null,
            "name:de": null,
            "name:tr": null,
            "name:ru": null,
            "name:ar": null
        }
    },
    {
        "lat": 41.0417487,
        "lon": 28.8994857,
        "tags": {
            "addr:city": "İstanbul",
            "addr:district": null,
            "description": "",
            "opening_hours": null,
            "phone": "+90 212 493 04 91",
            "branch": null,
            "amenity": "laundry",
            "mobile": null,
            "addr:street": null,
            "cuisine": null,
            "name": "Sofi Halı Yıkama Fabrikası",
            "name:en": null,
            "name:uk": null,
            "name:de": null,
            "name:tr": null,
            "name:ru": null,
            "name:ar": null
        }
    },
    {
        "lat": 41.0084509,
        "lon": 28.9466608,
        "tags": {
            "addr:city": "Istanbul",
            "addr:district": "Fatih",
            "description": "",
            "opening_hours": null,
            "phone": null,
            "branch": null,
            "amenity": "laundry",
            "mobile": null,
            "addr:street": "Cerrahpaşa caddesi",
            "cuisine": null,
            "name": "Melisa Çamaşırhane",
            "name:en": null,
            "name:uk": null,
            "name:de": null,
            "name:tr": null,
            "name:ru": null,
            "name:ar": "ميليسا للغسيل"
        }
    },
    {
        "lat": 41.0173528,
        "lon": 28.9302896,
        "tags": {
            "addr:city": "Istanbul",
            "addr:district": "Fatih",
            "description": "",
            "opening_hours": null,
            "phone": "02125334268",
            "branch": null,
            "amenity": "laundry",
            "mobile": null,
            "addr:street": "Pazar Tekkesi Sokağı",
            "cuisine": null,
            "name": "Siltem pak çamaşırhane",
            "name:en": null,
            "name:uk": null,
            "name:de": null,
            "name:tr": null,
            "name:ru": null,
            "name:ar": "سيلتم باك للغسيل"
        }
    },
    {
        "lat": 41.0084653,
        "lon": 28.9491888,
        "tags": {
            "addr:city": "Istanbul",
            "addr:district": "Fatih",
            "description": "",
            "opening_hours": null,
            "phone": null,
            "branch": null,
            "amenity": "laundry",
            "mobile": null,
            "addr:street": "Sorguççu Sokağı",
            "cuisine": null,
            "name": "Kardelen çamaşırhane",
            "name:en": null,
            "name:uk": null,
            "name:de": null,
            "name:tr": null,
            "name:ru": null,
            "name:ar": "كاراديلن للغسيل"
        }
    },
    {
        "lat": 41.0086216,
        "lon": 28.9493313,
        "tags": {
            "addr:city": "Istanbul",
            "addr:district": "Fatih",
            "description": "",
            "opening_hours": null,
            "phone": null,
            "branch": null,
            "amenity": "laundry",
            "mobile": null,
            "addr:street": "Sorguççu Sokağı",
            "cuisine": null,
            "name": "JOS laundry",
            "name:en": null,
            "name:uk": null,
            "name:de": null,
            "name:tr": null,
            "name:ru": null,
            "name:ar": "جوس للغسيل"
        }
    },
    {
        "lat": 41.0161744,
        "lon": 28.9582229,
        "tags": {
            "addr:city": "Istanbul",
            "addr:district": "Turkey",
            "description": "",
            "opening_hours": null,
            "phone": null,
            "branch": null,
            "amenity": "laundry",
            "mobile": null,
            "addr:street": "akif paşa sokak",
            "cuisine": null,
            "name": null,
            "name:en": null,
            "name:uk": null,
            "name:de": null,
            "name:tr": null,
            "name:ru": null,
            "name:ar": null
        }
    },
    {
        "lat": 41.0037718,
        "lon": 28.9269009,
        "tags": {
            "addr:city": "Istanbul",
            "addr:district": "Fatih",
            "description": "",
            "opening_hours": null,
            "phone": null,
            "branch": null,
            "amenity": "laundry",
            "mobile": null,
            "addr:street": "Ağa Çayırı Caddesi",
            "cuisine": null,
            "name": "Ertaç",
            "name:en": null,
            "name:uk": null,
            "name:de": null,
            "name:tr": null,
            "name:ru": null,
            "name:ar": "إرتاش"
        }
    },
    {
        "lat": 41.0207135,
        "lon": 28.9447891,
        "tags": {
            "addr:city": "Istanbul",
            "addr:district": "Turkey",
            "description": "",
            "opening_hours": null,
            "phone": null,
            "branch": null,
            "amenity": "laundry",
            "mobile": null,
            "addr:street": "BAB NAIBI sokak",
            "cuisine": null,
            "name": "Dost1",
            "name:en": null,
            "name:uk": null,
            "name:de": null,
            "name:tr": null,
            "name:ru": null,
            "name:ar": "دوست١"
        }
    },
    {
        "lat": 41.0206752,
        "lon": 28.9448333,
        "tags": {
            "addr:city": "Istanbul",
            "addr:district": "Turkey",
            "description": "",
            "opening_hours": null,
            "phone": null,
            "branch": null,
            "amenity": "laundry",
            "mobile": null,
            "addr:street": "BAB NAIBI sokak",
            "cuisine": null,
            "name": "Elefim cheyiz",
            "name:en": null,
            "name:uk": null,
            "name:de": null,
            "name:tr": null,
            "name:ru": null,
            "name:ar": "اليفم تشييز"
        }
    },
    {
        "lat": 41.0326891,
        "lon": 28.9872304,
        "tags": {
            "addr:city": "İstanbul",
            "addr:district": null,
            "description": "",
            "opening_hours": null,
            "phone": null,
            "branch": null,
            "amenity": "laundry",
            "mobile": null,
            "addr:street": null,
            "cuisine": null,
            "name": null,
            "name:en": null,
            "name:uk": null,
            "name:de": null,
            "name:tr": null,
            "name:ru": null,
            "name:ar": null
        }
    },
    {
        "lat": 41.0297584,
        "lon": 28.9132833,
        "tags": {
            "addr:city": "Istanbul",
            "addr:district": "Zeytinburnu",
            "description": "",
            "opening_hours": "Mo-Fr 08:00-17:00; Mo-Sa 07:30-15:00",
            "phone": "05332249336",
            "branch": null,
            "amenity": "laundry",
            "mobile": null,
            "addr:street": "Gümüşsuyu Caddesi",
            "cuisine": null,
            "name": "Yıldırım Ütü",
            "name:en": null,
            "name:uk": null,
            "name:de": null,
            "name:tr": null,
            "name:ru": null,
            "name:ar": "مجمع علي اوغلو-محل يلدرم للتنظيف"
        }
    },
    {
        "lat": 40.9957124,
        "lon": 28.8954494,
        "tags": {
            "addr:city": "Istanbul",
            "addr:district": "Zeytinburnu",
            "description": "",
            "opening_hours": null,
            "phone": null,
            "branch": null,
            "amenity": "car_wash",
            "mobile": null,
            "addr:street": "Prof. Dr.turan Güneş Caddesi",
            "cuisine": null,
            "name": "Çakır auto",
            "name:en": null,
            "name:uk": null,
            "name:de": null,
            "name:tr": null,
            "name:ru": null,
            "name:ar": "شاكير اوتو"
        }
    },
    {
        "lat": 41.041824,
        "lon": 28.8438741,
        "tags": {
            "addr:city": "Istanbul",
            "addr:district": "Bağcılar",
            "description": "",
            "opening_hours": null,
            "phone": null,
            "branch": null,
            "amenity": "laundry",
            "mobile": null,
            "addr:street": "Ahemt kabakli",
            "cuisine": null,
            "name": "Gercek modern",
            "name:en": null,
            "name:uk": null,
            "name:de": null,
            "name:tr": null,
            "name:ru": null,
            "name:ar": "جيرجيك مودرن"
        }
    },
    {
        "lat": 41.0041344,
        "lon": 29.0857696,
        "tags": {
            "addr:city": "istanbul",
            "addr:district": "ataşehir",
            "description": "",
            "opening_hours": null,
            "phone": null,
            "branch": null,
            "amenity": "laundry",
            "mobile": null,
            "addr:street": "ziyapaşa",
            "cuisine": null,
            "name": "adem halı yıkama",
            "name:en": null,
            "name:uk": null,
            "name:de": null,
            "name:tr": null,
            "name:ru": null,
            "name:ar": null
        }
    },
    {
        "lat": 41.0030811,
        "lon": 28.9768742,
        "tags": {
            "addr:city": "İstanbul",
            "addr:district": null,
            "description": "",
            "opening_hours": null,
            "phone": null,
            "branch": null,
            "amenity": "laundry",
            "mobile": null,
            "addr:street": null,
            "cuisine": null,
            "name": "Lider",
            "name:en": null,
            "name:uk": null,
            "name:de": null,
            "name:tr": null,
            "name:ru": null,
            "name:ar": null
        }
    },
    {
        "lat": 41.0275701,
        "lon": 28.9779837,
        "tags": {
            "addr:city": "İstanbul",
            "addr:district": null,
            "description": "",
            "opening_hours": null,
            "phone": null,
            "branch": null,
            "amenity": "laundry",
            "mobile": null,
            "addr:street": null,
            "cuisine": null,
            "name": "Elif Laundry",
            "name:en": null,
            "name:uk": null,
            "name:de": null,
            "name:tr": null,
            "name:ru": null,
            "name:ar": null
        }
    },
    {
        "lat": 41.0344006,
        "lon": 28.9822946,
        "tags": {
            "addr:city": "İstanbul",
            "addr:district": null,
            "description": "",
            "opening_hours": null,
            "phone": null,
            "branch": null,
            "amenity": "laundry",
            "mobile": null,
            "addr:street": null,
            "cuisine": null,
            "name": "Sahane Camasirhane Laundry",
            "name:en": null,
            "name:uk": null,
            "name:de": null,
            "name:tr": null,
            "name:ru": null,
            "name:ar": null
        }
    },
    {
        "lat": 41.0362616,
        "lon": 28.9822623,
        "tags": {
            "addr:city": "İstanbul",
            "addr:district": null,
            "description": "",
            "opening_hours": "Mo-Su 08:00-21:00",
            "phone": "02122444068",
            "branch": null,
            "amenity": "laundry",
            "mobile": null,
            "addr:street": "Bekar Sokağı",
            "cuisine": null,
            "name": null,
            "name:en": "safi kurutemizleme dry cleaning & laundry",
            "name:uk": null,
            "name:de": null,
            "name:tr": null,
            "name:ru": null,
            "name:ar": null
        }
    },
    {
        "lat": 40.9947364,
        "lon": 28.873149,
        "tags": {
            "addr:city": "İstanbul",
            "addr:district": null,
            "description": "",
            "opening_hours": null,
            "phone": null,
            "branch": null,
            "amenity": "laundry",
            "mobile": null,
            "addr:street": null,
            "cuisine": null,
            "name": "Kuğu Kuru Temizleme & Yıkama",
            "name:en": null,
            "name:uk": null,
            "name:de": null,
            "name:tr": null,
            "name:ru": null,
            "name:ar": null
        }
    },
    {
        "lat": 41.0100607,
        "lon": 28.9778012,
        "tags": {
            "addr:city": "İstanbul",
            "addr:district": null,
            "description": "",
            "opening_hours": null,
            "phone": null,
            "branch": null,
            "amenity": "laundry",
            "mobile": null,
            "addr:street": null,
            "cuisine": null,
            "name": null,
            "name:en": null,
            "name:uk": null,
            "name:de": null,
            "name:tr": null,
            "name:ru": null,
            "name:ar": null
        }
    },
    {
        "lat": 41.0147171,
        "lon": 28.9291153,
        "tags": {
            "addr:city": "İstanbul",
            "addr:district": null,
            "description": "",
            "opening_hours": "Mo-Su 07:00-23:00",
            "phone": "+90 507 874 95 88",
            "branch": null,
            "amenity": "laundry",
            "mobile": null,
            "addr:street": null,
            "cuisine": null,
            "name": "Laundrybar",
            "name:en": null,
            "name:uk": null,
            "name:de": null,
            "name:tr": null,
            "name:ru": null,
            "name:ar": null
        }
    },
    {
        "lat": 41.019707,
        "lon": 28.963049,
        "tags": {
            "addr:city": "İstanbul",
            "addr:district": null,
            "description": "",
            "opening_hours": null,
            "phone": null,
            "branch": null,
            "amenity": "laundry",
            "mobile": null,
            "addr:street": "Küçük Pazar Caddesi",
            "cuisine": null,
            "name": "Loy Loy",
            "name:en": null,
            "name:uk": null,
            "name:de": null,
            "name:tr": null,
            "name:ru": null,
            "name:ar": null
        }
    },
    {
        "lat": 41.005513,
        "lon": 28.969434,
        "tags": {
            "addr:city": "İstanbul",
            "addr:district": null,
            "description": "",
            "opening_hours": "Mo-Su 08:00-20:00",
            "phone": "+905441579641",
            "branch": null,
            "amenity": "laundry",
            "mobile": null,
            "addr:street": "Piyer Loti Caddesi",
            "cuisine": null,
            "name": "loti laundry",
            "name:en": "loti laundry service",
            "name:uk": null,
            "name:de": null,
            "name:tr": null,
            "name:ru": "услуги прачечной",
            "name:ar": null
        }
    },
    {
        "lat": 40.9924318,
        "lon": 29.0318917,
        "tags": {
            "addr:city": "İstanbul",
            "addr:district": null,
            "description": "",
            "opening_hours": null,
            "phone": null,
            "branch": null,
            "amenity": "laundry",
            "mobile": null,
            "addr:street": null,
            "cuisine": null,
            "name": null,
            "name:en": "Laundromat King",
            "name:uk": null,
            "name:de": null,
            "name:tr": null,
            "name:ru": null,
            "name:ar": null
        }
    },
    {
        "lat": 41.0340775,
        "lon": 28.9817503,
        "tags": {
            "addr:city": "İstanbul",
            "addr:district": null,
            "description": "",
            "opening_hours": null,
            "phone": null,
            "branch": null,
            "amenity": "laundry",
            "mobile": null,
            "addr:street": "Katip Mustafa Çelebi, Tel Sk.",
            "cuisine": null,
            "name": "Laundry Taksim",
            "name:en": null,
            "name:uk": null,
            "name:de": null,
            "name:tr": null,
            "name:ru": null,
            "name:ar": null
        }
    },
    {
        "lat": 41.0271144,
        "lon": 28.9783612,
        "tags": {
            "addr:city": "İstanbul",
            "addr:district": null,
            "description": "",
            "opening_hours": null,
            "phone": null,
            "branch": null,
            "amenity": "laundry",
            "mobile": null,
            "addr:street": null,
            "cuisine": null,
            "name": "New galat laundry",
            "name:en": "New galat laundry",
            "name:uk": null,
            "name:de": null,
            "name:tr": null,
            "name:ru": null,
            "name:ar": null
        }
    },
    {
        "lat": 41.003336,
        "lon": 28.9796555,
        "tags": {
            "addr:city": "İstanbul",
            "addr:district": null,
            "description": "",
            "opening_hours": null,
            "phone": "05529406161",
            "branch": null,
            "amenity": "laundry",
            "mobile": null,
            "addr:street": null,
            "cuisine": null,
            "name": "Trump",
            "name:en": null,
            "name:uk": null,
            "name:de": null,
            "name:tr": null,
            "name:ru": null,
            "name:ar": null
        }
    },
    {
        "lat": 41.0396527,
        "lon": 28.9849009,
        "tags": {
            "addr:city": "İstanbul",
            "addr:district": null,
            "description": "",
            "opening_hours": null,
            "phone": null,
            "branch": null,
            "amenity": "laundry",
            "mobile": null,
            "addr:street": null,
            "cuisine": null,
            "name": "Taksim Lamartin Laundry",
            "name:en": null,
            "name:uk": null,
            "name:de": null,
            "name:tr": null,
            "name:ru": null,
            "name:ar": null
        }
    },
    {
        "lat": 41.0376977,
        "lon": 28.9830518,
        "tags": {
            "addr:city": "İstanbul",
            "addr:district": null,
            "description": "",
            "opening_hours": null,
            "phone": null,
            "branch": null,
            "amenity": "laundry",
            "mobile": null,
            "addr:street": "Yoğurtçu Faik Sokağı",
            "cuisine": null,
            "name": "Şirin Laundry",
            "name:en": null,
            "name:uk": null,
            "name:de": null,
            "name:tr": null,
            "name:ru": null,
            "name:ar": null
        }
    }
]