[
    {
        "lat": 41.0095988,
        "lon": 28.9671276,
        "tags": {
            "addr:city": "Istanbul",
            "addr:district": "Fatih",
            "description": "",
            "opening_hours": null,
            "phone": "02125190466",
            "branch": null,
            "amenity": "leather",
            "mobile": null,
            "addr:street": "Sepetçi Han",
            "cuisine": null,
            "name": "Ekspres Leder Deri Giyim",
            "name:en": null,
            "name:uk": null,
            "name:de": null,
            "name:tr": null,
            "name:ru": null,
            "name:ar": "إكسبريس ليدر ديري للألبسة"
        }
    },
    {
        "lat": 41.0598145,
        "lon": 28.9843099,
        "tags": {
            "addr:city": "İstanbul",
            "addr:district": null,
            "description": "",
            "opening_hours": null,
            "phone": null,
            "branch": null,
            "amenity": "leather",
            "mobile": null,
            "addr:street": null,
            "cuisine": null,
            "name": "Sipahi Deri&Tekstil",
            "name:en": null,
            "name:uk": null,
            "name:de": null,
            "name:tr": null,
            "name:ru": null,
            "name:ar": null
        }
    },
    {
        "lat": 41.0265875,
        "lon": 28.9154614,
        "tags": {
            "addr:city": "Istanbul",
            "addr:district": "Zeytinburnu",
            "description": "",
            "opening_hours": "Mo-Fr 08:00-17:00; Mo-Sa 07:30-15:00",
            "phone": "02126120174",
            "branch": null,
            "amenity": "leather",
            "mobile": null,
            "addr:street": "Litros Yolu Sk.",
            "cuisine": null,
            "name": "Fatih Sanayi Sitesi-Yağmur Promosyon",
            "name:en": null,
            "name:uk": null,
            "name:de": null,
            "name:tr": null,
            "name:ru": null,
            "name:ar": "مجمع فاتح الصناعي-مصنع ياغمور للمنتجات الجلدية"
        }
    },
    {
        "lat": 41.0039338,
        "lon": 28.8971241,
        "tags": {
            "addr:city": "Istanbul",
            "addr:district": "Zeytinburnu",
            "description": "",
            "opening_hours": null,
            "phone": null,
            "branch": null,
            "amenity": "leather",
            "mobile": null,
            "addr:street": "Demirciler sitesi 8 Cd",
            "cuisine": null,
            "name": "EZGI DERI",
            "name:en": null,
            "name:uk": null,
            "name:de": null,
            "name:tr": null,
            "name:ru": null,
            "name:ar": "ازجي لبيع المنتجات الجلدية"
        }
    },
    {
        "lat": 40.9934964,
        "lon": 28.9066293,
        "tags": {
            "addr:city": "Istanbul",
            "addr:district": "Zeytinburnu",
            "description": "",
            "opening_hours": null,
            "phone": null,
            "branch": null,
            "amenity": "leather",
            "mobile": null,
            "addr:street": "39/5. sk.",
            "cuisine": null,
            "name": "Dolunay Deri",
            "name:en": null,
            "name:uk": null,
            "name:de": null,
            "name:tr": null,
            "name:ru": null,
            "name:ar": "دولونيا"
        }
    },
    {
        "lat": 40.991646,
        "lon": 28.9089542,
        "tags": {
            "addr:city": "Istanbul",
            "addr:district": "Zeytinburnu",
            "description": "",
            "opening_hours": null,
            "phone": null,
            "branch": null,
            "amenity": "leather",
            "mobile": null,
            "addr:street": "Şh.Komiser Günaydın Cd",
            "cuisine": null,
            "name": "Deri Say",
            "name:en": null,
            "name:uk": null,
            "name:de": null,
            "name:tr": null,
            "name:ru": null,
            "name:ar": "يقول الجلد"
        }
    },
    {
        "lat": 40.9933887,
        "lon": 28.9100204,
        "tags": {
            "addr:city": "Istanbul",
            "addr:district": "Zeytinburnu",
            "description": "",
            "opening_hours": null,
            "phone": null,
            "branch": null,
            "amenity": "leather",
            "mobile": null,
            "addr:street": "35. sokak",
            "cuisine": null,
            "name": "park deri",
            "name:en": null,
            "name:uk": null,
            "name:de": null,
            "name:tr": null,
            "name:ru": null,
            "name:ar": "حديقة الجلود"
        }
    },
    {
        "lat": 40.9918915,
        "lon": 28.9082676,
        "tags": {
            "addr:city": "Istanbul",
            "addr:district": "Zeytinburnu",
            "description": "",
            "opening_hours": null,
            "phone": null,
            "branch": null,
            "amenity": "leather",
            "mobile": null,
            "addr:street": "44. Sokak",
            "cuisine": null,
            "name": "OĞUZ FUR",
            "name:en": null,
            "name:uk": null,
            "name:de": null,
            "name:tr": null,
            "name:ru": null,
            "name:ar": "اوغوز فور"
        }
    },
    {
        "lat": 40.9830155,
        "lon": 28.8940293,
        "tags": {
            "addr:city": "Istanbul",
            "addr:district": "Zeytinburnu",
            "description": "",
            "opening_hours": null,
            "phone": null,
            "branch": null,
            "amenity": "leather",
            "mobile": null,
            "addr:street": "3. sokak",
            "cuisine": null,
            "name": "Rimini",
            "name:en": null,
            "name:uk": null,
            "name:de": null,
            "name:tr": null,
            "name:ru": null,
            "name:ar": "ريميني"
        }
    },
    {
        "lat": 40.9917943,
        "lon": 28.907633,
        "tags": {
            "addr:city": "Istanbul",
            "addr:district": "Zeytinburnu",
            "description": "",
            "opening_hours": null,
            "phone": null,
            "branch": null,
            "amenity": "leather",
            "mobile": null,
            "addr:street": "44/2. sokak",
            "cuisine": null,
            "name": "nur deri",
            "name:en": null,
            "name:uk": null,
            "name:de": null,
            "name:tr": null,
            "name:ru": null,
            "name:ar": "نور للجلود"
        }
    },
    {
        "lat": 40.9923733,
        "lon": 28.9099786,
        "tags": {
            "addr:city": "Istanbul",
            "addr:district": "Zeytinburnu",
            "description": "",
            "opening_hours": null,
            "phone": null,
            "branch": null,
            "amenity": "leather",
            "mobile": null,
            "addr:street": "31.sokak.",
            "cuisine": null,
            "name": "Müge",
            "name:en": null,
            "name:uk": null,
            "name:de": null,
            "name:tr": null,
            "name:ru": null,
            "name:ar": "موجا"
        }
    },
    {
        "lat": 40.9923422,
        "lon": 28.9102534,
        "tags": {
            "addr:city": "Istanbul",
            "addr:district": "Zeytinburnu",
            "description": "",
            "opening_hours": null,
            "phone": null,
            "branch": null,
            "amenity": "leather",
            "mobile": null,
            "addr:street": "31.sokak.",
            "cuisine": null,
            "name": "EMRE DERİ",
            "name:en": null,
            "name:uk": null,
            "name:de": null,
            "name:tr": null,
            "name:ru": null,
            "name:ar": "امري للجلود"
        }
    },
    {
        "lat": 40.9935844,
        "lon": 28.9105568,
        "tags": {
            "addr:city": "Istanbul",
            "addr:district": "Zeytinburnu",
            "description": "",
            "opening_hours": null,
            "phone": null,
            "branch": null,
            "amenity": "leather",
            "mobile": null,
            "addr:street": "34. sokak",
            "cuisine": null,
            "name": "Angel Deri",
            "name:en": null,
            "name:uk": null,
            "name:de": null,
            "name:tr": null,
            "name:ru": null,
            "name:ar": "مثلث الجلود"
        }
    },
    {
        "lat": 40.9926195,
        "lon": 28.9113842,
        "tags": {
            "addr:city": "Istanbul",
            "addr:district": "Zeytinburnu",
            "description": "",
            "opening_hours": null,
            "phone": null,
            "branch": null,
            "amenity": "leather",
            "mobile": null,
            "addr:street": "31.sokak.",
            "cuisine": null,
            "name": "LIVE DERI",
            "name:en": null,
            "name:uk": null,
            "name:de": null,
            "name:tr": null,
            "name:ru": null,
            "name:ar": "حياة الجلد"
        }
    },
    {
        "lat": 40.9927476,
        "lon": 28.9116703,
        "tags": {
            "addr:city": "Istanbul",
            "addr:district": "Zeytinburnu",
            "description": "",
            "opening_hours": null,
            "phone": null,
            "branch": null,
            "amenity": "leather",
            "mobile": null,
            "addr:street": "31.sokak.",
            "cuisine": null,
            "name": "AYAYDIN",
            "name:en": null,
            "name:uk": null,
            "name:de": null,
            "name:tr": null,
            "name:ru": null,
            "name:ar": "ايايدن"
        }
    },
    {
        "lat": 40.9923892,
        "lon": 28.9107579,
        "tags": {
            "addr:city": "Istanbul",
            "addr:district": "Zeytinburnu",
            "description": "",
            "opening_hours": null,
            "phone": null,
            "branch": null,
            "amenity": "leather",
            "mobile": null,
            "addr:street": "31.sokak.",
            "cuisine": null,
            "name": "Soykan",
            "name:en": null,
            "name:uk": null,
            "name:de": null,
            "name:tr": null,
            "name:ru": null,
            "name:ar": "صويكان"
        }
    },
    {
        "lat": 40.9938746,
        "lon": 28.9108787,
        "tags": {
            "addr:city": "Istanbul",
            "addr:district": "Zeytinburnu",
            "description": "",
            "opening_hours": null,
            "phone": null,
            "branch": null,
            "amenity": "leather",
            "mobile": null,
            "addr:street": "34. sokak",
            "cuisine": null,
            "name": "KURBAN DERI",
            "name:en": null,
            "name:uk": null,
            "name:de": null,
            "name:tr": null,
            "name:ru": null,
            "name:ar": "قربان الجلود"
        }
    },
    {
        "lat": 40.9912216,
        "lon": 28.9088792,
        "tags": {
            "addr:city": "Istanbul",
            "addr:district": "Zeytinburnu",
            "description": "",
            "opening_hours": null,
            "phone": null,
            "branch": null,
            "amenity": "leather",
            "mobile": null,
            "addr:street": "Şh.Komiser Günaydın Cd",
            "cuisine": null,
            "name": "Kaya Fur",
            "name:en": null,
            "name:uk": null,
            "name:de": null,
            "name:tr": null,
            "name:ru": null,
            "name:ar": "قايا فور"
        }
    },
    {
        "lat": 40.9920492,
        "lon": 28.9091229,
        "tags": {
            "addr:city": "Istanbul",
            "addr:district": "Zeytinburnu",
            "description": "",
            "opening_hours": null,
            "phone": null,
            "branch": null,
            "amenity": "leather",
            "mobile": null,
            "addr:street": "Şh.Komiser Günaydın Cd",
            "cuisine": null,
            "name": "İnan Deri",
            "name:en": null,
            "name:uk": null,
            "name:de": null,
            "name:tr": null,
            "name:ru": null,
            "name:ar": "انان جلد"
        }
    },
    {
        "lat": 40.9933919,
        "lon": 28.9069752,
        "tags": {
            "addr:city": "Istanbul",
            "addr:district": "Zeytinburnu",
            "description": "",
            "opening_hours": null,
            "phone": null,
            "branch": null,
            "amenity": "leather",
            "mobile": null,
            "addr:street": "39/5. sk.",
            "cuisine": null,
            "name": "Hira",
            "name:en": null,
            "name:uk": null,
            "name:de": null,
            "name:tr": null,
            "name:ru": null,
            "name:ar": "حيراء"
        }
    },
    {
        "lat": 40.9903841,
        "lon": 28.9095076,
        "tags": {
            "addr:city": "Istanbul",
            "addr:district": "Zeytinburnu",
            "description": "",
            "opening_hours": null,
            "phone": null,
            "branch": null,
            "amenity": "leather",
            "mobile": null,
            "addr:street": "Zübeyde Hanım Cd.",
            "cuisine": null,
            "name": "Kar Deri",
            "name:en": null,
            "name:uk": null,
            "name:de": null,
            "name:tr": null,
            "name:ru": null,
            "name:ar": "جلد"
        }
    },
    {
        "lat": 40.9925445,
        "lon": 28.9111868,
        "tags": {
            "addr:city": "Istanbul",
            "addr:district": "Zeytinburnu",
            "description": "",
            "opening_hours": null,
            "phone": null,
            "branch": null,
            "amenity": "leather",
            "mobile": null,
            "addr:street": "31.sokak.",
            "cuisine": null,
            "name": "Taşcan Deri",
            "name:en": null,
            "name:uk": null,
            "name:de": null,
            "name:tr": null,
            "name:ru": null,
            "name:ar": "تاشجان ديري"
        }
    },
    {
        "lat": 40.9922182,
        "lon": 28.9083993,
        "tags": {
            "addr:city": "Istanbul",
            "addr:district": "Zeytinburnu",
            "description": "",
            "opening_hours": null,
            "phone": null,
            "branch": null,
            "amenity": "leather",
            "mobile": null,
            "addr:street": "44. sokak",
            "cuisine": null,
            "name": "Emre Fur",
            "name:en": null,
            "name:uk": null,
            "name:de": null,
            "name:tr": null,
            "name:ru": null,
            "name:ar": "ايمر فور"
        }
    },
    {
        "lat": 40.9919843,
        "lon": 28.9101058,
        "tags": {
            "addr:city": "Istanbul",
            "addr:district": "Zeytinburnu",
            "description": "",
            "opening_hours": null,
            "phone": null,
            "branch": null,
            "amenity": "leather",
            "mobile": null,
            "addr:street": "39/5. sk.",
            "cuisine": null,
            "name": "Halil Deri",
            "name:en": null,
            "name:uk": null,
            "name:de": null,
            "name:tr": null,
            "name:ru": null,
            "name:ar": "خليل للجلود"
        }
    },
    {
        "lat": 40.9972072,
        "lon": 29.028818,
        "tags": {
            "addr:city": "İstanbul",
            "addr:district": null,
            "description": "",
            "opening_hours": null,
            "phone": null,
            "branch": null,
            "amenity": "leather",
            "mobile": null,
            "addr:street": "Macit Erbudak Sokağı",
            "cuisine": null,
            "name": "Läderfy",
            "name:en": null,
            "name:uk": null,
            "name:de": null,
            "name:tr": null,
            "name:ru": null,
            "name:ar": null
        }
    },
    {
        "lat": 41.0278792,
        "lon": 28.9802903,
        "tags": {
            "addr:city": "Istanbul",
            "addr:district": "Beyoğlu",
            "description": "",
            "opening_hours": null,
            "phone": "+90 535 651 93 23",
            "branch": null,
            "amenity": "leather",
            "mobile": null,
            "addr:street": "Boğazkesen Caddesi",
            "cuisine": null,
            "name": "Cappadoccia Leather",
            "name:en": null,
            "name:uk": null,
            "name:de": null,
            "name:tr": null,
            "name:ru": null,
            "name:ar": null
        }
    },
    {
        "lat": 41.0099534,
        "lon": 28.9692364,
        "tags": {
            "addr:city": "Istanbul",
            "addr:district": "Fatih",
            "description": "",
            "opening_hours": null,
            "phone": "+90 212 522 56 69",
            "branch": null,
            "amenity": "leather",
            "mobile": null,
            "addr:street": "Terzibaşı Sokağı",
            "cuisine": null,
            "name": "Tanatar Jean Guise",
            "name:en": null,
            "name:uk": null,
            "name:de": null,
            "name:tr": null,
            "name:ru": null,
            "name:ar": null
        }
    }
]