[
    {
        "lat": 40.9295444,
        "lon": 29.1346446,
        "tags": {
            "addr:city": "İstanbul",
            "addr:district": null,
            "description": "",
            "opening_hours": null,
            "phone": "+902165199592",
            "branch": null,
            "amenity": "locksmith",
            "mobile": null,
            "addr:street": null,
            "cuisine": null,
            "name": "Engin Anahtar Elektrik Elektronik Çilingir",
            "name:en": null,
            "name:uk": null,
            "name:de": null,
            "name:tr": null,
            "name:ru": null,
            "name:ar": null
        }
    },
    {
        "lat": 40.8948541,
        "lon": 29.1831987,
        "tags": {
            "addr:city": "İstanbul",
            "addr:district": null,
            "description": "",
            "opening_hours": null,
            "phone": null,
            "branch": null,
            "amenity": "locksmith",
            "mobile": null,
            "addr:street": null,
            "cuisine": null,
            "name": "anahtarcı 7*24",
            "name:en": null,
            "name:uk": null,
            "name:de": null,
            "name:tr": null,
            "name:ru": null,
            "name:ar": null
        }
    },
    {
        "lat": 40.9577285,
        "lon": 29.0970989,
        "tags": {
            "addr:city": "İstanbul",
            "addr:district": "Kadıköy",
            "description": "",
            "opening_hours": null,
            "phone": null,
            "branch": null,
            "amenity": "locksmith",
            "mobile": null,
            "addr:street": null,
            "cuisine": null,
            "name": "Özgün Anahtar",
            "name:en": null,
            "name:uk": null,
            "name:de": null,
            "name:tr": null,
            "name:ru": null,
            "name:ar": null
        }
    },
    {
        "lat": 40.9548469,
        "lon": 29.0949851,
        "tags": {
            "addr:city": "Istanbul",
            "addr:district": "Kadıköy",
            "description": "",
            "opening_hours": null,
            "phone": null,
            "branch": null,
            "amenity": "locksmith",
            "mobile": null,
            "addr:street": "Kitapçı Mehmet Süleyman Sokak",
            "cuisine": null,
            "name": "Anahtar Dünyası",
            "name:en": null,
            "name:uk": null,
            "name:de": null,
            "name:tr": null,
            "name:ru": null,
            "name:ar": null
        }
    },
    {
        "lat": 41.1011481,
        "lon": 28.8626911,
        "tags": {
            "addr:city": "İstanbul",
            "addr:district": null,
            "description": "",
            "opening_hours": null,
            "phone": null,
            "branch": null,
            "amenity": "locksmith",
            "mobile": null,
            "addr:street": null,
            "cuisine": null,
            "name": "Lider",
            "name:en": null,
            "name:uk": null,
            "name:de": null,
            "name:tr": null,
            "name:ru": null,
            "name:ar": null
        }
    },
    {
        "lat": 40.9608835,
        "lon": 29.0895479,
        "tags": {
            "addr:city": "İstanbul",
            "addr:district": "Kadıköy",
            "description": "",
            "opening_hours": null,
            "phone": null,
            "branch": null,
            "amenity": "locksmith",
            "mobile": null,
            "addr:street": "Emin Ali Paşa Caddesi",
            "cuisine": null,
            "name": "Kale Kilit",
            "name:en": null,
            "name:uk": null,
            "name:de": null,
            "name:tr": null,
            "name:ru": null,
            "name:ar": null
        }
    },
    {
        "lat": 40.9804587,
        "lon": 29.2655783,
        "tags": {
            "addr:city": "Istanbul",
            "addr:district": "Sultanbeyli",
            "description": "",
            "opening_hours": "Mo-Fr 07:00-13:30; Mo-Fr 17:00-20:00",
            "phone": null,
            "branch": null,
            "amenity": "locksmith",
            "mobile": null,
            "addr:street": "kubbe Caddesi",
            "cuisine": null,
            "name": "Anahtarcı",
            "name:en": null,
            "name:uk": null,
            "name:de": null,
            "name:tr": null,
            "name:ru": null,
            "name:ar": "مطعم Iso"
        }
    },
    {
        "lat": 40.9983887,
        "lon": 28.9048528,
        "tags": {
            "addr:city": "Istanbul",
            "addr:district": "Zeytinburnu",
            "description": "",
            "opening_hours": "Mo-Fr 09:00-17:00",
            "phone": null,
            "branch": null,
            "amenity": "locksmith",
            "mobile": null,
            "addr:street": null,
            "cuisine": null,
            "name": "Anahtarcı",
            "name:en": null,
            "name:uk": null,
            "name:de": null,
            "name:tr": null,
            "name:ru": null,
            "name:ar": "نسخ مفاتيح"
        }
    },
    {
        "lat": 40.9899578,
        "lon": 28.904235,
        "tags": {
            "addr:city": "Istanbul",
            "addr:district": "Zeytinburnu",
            "description": "",
            "opening_hours": null,
            "phone": null,
            "branch": null,
            "amenity": "locksmith",
            "mobile": null,
            "addr:street": "58/2 Sokak",
            "cuisine": null,
            "name": "Anahtarci",
            "name:en": null,
            "name:uk": null,
            "name:de": null,
            "name:tr": null,
            "name:ru": null,
            "name:ar": "اناهتارجي"
        }
    },
    {
        "lat": 40.9940705,
        "lon": 28.8985537,
        "tags": {
            "addr:city": "Istanbul",
            "addr:district": "Zeytinburnu",
            "description": "",
            "opening_hours": null,
            "phone": null,
            "branch": null,
            "amenity": "locksmith",
            "mobile": null,
            "addr:street": "74. sok.",
            "cuisine": null,
            "name": "Anahtarcı",
            "name:en": null,
            "name:uk": null,
            "name:de": null,
            "name:tr": null,
            "name:ru": null,
            "name:ar": "مصلح مفاتيح"
        }
    },
    {
        "lat": 40.9877852,
        "lon": 28.8984616,
        "tags": {
            "addr:city": "Istanbul",
            "addr:district": "Zeytinburnu",
            "description": "",
            "opening_hours": null,
            "phone": null,
            "branch": null,
            "amenity": "locksmith",
            "mobile": null,
            "addr:street": "67. sokak",
            "cuisine": null,
            "name": "kardeşler makina",
            "name:en": null,
            "name:uk": null,
            "name:de": null,
            "name:tr": null,
            "name:ru": null,
            "name:ar": "كارديشلار ماكينة"
        }
    },
    {
        "lat": 40.9875938,
        "lon": 28.8967344,
        "tags": {
            "addr:city": "Istanbul",
            "addr:district": "Zeytinburnu",
            "description": "",
            "opening_hours": null,
            "phone": null,
            "branch": null,
            "amenity": "locksmith",
            "mobile": null,
            "addr:street": "27/1. sokak",
            "cuisine": null,
            "name": "işbilir",
            "name:en": null,
            "name:uk": null,
            "name:de": null,
            "name:tr": null,
            "name:ru": null,
            "name:ar": "إيشبيلير"
        }
    },
    {
        "lat": 40.9860585,
        "lon": 28.8953875,
        "tags": {
            "addr:city": "Istanbul",
            "addr:district": "Zeytinburnu",
            "description": "",
            "opening_hours": null,
            "phone": null,
            "branch": null,
            "amenity": "locksmith",
            "mobile": null,
            "addr:street": "8/3. sokak",
            "cuisine": null,
            "name": "kale kilit",
            "name:en": null,
            "name:uk": null,
            "name:de": null,
            "name:tr": null,
            "name:ru": null,
            "name:ar": "كالي كيليت"
        }
    },
    {
        "lat": 41.0466915,
        "lon": 28.8598207,
        "tags": {
            "addr:city": "Istanbul",
            "addr:district": "Bağcılar",
            "description": "",
            "opening_hours": null,
            "phone": null,
            "branch": null,
            "amenity": "locksmith",
            "mobile": null,
            "addr:street": "Osmangazi Caddesi",
            "cuisine": null,
            "name": "Anahtarcı",
            "name:en": null,
            "name:uk": null,
            "name:de": null,
            "name:tr": null,
            "name:ru": null,
            "name:ar": "أناهتارجه"
        }
    },
    {
        "lat": 41.0494461,
        "lon": 28.8394612,
        "tags": {
            "addr:city": "Istanbul",
            "addr:district": "Bağcılar",
            "description": "",
            "opening_hours": null,
            "phone": null,
            "branch": null,
            "amenity": "locksmith",
            "mobile": null,
            "addr:street": "Altınel sokak",
            "cuisine": null,
            "name": "Kardeşler",
            "name:en": null,
            "name:uk": null,
            "name:de": null,
            "name:tr": null,
            "name:ru": null,
            "name:ar": "كارديشلر"
        }
    },
    {
        "lat": 41.0618554,
        "lon": 28.8546756,
        "tags": {
            "addr:city": "Istanbul",
            "addr:district": "Bağcılar",
            "description": "",
            "opening_hours": null,
            "phone": null,
            "branch": null,
            "amenity": "locksmith",
            "mobile": null,
            "addr:street": "39. sokak",
            "cuisine": null,
            "name": "Şen Anahtarcı",
            "name:en": null,
            "name:uk": null,
            "name:de": null,
            "name:tr": null,
            "name:ru": null,
            "name:ar": "شين اناهتارجى"
        }
    },
    {
        "lat": 41.0312024,
        "lon": 28.8318676,
        "tags": {
            "addr:city": "Istanbul",
            "addr:district": "Bağcılar",
            "description": "",
            "opening_hours": null,
            "phone": "6307843",
            "branch": null,
            "amenity": "locksmith",
            "mobile": null,
            "addr:street": "1244 Sokak",
            "cuisine": null,
            "name": "Anahtarcı",
            "name:en": null,
            "name:uk": null,
            "name:de": null,
            "name:tr": null,
            "name:ru": null,
            "name:ar": "اناهتارجه"
        }
    },
    {
        "lat": 41.0384258,
        "lon": 28.8706326,
        "tags": {
            "addr:city": "Istanbul",
            "addr:district": "Bağcılar",
            "description": "",
            "opening_hours": null,
            "phone": null,
            "branch": null,
            "amenity": "locksmith",
            "mobile": null,
            "addr:street": "fatih Caddesi",
            "cuisine": null,
            "name": "Anahtarcı",
            "name:en": null,
            "name:uk": null,
            "name:de": null,
            "name:tr": null,
            "name:ru": null,
            "name:ar": "تصليح مفاتيح"
        }
    },
    {
        "lat": 41.0212352,
        "lon": 28.8578765,
        "tags": {
            "addr:city": "Istanbul",
            "addr:district": "Bağcılar",
            "description": "",
            "opening_hours": null,
            "phone": null,
            "branch": null,
            "amenity": "locksmith",
            "mobile": null,
            "addr:street": "Bağcılar Caddesi",
            "cuisine": null,
            "name": "Arkadaş Anahtar",
            "name:en": null,
            "name:uk": null,
            "name:de": null,
            "name:tr": null,
            "name:ru": null,
            "name:ar": "مفاتيح الصديق"
        }
    },
    {
        "lat": 41.135029,
        "lon": 29.089682,
        "tags": {
            "addr:city": "İstanbul",
            "addr:district": null,
            "description": "",
            "opening_hours": null,
            "phone": null,
            "branch": null,
            "amenity": "locksmith",
            "mobile": null,
            "addr:street": null,
            "cuisine": null,
            "name": "Kilit Bilgisayar",
            "name:en": null,
            "name:uk": null,
            "name:de": null,
            "name:tr": null,
            "name:ru": null,
            "name:ar": null
        }
    },
    {
        "lat": 40.9844043,
        "lon": 29.0283216,
        "tags": {
            "addr:city": "Istanbul",
            "addr:district": "Kadıköy",
            "description": "",
            "opening_hours": null,
            "phone": "+902163366369",
            "branch": null,
            "amenity": "locksmith",
            "mobile": null,
            "addr:street": "Şair Latifi Sokağı",
            "cuisine": null,
            "name": "Anahtarcı Yetiş",
            "name:en": null,
            "name:uk": null,
            "name:de": null,
            "name:tr": null,
            "name:ru": null,
            "name:ar": null
        }
    },
    {
        "lat": 40.9623588,
        "lon": 29.0802309,
        "tags": {
            "addr:city": "İstanbul",
            "addr:district": null,
            "description": "",
            "opening_hours": null,
            "phone": null,
            "branch": null,
            "amenity": "locksmith",
            "mobile": null,
            "addr:street": null,
            "cuisine": null,
            "name": "Geçit Anahtar",
            "name:en": null,
            "name:uk": null,
            "name:de": null,
            "name:tr": null,
            "name:ru": null,
            "name:ar": null
        }
    },
    {
        "lat": 40.8279997,
        "lon": 29.3210949,
        "tags": {
            "addr:city": "İstanbul",
            "addr:district": null,
            "description": "",
            "opening_hours": null,
            "phone": null,
            "branch": null,
            "amenity": "locksmith",
            "mobile": null,
            "addr:street": null,
            "cuisine": null,
            "name": "Marmara Çilingir",
            "name:en": null,
            "name:uk": null,
            "name:de": null,
            "name:tr": null,
            "name:ru": null,
            "name:ar": null
        }
    },
    {
        "lat": 41.05758,
        "lon": 28.9940962,
        "tags": {
            "addr:city": "İstanbul",
            "addr:district": null,
            "description": "",
            "opening_hours": null,
            "phone": null,
            "branch": null,
            "amenity": "locksmith",
            "mobile": null,
            "addr:street": null,
            "cuisine": null,
            "name": null,
            "name:en": null,
            "name:uk": null,
            "name:de": null,
            "name:tr": null,
            "name:ru": null,
            "name:ar": null
        }
    }
]