[
    {
        "lat": 41.0113437,
        "lon": 28.8887821,
        "tags": {
            "addr:city": "İstanbul",
            "addr:district": null,
            "description": "",
            "opening_hours": null,
            "phone": null,
            "branch": null,
            "amenity": "mall",
            "mobile": null,
            "addr:street": null,
            "cuisine": null,
            "name": null,
            "name:en": null,
            "name:uk": null,
            "name:de": null,
            "name:tr": null,
            "name:ru": null,
            "name:ar": null
        }
    },
    {
        "lat": 40.8637872,
        "lon": 29.2735795,
        "tags": {
            "addr:city": "İstanbul",
            "addr:district": null,
            "description": "",
            "opening_hours": null,
            "phone": null,
            "branch": null,
            "amenity": "mall",
            "mobile": null,
            "addr:street": null,
            "cuisine": null,
            "name": "Neomarin",
            "name:en": null,
            "name:uk": null,
            "name:de": null,
            "name:tr": null,
            "name:ru": null,
            "name:ar": null
        }
    },
    {
        "lat": 41.0672695,
        "lon": 28.8604966,
        "tags": {
            "addr:city": "İstanbul",
            "addr:district": null,
            "description": "",
            "opening_hours": null,
            "phone": null,
            "branch": null,
            "amenity": "mall",
            "mobile": null,
            "addr:street": null,
            "cuisine": null,
            "name": "Tekstilkent A Kapısı",
            "name:en": null,
            "name:uk": null,
            "name:de": null,
            "name:tr": null,
            "name:ru": null,
            "name:ar": null
        }
    },
    {
        "lat": 41.0337869,
        "lon": 28.9781982,
        "tags": {
            "addr:city": "İstanbul",
            "addr:district": null,
            "description": "",
            "opening_hours": null,
            "phone": null,
            "branch": null,
            "amenity": "mall",
            "mobile": null,
            "addr:street": null,
            "cuisine": null,
            "name": "Ors Turistik is merkezi",
            "name:en": null,
            "name:uk": null,
            "name:de": null,
            "name:tr": null,
            "name:ru": null,
            "name:ar": null
        }
    },
    {
        "lat": 41.0341134,
        "lon": 28.9792135,
        "tags": {
            "addr:city": "İstanbul",
            "addr:district": null,
            "description": "",
            "opening_hours": null,
            "phone": null,
            "branch": null,
            "amenity": "mall",
            "mobile": null,
            "addr:street": null,
            "cuisine": null,
            "name": "Atlas Pasajı",
            "name:en": null,
            "name:uk": null,
            "name:de": null,
            "name:tr": null,
            "name:ru": null,
            "name:ar": null
        }
    },
    {
        "lat": 41.031056,
        "lon": 28.9755901,
        "tags": {
            "addr:city": "İstanbul",
            "addr:district": null,
            "description": "",
            "opening_hours": null,
            "phone": null,
            "branch": null,
            "amenity": "mall",
            "mobile": null,
            "addr:street": null,
            "cuisine": null,
            "name": "Terkos Pasajı",
            "name:en": "Textile Bazaar Terkos",
            "name:uk": null,
            "name:de": null,
            "name:tr": null,
            "name:ru": null,
            "name:ar": null
        }
    },
    {
        "lat": 41.0247304,
        "lon": 29.1063989,
        "tags": {
            "addr:city": "İstanbul",
            "addr:district": null,
            "description": "",
            "opening_hours": "Mo-Su 10:00-22:00",
            "phone": null,
            "branch": null,
            "amenity": "mall",
            "mobile": null,
            "addr:street": null,
            "cuisine": null,
            "name": "Canpark Alışveriş Merkezi",
            "name:en": null,
            "name:uk": null,
            "name:de": null,
            "name:tr": null,
            "name:ru": null,
            "name:ar": null
        }
    },
    {
        "lat": 41.1091663,
        "lon": 29.1138195,
        "tags": {
            "addr:city": "İstanbul",
            "addr:district": null,
            "description": "",
            "opening_hours": null,
            "phone": null,
            "branch": null,
            "amenity": "mall",
            "mobile": null,
            "addr:street": null,
            "cuisine": null,
            "name": "Acrloft",
            "name:en": null,
            "name:uk": null,
            "name:de": null,
            "name:tr": null,
            "name:ru": null,
            "name:ar": null
        }
    },
    {
        "lat": 41.0635802,
        "lon": 28.7466293,
        "tags": {
            "addr:city": "İstanbul",
            "addr:district": null,
            "description": "",
            "opening_hours": null,
            "phone": null,
            "branch": null,
            "amenity": "mall",
            "mobile": null,
            "addr:street": null,
            "cuisine": null,
            "name": "Happy Center",
            "name:en": null,
            "name:uk": null,
            "name:de": null,
            "name:tr": null,
            "name:ru": null,
            "name:ar": null
        }
    },
    {
        "lat": 41.0154863,
        "lon": 29.1308692,
        "tags": {
            "addr:city": "İstanbul",
            "addr:district": null,
            "description": "",
            "opening_hours": null,
            "phone": null,
            "branch": null,
            "amenity": "mall",
            "mobile": null,
            "addr:street": null,
            "cuisine": null,
            "name": "Cadde AVM",
            "name:en": null,
            "name:uk": null,
            "name:de": null,
            "name:tr": null,
            "name:ru": null,
            "name:ar": null
        }
    },
    {
        "lat": 41.015749,
        "lon": 29.1305796,
        "tags": {
            "addr:city": "İstanbul",
            "addr:district": null,
            "description": "",
            "opening_hours": null,
            "phone": null,
            "branch": null,
            "amenity": "mall",
            "mobile": null,
            "addr:street": null,
            "cuisine": null,
            "name": "Gamze Outlet",
            "name:en": null,
            "name:uk": null,
            "name:de": null,
            "name:tr": null,
            "name:ru": null,
            "name:ar": null
        }
    },
    {
        "lat": 40.9442662,
        "lon": 29.1187113,
        "tags": {
            "addr:city": "İstanbul",
            "addr:district": null,
            "description": "",
            "opening_hours": null,
            "phone": null,
            "branch": null,
            "amenity": "mall",
            "mobile": null,
            "addr:street": null,
            "cuisine": null,
            "name": "Mopaş",
            "name:en": null,
            "name:uk": null,
            "name:de": null,
            "name:tr": null,
            "name:ru": null,
            "name:ar": null
        }
    },
    {
        "lat": 40.9240097,
        "lon": 29.1322721,
        "tags": {
            "addr:city": "İstanbul",
            "addr:district": null,
            "description": "",
            "opening_hours": null,
            "phone": null,
            "branch": null,
            "amenity": "mall",
            "mobile": null,
            "addr:street": null,
            "cuisine": null,
            "name": "İstanbul A.V.M",
            "name:en": null,
            "name:uk": null,
            "name:de": null,
            "name:tr": null,
            "name:ru": null,
            "name:ar": null
        }
    },
    {
        "lat": 40.9239293,
        "lon": 29.1324173,
        "tags": {
            "addr:city": "İstanbul",
            "addr:district": null,
            "description": "",
            "opening_hours": null,
            "phone": null,
            "branch": null,
            "amenity": "mall",
            "mobile": null,
            "addr:street": null,
            "cuisine": null,
            "name": "İstanbul AVM",
            "name:en": null,
            "name:uk": null,
            "name:de": null,
            "name:tr": null,
            "name:ru": null,
            "name:ar": null
        }
    },
    {
        "lat": 40.9237154,
        "lon": 29.1327767,
        "tags": {
            "addr:city": "İstanbul",
            "addr:district": null,
            "description": "",
            "opening_hours": null,
            "phone": null,
            "branch": null,
            "amenity": "mall",
            "mobile": null,
            "addr:street": null,
            "cuisine": null,
            "name": "A.V.M. 34",
            "name:en": null,
            "name:uk": null,
            "name:de": null,
            "name:tr": null,
            "name:ru": null,
            "name:ar": null
        }
    },
    {
        "lat": 41.0102509,
        "lon": 29.2107767,
        "tags": {
            "addr:city": "İstanbul",
            "addr:district": null,
            "description": "",
            "opening_hours": null,
            "phone": null,
            "branch": null,
            "amenity": "mall",
            "mobile": null,
            "addr:street": null,
            "cuisine": null,
            "name": "Sancak Park AVM",
            "name:en": null,
            "name:uk": null,
            "name:de": null,
            "name:tr": null,
            "name:ru": null,
            "name:ar": null
        }
    },
    {
        "lat": 41.0057112,
        "lon": 29.2112218,
        "tags": {
            "addr:city": "İstanbul",
            "addr:district": null,
            "description": "Vandal Çamsan Park Avm\n0216 784 14 24",
            "opening_hours": null,
            "phone": null,
            "branch": null,
            "amenity": "mall",
            "mobile": null,
            "addr:street": null,
            "cuisine": null,
            "name": "Vandal Çamsan Park",
            "name:en": null,
            "name:uk": null,
            "name:de": null,
            "name:tr": null,
            "name:ru": null,
            "name:ar": null
        }
    },
    {
        "lat": 41.0093125,
        "lon": 28.9500082,
        "tags": {
            "addr:city": "Istanbul",
            "addr:district": "Fatih",
            "description": "",
            "opening_hours": null,
            "phone": null,
            "branch": null,
            "amenity": "mall",
            "mobile": null,
            "addr:street": "Namık kemal caddesi",
            "cuisine": null,
            "name": "Ender",
            "name:en": null,
            "name:uk": null,
            "name:de": null,
            "name:tr": null,
            "name:ru": null,
            "name:ar": "مركز أندر للتسوق"
        }
    },
    {
        "lat": 41.0142881,
        "lon": 28.9762417,
        "tags": {
            "addr:city": "Istanbul",
            "addr:district": "Fatih",
            "description": "",
            "opening_hours": null,
            "phone": null,
            "branch": null,
            "amenity": "mall",
            "mobile": null,
            "addr:street": "Muradiye Caddesi",
            "cuisine": null,
            "name": "Hayyam Çarşısı",
            "name:en": null,
            "name:uk": null,
            "name:de": null,
            "name:tr": null,
            "name:ru": null,
            "name:ar": null
        }
    },
    {
        "lat": 41.0132297,
        "lon": 28.9748444,
        "tags": {
            "addr:city": "Istanbul",
            "addr:district": "Fatih",
            "description": "",
            "opening_hours": null,
            "phone": null,
            "branch": null,
            "amenity": "mall",
            "mobile": null,
            "addr:street": "Ankara Caddesi",
            "cuisine": null,
            "name": "ALIŞVERİŞ ELKTRONİK",
            "name:en": null,
            "name:uk": null,
            "name:de": null,
            "name:tr": null,
            "name:ru": null,
            "name:ar": "ألشفيريش الكترونيك"
        }
    },
    {
        "lat": 41.009067,
        "lon": 28.9738089,
        "tags": {
            "addr:city": "Istanbul",
            "addr:district": "Fatih",
            "description": "",
            "opening_hours": null,
            "phone": null,
            "branch": null,
            "amenity": "mall",
            "mobile": null,
            "addr:street": "Bab-ı Ali Caddesi",
            "cuisine": null,
            "name": "Bolis Pirlanta",
            "name:en": null,
            "name:uk": null,
            "name:de": null,
            "name:tr": null,
            "name:ru": null,
            "name:ar": "مركز تسوق بوليس بيرلانتا"
        }
    },
    {
        "lat": 41.018166,
        "lon": 28.9580718,
        "tags": {
            "addr:city": "Istanbul",
            "addr:district": "Turkey",
            "description": "",
            "opening_hours": null,
            "phone": null,
            "branch": null,
            "amenity": "mall",
            "mobile": null,
            "addr:street": "Atatürk bulvarı",
            "cuisine": null,
            "name": "imç çarşısı 3.blok",
            "name:en": null,
            "name:uk": null,
            "name:de": null,
            "name:tr": null,
            "name:ru": null,
            "name:ar": null
        }
    },
    {
        "lat": 41.007992,
        "lon": 28.9560381,
        "tags": {
            "addr:city": "Istanbul",
            "addr:district": "Fatih",
            "description": "",
            "opening_hours": null,
            "phone": null,
            "branch": null,
            "amenity": "mall",
            "mobile": null,
            "addr:street": "Laleli Caddesi",
            "cuisine": null,
            "name": "Kalvi Center",
            "name:en": null,
            "name:uk": null,
            "name:de": null,
            "name:tr": null,
            "name:ru": null,
            "name:ar": "كالفي سنتر"
        }
    },
    {
        "lat": 41.0073322,
        "lon": 28.9384282,
        "tags": {
            "addr:city": "Istanbul",
            "addr:district": "Fatih",
            "description": "",
            "opening_hours": null,
            "phone": null,
            "branch": null,
            "amenity": "mall",
            "mobile": null,
            "addr:street": "Hekimoğlu ali paşa Caddesi",
            "cuisine": null,
            "name": "evim avm",
            "name:en": null,
            "name:uk": null,
            "name:de": null,
            "name:tr": null,
            "name:ru": null,
            "name:ar": "ايفيم ا في مي"
        }
    },
    {
        "lat": 41.0288543,
        "lon": 28.9448993,
        "tags": {
            "addr:city": "Istanbul",
            "addr:district": "Fatih",
            "description": "",
            "opening_hours": null,
            "phone": null,
            "branch": null,
            "amenity": "mall",
            "mobile": null,
            "addr:street": "Fethiye Caddesi",
            "cuisine": null,
            "name": "Fatih Ucuzluk Pazarı",
            "name:en": null,
            "name:uk": null,
            "name:de": null,
            "name:tr": null,
            "name:ru": null,
            "name:ar": "سوق فاتح للاغراض الرخيصة"
        }
    },
    {
        "lat": 41.0063554,
        "lon": 28.9788085,
        "tags": {
            "addr:city": "Istanbul",
            "addr:district": "Turkey",
            "description": "",
            "opening_hours": null,
            "phone": null,
            "branch": null,
            "amenity": "mall",
            "mobile": null,
            "addr:street": "Kabasakal caddesi",
            "cuisine": null,
            "name": "İstanbul Sanatları Çarşısı",
            "name:en": null,
            "name:uk": null,
            "name:de": null,
            "name:tr": null,
            "name:ru": null,
            "name:ar": null
        }
    },
    {
        "lat": 41.0089911,
        "lon": 28.9564944,
        "tags": {
            "addr:city": "Istanbul",
            "addr:district": "Fatih",
            "description": "",
            "opening_hours": null,
            "phone": null,
            "branch": null,
            "amenity": "mall",
            "mobile": null,
            "addr:street": "Laleli Caddesi",
            "cuisine": null,
            "name": "Babaman Center",
            "name:en": null,
            "name:uk": null,
            "name:de": null,
            "name:tr": null,
            "name:ru": null,
            "name:ar": null
        }
    },
    {
        "lat": 41.0081869,
        "lon": 28.9540425,
        "tags": {
            "addr:city": "Istanbul",
            "addr:district": "Fatih",
            "description": "",
            "opening_hours": null,
            "phone": null,
            "branch": null,
            "amenity": "mall",
            "mobile": null,
            "addr:street": "Mesihpaşa Caddesi",
            "cuisine": null,
            "name": "Aksa İş Merkez",
            "name:en": null,
            "name:uk": null,
            "name:de": null,
            "name:tr": null,
            "name:ru": null,
            "name:ar": "أكسا إيش مركز"
        }
    },
    {
        "lat": 41.0089024,
        "lon": 28.9538519,
        "tags": {
            "addr:city": "Istanbul",
            "addr:district": "Fatih",
            "description": "",
            "opening_hours": null,
            "phone": null,
            "branch": null,
            "amenity": "mall",
            "mobile": null,
            "addr:street": "Saitefendi Sokağı",
            "cuisine": null,
            "name": "İstanbul Bazaar",
            "name:en": null,
            "name:uk": null,
            "name:de": null,
            "name:tr": null,
            "name:ru": null,
            "name:ar": "استنبول بازار"
        }
    },
    {
        "lat": 41.00719,
        "lon": 28.9558264,
        "tags": {
            "addr:city": "Istanbul",
            "addr:district": "Fatih",
            "description": "",
            "opening_hours": null,
            "phone": null,
            "branch": null,
            "amenity": "mall",
            "mobile": null,
            "addr:street": "Hayriye Tüccarı Caddesi",
            "cuisine": null,
            "name": "Hakan Bazaar",
            "name:en": null,
            "name:uk": null,
            "name:de": null,
            "name:tr": null,
            "name:ru": null,
            "name:ar": "هاكان بازار"
        }
    },
    {
        "lat": 41.0171464,
        "lon": 28.9433505,
        "tags": {
            "addr:city": "Istanbul",
            "addr:district": "Turkey",
            "description": "",
            "opening_hours": null,
            "phone": null,
            "branch": null,
            "amenity": "mall",
            "mobile": null,
            "addr:street": "Akdeniz Caddesi",
            "cuisine": null,
            "name": "Çin pazarı",
            "name:en": null,
            "name:uk": null,
            "name:de": null,
            "name:tr": null,
            "name:ru": null,
            "name:ar": "تشين بازاري"
        }
    },
    {
        "lat": 41.0092695,
        "lon": 28.9718013,
        "tags": {
            "addr:city": "Istanbul",
            "addr:district": "Fatih",
            "description": "",
            "opening_hours": null,
            "phone": null,
            "branch": null,
            "amenity": "mall",
            "mobile": null,
            "addr:street": "Vezirhan Caddesi",
            "cuisine": null,
            "name": "TAKIDASANAT ATÖLYE",
            "name:en": null,
            "name:uk": null,
            "name:de": null,
            "name:tr": null,
            "name:ru": null,
            "name:ar": "تاكداسانات أتولي"
        }
    },
    {
        "lat": 41.0079709,
        "lon": 28.9665015,
        "tags": {
            "addr:city": "Istanbul",
            "addr:district": "Fatih",
            "description": "",
            "opening_hours": null,
            "phone": null,
            "branch": null,
            "amenity": "mall",
            "mobile": null,
            "addr:street": "Yahya Paşa Sokak",
            "cuisine": null,
            "name": "mytopuk",
            "name:en": null,
            "name:uk": null,
            "name:de": null,
            "name:tr": null,
            "name:ru": null,
            "name:ar": "ميتوبوك"
        }
    },
    {
        "lat": 41.0079475,
        "lon": 28.9659945,
        "tags": {
            "addr:city": "Istanbul",
            "addr:district": "Fatih",
            "description": "",
            "opening_hours": null,
            "phone": null,
            "branch": null,
            "amenity": "mall",
            "mobile": null,
            "addr:street": "Yahya Paşa Sokak",
            "cuisine": null,
            "name": "Sözen Center",
            "name:en": null,
            "name:uk": null,
            "name:de": null,
            "name:tr": null,
            "name:ru": null,
            "name:ar": null
        }
    },
    {
        "lat": 41.0071959,
        "lon": 28.9667084,
        "tags": {
            "addr:city": "Istanbul",
            "addr:district": "Fatih",
            "description": "",
            "opening_hours": null,
            "phone": null,
            "branch": null,
            "amenity": "mall",
            "mobile": null,
            "addr:street": "Gedik Paşa Caddesi",
            "cuisine": null,
            "name": "Kent Center",
            "name:en": null,
            "name:uk": null,
            "name:de": null,
            "name:tr": null,
            "name:ru": null,
            "name:ar": "كينت سينتر"
        }
    },
    {
        "lat": 41.0118115,
        "lon": 28.9690068,
        "tags": {
            "addr:city": "Istanbul",
            "addr:district": "Fatih",
            "description": "",
            "opening_hours": null,
            "phone": null,
            "branch": null,
            "amenity": "mall",
            "mobile": null,
            "addr:street": "Tığcılar Sokak",
            "cuisine": null,
            "name": "Kapalıçarşı Mercan Kapısı",
            "name:en": null,
            "name:uk": null,
            "name:de": null,
            "name:tr": null,
            "name:ru": null,
            "name:ar": "كبالوتشارشي ميرجان كابوسو"
        }
    },
    {
        "lat": 41.1054442,
        "lon": 28.861258,
        "tags": {
            "addr:city": "İstanbul",
            "addr:district": null,
            "description": "",
            "opening_hours": null,
            "phone": null,
            "branch": null,
            "amenity": "mall",
            "mobile": null,
            "addr:street": null,
            "cuisine": null,
            "name": "Confident",
            "name:en": null,
            "name:uk": null,
            "name:de": null,
            "name:tr": null,
            "name:ru": null,
            "name:ar": null
        }
    },
    {
        "lat": 41.1061827,
        "lon": 28.8608559,
        "tags": {
            "addr:city": "İstanbul",
            "addr:district": null,
            "description": "",
            "opening_hours": null,
            "phone": null,
            "branch": null,
            "amenity": "mall",
            "mobile": null,
            "addr:street": null,
            "cuisine": null,
            "name": "Showland",
            "name:en": null,
            "name:uk": null,
            "name:de": null,
            "name:tr": null,
            "name:ru": null,
            "name:ar": null
        }
    },
    {
        "lat": 40.9716864,
        "lon": 29.2689354,
        "tags": {
            "addr:city": "Istanbul",
            "addr:district": "Sultanbeyli",
            "description": "",
            "opening_hours": "24/7",
            "phone": null,
            "branch": null,
            "amenity": "mall",
            "mobile": null,
            "addr:street": "Şeyh Şamil Caddesi",
            "cuisine": null,
            "name": "Göknur Alışveriş",
            "name:en": null,
            "name:uk": null,
            "name:de": null,
            "name:tr": null,
            "name:ru": null,
            "name:ar": "نوفوتيه"
        }
    },
    {
        "lat": 40.9496556,
        "lon": 29.2794061,
        "tags": {
            "addr:city": "Istanbul",
            "addr:district": "Sultanbeyli",
            "description": "",
            "opening_hours": "24/7",
            "phone": null,
            "branch": null,
            "amenity": "mall",
            "mobile": null,
            "addr:street": "Eyyubi Caddesi",
            "cuisine": null,
            "name": "Hakmar",
            "name:en": null,
            "name:uk": null,
            "name:de": null,
            "name:tr": null,
            "name:ru": null,
            "name:ar": "هكمر"
        }
    },
    {
        "lat": 40.9764436,
        "lon": 29.2662451,
        "tags": {
            "addr:city": "Istanbul",
            "addr:district": "Sultanbeyli",
            "description": "",
            "opening_hours": "24/7",
            "phone": null,
            "branch": null,
            "amenity": "mall",
            "mobile": null,
            "addr:street": "Biberlik Caddesi",
            "cuisine": null,
            "name": "Hakmar",
            "name:en": null,
            "name:uk": null,
            "name:de": null,
            "name:tr": null,
            "name:ru": null,
            "name:ar": "هكمر"
        }
    },
    {
        "lat": 40.9503208,
        "lon": 29.272505,
        "tags": {
            "addr:city": "Istanbul",
            "addr:district": "Sultanbeyli",
            "description": "",
            "opening_hours": "24/7",
            "phone": null,
            "branch": null,
            "amenity": "mall",
            "mobile": null,
            "addr:street": "Hatip Sokağı",
            "cuisine": null,
            "name": "Hakim",
            "name:en": null,
            "name:uk": null,
            "name:de": null,
            "name:tr": null,
            "name:ru": null,
            "name:ar": "حكيم"
        }
    },
    {
        "lat": 40.94942,
        "lon": 29.278122,
        "tags": {
            "addr:city": "Istanbul",
            "addr:district": "Sultanbeyli",
            "description": "",
            "opening_hours": "24/7",
            "phone": null,
            "branch": null,
            "amenity": "mall",
            "mobile": null,
            "addr:street": "Eyyubi Caddesi",
            "cuisine": null,
            "name": "Kırtasiye Tühafiye",
            "name:en": null,
            "name:uk": null,
            "name:de": null,
            "name:tr": null,
            "name:ru": null,
            "name:ar": "قرطاسية وتحف"
        }
    },
    {
        "lat": 40.9708833,
        "lon": 29.2693007,
        "tags": {
            "addr:city": "Istanbul",
            "addr:district": "Sultanbeyli",
            "description": "",
            "opening_hours": "24/7",
            "phone": null,
            "branch": null,
            "amenity": "mall",
            "mobile": null,
            "addr:street": "Şeyh Şamil caddesi",
            "cuisine": null,
            "name": "Hakmar",
            "name:en": null,
            "name:uk": null,
            "name:de": null,
            "name:tr": null,
            "name:ru": null,
            "name:ar": "هكمر"
        }
    },
    {
        "lat": 40.9669492,
        "lon": 29.274766,
        "tags": {
            "addr:city": "Istanbul",
            "addr:district": "Sultanbeyli",
            "description": "",
            "opening_hours": "24/7",
            "phone": "05327884361",
            "branch": null,
            "amenity": "mall",
            "mobile": null,
            "addr:street": "Sarpkaya Sokağı",
            "cuisine": null,
            "name": "Çocuk Dünyası",
            "name:en": null,
            "name:uk": null,
            "name:de": null,
            "name:tr": null,
            "name:ru": null,
            "name:ar": "تشوجوك دنياسي"
        }
    },
    {
        "lat": 40.9718445,
        "lon": 29.2738255,
        "tags": {
            "addr:city": "Istanbul",
            "addr:district": "Sultanbeyli",
            "description": "",
            "opening_hours": "24/7",
            "phone": null,
            "branch": null,
            "amenity": "mall",
            "mobile": null,
            "addr:street": "Kaptanı Derya Caddesi",
            "cuisine": null,
            "name": "Sezer AVM",
            "name:en": null,
            "name:uk": null,
            "name:de": null,
            "name:tr": null,
            "name:ru": null,
            "name:ar": "سيزير ا ف م"
        }
    },
    {
        "lat": 40.9681239,
        "lon": 29.2718621,
        "tags": {
            "addr:city": "Istanbul",
            "addr:district": "Sultanbeyli",
            "description": "",
            "opening_hours": "24/7",
            "phone": null,
            "branch": null,
            "amenity": "mall",
            "mobile": null,
            "addr:street": "Kaptanı Derya Caddesi",
            "cuisine": null,
            "name": "Hakmar",
            "name:en": null,
            "name:uk": null,
            "name:de": null,
            "name:tr": null,
            "name:ru": null,
            "name:ar": "هكمر"
        }
    },
    {
        "lat": 40.9497888,
        "lon": 29.2746438,
        "tags": {
            "addr:city": "Istanbul",
            "addr:district": "Sultanbeyli",
            "description": "",
            "opening_hours": "24/7",
            "phone": null,
            "branch": null,
            "amenity": "mall",
            "mobile": null,
            "addr:street": "Çam Sokağı",
            "cuisine": null,
            "name": "Hakmar",
            "name:en": null,
            "name:uk": null,
            "name:de": null,
            "name:tr": null,
            "name:ru": null,
            "name:ar": "هاكمر"
        }
    },
    {
        "lat": 40.9529929,
        "lon": 29.2695549,
        "tags": {
            "addr:city": "Istanbul",
            "addr:district": "Sultanbeyli",
            "description": "",
            "opening_hours": "24/7",
            "phone": null,
            "branch": null,
            "amenity": "mall",
            "mobile": null,
            "addr:street": "Seyhan Caddesi",
            "cuisine": null,
            "name": "Oruklar Avm",
            "name:en": null,
            "name:uk": null,
            "name:de": null,
            "name:tr": null,
            "name:ru": null,
            "name:ar": "مركز أوروكلار"
        }
    },
    {
        "lat": 40.9763406,
        "lon": 29.2662554,
        "tags": {
            "addr:city": "Istanbul",
            "addr:district": "Sultanbeyli",
            "description": "",
            "opening_hours": "24/7",
            "phone": null,
            "branch": null,
            "amenity": "mall",
            "mobile": null,
            "addr:street": "Biberlik Caddesi",
            "cuisine": null,
            "name": "Gönen Alışveriş Merkezi",
            "name:en": null,
            "name:uk": null,
            "name:de": null,
            "name:tr": null,
            "name:ru": null,
            "name:ar": "مركز تسوق غونين"
        }
    },
    {
        "lat": 40.9739451,
        "lon": 29.2756976,
        "tags": {
            "addr:city": "Istanbul",
            "addr:district": "Sultanbeyli",
            "description": "",
            "opening_hours": "24/7",
            "phone": null,
            "branch": null,
            "amenity": "mall",
            "mobile": null,
            "addr:street": "Çiğdem Sokağı",
            "cuisine": null,
            "name": "Yağmur Kırtasiye",
            "name:en": null,
            "name:uk": null,
            "name:de": null,
            "name:tr": null,
            "name:ru": null,
            "name:ar": "قرطاسية يامور"
        }
    },
    {
        "lat": 40.9562832,
        "lon": 29.2720019,
        "tags": {
            "addr:city": "Istanbul",
            "addr:district": "Sultanbeyli",
            "description": "",
            "opening_hours": "24/7",
            "phone": null,
            "branch": null,
            "amenity": "mall",
            "mobile": null,
            "addr:street": "Şalgamlı Caddesi",
            "cuisine": null,
            "name": "Hakmar",
            "name:en": null,
            "name:uk": null,
            "name:de": null,
            "name:tr": null,
            "name:ru": null,
            "name:ar": "هاكمر"
        }
    },
    {
        "lat": 40.968719,
        "lon": 29.2763328,
        "tags": {
            "addr:city": "Istanbul",
            "addr:district": "Sultanbeyli",
            "description": "",
            "opening_hours": "24/7",
            "phone": null,
            "branch": null,
            "amenity": "mall",
            "mobile": null,
            "addr:street": "Sevinç Sokağı",
            "cuisine": null,
            "name": "Hakmar",
            "name:en": null,
            "name:uk": null,
            "name:de": null,
            "name:tr": null,
            "name:ru": null,
            "name:ar": "هاكمر"
        }
    },
    {
        "lat": 40.9669832,
        "lon": 29.2752582,
        "tags": {
            "addr:city": "Istanbul",
            "addr:district": "Sultanbeyli",
            "description": "",
            "opening_hours": "24/7",
            "phone": null,
            "branch": null,
            "amenity": "mall",
            "mobile": null,
            "addr:street": "Cinnah Sokağı",
            "cuisine": null,
            "name": "Güleryüz AVM",
            "name:en": null,
            "name:uk": null,
            "name:de": null,
            "name:tr": null,
            "name:ru": null,
            "name:ar": "مركز تسوق غولاريوز"
        }
    },
    {
        "lat": 40.9730554,
        "lon": 29.2696461,
        "tags": {
            "addr:city": "Istanbul",
            "addr:district": "Sultanbeyli",
            "description": "",
            "opening_hours": "24/7",
            "phone": null,
            "branch": null,
            "amenity": "mall",
            "mobile": null,
            "addr:street": "Mücahit Caddesi",
            "cuisine": null,
            "name": "Nisanur Ucuzluk Pazarı",
            "name:en": null,
            "name:uk": null,
            "name:de": null,
            "name:tr": null,
            "name:ru": null,
            "name:ar": "بازار الرخص نيسانور"
        }
    },
    {
        "lat": 40.945445,
        "lon": 29.283905,
        "tags": {
            "addr:city": "Istanbul",
            "addr:district": "Sultanbeyli",
            "description": "",
            "opening_hours": "24/7",
            "phone": null,
            "branch": null,
            "amenity": "mall",
            "mobile": null,
            "addr:street": "Mescid_i Aksa Caddesi",
            "cuisine": null,
            "name": "Ayaz AVM",
            "name:en": null,
            "name:uk": null,
            "name:de": null,
            "name:tr": null,
            "name:ru": null,
            "name:ar": "مركز تسوق آياز"
        }
    },
    {
        "lat": 40.9686874,
        "lon": 29.2760592,
        "tags": {
            "addr:city": "Istanbul",
            "addr:district": "Sultanbeyli",
            "description": "",
            "opening_hours": "24/7",
            "phone": null,
            "branch": null,
            "amenity": "mall",
            "mobile": null,
            "addr:street": "Sevinç Sokağı",
            "cuisine": null,
            "name": "Hakmar",
            "name:en": null,
            "name:uk": null,
            "name:de": null,
            "name:tr": null,
            "name:ru": null,
            "name:ar": "هاكمر"
        }
    },
    {
        "lat": 40.9523217,
        "lon": 29.2821524,
        "tags": {
            "addr:city": "Istanbul",
            "addr:district": "Sultanbeyli",
            "description": "",
            "opening_hours": "Mo-Fr 07:00-13:30; Mo-Fr 17:00-20:00",
            "phone": null,
            "branch": null,
            "amenity": "mall",
            "mobile": null,
            "addr:street": "Eyyubi caddesi",
            "cuisine": null,
            "name": "guvendir zuccaciye",
            "name:en": null,
            "name:uk": null,
            "name:de": null,
            "name:tr": null,
            "name:ru": null,
            "name:ar": "مذنب زوكاسي"
        }
    },
    {
        "lat": 40.9804154,
        "lon": 29.2656747,
        "tags": {
            "addr:city": "Istanbul",
            "addr:district": "Sultanbeyli",
            "description": "",
            "opening_hours": null,
            "phone": null,
            "branch": null,
            "amenity": "mall",
            "mobile": null,
            "addr:street": "Bosna Bulvarı",
            "cuisine": null,
            "name": "Pusula Orman Ürünleri",
            "name:en": null,
            "name:uk": null,
            "name:de": null,
            "name:tr": null,
            "name:ru": null,
            "name:ar": "سوق بوسلا أورمان أورونليري"
        }
    },
    {
        "lat": 40.9536596,
        "lon": 29.2820928,
        "tags": {
            "addr:city": "Istanbul",
            "addr:district": "Sultanbeyli",
            "description": "",
            "opening_hours": "Mo-Fr 07:00-13:30; Mo-Fr 17:00-20:00",
            "phone": "05453401528",
            "branch": null,
            "amenity": "mall",
            "mobile": null,
            "addr:street": "Eyyubi caddesi",
            "cuisine": null,
            "name": "Güleryüz",
            "name:en": null,
            "name:uk": null,
            "name:de": null,
            "name:tr": null,
            "name:ru": null,
            "name:ar": "جوليريوز"
        }
    },
    {
        "lat": 40.9755926,
        "lon": 29.2634367,
        "tags": {
            "addr:city": "Istanbul",
            "addr:district": "Sultanbeyli",
            "description": "",
            "opening_hours": "Mo-Fr 07:00-13:30; Mo-Fr 17:00-20:00",
            "phone": "05347735209",
            "branch": null,
            "amenity": "mall",
            "mobile": null,
            "addr:street": "Beykoz Gaddesi",
            "cuisine": null,
            "name": "Öz keskin metal",
            "name:en": null,
            "name:uk": null,
            "name:de": null,
            "name:tr": null,
            "name:ru": null,
            "name:ar": "اوزكيسكن محل لبيع الابواب"
        }
    },
    {
        "lat": 40.9814112,
        "lon": 29.2575982,
        "tags": {
            "addr:city": "Istanbul",
            "addr:district": "Sultanbeyli",
            "description": "",
            "opening_hours": null,
            "phone": null,
            "branch": null,
            "amenity": "mall",
            "mobile": null,
            "addr:street": "Said Nursi Caddesi",
            "cuisine": null,
            "name": "Özkuruşlar",
            "name:en": null,
            "name:uk": null,
            "name:de": null,
            "name:tr": null,
            "name:ru": null,
            "name:ar": "مول اوزكوريوشلار"
        }
    },
    {
        "lat": 40.9727981,
        "lon": 29.2600062,
        "tags": {
            "addr:city": "Istanbul",
            "addr:district": "Sultanbeyli",
            "description": "",
            "opening_hours": null,
            "phone": null,
            "branch": null,
            "amenity": "mall",
            "mobile": null,
            "addr:street": "Osmanbey Gaddesi",
            "cuisine": null,
            "name": "Sena Stone",
            "name:en": null,
            "name:uk": null,
            "name:de": null,
            "name:tr": null,
            "name:ru": null,
            "name:ar": "مركز تسوق سينا ستون"
        }
    },
    {
        "lat": 40.965913,
        "lon": 29.2706635,
        "tags": {
            "addr:city": "Istanbul",
            "addr:district": "Sultanbeyli",
            "description": "",
            "opening_hours": "Mo-Fr 07:00-13:30; Mo-Fr 17:00-20:00",
            "phone": null,
            "branch": null,
            "amenity": "mall",
            "mobile": null,
            "addr:street": "Fatih bulvarı",
            "cuisine": null,
            "name": "Confident",
            "name:en": null,
            "name:uk": null,
            "name:de": null,
            "name:tr": null,
            "name:ru": null,
            "name:ar": null
        }
    },
    {
        "lat": 40.9659496,
        "lon": 29.2668008,
        "tags": {
            "addr:city": "Istanbul",
            "addr:district": "Sultanbeyli",
            "description": "",
            "opening_hours": "Mo-Fr 07:00-13:30; Mo-Fr 17:00-20:00",
            "phone": "4443770",
            "branch": null,
            "amenity": "mall",
            "mobile": null,
            "addr:street": "Kuran kursu caddesi",
            "cuisine": null,
            "name": "Md fulla",
            "name:en": null,
            "name:uk": null,
            "name:de": null,
            "name:tr": null,
            "name:ru": null,
            "name:ar": "مول فلة"
        }
    },
    {
        "lat": 40.9662008,
        "lon": 29.2669295,
        "tags": {
            "addr:city": "Istanbul",
            "addr:district": "Sultanbeyli",
            "description": "",
            "opening_hours": "Mo-Fr 07:00-13:30; Mo-Fr 17:00-20:00",
            "phone": null,
            "branch": null,
            "amenity": "mall",
            "mobile": null,
            "addr:street": "Kuran kursu caddesi",
            "cuisine": null,
            "name": "Küçük çarşı",
            "name:en": null,
            "name:uk": null,
            "name:de": null,
            "name:tr": null,
            "name:ru": null,
            "name:ar": "مول كوتشوك شارشي"
        }
    },
    {
        "lat": 40.9666792,
        "lon": 29.2688744,
        "tags": {
            "addr:city": "Istanbul",
            "addr:district": "Sultanbeyli",
            "description": "",
            "opening_hours": "Mo-Fr 07:00-13:30; Mo-Fr 17:00-20:00",
            "phone": null,
            "branch": null,
            "amenity": "mall",
            "mobile": null,
            "addr:street": "Fatih bulvarı",
            "cuisine": null,
            "name": "Ev center",
            "name:en": null,
            "name:uk": null,
            "name:de": null,
            "name:tr": null,
            "name:ru": null,
            "name:ar": "مركز المنزل"
        }
    },
    {
        "lat": 41.0289247,
        "lon": 29.1762078,
        "tags": {
            "addr:city": "İstanbul",
            "addr:district": null,
            "description": "",
            "opening_hours": null,
            "phone": null,
            "branch": null,
            "amenity": "mall",
            "mobile": null,
            "addr:street": null,
            "cuisine": null,
            "name": "Beşyıldız Alışveriş Merkezi",
            "name:en": null,
            "name:uk": null,
            "name:de": null,
            "name:tr": null,
            "name:ru": null,
            "name:ar": null
        }
    },
    {
        "lat": 40.9650254,
        "lon": 29.2776333,
        "tags": {
            "addr:city": "Istanbul",
            "addr:district": "Sultanbeyli",
            "description": "",
            "opening_hours": "24/7",
            "phone": null,
            "branch": null,
            "amenity": "mall",
            "mobile": null,
            "addr:street": "Fatih Bulvarı Caddesi",
            "cuisine": null,
            "name": "Hakmar",
            "name:en": null,
            "name:uk": null,
            "name:de": null,
            "name:tr": null,
            "name:ru": null,
            "name:ar": "هكمر"
        }
    },
    {
        "lat": 40.9802059,
        "lon": 29.2763114,
        "tags": {
            "addr:city": "Istanbul",
            "addr:district": "Sultanbeyli",
            "description": "",
            "opening_hours": "Mo-Fr 07:00-13:30; Mo-Fr 17:00-20:00",
            "phone": null,
            "branch": null,
            "amenity": "mall",
            "mobile": null,
            "addr:street": "Selşukhn Caddesi",
            "cuisine": null,
            "name": "Ucuzluk pazari",
            "name:en": null,
            "name:uk": null,
            "name:de": null,
            "name:tr": null,
            "name:ru": null,
            "name:ar": "متجر اوجوزلوك بازاري"
        }
    },
    {
        "lat": 40.9680392,
        "lon": 29.2755604,
        "tags": {
            "addr:city": "Istanbul",
            "addr:district": "Sultanbeyli",
            "description": "",
            "opening_hours": "Mo-Fr 07:00-13:30; Mo-Fr 17:00-20:00",
            "phone": null,
            "branch": null,
            "amenity": "mall",
            "mobile": null,
            "addr:street": "çamlik Caddesi",
            "cuisine": null,
            "name": "Bereket kahvalti dünyasi",
            "name:en": null,
            "name:uk": null,
            "name:de": null,
            "name:tr": null,
            "name:ru": null,
            "name:ar": "مركز تسوق بيريكت"
        }
    },
    {
        "lat": 40.9802759,
        "lon": 29.2747121,
        "tags": {
            "addr:city": "Istanbul",
            "addr:district": "Sultanbeyli",
            "description": "",
            "opening_hours": "Mo-Fr 07:00-13:30; Mo-Fr 17:00-20:00",
            "phone": null,
            "branch": null,
            "amenity": "mall",
            "mobile": null,
            "addr:street": "Selşukhn Caddesi",
            "cuisine": null,
            "name": "Hakmar",
            "name:en": null,
            "name:uk": null,
            "name:de": null,
            "name:tr": null,
            "name:ru": null,
            "name:ar": "مركز هاكمر"
        }
    },
    {
        "lat": 40.9454251,
        "lon": 29.3003318,
        "tags": {
            "addr:city": "Istanbul",
            "addr:district": "Sultanbeyli",
            "description": "",
            "opening_hours": "Mo-Fr 07:00-13:30; Mo-Fr 17:00-20:00",
            "phone": null,
            "branch": null,
            "amenity": "mall",
            "mobile": null,
            "addr:street": "Hakyol Sokağı",
            "cuisine": null,
            "name": "Yedikapi endüstriyel ürünler",
            "name:en": null,
            "name:uk": null,
            "name:de": null,
            "name:tr": null,
            "name:ru": null,
            "name:ar": "مركز تسوق ياديكابه"
        }
    },
    {
        "lat": 40.9789909,
        "lon": 29.2706895,
        "tags": {
            "addr:city": "Istanbul",
            "addr:district": "Sultanbeyli",
            "description": "",
            "opening_hours": "Mo-Fr 07:00-13:30; Mo-Fr 17:00-20:00",
            "phone": null,
            "branch": null,
            "amenity": "mall",
            "mobile": null,
            "addr:street": "selçukhan Caddesi",
            "cuisine": null,
            "name": "Huzur",
            "name:en": null,
            "name:uk": null,
            "name:de": null,
            "name:tr": null,
            "name:ru": null,
            "name:ar": "مركز هوزور"
        }
    },
    {
        "lat": 40.9843851,
        "lon": 29.2785859,
        "tags": {
            "addr:city": "Istanbul",
            "addr:district": "Sultanbeyli",
            "description": "",
            "opening_hours": "Mo-Fr 07:00-13:30; Mo-Fr 17:00-20:00",
            "phone": null,
            "branch": null,
            "amenity": "mall",
            "mobile": null,
            "addr:street": "selçukhan Caddesi",
            "cuisine": null,
            "name": "Hakmar",
            "name:en": null,
            "name:uk": null,
            "name:de": null,
            "name:tr": null,
            "name:ru": null,
            "name:ar": "مركز هاكمر"
        }
    },
    {
        "lat": 40.9675774,
        "lon": 29.2593092,
        "tags": {
            "addr:city": "Istanbul",
            "addr:district": "Sultanbeyli",
            "description": "",
            "opening_hours": "Mo-Fr 07:00-13:30; Mo-Fr 17:00-20:00",
            "phone": null,
            "branch": null,
            "amenity": "mall",
            "mobile": null,
            "addr:street": "Şanlıurfa Caddesi",
            "cuisine": null,
            "name": "İnci toyz",
            "name:en": null,
            "name:uk": null,
            "name:de": null,
            "name:tr": null,
            "name:ru": null,
            "name:ar": "متجر العاب اينجي"
        }
    },
    {
        "lat": 40.9674802,
        "lon": 29.259553,
        "tags": {
            "addr:city": "Istanbul",
            "addr:district": "Sultanbeyli",
            "description": "",
            "opening_hours": "Mo-Fr 07:00-13:30; Mo-Fr 17:00-20:00",
            "phone": "02164191645",
            "branch": null,
            "amenity": "mall",
            "mobile": null,
            "addr:street": "Şanlıurfa Caddesi",
            "cuisine": null,
            "name": "Alhas Gıda",
            "name:en": null,
            "name:uk": null,
            "name:de": null,
            "name:tr": null,
            "name:ru": null,
            "name:ar": "مركز توزيع مواد غذائية جملة الهاس غيدا"
        }
    },
    {
        "lat": 40.9672695,
        "lon": 29.2604113,
        "tags": {
            "addr:city": "Istanbul",
            "addr:district": "Sultanbeyli",
            "description": "",
            "opening_hours": "Mo-Fr 07:00-13:30; Mo-Fr 17:00-20:00",
            "phone": null,
            "branch": null,
            "amenity": "mall",
            "mobile": null,
            "addr:street": "Şanlıurfa Caddesi",
            "cuisine": null,
            "name": "Hakmar",
            "name:en": null,
            "name:uk": null,
            "name:de": null,
            "name:tr": null,
            "name:ru": null,
            "name:ar": "مركز هاكمر"
        }
    },
    {
        "lat": 40.9589653,
        "lon": 29.2567635,
        "tags": {
            "addr:city": "Istanbul",
            "addr:district": "Sultanbeyli",
            "description": "",
            "opening_hours": "Mo-Fr 07:00-13:30; Mo-Fr 17:00-20:00",
            "phone": null,
            "branch": null,
            "amenity": "mall",
            "mobile": null,
            "addr:street": "Orman Caddesi",
            "cuisine": null,
            "name": "Hakmar",
            "name:en": null,
            "name:uk": null,
            "name:de": null,
            "name:tr": null,
            "name:ru": null,
            "name:ar": "مركز هاكمر"
        }
    },
    {
        "lat": 40.9692986,
        "lon": 29.2473056,
        "tags": {
            "addr:city": "Istanbul",
            "addr:district": "Sultanbeyli",
            "description": "",
            "opening_hours": "Mo-Fr 07:00-13:30; Mo-Fr 17:00-20:00",
            "phone": null,
            "branch": null,
            "amenity": "mall",
            "mobile": null,
            "addr:street": "necip fadil caddesi جادة نجيب فاضل",
            "cuisine": null,
            "name": "Pirilti",
            "name:en": null,
            "name:uk": null,
            "name:de": null,
            "name:tr": null,
            "name:ru": null,
            "name:ar": "بيريلتي للهدايا"
        }
    },
    {
        "lat": 40.9675045,
        "lon": 29.2535877,
        "tags": {
            "addr:city": "Istanbul",
            "addr:district": "Sultanbeyli",
            "description": "",
            "opening_hours": "Mo-Fr 07:00-13:30; Mo-Fr 17:00-20:00",
            "phone": null,
            "branch": null,
            "amenity": "mall",
            "mobile": null,
            "addr:street": "Dumlupınar Caddesi",
            "cuisine": null,
            "name": "Bayza",
            "name:en": null,
            "name:uk": null,
            "name:de": null,
            "name:tr": null,
            "name:ru": null,
            "name:ar": "مركز تسوق بيازا"
        }
    },
    {
        "lat": 40.9857619,
        "lon": 29.2764616,
        "tags": {
            "addr:city": "Istanbul",
            "addr:district": "Sultanbeyli",
            "description": "",
            "opening_hours": "Mo-Fr 07:00-13:30; Mo-Fr 17:00-20:00",
            "phone": null,
            "branch": null,
            "amenity": "mall",
            "mobile": null,
            "addr:street": "ilham sokağı",
            "cuisine": null,
            "name": "Yılmaz kardeşler",
            "name:en": null,
            "name:uk": null,
            "name:de": null,
            "name:tr": null,
            "name:ru": null,
            "name:ar": "مركز تسوق يلميز كاردش لار"
        }
    },
    {
        "lat": 40.9674089,
        "lon": 29.25335,
        "tags": {
            "addr:city": "Istanbul",
            "addr:district": "Sultanbeyli",
            "description": "",
            "opening_hours": null,
            "phone": null,
            "branch": null,
            "amenity": "mall",
            "mobile": null,
            "addr:street": "Dumlupinar caddesi جاكة دوملو بينار",
            "cuisine": null,
            "name": "Bozkurt",
            "name:en": null,
            "name:uk": null,
            "name:de": null,
            "name:tr": null,
            "name:ru": null,
            "name:ar": "بوزكورت( متجر صيني)"
        }
    },
    {
        "lat": 40.9690227,
        "lon": 29.2609936,
        "tags": {
            "addr:city": "Istanbul",
            "addr:district": "Sultanbeyli",
            "description": "",
            "opening_hours": "Mo-Fr 07:00-13:30; Mo-Fr 17:00-20:00",
            "phone": null,
            "branch": null,
            "amenity": "mall",
            "mobile": null,
            "addr:street": "faith bulvarı Caddesi",
            "cuisine": null,
            "name": "Plato alışveriş merkezi",
            "name:en": null,
            "name:uk": null,
            "name:de": null,
            "name:tr": null,
            "name:ru": null,
            "name:ar": "مركز تسوق البلاتو"
        }
    },
    {
        "lat": 40.9765079,
        "lon": 29.2662243,
        "tags": {
            "addr:city": "Istanbul",
            "addr:district": "Sultanbeyli",
            "description": "",
            "opening_hours": "Mo-Fr 07:00-13:30; Mo-Fr 17:00-20:00",
            "phone": null,
            "branch": null,
            "amenity": "mall",
            "mobile": null,
            "addr:street": "biberlik Caddesi",
            "cuisine": null,
            "name": "Hakmar",
            "name:en": null,
            "name:uk": null,
            "name:de": null,
            "name:tr": null,
            "name:ru": null,
            "name:ar": "مركز هاكمر"
        }
    },
    {
        "lat": 40.9676908,
        "lon": 29.2588019,
        "tags": {
            "addr:city": "Istanbul",
            "addr:district": "Sultanbeyli",
            "description": "",
            "opening_hours": "Mo-Fr 07:00-13:30; Mo-Fr 17:00-20:00",
            "phone": "02164989514",
            "branch": null,
            "amenity": "mall",
            "mobile": null,
            "addr:street": "Şanlıurfa Caddesi",
            "cuisine": null,
            "name": "Kardeşler Ticaret",
            "name:en": null,
            "name:uk": null,
            "name:de": null,
            "name:tr": null,
            "name:ru": null,
            "name:ar": "متجر كاردش لار"
        }
    },
    {
        "lat": 40.9657303,
        "lon": 29.2552829,
        "tags": {
            "addr:city": "Istanbul",
            "addr:district": "Sultanbeyli",
            "description": "",
            "opening_hours": "Mo-Fr 07:00-13:30; Mo-Fr 17:00-20:00",
            "phone": null,
            "branch": null,
            "amenity": "mall",
            "mobile": null,
            "addr:street": "Petrol yolu Caddesi",
            "cuisine": null,
            "name": "UCZ MARKETE",
            "name:en": null,
            "name:uk": null,
            "name:de": null,
            "name:tr": null,
            "name:ru": null,
            "name:ar": "ماركت UCZ"
        }
    },
    {
        "lat": 40.9785049,
        "lon": 29.2657757,
        "tags": {
            "addr:city": "Istanbul",
            "addr:district": "Sultanbeyli",
            "description": "",
            "opening_hours": "Mo-Fr 07:00-13:30; Mo-Fr 17:00-20:00",
            "phone": null,
            "branch": null,
            "amenity": "mall",
            "mobile": null,
            "addr:street": "kubbe Caddesi",
            "cuisine": null,
            "name": "Hakmar",
            "name:en": null,
            "name:uk": null,
            "name:de": null,
            "name:tr": null,
            "name:ru": null,
            "name:ar": "مركز هاكمر"
        }
    },
    {
        "lat": 40.978189,
        "lon": 29.2656469,
        "tags": {
            "addr:city": "Istanbul",
            "addr:district": "Sultanbeyli",
            "description": "",
            "opening_hours": "Mo-Fr 07:00-13:30; Mo-Fr 17:00-20:00",
            "phone": null,
            "branch": null,
            "amenity": "mall",
            "mobile": null,
            "addr:street": "kubbe Caddesi",
            "cuisine": null,
            "name": "AK Çarşı",
            "name:en": null,
            "name:uk": null,
            "name:de": null,
            "name:tr": null,
            "name:ru": null,
            "name:ar": "مركز شارشي"
        }
    },
    {
        "lat": 40.9681312,
        "lon": 29.2537444,
        "tags": {
            "addr:city": "Istanbul",
            "addr:district": "Sultanbeyli",
            "description": "",
            "opening_hours": null,
            "phone": null,
            "branch": null,
            "amenity": "mall",
            "mobile": null,
            "addr:street": "Dumlupinar caddesiدوملو بينار جاديسي",
            "cuisine": null,
            "name": "herşy beş",
            "name:en": null,
            "name:uk": null,
            "name:de": null,
            "name:tr": null,
            "name:ru": null,
            "name:ar": "هيرشي بيش( متجر صيني)"
        }
    },
    {
        "lat": 40.9762045,
        "lon": 29.2717838,
        "tags": {
            "addr:city": "Istanbul",
            "addr:district": "Sultanbeyli",
            "description": "",
            "opening_hours": "Mo-Fr 07:00-13:30; Mo-Fr 17:00-20:00",
            "phone": null,
            "branch": null,
            "amenity": "mall",
            "mobile": null,
            "addr:street": "yildirim Caddesi",
            "cuisine": null,
            "name": "Hakmar",
            "name:en": null,
            "name:uk": null,
            "name:de": null,
            "name:tr": null,
            "name:ru": null,
            "name:ar": "مركز هاكمر"
        }
    },
    {
        "lat": 40.9668645,
        "lon": 29.2638445,
        "tags": {
            "addr:city": "Istanbul",
            "addr:district": "Sultanbeyli",
            "description": "",
            "opening_hours": "Mo-Fr 07:00-13:30; Mo-Fr 17:00-20:00",
            "phone": null,
            "branch": null,
            "amenity": "mall",
            "mobile": null,
            "addr:street": "Kale Caddesi",
            "cuisine": null,
            "name": "Hakmar",
            "name:en": null,
            "name:uk": null,
            "name:de": null,
            "name:tr": null,
            "name:ru": null,
            "name:ar": "مركز هاكمر"
        }
    },
    {
        "lat": 40.9630244,
        "lon": 29.2561626,
        "tags": {
            "addr:city": "Istanbul",
            "addr:district": "Sultanbeyli",
            "description": "",
            "opening_hours": "Mo-Fr 07:00-13:30; Mo-Fr 17:00-20:00",
            "phone": null,
            "branch": null,
            "amenity": "mall",
            "mobile": null,
            "addr:street": "İstiklal Caddesi",
            "cuisine": null,
            "name": "İstinye park",
            "name:en": null,
            "name:uk": null,
            "name:de": null,
            "name:tr": null,
            "name:ru": null,
            "name:ar": "مركز تسوق ايستيني بارك"
        }
    },
    {
        "lat": 40.9688117,
        "lon": 29.2614669,
        "tags": {
            "addr:city": "Istanbul",
            "addr:district": "Sultanbeyli",
            "description": "",
            "opening_hours": "Mo-Fr 07:00-13:30; Mo-Fr 17:00-20:00",
            "phone": null,
            "branch": null,
            "amenity": "mall",
            "mobile": null,
            "addr:street": "faith bulvarı Caddesi",
            "cuisine": null,
            "name": "Oruç",
            "name:en": null,
            "name:uk": null,
            "name:de": null,
            "name:tr": null,
            "name:ru": null,
            "name:ar": "مركز اوروج"
        }
    },
    {
        "lat": 40.9822631,
        "lon": 29.2799807,
        "tags": {
            "addr:city": "Istanbul",
            "addr:district": "Sultanbeyli",
            "description": "",
            "opening_hours": "Mo-Fr 07:00-13:30; Mo-Fr 17:00-20:00",
            "phone": null,
            "branch": null,
            "amenity": "mall",
            "mobile": null,
            "addr:street": "Selçukhan Caddesi",
            "cuisine": null,
            "name": "Göymen Hipermarketleri",
            "name:en": null,
            "name:uk": null,
            "name:de": null,
            "name:tr": null,
            "name:ru": null,
            "name:ar": "غومين هيبيرماركتيلري"
        }
    },
    {
        "lat": 41.0363902,
        "lon": 28.9216,
        "tags": {
            "addr:city": "Istanbul",
            "addr:district": "Zeytinburnu",
            "description": "",
            "opening_hours": "Mo-Su 07:00-20:00",
            "phone": "02126125572",
            "branch": null,
            "amenity": "mall",
            "mobile": null,
            "addr:street": "Litros Yolu Sk.",
            "cuisine": null,
            "name": "2. Matbaacılar Sitesi",
            "name:en": null,
            "name:uk": null,
            "name:de": null,
            "name:tr": null,
            "name:ru": null,
            "name:ar": "مجمع المطابع الثاني"
        }
    },
    {
        "lat": 41.0091089,
        "lon": 28.9066908,
        "tags": {
            "addr:city": "Istanbul",
            "addr:district": "Zeytinburnu",
            "description": "",
            "opening_hours": null,
            "phone": null,
            "branch": null,
            "amenity": "mall",
            "mobile": null,
            "addr:street": "Mevlana Caddesi",
            "cuisine": null,
            "name": "Show Center",
            "name:en": null,
            "name:uk": null,
            "name:de": null,
            "name:tr": null,
            "name:ru": null,
            "name:ar": "مركز شوو"
        }
    },
    {
        "lat": 41.0248815,
        "lon": 28.9186202,
        "tags": {
            "addr:city": "Istanbul",
            "addr:district": "Zeytinburnu",
            "description": "",
            "opening_hours": "Mo-Su 07:00-20:00",
            "phone": "02126125572",
            "branch": null,
            "amenity": "mall",
            "mobile": null,
            "addr:street": "Litros Yolu Sokağı",
            "cuisine": null,
            "name": "2. Matbaacılar Sitesi",
            "name:en": null,
            "name:uk": null,
            "name:de": null,
            "name:tr": null,
            "name:ru": null,
            "name:ar": "مجمع المطابع الثاني"
        }
    },
    {
        "lat": 41.0208384,
        "lon": 28.9122269,
        "tags": {
            "addr:city": "Istanbul",
            "addr:district": "Zeytinburnu",
            "description": "",
            "opening_hours": "Mo-Su 07:00-20:00",
            "phone": "02125671567",
            "branch": null,
            "amenity": "mall",
            "mobile": null,
            "addr:street": "Davutpaşa Caddesi",
            "cuisine": null,
            "name": "Ülker",
            "name:en": null,
            "name:uk": null,
            "name:de": null,
            "name:tr": null,
            "name:ru": null,
            "name:ar": "ماركت اولكر"
        }
    },
    {
        "lat": 41.0037237,
        "lon": 28.902977,
        "tags": {
            "addr:city": "Istanbul",
            "addr:district": "Zeytinburnu",
            "description": "",
            "opening_hours": null,
            "phone": null,
            "branch": null,
            "amenity": "mall",
            "mobile": null,
            "addr:street": "Seyit Nizam Cd",
            "cuisine": null,
            "name": "Burda",
            "name:en": null,
            "name:uk": null,
            "name:de": null,
            "name:tr": null,
            "name:ru": null,
            "name:ar": "سوبر ماركت بوردا"
        }
    },
    {
        "lat": 41.0013557,
        "lon": 28.9195331,
        "tags": {
            "addr:city": "Istanbul",
            "addr:district": "Zeytinburnu",
            "description": "",
            "opening_hours": "Mo-Su 07:00-20:00",
            "phone": null,
            "branch": null,
            "amenity": "mall",
            "mobile": null,
            "addr:street": null,
            "cuisine": null,
            "name": "Bizim Toptan Market",
            "name:en": null,
            "name:uk": null,
            "name:de": null,
            "name:tr": null,
            "name:ru": null,
            "name:ar": "ماركت بيزيم توبتان"
        }
    },
    {
        "lat": 41.0031981,
        "lon": 28.9139851,
        "tags": {
            "addr:city": "Istanbul",
            "addr:district": "Zeytinburnu",
            "description": "",
            "opening_hours": null,
            "phone": null,
            "branch": null,
            "amenity": "mall",
            "mobile": null,
            "addr:street": null,
            "cuisine": null,
            "name": "Textil Port",
            "name:en": null,
            "name:uk": null,
            "name:de": null,
            "name:tr": null,
            "name:ru": null,
            "name:ar": "تكستيل بورت"
        }
    },
    {
        "lat": 41.0462314,
        "lon": 28.8597885,
        "tags": {
            "addr:city": "Istanbul",
            "addr:district": "Bağcılar",
            "description": "",
            "opening_hours": null,
            "phone": null,
            "branch": null,
            "amenity": "mall",
            "mobile": null,
            "addr:street": "Osmangazi Caddesi",
            "cuisine": null,
            "name": "ÖRNEK",
            "name:en": null,
            "name:uk": null,
            "name:de": null,
            "name:tr": null,
            "name:ru": null,
            "name:ar": "أورنيك"
        }
    },
    {
        "lat": 41.0236939,
        "lon": 28.8284752,
        "tags": {
            "addr:city": "Istanbul",
            "addr:district": "Bağcılar",
            "description": "",
            "opening_hours": null,
            "phone": null,
            "branch": null,
            "amenity": "mall",
            "mobile": null,
            "addr:street": "Ataturk caddesi",
            "cuisine": null,
            "name": "Redstar",
            "name:en": null,
            "name:uk": null,
            "name:de": null,
            "name:tr": null,
            "name:ru": null,
            "name:ar": "ردستار"
        }
    },
    {
        "lat": 41.0226934,
        "lon": 28.8282815,
        "tags": {
            "addr:city": "Istanbul",
            "addr:district": "Bağcılar",
            "description": "",
            "opening_hours": null,
            "phone": null,
            "branch": null,
            "amenity": "mall",
            "mobile": null,
            "addr:street": "Ataturk caddesi",
            "cuisine": null,
            "name": "Asya nakis",
            "name:en": null,
            "name:uk": null,
            "name:de": null,
            "name:tr": null,
            "name:ru": null,
            "name:ar": "اسيا نكش"
        }
    },
    {
        "lat": 41.0408874,
        "lon": 28.8439841,
        "tags": {
            "addr:city": "Istanbul",
            "addr:district": "Bağcılar",
            "description": "",
            "opening_hours": null,
            "phone": null,
            "branch": null,
            "amenity": "mall",
            "mobile": null,
            "addr:street": "Ahmet kabakli",
            "cuisine": null,
            "name": "Gormez avm",
            "name:en": null,
            "name:uk": null,
            "name:de": null,
            "name:tr": null,
            "name:ru": null,
            "name:ar": "جورماز افيمي"
        }
    },
    {
        "lat": 41.0445838,
        "lon": 28.8302934,
        "tags": {
            "addr:city": "Istanbul",
            "addr:district": "Bağcılar",
            "description": "",
            "opening_hours": null,
            "phone": null,
            "branch": null,
            "amenity": "mall",
            "mobile": null,
            "addr:street": "Mahmutbey Caddesi",
            "cuisine": null,
            "name": "Kiler GYO",
            "name:en": null,
            "name:uk": null,
            "name:de": null,
            "name:tr": null,
            "name:ru": null,
            "name:ar": "كيلار كيو"
        }
    },
    {
        "lat": 40.9960597,
        "lon": 28.8641597,
        "tags": {
            "addr:city": "İstanbul",
            "addr:district": null,
            "description": "",
            "opening_hours": null,
            "phone": null,
            "branch": null,
            "amenity": "mall",
            "mobile": null,
            "addr:street": null,
            "cuisine": null,
            "name": "E-Bebek",
            "name:en": null,
            "name:uk": null,
            "name:de": null,
            "name:tr": null,
            "name:ru": null,
            "name:ar": null
        }
    },
    {
        "lat": 40.9348051,
        "lon": 29.1228296,
        "tags": {
            "addr:city": "İstanbul",
            "addr:district": null,
            "description": "",
            "opening_hours": null,
            "phone": null,
            "branch": null,
            "amenity": "mall",
            "mobile": null,
            "addr:street": null,
            "cuisine": null,
            "name": "Mopaş",
            "name:en": null,
            "name:uk": null,
            "name:de": null,
            "name:tr": null,
            "name:ru": null,
            "name:ar": null
        }
    },
    {
        "lat": 41.0345008,
        "lon": 28.9790916,
        "tags": {
            "addr:city": "İstanbul",
            "addr:district": null,
            "description": "",
            "opening_hours": null,
            "phone": null,
            "branch": null,
            "amenity": "mall",
            "mobile": null,
            "addr:street": null,
            "cuisine": null,
            "name": "Halep Pasajı",
            "name:en": null,
            "name:uk": null,
            "name:de": null,
            "name:tr": null,
            "name:ru": "Халеп пассаж",
            "name:ar": null
        }
    },
    {
        "lat": 40.979692,
        "lon": 28.8740015,
        "tags": {
            "addr:city": "İstanbul",
            "addr:district": null,
            "description": "",
            "opening_hours": null,
            "phone": null,
            "branch": null,
            "amenity": "mall",
            "mobile": null,
            "addr:street": null,
            "cuisine": null,
            "name": "Gür Çarşı İş Hanı",
            "name:en": null,
            "name:uk": null,
            "name:de": null,
            "name:tr": null,
            "name:ru": null,
            "name:ar": null
        }
    },
    {
        "lat": 41.0549874,
        "lon": 28.9819133,
        "tags": {
            "addr:city": "İstanbul",
            "addr:district": "şişli",
            "description": "",
            "opening_hours": null,
            "phone": null,
            "branch": null,
            "amenity": "mall",
            "mobile": null,
            "addr:street": "Kazım Orbay Caddesi",
            "cuisine": null,
            "name": "BOMONTİ PARK",
            "name:en": null,
            "name:uk": null,
            "name:de": null,
            "name:tr": null,
            "name:ru": null,
            "name:ar": null
        }
    },
    {
        "lat": 41.0115441,
        "lon": 28.8870567,
        "tags": {
            "addr:city": "İstanbul",
            "addr:district": null,
            "description": "",
            "opening_hours": null,
            "phone": null,
            "branch": null,
            "amenity": "mall",
            "mobile": null,
            "addr:street": null,
            "cuisine": null,
            "name": "Konsept Plaza A-Blok",
            "name:en": null,
            "name:uk": null,
            "name:de": null,
            "name:tr": null,
            "name:ru": null,
            "name:ar": null
        }
    },
    {
        "lat": 41.0112129,
        "lon": 28.8872478,
        "tags": {
            "addr:city": "İstanbul",
            "addr:district": null,
            "description": "",
            "opening_hours": null,
            "phone": null,
            "branch": null,
            "amenity": "mall",
            "mobile": null,
            "addr:street": null,
            "cuisine": null,
            "name": "Konsept Plaza B-Blok",
            "name:en": null,
            "name:uk": null,
            "name:de": null,
            "name:tr": null,
            "name:ru": null,
            "name:ar": null
        }
    },
    {
        "lat": 41.011464,
        "lon": 28.8874106,
        "tags": {
            "addr:city": "İstanbul",
            "addr:district": null,
            "description": "",
            "opening_hours": null,
            "phone": null,
            "branch": null,
            "amenity": "mall",
            "mobile": null,
            "addr:street": null,
            "cuisine": null,
            "name": "Collesium Mall",
            "name:en": null,
            "name:uk": null,
            "name:de": null,
            "name:tr": null,
            "name:ru": null,
            "name:ar": null
        }
    },
    {
        "lat": 41.0214353,
        "lon": 28.8799695,
        "tags": {
            "addr:city": "İstanbul",
            "addr:district": null,
            "description": "",
            "opening_hours": null,
            "phone": null,
            "branch": null,
            "amenity": "mall",
            "mobile": null,
            "addr:street": null,
            "cuisine": null,
            "name": "Real Merter AVM",
            "name:en": null,
            "name:uk": null,
            "name:de": null,
            "name:tr": null,
            "name:ru": null,
            "name:ar": null
        }
    },
    {
        "lat": 41.0781323,
        "lon": 29.0112099,
        "tags": {
            "addr:city": "İstanbul",
            "addr:district": "Levent",
            "description": "",
            "opening_hours": null,
            "phone": null,
            "branch": null,
            "amenity": "mall",
            "mobile": null,
            "addr:street": "Büyükdere Caddesi",
            "cuisine": null,
            "name": "Kanyon AVM",
            "name:en": null,
            "name:uk": null,
            "name:de": null,
            "name:tr": null,
            "name:ru": null,
            "name:ar": null
        }
    },
    {
        "lat": 40.994175,
        "lon": 29.1218458,
        "tags": {
            "addr:city": "İstanbul",
            "addr:district": null,
            "description": "",
            "opening_hours": "Mo-Su 10:00-22:00",
            "phone": null,
            "branch": null,
            "amenity": "mall",
            "mobile": null,
            "addr:street": null,
            "cuisine": null,
            "name": "Metropol İstanbul",
            "name:en": null,
            "name:uk": null,
            "name:de": null,
            "name:tr": null,
            "name:ru": null,
            "name:ar": null
        }
    },
    {
        "lat": 40.8780435,
        "lon": 29.2334008,
        "tags": {
            "addr:city": "İstanbul",
            "addr:district": "Pendik",
            "description": "",
            "opening_hours": null,
            "phone": null,
            "branch": null,
            "amenity": "mall",
            "mobile": null,
            "addr:street": "Gazipaşa Caddesi",
            "cuisine": null,
            "name": "Yön AVM",
            "name:en": null,
            "name:uk": null,
            "name:de": null,
            "name:tr": null,
            "name:ru": null,
            "name:ar": null
        }
    },
    {
        "lat": 41.094122,
        "lon": 28.7748725,
        "tags": {
            "addr:city": "İstanbul",
            "addr:district": null,
            "description": "",
            "opening_hours": null,
            "phone": null,
            "branch": null,
            "amenity": "mall",
            "mobile": null,
            "addr:street": null,
            "cuisine": null,
            "name": "medikule avm",
            "name:en": null,
            "name:uk": null,
            "name:de": null,
            "name:tr": null,
            "name:ru": null,
            "name:ar": null
        }
    },
    {
        "lat": 41.0157676,
        "lon": 28.96621,
        "tags": {
            "addr:city": "İstanbul",
            "addr:district": "Fatih",
            "description": "",
            "opening_hours": null,
            "phone": null,
            "branch": null,
            "amenity": "mall",
            "mobile": null,
            "addr:street": "Siyavuş Paşa Sokağı",
            "cuisine": null,
            "name": "Byz Dizayn",
            "name:en": "Byz Dizayn",
            "name:uk": null,
            "name:de": null,
            "name:tr": null,
            "name:ru": null,
            "name:ar": null
        }
    },
    {
        "lat": 41.0017523,
        "lon": 28.7860451,
        "tags": {
            "addr:city": "İstanbul",
            "addr:district": null,
            "description": "",
            "opening_hours": null,
            "phone": null,
            "branch": null,
            "amenity": "mall",
            "mobile": null,
            "addr:street": null,
            "cuisine": null,
            "name": "Sedef Perde",
            "name:en": null,
            "name:uk": null,
            "name:de": null,
            "name:tr": null,
            "name:ru": null,
            "name:ar": null
        }
    },
    {
        "lat": 40.9989841,
        "lon": 28.6506323,
        "tags": {
            "addr:city": "İstanbul",
            "addr:district": null,
            "description": "",
            "opening_hours": null,
            "phone": null,
            "branch": null,
            "amenity": "mall",
            "mobile": null,
            "addr:street": null,
            "cuisine": null,
            "name": "Beylik 2 AVM",
            "name:en": null,
            "name:uk": null,
            "name:de": null,
            "name:tr": null,
            "name:ru": null,
            "name:ar": null
        }
    },
    {
        "lat": 41.1062288,
        "lon": 28.8724883,
        "tags": {
            "addr:city": "İstanbul",
            "addr:district": null,
            "description": "",
            "opening_hours": "Mo-Su 09:00-22:00",
            "phone": null,
            "branch": null,
            "amenity": "mall",
            "mobile": null,
            "addr:street": null,
            "cuisine": null,
            "name": "Neva AVM",
            "name:en": null,
            "name:uk": null,
            "name:de": null,
            "name:tr": null,
            "name:ru": null,
            "name:ar": null
        }
    },
    {
        "lat": 41.015242,
        "lon": 28.9752022,
        "tags": {
            "addr:city": "İstanbul",
            "addr:district": null,
            "description": "",
            "opening_hours": null,
            "phone": null,
            "branch": null,
            "amenity": "mall",
            "mobile": null,
            "addr:street": null,
            "cuisine": null,
            "name": "Nazifbey Hanı",
            "name:en": null,
            "name:uk": null,
            "name:de": null,
            "name:tr": null,
            "name:ru": null,
            "name:ar": null
        }
    },
    {
        "lat": 41.0090954,
        "lon": 29.2134653,
        "tags": {
            "addr:city": "İstanbul",
            "addr:district": null,
            "description": "",
            "opening_hours": null,
            "phone": null,
            "branch": null,
            "amenity": "mall",
            "mobile": null,
            "addr:street": null,
            "cuisine": null,
            "name": "Cennet Center",
            "name:en": null,
            "name:uk": null,
            "name:de": null,
            "name:tr": null,
            "name:ru": null,
            "name:ar": null
        }
    },
    {
        "lat": 41.0092934,
        "lon": 29.2124792,
        "tags": {
            "addr:city": "İstanbul",
            "addr:district": null,
            "description": "",
            "opening_hours": null,
            "phone": null,
            "branch": null,
            "amenity": "mall",
            "mobile": null,
            "addr:street": null,
            "cuisine": null,
            "name": "Karınca",
            "name:en": null,
            "name:uk": null,
            "name:de": null,
            "name:tr": null,
            "name:ru": null,
            "name:ar": null
        }
    },
    {
        "lat": 41.0292548,
        "lon": 28.9747296,
        "tags": {
            "addr:city": "İstanbul",
            "addr:district": null,
            "description": "",
            "opening_hours": null,
            "phone": null,
            "branch": null,
            "amenity": "mall",
            "mobile": null,
            "addr:street": null,
            "cuisine": null,
            "name": null,
            "name:en": null,
            "name:uk": null,
            "name:de": null,
            "name:tr": null,
            "name:ru": null,
            "name:ar": null
        }
    },
    {
        "lat": 41.023666,
        "lon": 29.1259933,
        "tags": {
            "addr:city": "İstanbul",
            "addr:district": "Ümraniye",
            "description": "YEŞİL ÇATILI AÇIK HAVA\nALIŞVERİŞ & YAŞAM MERKEZİ\nSenede yaklaşık 32 milyon kişi tarafından ziyaret edilen Meydan İstanbul Alışveriş Merkezi, dünyanın en önde gelen anchor markalarına ev sahipliği yapmaktadır.\n\n\nBaşta IKEA, Media Markt, Decathlon, 5M Migro",
            "opening_hours": "Mo-Su 10:00-22:00",
            "phone": "(0216) 526 01 01",
            "branch": null,
            "amenity": "mall",
            "mobile": null,
            "addr:street": "Balkan Caddesi",
            "cuisine": null,
            "name": "Meydan İstanbul Alışveriş ve Yaşam Merkezi",
            "name:en": null,
            "name:uk": null,
            "name:de": null,
            "name:tr": null,
            "name:ru": null,
            "name:ar": null
        }
    },
    {
        "lat": 40.9239807,
        "lon": 29.1323279,
        "tags": {
            "addr:city": "İstanbul",
            "addr:district": null,
            "description": "",
            "opening_hours": null,
            "phone": null,
            "branch": null,
            "amenity": "mall",
            "mobile": null,
            "addr:street": null,
            "cuisine": null,
            "name": "Evkur",
            "name:en": null,
            "name:uk": null,
            "name:de": null,
            "name:tr": null,
            "name:ru": null,
            "name:ar": null
        }
    },
    {
        "lat": 40.9229049,
        "lon": 29.1345014,
        "tags": {
            "addr:city": "İstanbul",
            "addr:district": null,
            "description": "",
            "opening_hours": null,
            "phone": null,
            "branch": null,
            "amenity": "mall",
            "mobile": null,
            "addr:street": null,
            "cuisine": null,
            "name": "Ev Shop",
            "name:en": null,
            "name:uk": null,
            "name:de": null,
            "name:tr": null,
            "name:ru": null,
            "name:ar": null
        }
    },
    {
        "lat": 41.0145958,
        "lon": 29.2457157,
        "tags": {
            "addr:city": "İstanbul",
            "addr:district": null,
            "description": "",
            "opening_hours": null,
            "phone": null,
            "branch": null,
            "amenity": "mall",
            "mobile": null,
            "addr:street": null,
            "cuisine": null,
            "name": "Neonya Meydan Alışveriş Merkezi",
            "name:en": null,
            "name:uk": null,
            "name:de": null,
            "name:tr": null,
            "name:ru": null,
            "name:ar": null
        }
    },
    {
        "lat": 40.9259648,
        "lon": 29.1327412,
        "tags": {
            "addr:city": "İstanbul",
            "addr:district": null,
            "description": "",
            "opening_hours": null,
            "phone": null,
            "branch": null,
            "amenity": "mall",
            "mobile": null,
            "addr:street": null,
            "cuisine": null,
            "name": "Hobilant AVM",
            "name:en": null,
            "name:uk": null,
            "name:de": null,
            "name:tr": null,
            "name:ru": null,
            "name:ar": null
        }
    },
    {
        "lat": 40.925924,
        "lon": 29.1325603,
        "tags": {
            "addr:city": "İstanbul",
            "addr:district": null,
            "description": "",
            "opening_hours": null,
            "phone": null,
            "branch": null,
            "amenity": "mall",
            "mobile": null,
            "addr:street": null,
            "cuisine": null,
            "name": "44 AVM",
            "name:en": null,
            "name:uk": null,
            "name:de": null,
            "name:tr": null,
            "name:ru": null,
            "name:ar": null
        }
    }
]