[
    {
        "lat": 40.9877881,
        "lon": 29.0247675,
        "tags": {
            "addr:city": "İstanbul",
            "addr:district": null,
            "description": "",
            "opening_hours": null,
            "phone": null,
            "branch": null,
            "amenity": "massage",
            "mobile": null,
            "addr:street": null,
            "cuisine": null,
            "name": "Ayaküsyü masaj",
            "name:en": null,
            "name:uk": null,
            "name:de": null,
            "name:tr": null,
            "name:ru": null,
            "name:ar": null
        }
    },
    {
        "lat": 40.9768535,
        "lon": 28.8194151,
        "tags": {
            "addr:city": "İstanbul",
            "addr:district": null,
            "description": "",
            "opening_hours": null,
            "phone": null,
            "branch": null,
            "amenity": "massage",
            "mobile": null,
            "addr:street": null,
            "cuisine": null,
            "name": null,
            "name:en": "Tuina Spa",
            "name:uk": null,
            "name:de": null,
            "name:tr": null,
            "name:ru": null,
            "name:ar": null
        }
    },
    {
        "lat": 40.9765924,
        "lon": 28.8173647,
        "tags": {
            "addr:city": "İstanbul",
            "addr:district": null,
            "description": "",
            "opening_hours": null,
            "phone": null,
            "branch": null,
            "amenity": "massage",
            "mobile": null,
            "addr:street": null,
            "cuisine": null,
            "name": null,
            "name:en": "Be Relax",
            "name:uk": null,
            "name:de": null,
            "name:tr": null,
            "name:ru": null,
            "name:ar": null
        }
    },
    {
        "lat": 40.9304428,
        "lon": 29.3064473,
        "tags": {
            "addr:city": "İstanbul",
            "addr:district": null,
            "description": "",
            "opening_hours": "24/7",
            "phone": "05444999922",
            "branch": null,
            "amenity": "massage",
            "mobile": null,
            "addr:street": "osmanlı bulvarı",
            "cuisine": null,
            "name": "la elite spa & fitness club",
            "name:en": "la elite spa & fitness",
            "name:uk": null,
            "name:de": null,
            "name:tr": null,
            "name:ru": null,
            "name:ar": null
        }
    },
    {
        "lat": 41.0557087,
        "lon": 28.9804855,
        "tags": {
            "addr:city": "İstanbul",
            "addr:district": null,
            "description": "",
            "opening_hours": null,
            "phone": null,
            "branch": null,
            "amenity": "massage",
            "mobile": null,
            "addr:street": null,
            "cuisine": null,
            "name": "Aytemer-El&Ayak Terapi Merkezi",
            "name:en": null,
            "name:uk": null,
            "name:de": null,
            "name:tr": null,
            "name:ru": null,
            "name:ar": null
        }
    },
    {
        "lat": 40.9304533,
        "lon": 29.3064405,
        "tags": {
            "addr:city": "İstanbul",
            "addr:district": null,
            "description": "",
            "opening_hours": "Mo-Su 12:00-00:00",
            "phone": "05444999922",
            "branch": null,
            "amenity": "massage",
            "mobile": null,
            "addr:street": "Osmanlı Bulvarı",
            "cuisine": null,
            "name": "la elite spa",
            "name:en": null,
            "name:uk": null,
            "name:de": null,
            "name:tr": null,
            "name:ru": null,
            "name:ar": null
        }
    },
    {
        "lat": 40.9304619,
        "lon": 29.3067187,
        "tags": {
            "addr:city": "İstanbul",
            "addr:district": null,
            "description": "",
            "opening_hours": "Mo-Su 12:00-00:00",
            "phone": "0216 9091752",
            "branch": null,
            "amenity": "massage",
            "mobile": null,
            "addr:street": null,
            "cuisine": null,
            "name": "la elite spa&fitness “KURTKÖY”",
            "name:en": "la elite spa&fitness",
            "name:uk": null,
            "name:de": null,
            "name:tr": null,
            "name:ru": null,
            "name:ar": null
        }
    },
    {
        "lat": 40.9895658,
        "lon": 29.0279127,
        "tags": {
            "addr:city": "İstanbul",
            "addr:district": null,
            "description": "",
            "opening_hours": null,
            "phone": null,
            "branch": null,
            "amenity": "massage",
            "mobile": null,
            "addr:street": null,
            "cuisine": null,
            "name": "Foot Therapy",
            "name:en": "foot therapy (тайский массаж)",
            "name:uk": null,
            "name:de": null,
            "name:tr": null,
            "name:ru": null,
            "name:ar": null
        }
    },
    {
        "lat": 41.0315855,
        "lon": 28.9832626,
        "tags": {
            "addr:city": "İstanbul",
            "addr:district": null,
            "description": "",
            "opening_hours": null,
            "phone": null,
            "branch": null,
            "amenity": "massage",
            "mobile": null,
            "addr:street": null,
            "cuisine": null,
            "name": null,
            "name:en": null,
            "name:uk": null,
            "name:de": null,
            "name:tr": null,
            "name:ru": "Массаж",
            "name:ar": null
        }
    },
    {
        "lat": 40.9839067,
        "lon": 29.0279042,
        "tags": {
            "addr:city": "İstanbul",
            "addr:district": null,
            "description": "",
            "opening_hours": null,
            "phone": null,
            "branch": null,
            "amenity": "massage",
            "mobile": null,
            "addr:street": null,
            "cuisine": null,
            "name": null,
            "name:en": "Massage",
            "name:uk": null,
            "name:de": null,
            "name:tr": null,
            "name:ru": "Массаж",
            "name:ar": null
        }
    },
    {
        "lat": 40.9923769,
        "lon": 29.0292533,
        "tags": {
            "addr:city": "İstanbul",
            "addr:district": null,
            "description": "",
            "opening_hours": null,
            "phone": null,
            "branch": null,
            "amenity": "massage",
            "mobile": null,
            "addr:street": null,
            "cuisine": null,
            "name": null,
            "name:en": null,
            "name:uk": null,
            "name:de": null,
            "name:tr": null,
            "name:ru": "Тайский массаж",
            "name:ar": null
        }
    },
    {
        "lat": 40.9982533,
        "lon": 28.851499,
        "tags": {
            "addr:city": "İstanbul",
            "addr:district": null,
            "description": "",
            "opening_hours": null,
            "phone": null,
            "branch": null,
            "amenity": "massage",
            "mobile": null,
            "addr:street": null,
            "cuisine": null,
            "name": null,
            "name:en": null,
            "name:uk": null,
            "name:de": null,
            "name:tr": null,
            "name:ru": null,
            "name:ar": null
        }
    },
    {
        "lat": 40.9968026,
        "lon": 28.8514927,
        "tags": {
            "addr:city": "İstanbul",
            "addr:district": null,
            "description": "",
            "opening_hours": null,
            "phone": null,
            "branch": null,
            "amenity": "massage",
            "mobile": null,
            "addr:street": null,
            "cuisine": null,
            "name": null,
            "name:en": null,
            "name:uk": null,
            "name:de": null,
            "name:tr": null,
            "name:ru": null,
            "name:ar": null
        }
    },
    {
        "lat": 41.2651709,
        "lon": 28.7483267,
        "tags": {
            "addr:city": "İstanbul",
            "addr:district": null,
            "description": "",
            "opening_hours": "24/7",
            "phone": null,
            "branch": null,
            "amenity": "massage",
            "mobile": null,
            "addr:street": null,
            "cuisine": null,
            "name": "ExpressSpa",
            "name:en": null,
            "name:uk": null,
            "name:de": null,
            "name:tr": null,
            "name:ru": null,
            "name:ar": null
        }
    },
    {
        "lat": 41.0085388,
        "lon": 28.9715887,
        "tags": {
            "addr:city": "İstanbul",
            "addr:district": null,
            "description": "",
            "opening_hours": null,
            "phone": null,
            "branch": null,
            "amenity": "massage",
            "mobile": null,
            "addr:street": null,
            "cuisine": null,
            "name": "Çemberlitas",
            "name:en": null,
            "name:uk": null,
            "name:de": null,
            "name:tr": null,
            "name:ru": null,
            "name:ar": null
        }
    },
    {
        "lat": 41.0132432,
        "lon": 28.9769579,
        "tags": {
            "addr:city": "İstanbul",
            "addr:district": null,
            "description": "",
            "opening_hours": null,
            "phone": null,
            "branch": null,
            "amenity": "massage",
            "mobile": null,
            "addr:street": "Saffeti Paşa Sokak",
            "cuisine": null,
            "name": "Hotel Centrum Spa",
            "name:en": null,
            "name:uk": null,
            "name:de": null,
            "name:tr": null,
            "name:ru": null,
            "name:ar": null
        }
    },
    {
        "lat": 41.0130119,
        "lon": 28.9776919,
        "tags": {
            "addr:city": "İstanbul",
            "addr:district": null,
            "description": "",
            "opening_hours": "Mo-Su 11:00-23:00",
            "phone": null,
            "branch": null,
            "amenity": "massage",
            "mobile": null,
            "addr:street": null,
            "cuisine": null,
            "name": "Empire palace Spa",
            "name:en": null,
            "name:uk": null,
            "name:de": null,
            "name:tr": null,
            "name:ru": null,
            "name:ar": null
        }
    }
]