[
    {
        "lat": 41.0134914,
        "lon": 28.939843,
        "tags": {
            "addr:city": "İstanbul",
            "addr:district": null,
            "description": "",
            "opening_hours": null,
            "phone": null,
            "branch": null,
            "amenity": "medical_supply",
            "mobile": null,
            "addr:street": null,
            "cuisine": null,
            "name": "Elektron Medical",
            "name:en": null,
            "name:uk": null,
            "name:de": null,
            "name:tr": null,
            "name:ru": null,
            "name:ar": null
        }
    },
    {
        "lat": 41.0702841,
        "lon": 28.9947984,
        "tags": {
            "addr:city": "İstanbul",
            "addr:district": null,
            "description": "",
            "opening_hours": null,
            "phone": null,
            "branch": null,
            "amenity": "medical_supply",
            "mobile": null,
            "addr:street": "Lati Lokum Sokak",
            "cuisine": null,
            "name": "ottobock TR",
            "name:en": null,
            "name:uk": null,
            "name:de": null,
            "name:tr": null,
            "name:ru": null,
            "name:ar": "الاوتوبوك"
        }
    },
    {
        "lat": 41.0946047,
        "lon": 29.1014831,
        "tags": {
            "addr:city": "İstanbul",
            "addr:district": null,
            "description": "",
            "opening_hours": null,
            "phone": null,
            "branch": null,
            "amenity": "medical_supply",
            "mobile": null,
            "addr:street": "Şehit Erdal Yulalı Sk.",
            "cuisine": null,
            "name": "Denge Ortopedi",
            "name:en": null,
            "name:uk": null,
            "name:de": null,
            "name:tr": null,
            "name:ru": null,
            "name:ar": null
        }
    },
    {
        "lat": 40.9985128,
        "lon": 28.9278989,
        "tags": {
            "addr:city": "Istanbul",
            "addr:district": "Fatih",
            "description": "",
            "opening_hours": null,
            "phone": null,
            "branch": null,
            "amenity": "medical_supply",
            "mobile": null,
            "addr:street": "İkiyüzlü Çeşme Sokağı",
            "cuisine": null,
            "name": "Emin protez",
            "name:en": null,
            "name:uk": null,
            "name:de": null,
            "name:tr": null,
            "name:ru": null,
            "name:ar": "أمين للمصنوعات الطبية"
        }
    },
    {
        "lat": 40.9953642,
        "lon": 28.9264498,
        "tags": {
            "addr:city": "Istanbul",
            "addr:district": "Fatih",
            "description": "",
            "opening_hours": null,
            "phone": "(0212) 632 42 10",
            "branch": null,
            "amenity": "medical_supply",
            "mobile": null,
            "addr:street": null,
            "cuisine": null,
            "name": "MZS group",
            "name:en": null,
            "name:uk": null,
            "name:de": null,
            "name:tr": null,
            "name:ru": null,
            "name:ar": "تقنية الليزر الطبي"
        }
    },
    {
        "lat": 41.0043215,
        "lon": 28.9439133,
        "tags": {
            "addr:city": "Istanbul",
            "addr:district": "Fatih",
            "description": "",
            "opening_hours": null,
            "phone": "02126331994",
            "branch": null,
            "amenity": "medical_supply",
            "mobile": null,
            "addr:street": "Yokuş çeşmesi sokağı",
            "cuisine": null,
            "name": "Enes Medikal",
            "name:en": null,
            "name:uk": null,
            "name:de": null,
            "name:tr": null,
            "name:ru": null,
            "name:ar": "أنس للمستلزمات الطبية"
        }
    },
    {
        "lat": 41.0044769,
        "lon": 28.9437892,
        "tags": {
            "addr:city": "Istanbul",
            "addr:district": "Fatih",
            "description": "",
            "opening_hours": null,
            "phone": null,
            "branch": null,
            "amenity": "medical_supply",
            "mobile": null,
            "addr:street": "Yokuş çeşmesi sokağı",
            "cuisine": null,
            "name": "Paşa medical",
            "name:en": null,
            "name:uk": null,
            "name:de": null,
            "name:tr": null,
            "name:ru": null,
            "name:ar": "باشا للمستلزمات الطبية"
        }
    },
    {
        "lat": 41.0050598,
        "lon": 28.9433605,
        "tags": {
            "addr:city": "Istanbul",
            "addr:district": "Fatih",
            "description": "",
            "opening_hours": null,
            "phone": null,
            "branch": null,
            "amenity": "medical_supply",
            "mobile": null,
            "addr:street": "Yokuş çeşmesi sokağı",
            "cuisine": null,
            "name": "Kerem medical",
            "name:en": null,
            "name:uk": null,
            "name:de": null,
            "name:tr": null,
            "name:ru": null,
            "name:ar": "كرم للمستلزمات الطبية"
        }
    },
    {
        "lat": 41.00501,
        "lon": 28.9434033,
        "tags": {
            "addr:city": "Istanbul",
            "addr:district": "Fatih",
            "description": "",
            "opening_hours": null,
            "phone": "(0212) 588 04 82",
            "branch": null,
            "amenity": "medical_supply",
            "mobile": null,
            "addr:street": "Yokuş çeşmesi sokağı",
            "cuisine": null,
            "name": "Enes Medikal",
            "name:en": null,
            "name:uk": null,
            "name:de": null,
            "name:tr": null,
            "name:ru": null,
            "name:ar": "أنس للمستلزمات الطبية"
        }
    },
    {
        "lat": 41.0051635,
        "lon": 28.9432367,
        "tags": {
            "addr:city": "Istanbul",
            "addr:district": "Fatih",
            "description": "",
            "opening_hours": null,
            "phone": null,
            "branch": null,
            "amenity": "medical_supply",
            "mobile": null,
            "addr:street": "Yokuş çeşmesi sokağı",
            "cuisine": null,
            "name": "Doğuş Medika",
            "name:en": null,
            "name:uk": null,
            "name:de": null,
            "name:tr": null,
            "name:ru": null,
            "name:ar": "دوغوش للمستلزمات الطبية"
        }
    },
    {
        "lat": 41.0060383,
        "lon": 28.942339,
        "tags": {
            "addr:city": "Istanbul",
            "addr:district": "Fatih",
            "description": "",
            "opening_hours": null,
            "phone": null,
            "branch": null,
            "amenity": "medical_supply",
            "mobile": null,
            "addr:street": "Yokuş çeşmesi sokağı",
            "cuisine": null,
            "name": "Ortopedi Medical",
            "name:en": null,
            "name:uk": null,
            "name:de": null,
            "name:tr": null,
            "name:ru": null,
            "name:ar": "أورتوبيدي للمستلزمات الطبية"
        }
    },
    {
        "lat": 41.0069267,
        "lon": 28.9420523,
        "tags": {
            "addr:city": "Istanbul",
            "addr:district": "Fatih",
            "description": "",
            "opening_hours": null,
            "phone": null,
            "branch": null,
            "amenity": "medical_supply",
            "mobile": null,
            "addr:street": "Kocamustafapaşa caddesi",
            "cuisine": null,
            "name": "Ortopedi Medical",
            "name:en": null,
            "name:uk": null,
            "name:de": null,
            "name:tr": null,
            "name:ru": null,
            "name:ar": "مستلزمات طبية"
        }
    },
    {
        "lat": 41.0201142,
        "lon": 28.9321388,
        "tags": {
            "addr:city": "Istanbul",
            "addr:district": "Fatih",
            "description": "",
            "opening_hours": null,
            "phone": null,
            "branch": null,
            "amenity": "medical_supply",
            "mobile": null,
            "addr:street": "Tatlıpınar Caddesi",
            "cuisine": null,
            "name": "Özen medikal",
            "name:en": null,
            "name:uk": null,
            "name:de": null,
            "name:tr": null,
            "name:ru": null,
            "name:ar": "أوزان للمستلزمات الطبية"
        }
    },
    {
        "lat": 41.0186428,
        "lon": 28.9321036,
        "tags": {
            "addr:city": "Istanbul",
            "addr:district": "Fatih",
            "description": "",
            "opening_hours": "mo-sa 08:30-19:00",
            "phone": "(0212) 532 40 61",
            "branch": null,
            "amenity": "medical_supply",
            "mobile": null,
            "addr:street": "Tatlıpınar Caddesi",
            "cuisine": null,
            "name": "Yeditepe Ortez Protez Uygulama Merkezi",
            "name:en": null,
            "name:uk": null,
            "name:de": null,
            "name:tr": null,
            "name:ru": null,
            "name:ar": "يدي تيبي للأطراف الصناعية و المستلزمات الطبية"
        }
    },
    {
        "lat": 41.0173974,
        "lon": 28.9317355,
        "tags": {
            "addr:city": "Istanbul",
            "addr:district": "Fatih",
            "description": "",
            "opening_hours": null,
            "phone": null,
            "branch": null,
            "amenity": "medical_supply",
            "mobile": null,
            "addr:street": "Tatlıpınar Caddesi",
            "cuisine": null,
            "name": "İkizler medikal",
            "name:en": null,
            "name:uk": null,
            "name:de": null,
            "name:tr": null,
            "name:ru": null,
            "name:ar": "إيكيزلر للمعدات الطبية"
        }
    },
    {
        "lat": 41.0191473,
        "lon": 28.9325952,
        "tags": {
            "addr:city": "Istanbul",
            "addr:district": "Fatih",
            "description": "",
            "opening_hours": null,
            "phone": null,
            "branch": null,
            "amenity": "medical_supply",
            "mobile": null,
            "addr:street": "Bezmialem Vakıf Ünv. Caddesi",
            "cuisine": null,
            "name": "Akdeniz medikal",
            "name:en": null,
            "name:uk": null,
            "name:de": null,
            "name:tr": null,
            "name:ru": null,
            "name:ar": "مستلزمات طبية أكدينيز"
        }
    },
    {
        "lat": 41.0173498,
        "lon": 28.9310902,
        "tags": {
            "addr:city": "Istanbul",
            "addr:district": "Fatih",
            "description": "",
            "opening_hours": null,
            "phone": null,
            "branch": null,
            "amenity": "medical_supply",
            "mobile": null,
            "addr:street": "Ali baba sokağı",
            "cuisine": null,
            "name": "Vatan med",
            "name:en": null,
            "name:uk": null,
            "name:de": null,
            "name:tr": null,
            "name:ru": null,
            "name:ar": "وطن للمستلومات الطبية"
        }
    },
    {
        "lat": 41.0089983,
        "lon": 28.9493289,
        "tags": {
            "addr:city": "Istanbul",
            "addr:district": "Fatih",
            "description": "",
            "opening_hours": null,
            "phone": "(0212) 588 06 02",
            "branch": null,
            "amenity": "medical_supply",
            "mobile": null,
            "addr:street": "Sorguççu Sokağı",
            "cuisine": null,
            "name": "Hayat Ortopedi",
            "name:en": null,
            "name:uk": null,
            "name:de": null,
            "name:tr": null,
            "name:ru": null,
            "name:ar": "حياة للمستلزمات و الأطراف الصناعية"
        }
    },
    {
        "lat": 41.0129616,
        "lon": 28.9676825,
        "tags": {
            "addr:city": "Istanbul",
            "addr:district": "Fatih",
            "description": "",
            "opening_hours": null,
            "phone": null,
            "branch": null,
            "amenity": "medical_supply",
            "mobile": null,
            "addr:street": "Çakmakçılar Ykş.",
            "cuisine": null,
            "name": "Morteks",
            "name:en": null,
            "name:uk": null,
            "name:de": null,
            "name:tr": null,
            "name:ru": null,
            "name:ar": "مورتيكس للألبسة الطبية"
        }
    },
    {
        "lat": 41.0043225,
        "lon": 28.9317192,
        "tags": {
            "addr:city": "Istanbul",
            "addr:district": "Fatih",
            "description": "",
            "opening_hours": null,
            "phone": null,
            "branch": null,
            "amenity": "medical_supply",
            "mobile": null,
            "addr:street": "Kuvayi Milliye Caddesi",
            "cuisine": null,
            "name": "Ceylan Tıp Merkezi",
            "name:en": null,
            "name:uk": null,
            "name:de": null,
            "name:tr": null,
            "name:ru": null,
            "name:ar": "جيلان طب مركزي"
        }
    },
    {
        "lat": 41.0094393,
        "lon": 28.9454845,
        "tags": {
            "addr:city": "Istanbul",
            "addr:district": "Fatih",
            "description": "",
            "opening_hours": null,
            "phone": null,
            "branch": null,
            "amenity": "medical_supply",
            "mobile": null,
            "addr:street": "Haseki Caddesi",
            "cuisine": null,
            "name": "Devlet Medikal",
            "name:en": null,
            "name:uk": null,
            "name:de": null,
            "name:tr": null,
            "name:ru": null,
            "name:ar": "devlet medikal"
        }
    },
    {
        "lat": 41.0095276,
        "lon": 28.9459973,
        "tags": {
            "addr:city": "Istanbul",
            "addr:district": "Fatih",
            "description": "",
            "opening_hours": null,
            "phone": null,
            "branch": null,
            "amenity": "medical_supply",
            "mobile": null,
            "addr:street": "Haseki Caddesi",
            "cuisine": null,
            "name": "Medikal",
            "name:en": null,
            "name:uk": null,
            "name:de": null,
            "name:tr": null,
            "name:ru": null,
            "name:ar": "ميديكال"
        }
    },
    {
        "lat": 41.0096017,
        "lon": 28.9464237,
        "tags": {
            "addr:city": "Istanbul",
            "addr:district": "Fatih",
            "description": "",
            "opening_hours": null,
            "phone": null,
            "branch": null,
            "amenity": "medical_supply",
            "mobile": null,
            "addr:street": "Haseki Caddesi",
            "cuisine": null,
            "name": "Mepamed Medikal",
            "name:en": null,
            "name:uk": null,
            "name:de": null,
            "name:tr": null,
            "name:ru": null,
            "name:ar": "ميباميد ميديكال"
        }
    },
    {
        "lat": 41.0085415,
        "lon": 28.9453001,
        "tags": {
            "addr:city": "Istanbul",
            "addr:district": "Fatih",
            "description": "",
            "opening_hours": null,
            "phone": null,
            "branch": null,
            "amenity": "medical_supply",
            "mobile": null,
            "addr:street": "Doktor Adnan Adıvar Caddesi",
            "cuisine": null,
            "name": "ERmed Medikal",
            "name:en": null,
            "name:uk": null,
            "name:de": null,
            "name:tr": null,
            "name:ru": null,
            "name:ar": "ايرميد ميديكال"
        }
    },
    {
        "lat": 41.0088754,
        "lon": 28.9451513,
        "tags": {
            "addr:city": "Istanbul",
            "addr:district": "Fatih",
            "description": "",
            "opening_hours": null,
            "phone": null,
            "branch": null,
            "amenity": "medical_supply",
            "mobile": null,
            "addr:street": "Doktor Adnan Adıvar Caddesi",
            "cuisine": null,
            "name": "Uğrak Medikal",
            "name:en": null,
            "name:uk": null,
            "name:de": null,
            "name:tr": null,
            "name:ru": null,
            "name:ar": "اوغراك ميديكال"
        }
    },
    {
        "lat": 41.0098279,
        "lon": 28.9453932,
        "tags": {
            "addr:city": "Istanbul",
            "addr:district": "Fatih",
            "description": "",
            "opening_hours": null,
            "phone": null,
            "branch": null,
            "amenity": "medical_supply",
            "mobile": null,
            "addr:street": "Doktor Adnan Adıvar Caddesi",
            "cuisine": null,
            "name": "Müge Medikal",
            "name:en": null,
            "name:uk": null,
            "name:de": null,
            "name:tr": null,
            "name:ru": null,
            "name:ar": "موغة ميديكال"
        }
    },
    {
        "lat": 41.0089813,
        "lon": 28.9434829,
        "tags": {
            "addr:city": "Istanbul",
            "addr:district": "Fatih",
            "description": "",
            "opening_hours": null,
            "phone": null,
            "branch": null,
            "amenity": "medical_supply",
            "mobile": null,
            "addr:street": "Haseki Caddesi",
            "cuisine": null,
            "name": "Medikal",
            "name:en": null,
            "name:uk": null,
            "name:de": null,
            "name:tr": null,
            "name:ru": null,
            "name:ar": "ميديكال"
        }
    },
    {
        "lat": 41.008947,
        "lon": 28.9432246,
        "tags": {
            "addr:city": "Istanbul",
            "addr:district": "Fatih",
            "description": "",
            "opening_hours": null,
            "phone": null,
            "branch": null,
            "amenity": "medical_supply",
            "mobile": null,
            "addr:street": "Haseki Caddesi",
            "cuisine": null,
            "name": "Fırat Medikal",
            "name:en": null,
            "name:uk": null,
            "name:de": null,
            "name:tr": null,
            "name:ru": null,
            "name:ar": "فرات ميديكال"
        }
    },
    {
        "lat": 41.0088983,
        "lon": 28.9429275,
        "tags": {
            "addr:city": "Istanbul",
            "addr:district": "Fatih",
            "description": "",
            "opening_hours": null,
            "phone": null,
            "branch": null,
            "amenity": "medical_supply",
            "mobile": null,
            "addr:street": "Haseki Caddesi",
            "cuisine": null,
            "name": "Duha medikal",
            "name:en": null,
            "name:uk": null,
            "name:de": null,
            "name:tr": null,
            "name:ru": null,
            "name:ar": "ضحى ميديكال"
        }
    },
    {
        "lat": 41.0108992,
        "lon": 28.9377734,
        "tags": {
            "addr:city": "Istanbul",
            "addr:district": "Fatih",
            "description": "",
            "opening_hours": null,
            "phone": "02125864437",
            "branch": null,
            "amenity": "medical_supply",
            "mobile": null,
            "addr:street": "Şair mehmet emin sokak",
            "cuisine": null,
            "name": "MEDİTAŞ",
            "name:en": null,
            "name:uk": null,
            "name:de": null,
            "name:tr": null,
            "name:ru": null,
            "name:ar": "ميديتاش للادوات الطبية"
        }
    },
    {
        "lat": 40.9651225,
        "lon": 29.2655609,
        "tags": {
            "addr:city": "Istanbul",
            "addr:district": "Sultanbeyli",
            "description": "",
            "opening_hours": "24/7",
            "phone": "(0216) 398 33 94",
            "branch": null,
            "amenity": "medical_supply",
            "mobile": null,
            "addr:street": "Cami caddesi",
            "cuisine": null,
            "name": "Sona Medikal",
            "name:en": null,
            "name:uk": null,
            "name:de": null,
            "name:tr": null,
            "name:ru": null,
            "name:ar": "عيادة سونا"
        }
    },
    {
        "lat": 41.0187313,
        "lon": 28.9015873,
        "tags": {
            "addr:city": "Istanbul",
            "addr:district": "Zeytinburnu",
            "description": "",
            "opening_hours": "Mo-Fr 08:00-17:00; Mo-Sa 07:30-15:00",
            "phone": "(0212) 482 00 00",
            "branch": null,
            "amenity": "medical_supply",
            "mobile": null,
            "addr:street": "Davutpaşa Caddesi",
            "cuisine": null,
            "name": null,
            "name:en": null,
            "name:uk": null,
            "name:de": null,
            "name:tr": null,
            "name:ru": null,
            "name:ar": "فارما"
        }
    },
    {
        "lat": 41.0206624,
        "lon": 28.9110215,
        "tags": {
            "addr:city": "Istanbul",
            "addr:district": "Zeytinburnu",
            "description": "",
            "opening_hours": "Mo-Fr 08:00-17:00; Mo-Sa 07:30-15:00",
            "phone": "(0212) 467 11 11",
            "branch": null,
            "amenity": "medical_supply",
            "mobile": null,
            "addr:street": "Davutpaşa Caddesi",
            "cuisine": null,
            "name": "Ibrahim Ethem İlaç Fabrikası",
            "name:en": null,
            "name:uk": null,
            "name:de": null,
            "name:tr": null,
            "name:ru": null,
            "name:ar": null
        }
    },
    {
        "lat": 41.0189983,
        "lon": 28.9034448,
        "tags": {
            "addr:city": "Istanbul",
            "addr:district": "Zeytinburnu",
            "description": "",
            "opening_hours": "Mo-Fr 09:00-17:00; Mo-Sa 07:30-15:00",
            "phone": "(0212) 482 00 00",
            "branch": null,
            "amenity": "medical_supply",
            "mobile": null,
            "addr:street": "Yılanlı Ayazma Yolu",
            "cuisine": null,
            "name": "pharma Vision",
            "name:en": null,
            "name:uk": null,
            "name:de": null,
            "name:tr": null,
            "name:ru": null,
            "name:ar": "فارما"
        }
    },
    {
        "lat": 40.9921808,
        "lon": 28.8944312,
        "tags": {
            "addr:city": "Istanbul",
            "addr:district": "Zeytinburnu",
            "description": "",
            "opening_hours": null,
            "phone": "02124154415",
            "branch": null,
            "amenity": "medical_supply",
            "mobile": null,
            "addr:street": "Turan Güneş Caddesi",
            "cuisine": null,
            "name": "parkdental",
            "name:en": null,
            "name:uk": null,
            "name:de": null,
            "name:tr": null,
            "name:ru": null,
            "name:ar": "باردينتال"
        }
    },
    {
        "lat": 41.0513396,
        "lon": 28.8462691,
        "tags": {
            "addr:city": "Istanbul",
            "addr:district": "Bağcılar",
            "description": "",
            "opening_hours": null,
            "phone": null,
            "branch": null,
            "amenity": "medical_supply",
            "mobile": null,
            "addr:street": null,
            "cuisine": null,
            "name": "Ercan Ticaret",
            "name:en": null,
            "name:uk": null,
            "name:de": null,
            "name:tr": null,
            "name:ru": null,
            "name:ar": "ارجان للتجارة"
        }
    },
    {
        "lat": 41.0332148,
        "lon": 28.8663152,
        "tags": {
            "addr:city": "Istanbul",
            "addr:district": "Bağcılar",
            "description": "",
            "opening_hours": null,
            "phone": null,
            "branch": null,
            "amenity": "medical_supply",
            "mobile": null,
            "addr:street": "5.sokak",
            "cuisine": null,
            "name": "Şen Kardeşler",
            "name:en": null,
            "name:uk": null,
            "name:de": null,
            "name:tr": null,
            "name:ru": null,
            "name:ar": "إخوان شين"
        }
    },
    {
        "lat": 41.0316665,
        "lon": 28.8691493,
        "tags": {
            "addr:city": "Istanbul",
            "addr:district": "Bağcılar",
            "description": "مركز طبي",
            "opening_hours": null,
            "phone": null,
            "branch": null,
            "amenity": "medical_supply",
            "mobile": null,
            "addr:street": "6.sokak",
            "cuisine": null,
            "name": "Iba Medikal",
            "name:en": null,
            "name:uk": null,
            "name:de": null,
            "name:tr": null,
            "name:ru": null,
            "name:ar": "المركز الطبي iba"
        }
    },
    {
        "lat": 40.9845507,
        "lon": 29.1107259,
        "tags": {
            "addr:city": "İstanbul",
            "addr:district": null,
            "description": "",
            "opening_hours": null,
            "phone": null,
            "branch": null,
            "amenity": "medical_supply",
            "mobile": null,
            "addr:street": null,
            "cuisine": null,
            "name": "Ataşehir Acil Medikal",
            "name:en": null,
            "name:uk": null,
            "name:de": null,
            "name:tr": null,
            "name:ru": null,
            "name:ar": null
        }
    },
    {
        "lat": 40.8786228,
        "lon": 29.2360419,
        "tags": {
            "addr:city": "İstanbul",
            "addr:district": null,
            "description": "",
            "opening_hours": null,
            "phone": null,
            "branch": null,
            "amenity": "medical_supply",
            "mobile": null,
            "addr:street": null,
            "cuisine": null,
            "name": "Klinik Ortopedi Medikal",
            "name:en": null,
            "name:uk": null,
            "name:de": null,
            "name:tr": null,
            "name:ru": null,
            "name:ar": null
        }
    },
    {
        "lat": 40.8461747,
        "lon": 29.3013255,
        "tags": {
            "addr:city": "İstanbul",
            "addr:district": null,
            "description": "",
            "opening_hours": null,
            "phone": null,
            "branch": null,
            "amenity": "medical_supply",
            "mobile": null,
            "addr:street": null,
            "cuisine": null,
            "name": "Innova Care Medikal",
            "name:en": null,
            "name:uk": null,
            "name:de": null,
            "name:tr": null,
            "name:ru": null,
            "name:ar": null
        }
    },
    {
        "lat": 40.8461578,
        "lon": 29.3011181,
        "tags": {
            "addr:city": "İstanbul",
            "addr:district": null,
            "description": "",
            "opening_hours": null,
            "phone": null,
            "branch": null,
            "amenity": "medical_supply",
            "mobile": null,
            "addr:street": null,
            "cuisine": null,
            "name": "Helix İşitme Cihazlarıı",
            "name:en": null,
            "name:uk": null,
            "name:de": null,
            "name:tr": null,
            "name:ru": null,
            "name:ar": null
        }
    },
    {
        "lat": 40.8832838,
        "lon": 29.2441588,
        "tags": {
            "addr:city": "İstanbul",
            "addr:district": null,
            "description": "",
            "opening_hours": null,
            "phone": null,
            "branch": null,
            "amenity": "medical_supply",
            "mobile": null,
            "addr:street": null,
            "cuisine": null,
            "name": "Yaprak Medikal Sağlık Ürünleri",
            "name:en": null,
            "name:uk": null,
            "name:de": null,
            "name:tr": null,
            "name:ru": null,
            "name:ar": null
        }
    },
    {
        "lat": 41.0209483,
        "lon": 28.5889666,
        "tags": {
            "addr:city": "İstanbul",
            "addr:district": null,
            "description": "",
            "opening_hours": null,
            "phone": null,
            "branch": null,
            "amenity": "medical_supply",
            "mobile": null,
            "addr:street": null,
            "cuisine": null,
            "name": "Felix Medikal",
            "name:en": null,
            "name:uk": null,
            "name:de": null,
            "name:tr": null,
            "name:ru": null,
            "name:ar": null
        }
    },
    {
        "lat": 40.9794867,
        "lon": 29.1109712,
        "tags": {
            "addr:city": "İstanbul",
            "addr:district": null,
            "description": "",
            "opening_hours": null,
            "phone": null,
            "branch": null,
            "amenity": "medical_supply",
            "mobile": null,
            "addr:street": null,
            "cuisine": null,
            "name": "Gazi Medikal",
            "name:en": null,
            "name:uk": null,
            "name:de": null,
            "name:tr": null,
            "name:ru": null,
            "name:ar": null
        }
    },
    {
        "lat": 41.0594796,
        "lon": 28.907866,
        "tags": {
            "addr:city": "İstanbul",
            "addr:district": "Gaziosmanpaşa",
            "description": "",
            "opening_hours": null,
            "phone": null,
            "branch": null,
            "amenity": "medical_supply",
            "mobile": null,
            "addr:street": "Çukurçeşme Caddesi",
            "cuisine": null,
            "name": "Çalışkan Medikal",
            "name:en": null,
            "name:uk": null,
            "name:de": null,
            "name:tr": null,
            "name:ru": null,
            "name:ar": null
        }
    },
    {
        "lat": 40.984321,
        "lon": 29.1087355,
        "tags": {
            "addr:city": "İstanbul",
            "addr:district": null,
            "description": "",
            "opening_hours": null,
            "phone": null,
            "branch": null,
            "amenity": "medical_supply",
            "mobile": null,
            "addr:street": null,
            "cuisine": null,
            "name": "Anka Medikal",
            "name:en": null,
            "name:uk": null,
            "name:de": null,
            "name:tr": null,
            "name:ru": null,
            "name:ar": null
        }
    },
    {
        "lat": 40.9842332,
        "lon": 29.1094029,
        "tags": {
            "addr:city": "İstanbul",
            "addr:district": null,
            "description": "",
            "opening_hours": null,
            "phone": null,
            "branch": null,
            "amenity": "medical_supply",
            "mobile": null,
            "addr:street": null,
            "cuisine": null,
            "name": "Medikal Store",
            "name:en": null,
            "name:uk": null,
            "name:de": null,
            "name:tr": null,
            "name:ru": null,
            "name:ar": null
        }
    },
    {
        "lat": 40.9811186,
        "lon": 29.1254933,
        "tags": {
            "addr:city": "İstanbul",
            "addr:district": null,
            "description": "",
            "opening_hours": null,
            "phone": null,
            "branch": null,
            "amenity": "medical_supply",
            "mobile": null,
            "addr:street": null,
            "cuisine": null,
            "name": "Eday Medikal",
            "name:en": null,
            "name:uk": null,
            "name:de": null,
            "name:tr": null,
            "name:ru": null,
            "name:ar": null
        }
    },
    {
        "lat": 41.0817304,
        "lon": 28.9713601,
        "tags": {
            "addr:city": "İstanbul",
            "addr:district": null,
            "description": "",
            "opening_hours": null,
            "phone": null,
            "branch": null,
            "amenity": "medical_supply",
            "mobile": null,
            "addr:street": null,
            "cuisine": null,
            "name": "Çebi Medikal",
            "name:en": null,
            "name:uk": null,
            "name:de": null,
            "name:tr": null,
            "name:ru": null,
            "name:ar": null
        }
    },
    {
        "lat": 40.977115,
        "lon": 29.092886,
        "tags": {
            "addr:city": "İstanbul",
            "addr:district": null,
            "description": "",
            "opening_hours": null,
            "phone": null,
            "branch": null,
            "amenity": "medical_supply",
            "mobile": null,
            "addr:street": null,
            "cuisine": null,
            "name": "MDM Medikal & Ortopedi",
            "name:en": null,
            "name:uk": null,
            "name:de": null,
            "name:tr": null,
            "name:ru": null,
            "name:ar": null
        }
    },
    {
        "lat": 41.0489506,
        "lon": 28.8980109,
        "tags": {
            "addr:city": "İstanbul",
            "addr:district": null,
            "description": "",
            "opening_hours": null,
            "phone": null,
            "branch": null,
            "amenity": "medical_supply",
            "mobile": null,
            "addr:street": null,
            "cuisine": null,
            "name": "Yeni Ambalaj Temizlik Malzemeleri",
            "name:en": null,
            "name:uk": null,
            "name:de": null,
            "name:tr": null,
            "name:ru": null,
            "name:ar": null
        }
    },
    {
        "lat": 41.0004422,
        "lon": 28.6950671,
        "tags": {
            "addr:city": "İstanbul",
            "addr:district": "Esenyurt",
            "description": "",
            "opening_hours": null,
            "phone": "+90 212 876 89 77",
            "branch": null,
            "amenity": "medical_supply",
            "mobile": "+90505 280 68 58",
            "addr:street": "67. Sokak",
            "cuisine": null,
            "name": "Clean Lazer Epilasyon Cihazları",
            "name:en": null,
            "name:uk": null,
            "name:de": null,
            "name:tr": null,
            "name:ru": null,
            "name:ar": null
        }
    },
    {
        "lat": 40.9786733,
        "lon": 29.0462937,
        "tags": {
            "addr:city": "İstanbul",
            "addr:district": "Kadıköy",
            "description": "",
            "opening_hours": null,
            "phone": null,
            "branch": null,
            "amenity": "medical_supply",
            "mobile": null,
            "addr:street": "Bağdat Caddesi",
            "cuisine": null,
            "name": "Cadde Medikal",
            "name:en": null,
            "name:uk": null,
            "name:de": null,
            "name:tr": null,
            "name:ru": null,
            "name:ar": null
        }
    },
    {
        "lat": 40.9324595,
        "lon": 29.1366918,
        "tags": {
            "addr:city": "İstanbul",
            "addr:district": null,
            "description": "",
            "opening_hours": null,
            "phone": "0850 2283623",
            "branch": null,
            "amenity": "medical_supply",
            "mobile": null,
            "addr:street": null,
            "cuisine": null,
            "name": "Asil İşitme Cihazları",
            "name:en": null,
            "name:uk": null,
            "name:de": null,
            "name:tr": null,
            "name:ru": null,
            "name:ar": null
        }
    },
    {
        "lat": 40.9245329,
        "lon": 29.1348971,
        "tags": {
            "addr:city": "İstanbul",
            "addr:district": null,
            "description": "",
            "opening_hours": null,
            "phone": null,
            "branch": null,
            "amenity": "medical_supply",
            "mobile": null,
            "addr:street": null,
            "cuisine": null,
            "name": "Sayamed Medikal",
            "name:en": null,
            "name:uk": null,
            "name:de": null,
            "name:tr": null,
            "name:ru": null,
            "name:ar": null
        }
    },
    {
        "lat": 40.9853184,
        "lon": 29.0597654,
        "tags": {
            "addr:city": "İstanbul",
            "addr:district": "Kadıköy",
            "description": "",
            "opening_hours": null,
            "phone": null,
            "branch": null,
            "amenity": "medical_supply",
            "mobile": null,
            "addr:street": "Karaman Sokağı",
            "cuisine": null,
            "name": "Vizyon Medikal Ortopedi",
            "name:en": null,
            "name:uk": null,
            "name:de": null,
            "name:tr": null,
            "name:ru": null,
            "name:ar": null
        }
    },
    {
        "lat": 41.0138413,
        "lon": 28.7978259,
        "tags": {
            "addr:city": "İstanbul",
            "addr:district": null,
            "description": "",
            "opening_hours": null,
            "phone": null,
            "branch": null,
            "amenity": "medical_supply",
            "mobile": null,
            "addr:street": null,
            "cuisine": null,
            "name": "Begüm Medikal",
            "name:en": null,
            "name:uk": null,
            "name:de": null,
            "name:tr": null,
            "name:ru": null,
            "name:ar": null
        }
    },
    {
        "lat": 40.9953498,
        "lon": 29.0435855,
        "tags": {
            "addr:city": "İstanbul",
            "addr:district": "Kadıköy",
            "description": "",
            "opening_hours": "Mo-Fr 09:00-19:00; Sa 09:00-14:00",
            "phone": null,
            "branch": null,
            "amenity": "medical_supply",
            "mobile": null,
            "addr:street": "Uzunçayır Caddesi",
            "cuisine": null,
            "name": "Alpha Med",
            "name:en": null,
            "name:uk": null,
            "name:de": null,
            "name:tr": null,
            "name:ru": null,
            "name:ar": null
        }
    }
]