[
    {
        "lat": 41.0136257,
        "lon": 28.9750601,
        "tags": {
            "addr:city": "Istanbul",
            "addr:district": "Fatih",
            "description": "",
            "opening_hours": null,
            "phone": "+90 212 522 23 17",
            "branch": null,
            "amenity": "medical",
            "mobile": null,
            "addr:street": "Ankara Caddesi. Halil Lütfü Dördüncü İş Merkezi",
            "cuisine": null,
            "name": "CPAP Merkezi",
            "name:en": null,
            "name:uk": null,
            "name:de": null,
            "name:tr": null,
            "name:ru": null,
            "name:ar": "جي بي آ بي مركزي للتجهيزات الطبية"
        }
    },
    {
        "lat": 41.0138895,
        "lon": 28.9751273,
        "tags": {
            "addr:city": "Istanbul",
            "addr:district": "Fatih",
            "description": "",
            "opening_hours": null,
            "phone": "+90 212 528 07 17",
            "branch": null,
            "amenity": "medical",
            "mobile": null,
            "addr:street": "Hoca Paşa Sokak. Halil Lütfü Dördüncü İş Merkezi",
            "cuisine": null,
            "name": "Ece Medikal",
            "name:en": null,
            "name:uk": null,
            "name:de": null,
            "name:tr": null,
            "name:ru": null,
            "name:ar": null
        }
    },
    {
        "lat": 41.0133196,
        "lon": 28.9754178,
        "tags": {
            "addr:city": "Istanbul",
            "addr:district": "Fatih",
            "description": "",
            "opening_hours": null,
            "phone": "+90 212 444 78 96",
            "branch": null,
            "amenity": "medical",
            "mobile": null,
            "addr:street": "Ebussuut Caddesi",
            "cuisine": null,
            "name": "Ece Medikal",
            "name:en": null,
            "name:uk": null,
            "name:de": null,
            "name:tr": null,
            "name:ru": null,
            "name:ar": null
        }
    }
]