[
    {
        "lat": 40.9649017,
        "lon": 29.0728668,
        "tags": {
            "addr:city": "İstanbul",
            "addr:district": "Kadıköy",
            "description": "",
            "opening_hours": "08:30 - 22:00",
            "phone": "+90 216 355 16 40",
            "branch": null,
            "amenity": "pastry",
            "mobile": null,
            "addr:street": "Bağdat Caddesi",
            "cuisine": null,
            "name": "Divan Pastanesi Erenköy",
            "name:en": null,
            "name:uk": null,
            "name:de": null,
            "name:tr": null,
            "name:ru": null,
            "name:ar": "مقهى وحلويات ديفان"
        }
    },
    {
        "lat": 40.9861096,
        "lon": 29.0280712,
        "tags": {
            "addr:city": "İstanbul",
            "addr:district": null,
            "description": "",
            "opening_hours": null,
            "phone": null,
            "branch": null,
            "amenity": "pastry",
            "mobile": null,
            "addr:street": null,
            "cuisine": null,
            "name": "İnci Pastanesi",
            "name:en": null,
            "name:uk": null,
            "name:de": null,
            "name:tr": null,
            "name:ru": null,
            "name:ar": null
        }
    },
    {
        "lat": 40.9843904,
        "lon": 29.0268253,
        "tags": {
            "addr:city": "İstanbul",
            "addr:district": null,
            "description": "",
            "opening_hours": null,
            "phone": null,
            "branch": null,
            "amenity": "pastry",
            "mobile": null,
            "addr:street": null,
            "cuisine": null,
            "name": "Pelin Pastanesi",
            "name:en": null,
            "name:uk": null,
            "name:de": null,
            "name:tr": null,
            "name:ru": null,
            "name:ar": null
        }
    },
    {
        "lat": 41.0162631,
        "lon": 28.8764323,
        "tags": {
            "addr:city": "İstanbul",
            "addr:district": "Güngören",
            "description": "iletişim   05466424745     02126424745",
            "opening_hours": "24/7",
            "phone": null,
            "branch": null,
            "amenity": "pastry",
            "mobile": null,
            "addr:street": "Pertev Paşa Sk",
            "cuisine": null,
            "name": "Pirenk Pastanesi",
            "name:en": null,
            "name:uk": null,
            "name:de": null,
            "name:tr": null,
            "name:ru": null,
            "name:ar": null
        }
    },
    {
        "lat": 41.0255944,
        "lon": 28.9799821,
        "tags": {
            "addr:city": "Istanbul",
            "addr:district": "Beyoğlu",
            "description": "Famous for their baklava",
            "opening_hours": null,
            "phone": null,
            "branch": null,
            "amenity": "pastry",
            "mobile": null,
            "addr:street": "Mumhane Caddesi",
            "cuisine": "turkish",
            "name": "Karaköy Güllüoğlu Üretim ve Satış",
            "name:en": null,
            "name:uk": null,
            "name:de": null,
            "name:tr": null,
            "name:ru": null,
            "name:ar": null
        }
    },
    {
        "lat": 40.8776415,
        "lon": 29.0999437,
        "tags": {
            "addr:city": "İstanbul",
            "addr:district": null,
            "description": "",
            "opening_hours": null,
            "phone": null,
            "branch": null,
            "amenity": "pastry",
            "mobile": null,
            "addr:street": null,
            "cuisine": null,
            "name": "Meltem Pastanesi",
            "name:en": null,
            "name:uk": null,
            "name:de": null,
            "name:tr": "Pastane",
            "name:ru": null,
            "name:ar": null
        }
    },
    {
        "lat": 40.9863011,
        "lon": 29.0253683,
        "tags": {
            "addr:city": "İstanbul",
            "addr:district": null,
            "description": "",
            "opening_hours": null,
            "phone": null,
            "branch": null,
            "amenity": "pastry",
            "mobile": null,
            "addr:street": null,
            "cuisine": null,
            "name": "Pasifik Pastanesi",
            "name:en": null,
            "name:uk": null,
            "name:de": null,
            "name:tr": null,
            "name:ru": null,
            "name:ar": null
        }
    },
    {
        "lat": 41.0077314,
        "lon": 28.5373042,
        "tags": {
            "addr:city": "İstanbul",
            "addr:district": null,
            "description": "",
            "opening_hours": null,
            "phone": null,
            "branch": null,
            "amenity": "pastry",
            "mobile": null,
            "addr:street": null,
            "cuisine": null,
            "name": "Şerifoğlu Baklavaları",
            "name:en": null,
            "name:uk": null,
            "name:de": null,
            "name:tr": null,
            "name:ru": null,
            "name:ar": null
        }
    },
    {
        "lat": 41.0085548,
        "lon": 28.5359646,
        "tags": {
            "addr:city": "İstanbul",
            "addr:district": null,
            "description": "",
            "opening_hours": null,
            "phone": null,
            "branch": null,
            "amenity": "pastry",
            "mobile": null,
            "addr:street": null,
            "cuisine": null,
            "name": "Koska",
            "name:en": null,
            "name:uk": null,
            "name:de": null,
            "name:tr": null,
            "name:ru": null,
            "name:ar": null
        }
    },
    {
        "lat": 41.0733219,
        "lon": 28.8869573,
        "tags": {
            "addr:city": "İstanbul",
            "addr:district": null,
            "description": "",
            "opening_hours": null,
            "phone": null,
            "branch": null,
            "amenity": "pastry",
            "mobile": null,
            "addr:street": null,
            "cuisine": null,
            "name": "Taşan Pastanesi",
            "name:en": null,
            "name:uk": null,
            "name:de": null,
            "name:tr": null,
            "name:ru": null,
            "name:ar": null
        }
    },
    {
        "lat": 40.9228136,
        "lon": 29.1575452,
        "tags": {
            "addr:city": "İstanbul",
            "addr:district": null,
            "description": "",
            "opening_hours": null,
            "phone": null,
            "branch": null,
            "amenity": "pastry",
            "mobile": null,
            "addr:street": null,
            "cuisine": null,
            "name": "Safranbolu lokumcusu",
            "name:en": null,
            "name:uk": null,
            "name:de": null,
            "name:tr": null,
            "name:ru": null,
            "name:ar": null
        }
    },
    {
        "lat": 41.0944922,
        "lon": 29.0886279,
        "tags": {
            "addr:city": "İstanbul",
            "addr:district": null,
            "description": "",
            "opening_hours": null,
            "phone": null,
            "branch": null,
            "amenity": "pastry",
            "mobile": null,
            "addr:street": null,
            "cuisine": null,
            "name": "Değirmen Pastaneleri",
            "name:en": null,
            "name:uk": null,
            "name:de": null,
            "name:tr": null,
            "name:ru": null,
            "name:ar": null
        }
    },
    {
        "lat": 41.0943726,
        "lon": 29.0871392,
        "tags": {
            "addr:city": "İstanbul",
            "addr:district": null,
            "description": "",
            "opening_hours": null,
            "phone": null,
            "branch": null,
            "amenity": "pastry",
            "mobile": null,
            "addr:street": null,
            "cuisine": null,
            "name": "atar pastane",
            "name:en": null,
            "name:uk": null,
            "name:de": null,
            "name:tr": null,
            "name:ru": null,
            "name:ar": null
        }
    },
    {
        "lat": 40.9862352,
        "lon": 29.0281383,
        "tags": {
            "addr:city": "İstanbul",
            "addr:district": null,
            "description": "",
            "opening_hours": null,
            "phone": null,
            "branch": null,
            "amenity": "pastry",
            "mobile": null,
            "addr:street": null,
            "cuisine": null,
            "name": "Rumeli börekçisi",
            "name:en": null,
            "name:uk": null,
            "name:de": null,
            "name:tr": null,
            "name:ru": null,
            "name:ar": null
        }
    },
    {
        "lat": 41.0109091,
        "lon": 29.1193658,
        "tags": {
            "addr:city": "İstanbul",
            "addr:district": "Ümraniye",
            "description": "",
            "opening_hours": null,
            "phone": null,
            "branch": null,
            "amenity": "pastry",
            "mobile": null,
            "addr:street": "Atay Caddesi",
            "cuisine": null,
            "name": "Sevindik Pastanesi",
            "name:en": null,
            "name:uk": null,
            "name:de": null,
            "name:tr": null,
            "name:ru": null,
            "name:ar": null
        }
    },
    {
        "lat": 41.011182,
        "lon": 29.1197003,
        "tags": {
            "addr:city": "İstanbul",
            "addr:district": "Ümraniye",
            "description": "",
            "opening_hours": null,
            "phone": null,
            "branch": null,
            "amenity": "pastry",
            "mobile": null,
            "addr:street": null,
            "cuisine": null,
            "name": "Tatlıbak",
            "name:en": null,
            "name:uk": null,
            "name:de": null,
            "name:tr": null,
            "name:ru": null,
            "name:ar": null
        }
    },
    {
        "lat": 41.0001028,
        "lon": 28.9277458,
        "tags": {
            "addr:city": "İstanbul",
            "addr:district": null,
            "description": "",
            "opening_hours": null,
            "phone": null,
            "branch": null,
            "amenity": "pastry",
            "mobile": null,
            "addr:street": null,
            "cuisine": null,
            "name": null,
            "name:en": null,
            "name:uk": null,
            "name:de": null,
            "name:tr": null,
            "name:ru": null,
            "name:ar": null
        }
    },
    {
        "lat": 41.0173175,
        "lon": 28.9688153,
        "tags": {
            "addr:city": "İstanbul",
            "addr:district": null,
            "description": "",
            "opening_hours": null,
            "phone": null,
            "branch": null,
            "amenity": "pastry",
            "mobile": null,
            "addr:street": null,
            "cuisine": null,
            "name": "Acemoğlu Baklavaları",
            "name:en": null,
            "name:uk": null,
            "name:de": null,
            "name:tr": null,
            "name:ru": null,
            "name:ar": null
        }
    },
    {
        "lat": 41.0267551,
        "lon": 28.9410082,
        "tags": {
            "addr:city": "Istanbul",
            "addr:district": "Fatih",
            "description": "",
            "opening_hours": null,
            "phone": null,
            "branch": null,
            "amenity": "pastry",
            "mobile": null,
            "addr:street": "Canfeda cami sokak",
            "cuisine": null,
            "name": "Pastane",
            "name:en": null,
            "name:uk": null,
            "name:de": null,
            "name:tr": null,
            "name:ru": null,
            "name:ar": "محل معجنات"
        }
    },
    {
        "lat": 41.0303662,
        "lon": 28.9403317,
        "tags": {
            "addr:city": "Istanbul",
            "addr:district": "Fatih",
            "description": "",
            "opening_hours": null,
            "phone": null,
            "branch": null,
            "amenity": "pastry",
            "mobile": null,
            "addr:street": "Slama tomruk Caddesi",
            "cuisine": "turkish",
            "name": "Osmanlı baklava",
            "name:en": null,
            "name:uk": null,
            "name:de": null,
            "name:tr": null,
            "name:ru": null,
            "name:ar": "اوصمانلي بقلاوة"
        }
    },
    {
        "lat": 41.0291207,
        "lon": 28.9437646,
        "tags": {
            "addr:city": "Istanbul",
            "addr:district": "Fatih",
            "description": "",
            "opening_hours": null,
            "phone": null,
            "branch": null,
            "amenity": "pastry",
            "mobile": null,
            "addr:street": "Fethiye Caddesi",
            "cuisine": null,
            "name": "Şakir oğullari pastaneleri",
            "name:en": null,
            "name:uk": null,
            "name:de": null,
            "name:tr": null,
            "name:ru": null,
            "name:ar": "معجنات اولاد شاكر"
        }
    },
    {
        "lat": 41.0302674,
        "lon": 28.9374306,
        "tags": {
            "addr:city": "Istanbul",
            "addr:district": "Fatih",
            "description": "",
            "opening_hours": null,
            "phone": null,
            "branch": null,
            "amenity": "pastry",
            "mobile": null,
            "addr:street": "Şeyh Eyüp Sokak",
            "cuisine": null,
            "name": "Kariye pastanesi",
            "name:en": null,
            "name:uk": null,
            "name:de": null,
            "name:tr": null,
            "name:ru": null,
            "name:ar": "كاريى حلويات"
        }
    },
    {
        "lat": 41.0307643,
        "lon": 28.9368427,
        "tags": {
            "addr:city": "Istanbul",
            "addr:district": "Fatih",
            "description": "",
            "opening_hours": null,
            "phone": null,
            "branch": null,
            "amenity": "pastry",
            "mobile": null,
            "addr:street": "Fevzi paşa caddesi",
            "cuisine": null,
            "name": "Gülkos",
            "name:en": null,
            "name:uk": null,
            "name:de": null,
            "name:tr": null,
            "name:ru": null,
            "name:ar": "غول كوس حلويات"
        }
    },
    {
        "lat": 41.0481449,
        "lon": 28.8967082,
        "tags": {
            "addr:city": "İstanbul",
            "addr:district": null,
            "description": "",
            "opening_hours": null,
            "phone": null,
            "branch": null,
            "amenity": "pastry",
            "mobile": null,
            "addr:street": null,
            "cuisine": null,
            "name": "Dilek Pastanesi",
            "name:en": null,
            "name:uk": null,
            "name:de": null,
            "name:tr": null,
            "name:ru": null,
            "name:ar": null
        }
    },
    {
        "lat": 41.0388327,
        "lon": 28.8980625,
        "tags": {
            "addr:city": "İstanbul",
            "addr:district": null,
            "description": "",
            "opening_hours": null,
            "phone": null,
            "branch": null,
            "amenity": "pastry",
            "mobile": null,
            "addr:street": null,
            "cuisine": null,
            "name": null,
            "name:en": null,
            "name:uk": null,
            "name:de": null,
            "name:tr": null,
            "name:ru": null,
            "name:ar": null
        }
    },
    {
        "lat": 41.0468822,
        "lon": 28.8978019,
        "tags": {
            "addr:city": "İstanbul",
            "addr:district": null,
            "description": "",
            "opening_hours": null,
            "phone": null,
            "branch": null,
            "amenity": "pastry",
            "mobile": null,
            "addr:street": null,
            "cuisine": null,
            "name": "Karafırın",
            "name:en": null,
            "name:uk": null,
            "name:de": null,
            "name:tr": null,
            "name:ru": null,
            "name:ar": null
        }
    },
    {
        "lat": 41.0178906,
        "lon": 28.9490735,
        "tags": {
            "addr:city": "Istanbul",
            "addr:district": "Turkey",
            "description": "",
            "opening_hours": null,
            "phone": null,
            "branch": null,
            "amenity": "pastry",
            "mobile": null,
            "addr:street": "Fevzi Paşa Caddesi",
            "cuisine": null,
            "name": "Dilek",
            "name:en": null,
            "name:uk": null,
            "name:de": null,
            "name:tr": null,
            "name:ru": null,
            "name:ar": "ديليك"
        }
    },
    {
        "lat": 41.0188017,
        "lon": 28.9456804,
        "tags": {
            "addr:city": "Istanbul",
            "addr:district": "Fatih",
            "description": "",
            "opening_hours": null,
            "phone": null,
            "branch": null,
            "amenity": "pastry",
            "mobile": null,
            "addr:street": "Akdeniz Caddesi",
            "cuisine": null,
            "name": "Seç Baklavaları",
            "name:en": null,
            "name:uk": null,
            "name:de": null,
            "name:tr": null,
            "name:ru": null,
            "name:ar": "سيتش باكلافالاري"
        }
    },
    {
        "lat": 41.0201491,
        "lon": 28.9464828,
        "tags": {
            "addr:city": "Istanbul",
            "addr:district": "Turkey",
            "description": "",
            "opening_hours": null,
            "phone": null,
            "branch": null,
            "amenity": "pastry",
            "mobile": null,
            "addr:street": "AMIR BUHARI sokak",
            "cuisine": null,
            "name": "Devitiye",
            "name:en": null,
            "name:uk": null,
            "name:de": null,
            "name:tr": null,
            "name:ru": null,
            "name:ar": "دفيتية"
        }
    },
    {
        "lat": 41.0213832,
        "lon": 28.9445176,
        "tags": {
            "addr:city": "Istanbul",
            "addr:district": "Turkey",
            "description": "",
            "opening_hours": null,
            "phone": null,
            "branch": null,
            "amenity": "pastry",
            "mobile": null,
            "addr:street": "hirka-i sherif cd.",
            "cuisine": null,
            "name": "Chocolate house",
            "name:en": null,
            "name:uk": null,
            "name:de": null,
            "name:tr": null,
            "name:ru": null,
            "name:ar": "بيت الشوكولا"
        }
    },
    {
        "lat": 40.9876777,
        "lon": 29.0629578,
        "tags": {
            "addr:city": "İstanbul",
            "addr:district": null,
            "description": "",
            "opening_hours": null,
            "phone": null,
            "branch": null,
            "amenity": "pastry",
            "mobile": null,
            "addr:street": null,
            "cuisine": null,
            "name": "zorbey",
            "name:en": null,
            "name:uk": null,
            "name:de": null,
            "name:tr": null,
            "name:ru": null,
            "name:ar": null
        }
    },
    {
        "lat": 40.8809916,
        "lon": 29.2405441,
        "tags": {
            "addr:city": "İstanbul",
            "addr:district": null,
            "description": "",
            "opening_hours": null,
            "phone": null,
            "branch": null,
            "amenity": "pastry",
            "mobile": null,
            "addr:street": null,
            "cuisine": null,
            "name": "Ağız tadım pasta",
            "name:en": null,
            "name:uk": null,
            "name:de": null,
            "name:tr": null,
            "name:ru": null,
            "name:ar": null
        }
    },
    {
        "lat": 40.9608014,
        "lon": 29.0937893,
        "tags": {
            "addr:city": "İstanbul",
            "addr:district": "Kadıköy",
            "description": "",
            "opening_hours": null,
            "phone": null,
            "branch": null,
            "amenity": "pastry",
            "mobile": null,
            "addr:street": "Şemsettin Günaltay Caddesi",
            "cuisine": null,
            "name": "Yasemin Pastanesi",
            "name:en": null,
            "name:uk": null,
            "name:de": null,
            "name:tr": null,
            "name:ru": null,
            "name:ar": null
        }
    },
    {
        "lat": 40.9760708,
        "lon": 29.1416066,
        "tags": {
            "addr:city": "İstanbul",
            "addr:district": null,
            "description": "",
            "opening_hours": null,
            "phone": null,
            "branch": null,
            "amenity": "pastry",
            "mobile": null,
            "addr:street": null,
            "cuisine": null,
            "name": "Anteplioğlu",
            "name:en": null,
            "name:uk": null,
            "name:de": null,
            "name:tr": null,
            "name:ru": null,
            "name:ar": null
        }
    },
    {
        "lat": 41.0599787,
        "lon": 28.9129541,
        "tags": {
            "addr:city": "İstanbul",
            "addr:district": null,
            "description": "",
            "opening_hours": null,
            "phone": null,
            "branch": null,
            "amenity": "pastry",
            "mobile": null,
            "addr:street": null,
            "cuisine": null,
            "name": "Özen",
            "name:en": null,
            "name:uk": null,
            "name:de": null,
            "name:tr": null,
            "name:ru": null,
            "name:ar": null
        }
    },
    {
        "lat": 40.8814052,
        "lon": 29.2393583,
        "tags": {
            "addr:city": "İstanbul",
            "addr:district": null,
            "description": "",
            "opening_hours": null,
            "phone": null,
            "branch": null,
            "amenity": "pastry",
            "mobile": null,
            "addr:street": null,
            "cuisine": null,
            "name": "Viyadük Pastanesi",
            "name:en": null,
            "name:uk": null,
            "name:de": null,
            "name:tr": null,
            "name:ru": null,
            "name:ar": null
        }
    },
    {
        "lat": 41.1080151,
        "lon": 28.8637487,
        "tags": {
            "addr:city": "İstanbul",
            "addr:district": null,
            "description": "",
            "opening_hours": null,
            "phone": null,
            "branch": null,
            "amenity": "pastry",
            "mobile": null,
            "addr:street": null,
            "cuisine": null,
            "name": "Altunoğlu Pastanesi",
            "name:en": null,
            "name:uk": null,
            "name:de": null,
            "name:tr": null,
            "name:ru": null,
            "name:ar": null
        }
    },
    {
        "lat": 40.8844268,
        "lon": 29.2333673,
        "tags": {
            "addr:city": "İstanbul",
            "addr:district": null,
            "description": "",
            "opening_hours": "Mo-Su 09:00-21:00",
            "phone": null,
            "branch": null,
            "amenity": "pastry",
            "mobile": null,
            "addr:street": null,
            "cuisine": null,
            "name": "boncuk pastanesi",
            "name:en": null,
            "name:uk": null,
            "name:de": null,
            "name:tr": null,
            "name:ru": null,
            "name:ar": null
        }
    },
    {
        "lat": 41.1056715,
        "lon": 28.8671114,
        "tags": {
            "addr:city": "İstanbul",
            "addr:district": null,
            "description": "",
            "opening_hours": null,
            "phone": null,
            "branch": null,
            "amenity": "pastry",
            "mobile": null,
            "addr:street": null,
            "cuisine": null,
            "name": "Dilek Pastanesi",
            "name:en": null,
            "name:uk": null,
            "name:de": null,
            "name:tr": null,
            "name:ru": null,
            "name:ar": null
        }
    },
    {
        "lat": 41.1006793,
        "lon": 28.8627564,
        "tags": {
            "addr:city": "İstanbul",
            "addr:district": null,
            "description": "",
            "opening_hours": null,
            "phone": null,
            "branch": null,
            "amenity": "pastry",
            "mobile": null,
            "addr:street": null,
            "cuisine": null,
            "name": "Eymen",
            "name:en": null,
            "name:uk": null,
            "name:de": null,
            "name:tr": null,
            "name:ru": null,
            "name:ar": null
        }
    },
    {
        "lat": 41.1102715,
        "lon": 28.8584541,
        "tags": {
            "addr:city": "İstanbul",
            "addr:district": null,
            "description": "",
            "opening_hours": null,
            "phone": null,
            "branch": null,
            "amenity": "pastry",
            "mobile": null,
            "addr:street": null,
            "cuisine": null,
            "name": "Başak Pastanesi",
            "name:en": null,
            "name:uk": null,
            "name:de": null,
            "name:tr": null,
            "name:ru": null,
            "name:ar": null
        }
    },
    {
        "lat": 40.9621192,
        "lon": 29.0914687,
        "tags": {
            "addr:city": "İstanbul",
            "addr:district": "Kadıköy",
            "description": "",
            "opening_hours": null,
            "phone": null,
            "branch": null,
            "amenity": "pastry",
            "mobile": null,
            "addr:street": "Şemsettin Günaltay Caddesi",
            "cuisine": null,
            "name": "Manolya",
            "name:en": null,
            "name:uk": null,
            "name:de": null,
            "name:tr": null,
            "name:ru": null,
            "name:ar": null
        }
    },
    {
        "lat": 40.9014296,
        "lon": 29.1730991,
        "tags": {
            "addr:city": "İstanbul",
            "addr:district": null,
            "description": "",
            "opening_hours": null,
            "phone": null,
            "branch": null,
            "amenity": "pastry",
            "mobile": null,
            "addr:street": null,
            "cuisine": null,
            "name": "Muko Pastane",
            "name:en": null,
            "name:uk": null,
            "name:de": null,
            "name:tr": null,
            "name:ru": null,
            "name:ar": null
        }
    },
    {
        "lat": 40.9591949,
        "lon": 29.0935817,
        "tags": {
            "addr:city": "İstanbul",
            "addr:district": "Kadıköy",
            "description": "",
            "opening_hours": null,
            "phone": null,
            "branch": null,
            "amenity": "pastry",
            "mobile": null,
            "addr:street": "Emin Ali Paşa Caddesi",
            "cuisine": null,
            "name": "Polka İstanbul",
            "name:en": null,
            "name:uk": null,
            "name:de": null,
            "name:tr": null,
            "name:ru": null,
            "name:ar": null
        }
    },
    {
        "lat": 40.9587451,
        "lon": 29.0939294,
        "tags": {
            "addr:city": "İstanbul",
            "addr:district": "Kadıköy",
            "description": "",
            "opening_hours": null,
            "phone": null,
            "branch": null,
            "amenity": "pastry",
            "mobile": null,
            "addr:street": "Emin Ali Paşa Caddesi",
            "cuisine": null,
            "name": "Saatli Fırın",
            "name:en": null,
            "name:uk": null,
            "name:de": null,
            "name:tr": null,
            "name:ru": null,
            "name:ar": null
        }
    },
    {
        "lat": 40.9459294,
        "lon": 29.1109421,
        "tags": {
            "addr:city": "İstanbul",
            "addr:district": null,
            "description": "",
            "opening_hours": null,
            "phone": null,
            "branch": null,
            "amenity": "pastry",
            "mobile": null,
            "addr:street": null,
            "cuisine": null,
            "name": "Karla Pastanesi",
            "name:en": null,
            "name:uk": null,
            "name:de": null,
            "name:tr": null,
            "name:ru": null,
            "name:ar": null
        }
    },
    {
        "lat": 40.9461772,
        "lon": 29.1112492,
        "tags": {
            "addr:city": "İstanbul",
            "addr:district": null,
            "description": "",
            "opening_hours": null,
            "phone": null,
            "branch": null,
            "amenity": "pastry",
            "mobile": null,
            "addr:street": null,
            "cuisine": null,
            "name": "Bekiroğulları Baklava Börek",
            "name:en": null,
            "name:uk": null,
            "name:de": null,
            "name:tr": null,
            "name:ru": null,
            "name:ar": null
        }
    },
    {
        "lat": 41.1067697,
        "lon": 28.8580375,
        "tags": {
            "addr:city": "İstanbul",
            "addr:district": null,
            "description": "",
            "opening_hours": null,
            "phone": null,
            "branch": null,
            "amenity": "pastry",
            "mobile": null,
            "addr:street": null,
            "cuisine": null,
            "name": "Candan Pastanesi",
            "name:en": null,
            "name:uk": null,
            "name:de": null,
            "name:tr": null,
            "name:ru": null,
            "name:ar": null
        }
    },
    {
        "lat": 40.8825049,
        "lon": 29.2346443,
        "tags": {
            "addr:city": "İstanbul",
            "addr:district": null,
            "description": "",
            "opening_hours": null,
            "phone": null,
            "branch": null,
            "amenity": "pastry",
            "mobile": null,
            "addr:street": null,
            "cuisine": null,
            "name": "Tatbak",
            "name:en": null,
            "name:uk": null,
            "name:de": null,
            "name:tr": null,
            "name:ru": null,
            "name:ar": null
        }
    },
    {
        "lat": 40.9362792,
        "lon": 29.2141678,
        "tags": {
            "addr:city": "İstanbul",
            "addr:district": null,
            "description": "",
            "opening_hours": null,
            "phone": null,
            "branch": null,
            "amenity": "pastry",
            "mobile": null,
            "addr:street": "Akzambak Sokak",
            "cuisine": null,
            "name": "Nimetoglu Pastana",
            "name:en": null,
            "name:uk": null,
            "name:de": null,
            "name:tr": null,
            "name:ru": null,
            "name:ar": null
        }
    },
    {
        "lat": 40.8220793,
        "lon": 29.3096081,
        "tags": {
            "addr:city": "İstanbul",
            "addr:district": "Tuzla",
            "description": "",
            "opening_hours": null,
            "phone": null,
            "branch": null,
            "amenity": "pastry",
            "mobile": null,
            "addr:street": "İstasyon Caddesi",
            "cuisine": null,
            "name": "Serin Pastanesi",
            "name:en": null,
            "name:uk": null,
            "name:de": null,
            "name:tr": null,
            "name:ru": null,
            "name:ar": null
        }
    },
    {
        "lat": 40.8209678,
        "lon": 29.3085293,
        "tags": {
            "addr:city": "İstanbul",
            "addr:district": null,
            "description": "",
            "opening_hours": null,
            "phone": null,
            "branch": null,
            "amenity": "pastry",
            "mobile": null,
            "addr:street": null,
            "cuisine": null,
            "name": null,
            "name:en": null,
            "name:uk": null,
            "name:de": null,
            "name:tr": null,
            "name:ru": null,
            "name:ar": null
        }
    },
    {
        "lat": 40.9384656,
        "lon": 29.1349607,
        "tags": {
            "addr:city": "İstanbul",
            "addr:district": null,
            "description": "",
            "opening_hours": null,
            "phone": null,
            "branch": null,
            "amenity": "pastry",
            "mobile": null,
            "addr:street": null,
            "cuisine": null,
            "name": "Değirmen",
            "name:en": null,
            "name:uk": null,
            "name:de": null,
            "name:tr": null,
            "name:ru": null,
            "name:ar": null
        }
    },
    {
        "lat": 40.9364065,
        "lon": 29.1298068,
        "tags": {
            "addr:city": "İstanbul",
            "addr:district": null,
            "description": "",
            "opening_hours": null,
            "phone": null,
            "branch": null,
            "amenity": "pastry",
            "mobile": null,
            "addr:street": null,
            "cuisine": null,
            "name": "Paskam Cafe",
            "name:en": null,
            "name:uk": null,
            "name:de": null,
            "name:tr": null,
            "name:ru": null,
            "name:ar": null
        }
    },
    {
        "lat": 41.0234069,
        "lon": 28.9468143,
        "tags": {
            "addr:city": "İstanbul",
            "addr:district": "Fatih",
            "description": "",
            "opening_hours": "Mo-Su 09:00-23:30",
            "phone": "+902125216656",
            "branch": null,
            "amenity": "pastry",
            "mobile": null,
            "addr:street": "Müstakimzade Sokak",
            "cuisine": null,
            "name": "Baltepe Pastanesi",
            "name:en": "Baltepe Patisserie",
            "name:uk": null,
            "name:de": null,
            "name:tr": null,
            "name:ru": null,
            "name:ar": null
        }
    },
    {
        "lat": 41.0515755,
        "lon": 28.9175754,
        "tags": {
            "addr:city": "İstanbul",
            "addr:district": "Eyüpsultan",
            "description": "",
            "opening_hours": null,
            "phone": "+90 212 497 2030",
            "branch": null,
            "amenity": "pastry",
            "mobile": null,
            "addr:street": "Mazharbey Caddesi",
            "cuisine": null,
            "name": "İskender Pastanesi",
            "name:en": "İskender Patisserie",
            "name:uk": null,
            "name:de": null,
            "name:tr": null,
            "name:ru": null,
            "name:ar": null
        }
    },
    {
        "lat": 41.2804767,
        "lon": 28.1442489,
        "tags": {
            "addr:city": "İstanbul",
            "addr:district": null,
            "description": "",
            "opening_hours": null,
            "phone": null,
            "branch": null,
            "amenity": "cafe",
            "mobile": null,
            "addr:street": null,
            "cuisine": null,
            "name": "Damga Cafe & Pastane",
            "name:en": null,
            "name:uk": null,
            "name:de": null,
            "name:tr": null,
            "name:ru": null,
            "name:ar": null
        }
    },
    {
        "lat": 40.9768571,
        "lon": 29.2652211,
        "tags": {
            "addr:city": "Istanbul",
            "addr:district": "Sultanbeyli",
            "description": "",
            "opening_hours": null,
            "phone": null,
            "branch": null,
            "amenity": "pastry",
            "mobile": null,
            "addr:street": "Selçıkan Caddesi",
            "cuisine": "dessert",
            "name": "Aksu Tat",
            "name:en": null,
            "name:uk": null,
            "name:de": null,
            "name:tr": null,
            "name:ru": null,
            "name:ar": "اكسو تات"
        }
    },
    {
        "lat": 40.9862174,
        "lon": 29.1352337,
        "tags": {
            "addr:city": "İstanbul",
            "addr:district": null,
            "description": "",
            "opening_hours": null,
            "phone": null,
            "branch": null,
            "amenity": "pastry",
            "mobile": null,
            "addr:street": null,
            "cuisine": null,
            "name": "Titiz Pasta & Café",
            "name:en": null,
            "name:uk": null,
            "name:de": null,
            "name:tr": null,
            "name:ru": null,
            "name:ar": null
        }
    },
    {
        "lat": 41.0115931,
        "lon": 28.9097778,
        "tags": {
            "addr:city": "Istanbul",
            "addr:district": "Zeytinburnu",
            "description": "",
            "opening_hours": null,
            "phone": null,
            "branch": null,
            "amenity": "pastry",
            "mobile": null,
            "addr:street": "Gümüşsuyu Davutpaşa Caddesi",
            "cuisine": null,
            "name": "Dostlar",
            "name:en": null,
            "name:uk": null,
            "name:de": null,
            "name:tr": null,
            "name:ru": null,
            "name:ar": "دوستلار"
        }
    },
    {
        "lat": 41.0177462,
        "lon": 28.9115234,
        "tags": {
            "addr:city": "Istanbul",
            "addr:district": "Zeytinburnu",
            "description": "",
            "opening_hours": "Mo-Su 07:00-20:00",
            "phone": "(0212) 565 84 00",
            "branch": null,
            "amenity": "pastry",
            "mobile": null,
            "addr:street": "londra asfaltı",
            "cuisine": null,
            "name": "Faruk Güllüoğlu",
            "name:en": null,
            "name:uk": null,
            "name:de": null,
            "name:tr": null,
            "name:ru": null,
            "name:ar": "حلويات فاروق غوللواوغلو"
        }
    },
    {
        "lat": 41.0035336,
        "lon": 28.9042828,
        "tags": {
            "addr:city": "Istanbul",
            "addr:district": "Zeytinburnu",
            "description": "",
            "opening_hours": "Mo-Sa 09:00-22:00",
            "phone": null,
            "branch": null,
            "amenity": "pastry",
            "mobile": null,
            "addr:street": null,
            "cuisine": null,
            "name": "Antepli Oğlu Desserts",
            "name:en": null,
            "name:uk": null,
            "name:de": null,
            "name:tr": null,
            "name:ru": null,
            "name:ar": "انتيبلي اوغلو للحلويات"
        }
    },
    {
        "lat": 40.9980156,
        "lon": 28.9089857,
        "tags": {
            "addr:city": "Istanbul",
            "addr:district": "Zeytinburnu",
            "description": "",
            "opening_hours": "Mo-Fr 07:00-13:30; Mo-Fr 17:00-20:00; Mo-Sa 07:30-15:00",
            "phone": null,
            "branch": null,
            "amenity": "pastry",
            "mobile": null,
            "addr:street": null,
            "cuisine": null,
            "name": "Unaşkı",
            "name:en": null,
            "name:uk": null,
            "name:de": null,
            "name:tr": null,
            "name:ru": null,
            "name:ar": "اون اشك للمعجنات"
        }
    },
    {
        "lat": 40.9991069,
        "lon": 28.9024708,
        "tags": {
            "addr:city": "Istanbul",
            "addr:district": "Zeytinburnu",
            "description": "",
            "opening_hours": null,
            "phone": null,
            "branch": null,
            "amenity": "pastry",
            "mobile": null,
            "addr:street": "114. sokak",
            "cuisine": null,
            "name": "İnci börek baklava",
            "name:en": null,
            "name:uk": null,
            "name:de": null,
            "name:tr": null,
            "name:ru": null,
            "name:ar": "اينجي بورك بقلاوة"
        }
    },
    {
        "lat": 40.997884,
        "lon": 28.908697,
        "tags": {
            "addr:city": "Istanbul",
            "addr:district": "Zeytinburnu",
            "description": "",
            "opening_hours": "Mo-Su 09:00-22:00",
            "phone": null,
            "branch": null,
            "amenity": "pastry",
            "mobile": null,
            "addr:street": null,
            "cuisine": null,
            "name": "Rumeli Desserts",
            "name:en": null,
            "name:uk": null,
            "name:de": null,
            "name:tr": null,
            "name:ru": null,
            "name:ar": "حلويات روملي"
        }
    },
    {
        "lat": 41.0038228,
        "lon": 28.9042444,
        "tags": {
            "addr:city": "Istanbul",
            "addr:district": "Zeytinburnu",
            "description": "",
            "opening_hours": "Mo-Su 07:00-23:00",
            "phone": null,
            "branch": null,
            "amenity": "pastry",
            "mobile": null,
            "addr:street": null,
            "cuisine": null,
            "name": "Sembol Pastry",
            "name:en": null,
            "name:uk": null,
            "name:de": null,
            "name:tr": null,
            "name:ru": null,
            "name:ar": "سيمبول معجنات حلويات وكافيه"
        }
    },
    {
        "lat": 41.0039128,
        "lon": 28.9037965,
        "tags": {
            "addr:city": "Istanbul",
            "addr:district": "Zeytinburnu",
            "description": "",
            "opening_hours": null,
            "phone": null,
            "branch": null,
            "amenity": "pastry",
            "mobile": null,
            "addr:street": "Seyit Nizam Cd",
            "cuisine": null,
            "name": "osmanlı tulumbacısı",
            "name:en": null,
            "name:uk": null,
            "name:de": null,
            "name:tr": null,
            "name:ru": null,
            "name:ar": "أوصمانلي تولومباجيسي"
        }
    },
    {
        "lat": 40.9987348,
        "lon": 28.9015841,
        "tags": {
            "addr:city": "Istanbul",
            "addr:district": "Zeytinburnu",
            "description": "",
            "opening_hours": null,
            "phone": null,
            "branch": null,
            "amenity": "pastry",
            "mobile": null,
            "addr:street": "75/2. sokak",
            "cuisine": null,
            "name": "Sallora tatlıları",
            "name:en": null,
            "name:uk": null,
            "name:de": null,
            "name:tr": null,
            "name:ru": null,
            "name:ar": "حلويات سنورة"
        }
    },
    {
        "lat": 40.9976889,
        "lon": 28.9115242,
        "tags": {
            "addr:city": "Istanbul",
            "addr:district": "Zeytinburnu",
            "description": "",
            "opening_hours": null,
            "phone": null,
            "branch": null,
            "amenity": "pastry",
            "mobile": null,
            "addr:street": null,
            "cuisine": null,
            "name": "ELİT PASTA",
            "name:en": null,
            "name:uk": null,
            "name:de": null,
            "name:tr": null,
            "name:ru": null,
            "name:ar": "مقهى"
        }
    },
    {
        "lat": 40.9978608,
        "lon": 28.9114632,
        "tags": {
            "addr:city": "Istanbul",
            "addr:district": "Zeytinburnu",
            "description": "",
            "opening_hours": null,
            "phone": null,
            "branch": null,
            "amenity": "pastry",
            "mobile": null,
            "addr:street": null,
            "cuisine": "dessert",
            "name": "ŞAMİYE TATLILAR",
            "name:en": null,
            "name:uk": null,
            "name:de": null,
            "name:tr": null,
            "name:ru": null,
            "name:ar": "مطعم وحلويات شامية"
        }
    },
    {
        "lat": 40.9994496,
        "lon": 28.9123954,
        "tags": {
            "addr:city": "Istanbul",
            "addr:district": "Zeytinburnu",
            "description": "",
            "opening_hours": null,
            "phone": null,
            "branch": null,
            "amenity": "pastry",
            "mobile": null,
            "addr:street": null,
            "cuisine": "dessert",
            "name": "NACI USTA BAKLAVALAR",
            "name:en": null,
            "name:uk": null,
            "name:de": null,
            "name:tr": null,
            "name:ru": null,
            "name:ar": "محل حلويات"
        }
    },
    {
        "lat": 40.9993596,
        "lon": 28.912121,
        "tags": {
            "addr:city": "Istanbul",
            "addr:district": "Zeytinburnu",
            "description": "",
            "opening_hours": null,
            "phone": null,
            "branch": null,
            "amenity": "pastry",
            "mobile": null,
            "addr:street": null,
            "cuisine": null,
            "name": "Dikilitaş Pasta",
            "name:en": null,
            "name:uk": null,
            "name:de": null,
            "name:tr": null,
            "name:ru": null,
            "name:ar": "مقهى"
        }
    },
    {
        "lat": 40.994301,
        "lon": 28.9029405,
        "tags": {
            "addr:city": "Istanbul",
            "addr:district": "Zeytinburnu",
            "description": "",
            "opening_hours": "Mo-Su 11:00-24:00",
            "phone": null,
            "branch": null,
            "amenity": "pastry",
            "mobile": null,
            "addr:street": null,
            "cuisine": null,
            "name": "Bici Bici Tatlıcısı",
            "name:en": null,
            "name:uk": null,
            "name:de": null,
            "name:tr": null,
            "name:ru": null,
            "name:ar": "حلويات بيجي بيجي"
        }
    },
    {
        "lat": 40.9890614,
        "lon": 28.8954119,
        "tags": {
            "addr:city": "Istanbul",
            "addr:district": "Zeytinburnu",
            "description": "",
            "opening_hours": null,
            "phone": null,
            "branch": null,
            "amenity": "pastry",
            "mobile": null,
            "addr:street": "Şht. Er Yavuz Bahar Sokak",
            "cuisine": null,
            "name": "Uçar Pastanesi",
            "name:en": null,
            "name:uk": null,
            "name:de": null,
            "name:tr": null,
            "name:ru": null,
            "name:ar": "حلويات أوتشار"
        }
    },
    {
        "lat": 40.9873836,
        "lon": 28.8967264,
        "tags": {
            "addr:city": "Istanbul",
            "addr:district": "Zeytinburnu",
            "description": "",
            "opening_hours": null,
            "phone": null,
            "branch": null,
            "amenity": "pastry",
            "mobile": null,
            "addr:street": "Merv Caddesi",
            "cuisine": null,
            "name": "yonca",
            "name:en": null,
            "name:uk": null,
            "name:de": null,
            "name:tr": null,
            "name:ru": null,
            "name:ar": "يونجا"
        }
    },
    {
        "lat": 40.9945536,
        "lon": 28.9023095,
        "tags": {
            "addr:city": "Istanbul",
            "addr:district": "Zeytinburnu",
            "description": "",
            "opening_hours": "Mo-Su 11:00-24:00",
            "phone": null,
            "branch": null,
            "amenity": "pastry",
            "mobile": null,
            "addr:street": null,
            "cuisine": null,
            "name": "Gözde Antepli Tatlıcısı",
            "name:en": null,
            "name:uk": null,
            "name:de": null,
            "name:tr": null,
            "name:ru": null,
            "name:ar": "حلويات جوزدى انتبلي"
        }
    },
    {
        "lat": 40.9936294,
        "lon": 28.8974429,
        "tags": {
            "addr:city": "Istanbul",
            "addr:district": "Zeytinburnu",
            "description": "",
            "opening_hours": "Mo-Su 09:00-21:00",
            "phone": null,
            "branch": null,
            "amenity": "pastry",
            "mobile": null,
            "addr:street": null,
            "cuisine": null,
            "name": "Nasrioğlu Tatlı",
            "name:en": null,
            "name:uk": null,
            "name:de": null,
            "name:tr": null,
            "name:ru": null,
            "name:ar": "حلويات نصري اوغلو"
        }
    },
    {
        "lat": 40.9865259,
        "lon": 28.8950641,
        "tags": {
            "addr:city": "Istanbul",
            "addr:district": "Zeytinburnu",
            "description": "",
            "opening_hours": null,
            "phone": null,
            "branch": null,
            "amenity": "pastry",
            "mobile": null,
            "addr:street": "30. sokak",
            "cuisine": null,
            "name": "miss ekler",
            "name:en": null,
            "name:uk": null,
            "name:de": null,
            "name:tr": null,
            "name:ru": null,
            "name:ar": "ميس إكلار"
        }
    },
    {
        "lat": 40.9950741,
        "lon": 28.9026113,
        "tags": {
            "addr:city": "Istanbul",
            "addr:district": "Zeytinburnu",
            "description": "",
            "opening_hours": null,
            "phone": null,
            "branch": null,
            "amenity": "pastry",
            "mobile": null,
            "addr:street": "Semiha şakir caddesi",
            "cuisine": null,
            "name": "Tatlıbak tatlıcı",
            "name:en": null,
            "name:uk": null,
            "name:de": null,
            "name:tr": null,
            "name:ru": null,
            "name:ar": "حلويات تاتليباك"
        }
    },
    {
        "lat": 40.9859612,
        "lon": 28.9041416,
        "tags": {
            "addr:city": "Istanbul",
            "addr:district": "Zeytinburnu",
            "description": "",
            "opening_hours": null,
            "phone": null,
            "branch": null,
            "amenity": "pastry",
            "mobile": null,
            "addr:street": "58. Bulvar Caddesi",
            "cuisine": null,
            "name": "Ayrancıoğlu Pasta Tatlı",
            "name:en": null,
            "name:uk": null,
            "name:de": null,
            "name:tr": null,
            "name:ru": null,
            "name:ar": "آيرانجي أولو حلويات وكاتو"
        }
    },
    {
        "lat": 41.0471073,
        "lon": 28.8233562,
        "tags": {
            "addr:city": "Istanbul",
            "addr:district": "Bağcılar",
            "description": "",
            "opening_hours": null,
            "phone": null,
            "branch": null,
            "amenity": "pastry",
            "mobile": null,
            "addr:street": "Karaoğlanoğlu caddesi",
            "cuisine": null,
            "name": "Güneli Pastane",
            "name:en": null,
            "name:uk": null,
            "name:de": null,
            "name:tr": null,
            "name:ru": null,
            "name:ar": "معجنات غون ايلي"
        }
    },
    {
        "lat": 41.0476088,
        "lon": 28.8215015,
        "tags": {
            "addr:city": "Istanbul",
            "addr:district": "Bağcılar",
            "description": "",
            "opening_hours": null,
            "phone": null,
            "branch": null,
            "amenity": "pastry",
            "mobile": null,
            "addr:street": "Karaoğlanoğlu caddesi",
            "cuisine": null,
            "name": "Hicret Pastahanesi",
            "name:en": null,
            "name:uk": null,
            "name:de": null,
            "name:tr": null,
            "name:ru": null,
            "name:ar": "معجنات الهجرة"
        }
    },
    {
        "lat": 41.053315,
        "lon": 28.8383128,
        "tags": {
            "addr:city": "Istanbul",
            "addr:district": "Bağcılar",
            "description": "",
            "opening_hours": null,
            "phone": null,
            "branch": null,
            "amenity": "pastry",
            "mobile": null,
            "addr:street": "velioğlu caddesi",
            "cuisine": null,
            "name": "Güven Pastanesi",
            "name:en": null,
            "name:uk": null,
            "name:de": null,
            "name:tr": null,
            "name:ru": null,
            "name:ar": "ثقة الكيك"
        }
    },
    {
        "lat": 41.0510362,
        "lon": 28.8495178,
        "tags": {
            "addr:city": "Istanbul",
            "addr:district": "Zeytinburnu",
            "description": "",
            "opening_hours": null,
            "phone": null,
            "branch": null,
            "amenity": "pastry",
            "mobile": null,
            "addr:street": null,
            "cuisine": null,
            "name": "Tatlı park",
            "name:en": null,
            "name:uk": null,
            "name:de": null,
            "name:tr": null,
            "name:ru": null,
            "name:ar": "بارك الحلوى"
        }
    },
    {
        "lat": 41.0541749,
        "lon": 28.8368813,
        "tags": {
            "addr:city": "Istanbul",
            "addr:district": "Bağcılar",
            "description": "",
            "opening_hours": null,
            "phone": null,
            "branch": null,
            "amenity": "pastry",
            "mobile": null,
            "addr:street": "Maslak Caddesi",
            "cuisine": null,
            "name": "Tatli Park",
            "name:en": null,
            "name:uk": null,
            "name:de": null,
            "name:tr": null,
            "name:ru": null,
            "name:ar": "تاتلى بارك"
        }
    },
    {
        "lat": 41.0314867,
        "lon": 28.8385412,
        "tags": {
            "addr:city": "Istanbul",
            "addr:district": "Bağcılar",
            "description": "",
            "opening_hours": null,
            "phone": null,
            "branch": null,
            "amenity": "pastry",
            "mobile": null,
            "addr:street": "Mahmutbey caddesi",
            "cuisine": null,
            "name": "Kodak kardeşler pasta",
            "name:en": null,
            "name:uk": null,
            "name:de": null,
            "name:tr": null,
            "name:ru": null,
            "name:ar": "مخبز كوداك كارديشلر"
        }
    },
    {
        "lat": 41.0303759,
        "lon": 28.8406959,
        "tags": {
            "addr:city": "Istanbul",
            "addr:district": "Bağcılar",
            "description": "",
            "opening_hours": null,
            "phone": null,
            "branch": null,
            "amenity": "pastry",
            "mobile": null,
            "addr:street": "Hoca Ahmet Yesevi Caddesi",
            "cuisine": null,
            "name": "Kardelen pastanesi",
            "name:en": null,
            "name:uk": null,
            "name:de": null,
            "name:tr": null,
            "name:ru": null,
            "name:ar": "حلويات كارديلين"
        }
    },
    {
        "lat": 41.0323241,
        "lon": 28.8433015,
        "tags": {
            "addr:city": "Istanbul",
            "addr:district": "Bağcılar",
            "description": "",
            "opening_hours": null,
            "phone": null,
            "branch": null,
            "amenity": "pastry",
            "mobile": null,
            "addr:street": "Mevlana caddesi",
            "cuisine": null,
            "name": "Pasta Sepeti",
            "name:en": null,
            "name:uk": null,
            "name:de": null,
            "name:tr": null,
            "name:ru": null,
            "name:ar": "باستا سيبيتي"
        }
    },
    {
        "lat": 41.0319151,
        "lon": 28.8464586,
        "tags": {
            "addr:city": "Istanbul",
            "addr:district": "Bağcılar",
            "description": "",
            "opening_hours": null,
            "phone": null,
            "branch": null,
            "amenity": "pastry",
            "mobile": null,
            "addr:street": "Hoca Ahmet Yesevi Caddesi",
            "cuisine": null,
            "name": "Uğur pastanesi",
            "name:en": null,
            "name:uk": null,
            "name:de": null,
            "name:tr": null,
            "name:ru": null,
            "name:ar": "حلويات اوغور"
        }
    },
    {
        "lat": 41.0370849,
        "lon": 28.8402784,
        "tags": {
            "addr:city": "Istanbul",
            "addr:district": "Bağcılar",
            "description": "",
            "opening_hours": null,
            "phone": null,
            "branch": null,
            "amenity": "pastry",
            "mobile": null,
            "addr:street": "Kurtuluş caddesi",
            "cuisine": null,
            "name": "Helin pastaneleri",
            "name:en": null,
            "name:uk": null,
            "name:de": null,
            "name:tr": null,
            "name:ru": null,
            "name:ar": "هيلين باستانيليري"
        }
    },
    {
        "lat": 41.0440264,
        "lon": 28.8473054,
        "tags": {
            "addr:city": "Istanbul",
            "addr:district": null,
            "description": "",
            "opening_hours": null,
            "phone": null,
            "branch": null,
            "amenity": "pastry",
            "mobile": null,
            "addr:street": "Velioğlu Caddesi",
            "cuisine": null,
            "name": "Tatlı Park",
            "name:en": null,
            "name:uk": null,
            "name:de": null,
            "name:tr": null,
            "name:ru": null,
            "name:ar": "تاتله بارك"
        }
    },
    {
        "lat": 41.0455036,
        "lon": 28.8597717,
        "tags": {
            "addr:city": "Istanbul",
            "addr:district": "Bağcılar",
            "description": "",
            "opening_hours": null,
            "phone": null,
            "branch": null,
            "amenity": "pastry",
            "mobile": null,
            "addr:street": "Osmangazi Caddesi",
            "cuisine": null,
            "name": "Tatlıbak",
            "name:en": null,
            "name:uk": null,
            "name:de": null,
            "name:tr": null,
            "name:ru": null,
            "name:ar": "تاتله باك"
        }
    },
    {
        "lat": 41.0435772,
        "lon": 28.8594269,
        "tags": {
            "addr:city": "Istanbul",
            "addr:district": null,
            "description": "",
            "opening_hours": null,
            "phone": null,
            "branch": null,
            "amenity": "pastry",
            "mobile": null,
            "addr:street": "Osmangazi Caddesi",
            "cuisine": null,
            "name": "Osmanlı Baklava",
            "name:en": null,
            "name:uk": null,
            "name:de": null,
            "name:tr": null,
            "name:ru": null,
            "name:ar": "أوسمانلا باكلافا"
        }
    },
    {
        "lat": 41.0300217,
        "lon": 28.8668288,
        "tags": {
            "addr:city": "Istanbul",
            "addr:district": "Bağcılar",
            "description": "",
            "opening_hours": null,
            "phone": null,
            "branch": null,
            "amenity": "pastry",
            "mobile": null,
            "addr:street": "5.sokak",
            "cuisine": null,
            "name": "Burak pastanesi",
            "name:en": null,
            "name:uk": null,
            "name:de": null,
            "name:tr": null,
            "name:ru": null,
            "name:ar": "براك بستانيسي"
        }
    },
    {
        "lat": 41.0315046,
        "lon": 28.8561825,
        "tags": {
            "addr:city": "Istanbul",
            "addr:district": "Bağcılar",
            "description": "",
            "opening_hours": null,
            "phone": null,
            "branch": null,
            "amenity": "pastry",
            "mobile": null,
            "addr:street": "Bağcılar caddesi",
            "cuisine": null,
            "name": "Tatlım",
            "name:en": null,
            "name:uk": null,
            "name:de": null,
            "name:tr": null,
            "name:ru": null,
            "name:ar": "حلوياتي"
        }
    },
    {
        "lat": 41.0290523,
        "lon": 28.8541723,
        "tags": {
            "addr:city": "Istanbul",
            "addr:district": "Bağcılar",
            "description": "",
            "opening_hours": null,
            "phone": null,
            "branch": null,
            "amenity": "pastry",
            "mobile": null,
            "addr:street": "Şehit Yılmaz Kaan Caddesi",
            "cuisine": null,
            "name": "Işık pastanesi",
            "name:en": null,
            "name:uk": null,
            "name:de": null,
            "name:tr": null,
            "name:ru": null,
            "name:ar": "حلويات ايشيك"
        }
    },
    {
        "lat": 41.0312935,
        "lon": 28.8561928,
        "tags": {
            "addr:city": "Istanbul",
            "addr:district": "Bağcılar",
            "description": "",
            "opening_hours": null,
            "phone": null,
            "branch": null,
            "amenity": "pastry",
            "mobile": null,
            "addr:street": "Bağcılar caddesi",
            "cuisine": null,
            "name": "Gaziantep 27",
            "name:en": null,
            "name:uk": null,
            "name:de": null,
            "name:tr": null,
            "name:ru": null,
            "name:ar": "حلويات غازي عنتاب"
        }
    },
    {
        "lat": 41.0317462,
        "lon": 28.8632764,
        "tags": {
            "addr:city": "Istanbul",
            "addr:district": "Bağcılar",
            "description": "",
            "opening_hours": null,
            "phone": null,
            "branch": null,
            "amenity": "pastry",
            "mobile": null,
            "addr:street": "Güngören caddesi",
            "cuisine": null,
            "name": "Özer Pasta",
            "name:en": null,
            "name:uk": null,
            "name:de": null,
            "name:tr": null,
            "name:ru": null,
            "name:ar": "اوزير باستا"
        }
    },
    {
        "lat": 40.9566475,
        "lon": 29.1002676,
        "tags": {
            "addr:city": "İstanbul",
            "addr:district": "Kadıköy",
            "description": "",
            "opening_hours": null,
            "phone": null,
            "branch": null,
            "amenity": "pastry",
            "mobile": null,
            "addr:street": "Mehmet Şevki Paşa Caddesi",
            "cuisine": null,
            "name": "Manolya",
            "name:en": null,
            "name:uk": null,
            "name:de": null,
            "name:tr": null,
            "name:ru": null,
            "name:ar": null
        }
    },
    {
        "lat": 40.9568805,
        "lon": 29.1006297,
        "tags": {
            "addr:city": "İstanbul",
            "addr:district": "Kadıköy",
            "description": "",
            "opening_hours": null,
            "phone": null,
            "branch": null,
            "amenity": "pastry",
            "mobile": null,
            "addr:street": "Mehmet Şevki Paşa Caddesi",
            "cuisine": null,
            "name": "Pietime",
            "name:en": null,
            "name:uk": null,
            "name:de": null,
            "name:tr": null,
            "name:ru": null,
            "name:ar": null
        }
    },
    {
        "lat": 40.9846369,
        "lon": 28.8466787,
        "tags": {
            "addr:city": "Istanbul",
            "addr:district": "Bakirköy",
            "description": "",
            "opening_hours": null,
            "phone": null,
            "branch": null,
            "amenity": "pastry",
            "mobile": null,
            "addr:street": null,
            "cuisine": null,
            "name": "Carmen Tatlıcılık",
            "name:en": null,
            "name:uk": null,
            "name:de": null,
            "name:tr": null,
            "name:ru": null,
            "name:ar": null
        }
    },
    {
        "lat": 40.9849462,
        "lon": 28.8467102,
        "tags": {
            "addr:city": "Istanbul",
            "addr:district": "Bakirköy",
            "description": "",
            "opening_hours": null,
            "phone": null,
            "branch": null,
            "amenity": "pastry",
            "mobile": null,
            "addr:street": null,
            "cuisine": null,
            "name": "Foccacia",
            "name:en": null,
            "name:uk": null,
            "name:de": null,
            "name:tr": null,
            "name:ru": null,
            "name:ar": null
        }
    },
    {
        "lat": 41.0358942,
        "lon": 28.9834194,
        "tags": {
            "addr:city": "İstanbul",
            "addr:district": null,
            "description": "",
            "opening_hours": null,
            "phone": null,
            "branch": null,
            "amenity": "bureau_de_change",
            "mobile": null,
            "addr:street": null,
            "cuisine": null,
            "name": "Hakki Zade 1864",
            "name:en": null,
            "name:uk": null,
            "name:de": null,
            "name:tr": null,
            "name:ru": null,
            "name:ar": null
        }
    },
    {
        "lat": 40.9735929,
        "lon": 29.0553034,
        "tags": {
            "addr:city": "istanbul",
            "addr:district": "kadıköy",
            "description": "",
            "opening_hours": null,
            "phone": null,
            "branch": null,
            "amenity": "pastry",
            "mobile": null,
            "addr:street": "Bağdat Caddesi",
            "cuisine": null,
            "name": "İmza Pastanesi",
            "name:en": null,
            "name:uk": null,
            "name:de": null,
            "name:tr": null,
            "name:ru": null,
            "name:ar": null
        }
    },
    {
        "lat": 40.9700028,
        "lon": 29.0631541,
        "tags": {
            "addr:city": "İstanbul",
            "addr:district": "Kadıköy",
            "description": "",
            "opening_hours": null,
            "phone": null,
            "branch": null,
            "amenity": "pastry",
            "mobile": null,
            "addr:street": "Bağdat Caddesi",
            "cuisine": null,
            "name": "Pelit",
            "name:en": null,
            "name:uk": null,
            "name:de": null,
            "name:tr": null,
            "name:ru": null,
            "name:ar": null
        }
    },
    {
        "lat": 40.8622766,
        "lon": 29.3351444,
        "tags": {
            "addr:city": "İstanbul",
            "addr:district": null,
            "description": "",
            "opening_hours": "closed",
            "phone": null,
            "branch": null,
            "amenity": "pastry",
            "mobile": null,
            "addr:street": null,
            "cuisine": null,
            "name": "Gaziantep Şen Börek ve Baklava",
            "name:en": null,
            "name:uk": null,
            "name:de": null,
            "name:tr": null,
            "name:ru": null,
            "name:ar": null
        }
    },
    {
        "lat": 40.8669992,
        "lon": 29.3268165,
        "tags": {
            "addr:city": "İstanbul",
            "addr:district": null,
            "description": "",
            "opening_hours": null,
            "phone": null,
            "branch": null,
            "amenity": "pastry",
            "mobile": null,
            "addr:street": null,
            "cuisine": null,
            "name": null,
            "name:en": null,
            "name:uk": null,
            "name:de": null,
            "name:tr": null,
            "name:ru": null,
            "name:ar": null
        }
    },
    {
        "lat": 40.8716287,
        "lon": 29.3312859,
        "tags": {
            "addr:city": "İstanbul",
            "addr:district": null,
            "description": "",
            "opening_hours": null,
            "phone": null,
            "branch": null,
            "amenity": "pastry",
            "mobile": null,
            "addr:street": null,
            "cuisine": null,
            "name": "Tatlıbak",
            "name:en": null,
            "name:uk": null,
            "name:de": null,
            "name:tr": null,
            "name:ru": null,
            "name:ar": null
        }
    },
    {
        "lat": 40.8735052,
        "lon": 29.3245134,
        "tags": {
            "addr:city": "İstanbul",
            "addr:district": "Tuzla",
            "description": "",
            "opening_hours": null,
            "phone": "2164940403",
            "branch": null,
            "amenity": "pastry",
            "mobile": null,
            "addr:street": "hatboyu cd",
            "cuisine": "pasta",
            "name": "DAMAK DİYARI PASTA CAFE / HATBOYU",
            "name:en": null,
            "name:uk": null,
            "name:de": null,
            "name:tr": null,
            "name:ru": null,
            "name:ar": null
        }
    },
    {
        "lat": 40.8693432,
        "lon": 29.322914,
        "tags": {
            "addr:city": "İstanbul",
            "addr:district": null,
            "description": "",
            "opening_hours": null,
            "phone": null,
            "branch": null,
            "amenity": "pastry",
            "mobile": null,
            "addr:street": null,
            "cuisine": null,
            "name": "Gaziantep Baklavacısı",
            "name:en": null,
            "name:uk": null,
            "name:de": null,
            "name:tr": null,
            "name:ru": null,
            "name:ar": null
        }
    },
    {
        "lat": 40.8692689,
        "lon": 29.3212447,
        "tags": {
            "addr:city": "İstanbul",
            "addr:district": null,
            "description": "",
            "opening_hours": null,
            "phone": null,
            "branch": null,
            "amenity": "pastry",
            "mobile": null,
            "addr:street": null,
            "cuisine": null,
            "name": "Sweet & More",
            "name:en": null,
            "name:uk": null,
            "name:de": null,
            "name:tr": null,
            "name:ru": null,
            "name:ar": null
        }
    },
    {
        "lat": 40.8993751,
        "lon": 29.2261962,
        "tags": {
            "addr:city": "İstanbul",
            "addr:district": null,
            "description": "",
            "opening_hours": null,
            "phone": null,
            "branch": null,
            "amenity": "pastry",
            "mobile": null,
            "addr:street": "Abdi İpekci Caddesi",
            "cuisine": null,
            "name": "Öztek Pastanesi",
            "name:en": null,
            "name:uk": null,
            "name:de": null,
            "name:tr": null,
            "name:ru": null,
            "name:ar": null
        }
    },
    {
        "lat": 40.8998094,
        "lon": 29.2268765,
        "tags": {
            "addr:city": "İstanbul",
            "addr:district": "Kartal",
            "description": "",
            "opening_hours": null,
            "phone": null,
            "branch": null,
            "amenity": "pastry",
            "mobile": null,
            "addr:street": "Abdi İpekci Caddesi",
            "cuisine": null,
            "name": "Özgül Pastanesi",
            "name:en": null,
            "name:uk": null,
            "name:de": null,
            "name:tr": null,
            "name:ru": null,
            "name:ar": null
        }
    },
    {
        "lat": 40.9768084,
        "lon": 29.0696437,
        "tags": {
            "addr:city": "İstanbul",
            "addr:district": null,
            "description": "",
            "opening_hours": null,
            "phone": null,
            "branch": null,
            "amenity": "pastry",
            "mobile": null,
            "addr:street": null,
            "cuisine": null,
            "name": null,
            "name:en": null,
            "name:uk": null,
            "name:de": null,
            "name:tr": null,
            "name:ru": null,
            "name:ar": null
        }
    },
    {
        "lat": 40.920664,
        "lon": 29.2248625,
        "tags": {
            "addr:city": "İstanbul",
            "addr:district": "Yakacık",
            "description": "",
            "opening_hours": "Mo-Su 10:00-22:00",
            "phone": null,
            "branch": null,
            "amenity": "pastry",
            "mobile": null,
            "addr:street": "Samandıra  Caddesi",
            "cuisine": null,
            "name": null,
            "name:en": null,
            "name:uk": null,
            "name:de": null,
            "name:tr": null,
            "name:ru": null,
            "name:ar": null
        }
    },
    {
        "lat": 41.0862953,
        "lon": 29.0051866,
        "tags": {
            "addr:city": "İstanbul",
            "addr:district": "Kağıthane",
            "description": "",
            "opening_hours": "Mo-Su 06:00-23:00",
            "phone": null,
            "branch": null,
            "amenity": "pastry",
            "mobile": null,
            "addr:street": "Akarsu Caddesi",
            "cuisine": null,
            "name": "Sim Pastanesi",
            "name:en": null,
            "name:uk": null,
            "name:de": null,
            "name:tr": null,
            "name:ru": null,
            "name:ar": null
        }
    },
    {
        "lat": 41.0360799,
        "lon": 28.9842741,
        "tags": {
            "addr:city": "İstanbul",
            "addr:district": null,
            "description": "",
            "opening_hours": null,
            "phone": null,
            "branch": null,
            "amenity": "pastry",
            "mobile": null,
            "addr:street": null,
            "cuisine": null,
            "name": "Taksim Simit",
            "name:en": null,
            "name:uk": null,
            "name:de": null,
            "name:tr": null,
            "name:ru": null,
            "name:ar": null
        }
    },
    {
        "lat": 41.02351,
        "lon": 29.036428,
        "tags": {
            "addr:city": "İstanbul",
            "addr:district": null,
            "description": "",
            "opening_hours": null,
            "phone": null,
            "branch": null,
            "amenity": "pastry",
            "mobile": null,
            "addr:street": null,
            "cuisine": null,
            "name": "Aslı Börek",
            "name:en": null,
            "name:uk": null,
            "name:de": null,
            "name:tr": null,
            "name:ru": null,
            "name:ar": null
        }
    },
    {
        "lat": 41.0280015,
        "lon": 29.0304681,
        "tags": {
            "addr:city": "İstanbul",
            "addr:district": "Üsküdar",
            "description": "",
            "opening_hours": null,
            "phone": null,
            "branch": null,
            "amenity": "pastry",
            "mobile": null,
            "addr:street": "çifteçınar sokak",
            "cuisine": null,
            "name": "Doğanay",
            "name:en": null,
            "name:uk": null,
            "name:de": null,
            "name:tr": null,
            "name:ru": null,
            "name:ar": null
        }
    },
    {
        "lat": 41.0234066,
        "lon": 29.0276205,
        "tags": {
            "addr:city": "istanbul",
            "addr:district": "üsküdar",
            "description": "",
            "opening_hours": null,
            "phone": null,
            "branch": null,
            "amenity": "pastry",
            "mobile": null,
            "addr:street": "Gazi Caddesi",
            "cuisine": null,
            "name": "Seymen Pastanesi",
            "name:en": null,
            "name:uk": null,
            "name:de": null,
            "name:tr": null,
            "name:ru": null,
            "name:ar": null
        }
    },
    {
        "lat": 41.0235408,
        "lon": 29.0291281,
        "tags": {
            "addr:city": "istanbul",
            "addr:district": "üsküdar",
            "description": "",
            "opening_hours": null,
            "phone": null,
            "branch": null,
            "amenity": "pastry",
            "mobile": null,
            "addr:street": "Gazi Caddesi",
            "cuisine": null,
            "name": "Burcucan börek",
            "name:en": null,
            "name:uk": null,
            "name:de": null,
            "name:tr": null,
            "name:ru": null,
            "name:ar": null
        }
    },
    {
        "lat": 40.9183058,
        "lon": 29.3034956,
        "tags": {
            "addr:city": "İstanbul",
            "addr:district": null,
            "description": "",
            "opening_hours": null,
            "phone": null,
            "branch": null,
            "amenity": "pastry",
            "mobile": null,
            "addr:street": null,
            "cuisine": null,
            "name": "Meşhur Sarıyer Börekçisi",
            "name:en": null,
            "name:uk": null,
            "name:de": null,
            "name:tr": null,
            "name:ru": null,
            "name:ar": null
        }
    },
    {
        "lat": 40.9184831,
        "lon": 29.3027685,
        "tags": {
            "addr:city": "İstanbul",
            "addr:district": null,
            "description": "",
            "opening_hours": null,
            "phone": null,
            "branch": null,
            "amenity": "pastry",
            "mobile": null,
            "addr:street": null,
            "cuisine": null,
            "name": "İzmir Börekçisi",
            "name:en": null,
            "name:uk": null,
            "name:de": null,
            "name:tr": null,
            "name:ru": null,
            "name:ar": null
        }
    },
    {
        "lat": 40.9183784,
        "lon": 29.3035651,
        "tags": {
            "addr:city": "İstanbul",
            "addr:district": null,
            "description": "",
            "opening_hours": null,
            "phone": "+905334067055",
            "branch": null,
            "amenity": "pastry",
            "mobile": null,
            "addr:street": null,
            "cuisine": null,
            "name": "Pidezza Börek Pasta",
            "name:en": null,
            "name:uk": null,
            "name:de": null,
            "name:tr": null,
            "name:ru": null,
            "name:ar": null
        }
    },
    {
        "lat": 40.9801798,
        "lon": 28.8741403,
        "tags": {
            "addr:city": "İstanbul",
            "addr:district": null,
            "description": "",
            "opening_hours": null,
            "phone": null,
            "branch": null,
            "amenity": "pastry",
            "mobile": null,
            "addr:street": null,
            "cuisine": null,
            "name": "Seyidoğlu",
            "name:en": null,
            "name:uk": null,
            "name:de": null,
            "name:tr": null,
            "name:ru": null,
            "name:ar": null
        }
    },
    {
        "lat": 40.914696,
        "lon": 29.284083,
        "tags": {
            "addr:city": "İstanbul",
            "addr:district": null,
            "description": "",
            "opening_hours": null,
            "phone": null,
            "branch": null,
            "amenity": "pastry",
            "mobile": null,
            "addr:street": null,
            "cuisine": null,
            "name": "Tatbak",
            "name:en": null,
            "name:uk": null,
            "name:de": null,
            "name:tr": null,
            "name:ru": null,
            "name:ar": null
        }
    },
    {
        "lat": 40.9155826,
        "lon": 29.2849407,
        "tags": {
            "addr:city": "İstanbul",
            "addr:district": null,
            "description": "",
            "opening_hours": null,
            "phone": null,
            "branch": null,
            "amenity": "pastry",
            "mobile": null,
            "addr:street": null,
            "cuisine": null,
            "name": "Anteplioğlu Baklava",
            "name:en": null,
            "name:uk": null,
            "name:de": null,
            "name:tr": null,
            "name:ru": null,
            "name:ar": null
        }
    },
    {
        "lat": 40.9845443,
        "lon": 29.0277625,
        "tags": {
            "addr:city": "İstanbul",
            "addr:district": null,
            "description": "",
            "opening_hours": null,
            "phone": null,
            "branch": null,
            "amenity": "cafe",
            "mobile": null,
            "addr:street": null,
            "cuisine": null,
            "name": "Cro & Cups",
            "name:en": null,
            "name:uk": null,
            "name:de": null,
            "name:tr": null,
            "name:ru": null,
            "name:ar": null
        }
    },
    {
        "lat": 40.9161699,
        "lon": 29.3044671,
        "tags": {
            "addr:city": "İstanbul",
            "addr:district": null,
            "description": "",
            "opening_hours": null,
            "phone": null,
            "branch": null,
            "amenity": "pastry",
            "mobile": null,
            "addr:street": null,
            "cuisine": null,
            "name": "Baklavacı Anteplioğlu",
            "name:en": null,
            "name:uk": null,
            "name:de": null,
            "name:tr": null,
            "name:ru": null,
            "name:ar": null
        }
    },
    {
        "lat": 41.0097545,
        "lon": 29.1178093,
        "tags": {
            "addr:city": "İstanbul",
            "addr:district": null,
            "description": "",
            "opening_hours": null,
            "phone": null,
            "branch": null,
            "amenity": "pastry",
            "mobile": null,
            "addr:street": null,
            "cuisine": null,
            "name": "komşufırın",
            "name:en": null,
            "name:uk": null,
            "name:de": null,
            "name:tr": null,
            "name:ru": null,
            "name:ar": null
        }
    },
    {
        "lat": 41.0773076,
        "lon": 28.7487784,
        "tags": {
            "addr:city": "İstanbul",
            "addr:district": "Başakşehir",
            "description": "",
            "opening_hours": null,
            "phone": null,
            "branch": null,
            "amenity": "pastry",
            "mobile": null,
            "addr:street": "Malazgirt Sokak",
            "cuisine": null,
            "name": "Yıldırım Gıda (Gaziantepli Tatlıcı)",
            "name:en": null,
            "name:uk": null,
            "name:de": null,
            "name:tr": null,
            "name:ru": null,
            "name:ar": null
        }
    },
    {
        "lat": 41.0159403,
        "lon": 28.8967722,
        "tags": {
            "addr:city": "İstanbul",
            "addr:district": null,
            "description": "",
            "opening_hours": null,
            "phone": null,
            "branch": null,
            "amenity": "pastry",
            "mobile": null,
            "addr:street": null,
            "cuisine": null,
            "name": "Ceylanlar Pastanesi",
            "name:en": null,
            "name:uk": null,
            "name:de": null,
            "name:tr": null,
            "name:ru": null,
            "name:ar": null
        }
    },
    {
        "lat": 41.0158296,
        "lon": 28.8968226,
        "tags": {
            "addr:city": "İstanbul",
            "addr:district": null,
            "description": "",
            "opening_hours": null,
            "phone": null,
            "branch": null,
            "amenity": "pastry",
            "mobile": null,
            "addr:street": null,
            "cuisine": null,
            "name": "Asrın Pastanesi",
            "name:en": null,
            "name:uk": null,
            "name:de": null,
            "name:tr": null,
            "name:ru": null,
            "name:ar": null
        }
    },
    {
        "lat": 40.9792958,
        "lon": 29.1128504,
        "tags": {
            "addr:city": "İstanbul",
            "addr:district": null,
            "description": "",
            "opening_hours": null,
            "phone": null,
            "branch": null,
            "amenity": "pastry",
            "mobile": null,
            "addr:street": null,
            "cuisine": null,
            "name": "Tatbak",
            "name:en": null,
            "name:uk": null,
            "name:de": null,
            "name:tr": null,
            "name:ru": null,
            "name:ar": null
        }
    },
    {
        "lat": 40.8172547,
        "lon": 29.3040094,
        "tags": {
            "addr:city": "İstanbul",
            "addr:district": null,
            "description": "",
            "opening_hours": null,
            "phone": null,
            "branch": null,
            "amenity": "pastry",
            "mobile": null,
            "addr:street": null,
            "cuisine": null,
            "name": "Lokmaltı Üstü Lezzet",
            "name:en": null,
            "name:uk": null,
            "name:de": null,
            "name:tr": null,
            "name:ru": null,
            "name:ar": null
        }
    },
    {
        "lat": 40.9841118,
        "lon": 29.0275627,
        "tags": {
            "addr:city": "İstanbul",
            "addr:district": null,
            "description": "",
            "opening_hours": "06:00 - 22:00",
            "phone": "+90 216 450 62 43",
            "branch": null,
            "amenity": "pastry",
            "mobile": null,
            "addr:street": null,
            "cuisine": null,
            "name": "Eyfel Pastanesi",
            "name:en": null,
            "name:uk": null,
            "name:de": null,
            "name:tr": null,
            "name:ru": null,
            "name:ar": null
        }
    },
    {
        "lat": 41.1212396,
        "lon": 29.1001868,
        "tags": {
            "addr:city": "İstanbul",
            "addr:district": null,
            "description": "",
            "opening_hours": null,
            "phone": null,
            "branch": null,
            "amenity": "pastry",
            "mobile": null,
            "addr:street": null,
            "cuisine": null,
            "name": "Bilir Pastaneleri",
            "name:en": null,
            "name:uk": null,
            "name:de": null,
            "name:tr": null,
            "name:ru": null,
            "name:ar": null
        }
    },
    {
        "lat": 40.9834142,
        "lon": 29.0716195,
        "tags": {
            "addr:city": "İstanbul",
            "addr:district": null,
            "description": "",
            "opening_hours": null,
            "phone": null,
            "branch": null,
            "amenity": "pastry",
            "mobile": null,
            "addr:street": null,
            "cuisine": null,
            "name": "Oz Kardelen Pastanesi",
            "name:en": null,
            "name:uk": null,
            "name:de": null,
            "name:tr": null,
            "name:ru": null,
            "name:ar": null
        }
    },
    {
        "lat": 41.0660996,
        "lon": 29.0030128,
        "tags": {
            "addr:city": "İstanbul",
            "addr:district": null,
            "description": "",
            "opening_hours": null,
            "phone": null,
            "branch": null,
            "amenity": "pastry",
            "mobile": null,
            "addr:street": null,
            "cuisine": null,
            "name": "Çevre Pastanesi",
            "name:en": null,
            "name:uk": null,
            "name:de": null,
            "name:tr": null,
            "name:ru": null,
            "name:ar": null
        }
    },
    {
        "lat": 41.0660279,
        "lon": 29.0029827,
        "tags": {
            "addr:city": "İstanbul",
            "addr:district": null,
            "description": "",
            "opening_hours": null,
            "phone": null,
            "branch": null,
            "amenity": "pastry",
            "mobile": null,
            "addr:street": null,
            "cuisine": null,
            "name": "Orhan Pastanesi",
            "name:en": null,
            "name:uk": null,
            "name:de": null,
            "name:tr": null,
            "name:ru": null,
            "name:ar": null
        }
    },
    {
        "lat": 41.0146955,
        "lon": 28.9762558,
        "tags": {
            "addr:city": "İstanbul",
            "addr:district": null,
            "description": "",
            "opening_hours": null,
            "phone": null,
            "branch": null,
            "amenity": "pastry",
            "mobile": null,
            "addr:street": null,
            "cuisine": null,
            "name": "Merhaba Baklava",
            "name:en": null,
            "name:uk": null,
            "name:de": null,
            "name:tr": null,
            "name:ru": null,
            "name:ar": null
        }
    },
    {
        "lat": 40.8883115,
        "lon": 29.188113,
        "tags": {
            "addr:city": "İstanbul",
            "addr:district": null,
            "description": "",
            "opening_hours": null,
            "phone": null,
            "branch": null,
            "amenity": "pastry",
            "mobile": null,
            "addr:street": null,
            "cuisine": null,
            "name": "Lokmacho",
            "name:en": null,
            "name:uk": null,
            "name:de": null,
            "name:tr": null,
            "name:ru": null,
            "name:ar": null
        }
    },
    {
        "lat": 40.8883486,
        "lon": 29.1877242,
        "tags": {
            "addr:city": "İstanbul",
            "addr:district": null,
            "description": "",
            "opening_hours": null,
            "phone": null,
            "branch": null,
            "amenity": "pastry",
            "mobile": null,
            "addr:street": null,
            "cuisine": null,
            "name": "Hacıbey",
            "name:en": null,
            "name:uk": null,
            "name:de": null,
            "name:tr": null,
            "name:ru": null,
            "name:ar": null
        }
    },
    {
        "lat": 40.8884469,
        "lon": 29.1884961,
        "tags": {
            "addr:city": "İstanbul",
            "addr:district": null,
            "description": "",
            "opening_hours": null,
            "phone": null,
            "branch": null,
            "amenity": "pastry",
            "mobile": null,
            "addr:street": null,
            "cuisine": null,
            "name": "Loqma Turca",
            "name:en": null,
            "name:uk": null,
            "name:de": null,
            "name:tr": null,
            "name:ru": null,
            "name:ar": null
        }
    },
    {
        "lat": 41.064584,
        "lon": 28.8284403,
        "tags": {
            "addr:city": "İstanbul",
            "addr:district": null,
            "description": "",
            "opening_hours": null,
            "phone": null,
            "branch": null,
            "amenity": "pastry",
            "mobile": null,
            "addr:street": null,
            "cuisine": null,
            "name": "Pastry Planet",
            "name:en": null,
            "name:uk": null,
            "name:de": null,
            "name:tr": null,
            "name:ru": null,
            "name:ar": null
        }
    },
    {
        "lat": 41.4116175,
        "lon": 28.1850985,
        "tags": {
            "addr:city": "İstanbul",
            "addr:district": null,
            "description": "",
            "opening_hours": null,
            "phone": null,
            "branch": null,
            "amenity": "pastry",
            "mobile": null,
            "addr:street": null,
            "cuisine": null,
            "name": "Binkılıç Aydın Pastanesi",
            "name:en": null,
            "name:uk": null,
            "name:de": null,
            "name:tr": null,
            "name:ru": null,
            "name:ar": null
        }
    },
    {
        "lat": 41.0578947,
        "lon": 28.7289545,
        "tags": {
            "addr:city": "İstanbul",
            "addr:district": null,
            "description": "",
            "opening_hours": null,
            "phone": null,
            "branch": null,
            "amenity": "pastry",
            "mobile": null,
            "addr:street": null,
            "cuisine": null,
            "name": "Ekmek Pasta",
            "name:en": null,
            "name:uk": null,
            "name:de": null,
            "name:tr": null,
            "name:ru": null,
            "name:ar": null
        }
    },
    {
        "lat": 41.0760768,
        "lon": 28.8888692,
        "tags": {
            "addr:city": "İstanbul",
            "addr:district": null,
            "description": "",
            "opening_hours": "Mo-Su 09:00-21:00",
            "phone": null,
            "branch": null,
            "amenity": "pastry",
            "mobile": null,
            "addr:street": null,
            "cuisine": null,
            "name": "Tatbak",
            "name:en": null,
            "name:uk": null,
            "name:de": null,
            "name:tr": null,
            "name:ru": null,
            "name:ar": null
        }
    },
    {
        "lat": 41.0701702,
        "lon": 28.6854301,
        "tags": {
            "addr:city": "İstanbul",
            "addr:district": null,
            "description": "",
            "opening_hours": null,
            "phone": null,
            "branch": null,
            "amenity": "pastry",
            "mobile": null,
            "addr:street": null,
            "cuisine": null,
            "name": "Emin Pastanesi",
            "name:en": null,
            "name:uk": null,
            "name:de": null,
            "name:tr": null,
            "name:ru": null,
            "name:ar": null
        }
    },
    {
        "lat": 40.9957355,
        "lon": 28.7064224,
        "tags": {
            "addr:city": "Istanbul",
            "addr:district": "avcılar",
            "description": "",
            "opening_hours": null,
            "phone": null,
            "branch": null,
            "amenity": "pastry",
            "mobile": null,
            "addr:street": "Mareşal Caddesi",
            "cuisine": null,
            "name": "Pastek",
            "name:en": null,
            "name:uk": null,
            "name:de": null,
            "name:tr": null,
            "name:ru": null,
            "name:ar": null
        }
    },
    {
        "lat": 40.9954677,
        "lon": 28.7061551,
        "tags": {
            "addr:city": "Istanbul",
            "addr:district": "avcılar",
            "description": "",
            "opening_hours": null,
            "phone": null,
            "branch": null,
            "amenity": "pastry",
            "mobile": null,
            "addr:street": "Mareşal Caddesi",
            "cuisine": null,
            "name": "Volkan Pastanesi",
            "name:en": null,
            "name:uk": null,
            "name:de": null,
            "name:tr": null,
            "name:ru": null,
            "name:ar": null
        }
    },
    {
        "lat": 40.9912143,
        "lon": 28.7140667,
        "tags": {
            "addr:city": "istanbul",
            "addr:district": "avcılar",
            "description": "",
            "opening_hours": null,
            "phone": null,
            "branch": null,
            "amenity": "pastry",
            "mobile": null,
            "addr:street": null,
            "cuisine": null,
            "name": "Pelit Pastanesi",
            "name:en": null,
            "name:uk": null,
            "name:de": null,
            "name:tr": null,
            "name:ru": null,
            "name:ar": null
        }
    },
    {
        "lat": 40.998616,
        "lon": 28.7093337,
        "tags": {
            "addr:city": "istanbul",
            "addr:district": "avcılar",
            "description": "",
            "opening_hours": null,
            "phone": null,
            "branch": null,
            "amenity": "pastry",
            "mobile": null,
            "addr:street": "İstiklal Caddesi",
            "cuisine": null,
            "name": "Edemoğlu Pastenesi",
            "name:en": null,
            "name:uk": null,
            "name:de": null,
            "name:tr": null,
            "name:ru": null,
            "name:ar": null
        }
    },
    {
        "lat": 40.9960913,
        "lon": 28.7050718,
        "tags": {
            "addr:city": "Istanbul",
            "addr:district": "avcılar",
            "description": "",
            "opening_hours": null,
            "phone": null,
            "branch": null,
            "amenity": "pastry",
            "mobile": null,
            "addr:street": "Metrobüs",
            "cuisine": null,
            "name": "Faruk Güllüoğlu",
            "name:en": null,
            "name:uk": null,
            "name:de": null,
            "name:tr": null,
            "name:ru": null,
            "name:ar": null
        }
    },
    {
        "lat": 40.9963295,
        "lon": 28.7067137,
        "tags": {
            "addr:city": "Istanbul",
            "addr:district": "avcılar",
            "description": "",
            "opening_hours": null,
            "phone": null,
            "branch": null,
            "amenity": "pastry",
            "mobile": null,
            "addr:street": "Karataş Sokağı",
            "cuisine": null,
            "name": "Osmanlı Tulumba",
            "name:en": null,
            "name:uk": null,
            "name:de": null,
            "name:tr": null,
            "name:ru": null,
            "name:ar": null
        }
    },
    {
        "lat": 40.9954639,
        "lon": 28.7095591,
        "tags": {
            "addr:city": "istanbul",
            "addr:district": "avcılar",
            "description": "",
            "opening_hours": null,
            "phone": null,
            "branch": null,
            "amenity": "pastry",
            "mobile": null,
            "addr:street": "Uran Caddesi",
            "cuisine": null,
            "name": "Kul Fırın",
            "name:en": null,
            "name:uk": null,
            "name:de": null,
            "name:tr": null,
            "name:ru": null,
            "name:ar": null
        }
    },
    {
        "lat": 40.9963514,
        "lon": 28.7070335,
        "tags": {
            "addr:city": "Istanbul",
            "addr:district": "avcılar",
            "description": "",
            "opening_hours": null,
            "phone": null,
            "branch": null,
            "amenity": "pastry",
            "mobile": null,
            "addr:street": "Karataş Sokağı",
            "cuisine": null,
            "name": "Köroğlu Pastenesi",
            "name:en": null,
            "name:uk": null,
            "name:de": null,
            "name:tr": null,
            "name:ru": null,
            "name:ar": null
        }
    },
    {
        "lat": 40.9964627,
        "lon": 28.7071569,
        "tags": {
            "addr:city": "Istanbul",
            "addr:district": "avcılar",
            "description": "",
            "opening_hours": null,
            "phone": "0(212) 590 97 87",
            "branch": null,
            "amenity": "pastry",
            "mobile": null,
            "addr:street": "Mareşal Caddesi",
            "cuisine": null,
            "name": "Lades Pastenesi",
            "name:en": null,
            "name:uk": null,
            "name:de": null,
            "name:tr": null,
            "name:ru": null,
            "name:ar": null
        }
    },
    {
        "lat": 41.0011307,
        "lon": 28.7055094,
        "tags": {
            "addr:city": "İstanbul",
            "addr:district": "avcılar",
            "description": "",
            "opening_hours": null,
            "phone": null,
            "branch": null,
            "amenity": "pastry",
            "mobile": null,
            "addr:street": "Mimar Sinan Caddesi",
            "cuisine": null,
            "name": "İtalyan Cornetto",
            "name:en": null,
            "name:uk": null,
            "name:de": null,
            "name:tr": null,
            "name:ru": null,
            "name:ar": null
        }
    },
    {
        "lat": 40.9960917,
        "lon": 28.7104927,
        "tags": {
            "addr:city": "istanbul",
            "addr:district": "avcılar",
            "description": "",
            "opening_hours": null,
            "phone": null,
            "branch": null,
            "amenity": "pastry",
            "mobile": null,
            "addr:street": "Üner Sokağı",
            "cuisine": null,
            "name": "Taner Usta Pastaneleri",
            "name:en": null,
            "name:uk": null,
            "name:de": null,
            "name:tr": null,
            "name:ru": null,
            "name:ar": null
        }
    },
    {
        "lat": 40.9535967,
        "lon": 29.0945339,
        "tags": {
            "addr:city": "İstanbul",
            "addr:district": null,
            "description": "",
            "opening_hours": null,
            "phone": null,
            "branch": null,
            "amenity": "pastry",
            "mobile": null,
            "addr:street": null,
            "cuisine": null,
            "name": "Beylerbeyi Profiterol",
            "name:en": null,
            "name:uk": null,
            "name:de": null,
            "name:tr": null,
            "name:ru": null,
            "name:ar": null
        }
    },
    {
        "lat": 40.9666273,
        "lon": 29.0872712,
        "tags": {
            "addr:city": "İstanbul",
            "addr:district": null,
            "description": "",
            "opening_hours": null,
            "phone": null,
            "branch": null,
            "amenity": "pastry",
            "mobile": null,
            "addr:street": null,
            "cuisine": null,
            "name": "Emiroğlu Baklava",
            "name:en": null,
            "name:uk": null,
            "name:de": null,
            "name:tr": null,
            "name:ru": null,
            "name:ar": null
        }
    },
    {
        "lat": 40.9770592,
        "lon": 29.047615,
        "tags": {
            "addr:city": "İstanbul",
            "addr:district": null,
            "description": "",
            "opening_hours": null,
            "phone": null,
            "branch": null,
            "amenity": "pastry",
            "mobile": null,
            "addr:street": null,
            "cuisine": null,
            "name": "Şef Gaziantep Baklavaları",
            "name:en": null,
            "name:uk": null,
            "name:de": null,
            "name:tr": null,
            "name:ru": null,
            "name:ar": null
        }
    },
    {
        "lat": 40.9699641,
        "lon": 29.1014051,
        "tags": {
            "addr:city": "İstanbul",
            "addr:district": null,
            "description": "",
            "opening_hours": null,
            "phone": null,
            "branch": null,
            "amenity": "pastry",
            "mobile": null,
            "addr:street": null,
            "cuisine": null,
            "name": "Unaç Pastaneleri",
            "name:en": null,
            "name:uk": null,
            "name:de": null,
            "name:tr": null,
            "name:ru": null,
            "name:ar": null
        }
    },
    {
        "lat": 40.82921,
        "lon": 29.3217817,
        "tags": {
            "addr:city": "İstanbul",
            "addr:district": null,
            "description": "",
            "opening_hours": null,
            "phone": null,
            "branch": null,
            "amenity": "pastry",
            "mobile": null,
            "addr:street": null,
            "cuisine": null,
            "name": "Bora Pastanesi",
            "name:en": null,
            "name:uk": null,
            "name:de": null,
            "name:tr": null,
            "name:ru": null,
            "name:ar": null
        }
    },
    {
        "lat": 41.0053401,
        "lon": 29.1323895,
        "tags": {
            "addr:city": "İstanbul",
            "addr:district": null,
            "description": "",
            "opening_hours": null,
            "phone": null,
            "branch": null,
            "amenity": "pastry",
            "mobile": null,
            "addr:street": null,
            "cuisine": null,
            "name": "Asya",
            "name:en": null,
            "name:uk": null,
            "name:de": null,
            "name:tr": null,
            "name:ru": null,
            "name:ar": null
        }
    },
    {
        "lat": 41.0778688,
        "lon": 28.2543469,
        "tags": {
            "addr:city": "İstanbul",
            "addr:district": null,
            "description": "",
            "opening_hours": null,
            "phone": null,
            "branch": null,
            "amenity": "pastry",
            "mobile": null,
            "addr:street": null,
            "cuisine": null,
            "name": "Çağrı Pastanesi",
            "name:en": null,
            "name:uk": null,
            "name:de": null,
            "name:tr": null,
            "name:ru": null,
            "name:ar": null
        }
    },
    {
        "lat": 41.0256008,
        "lon": 29.1013723,
        "tags": {
            "addr:city": "İstanbul",
            "addr:district": null,
            "description": "",
            "opening_hours": null,
            "phone": null,
            "branch": null,
            "amenity": "pastry",
            "mobile": null,
            "addr:street": null,
            "cuisine": null,
            "name": null,
            "name:en": null,
            "name:uk": null,
            "name:de": null,
            "name:tr": null,
            "name:ru": null,
            "name:ar": null
        }
    },
    {
        "lat": 41.0011008,
        "lon": 29.0411695,
        "tags": {
            "addr:city": "İstanbul",
            "addr:district": null,
            "description": "",
            "opening_hours": null,
            "phone": null,
            "branch": null,
            "amenity": "pastry",
            "mobile": null,
            "addr:street": null,
            "cuisine": null,
            "name": "BademTat",
            "name:en": null,
            "name:uk": null,
            "name:de": null,
            "name:tr": null,
            "name:ru": null,
            "name:ar": null
        }
    },
    {
        "lat": 41.0980923,
        "lon": 28.8049782,
        "tags": {
            "addr:city": "İstanbul",
            "addr:district": null,
            "description": "",
            "opening_hours": null,
            "phone": null,
            "branch": null,
            "amenity": "pastry",
            "mobile": null,
            "addr:street": null,
            "cuisine": null,
            "name": "kudo pattiserie",
            "name:en": null,
            "name:uk": null,
            "name:de": null,
            "name:tr": null,
            "name:ru": null,
            "name:ar": null
        }
    },
    {
        "lat": 41.0157097,
        "lon": 29.0157136,
        "tags": {
            "addr:city": "İstanbul",
            "addr:district": "Uskudar",
            "description": "",
            "opening_hours": null,
            "phone": "+902163429251",
            "branch": null,
            "amenity": "pastry",
            "mobile": null,
            "addr:street": "Tunus Bağı Caddesi",
            "cuisine": null,
            "name": "Daimler Pasta & Cafe",
            "name:en": null,
            "name:uk": null,
            "name:de": null,
            "name:tr": null,
            "name:ru": null,
            "name:ar": null
        }
    },
    {
        "lat": 41.0480447,
        "lon": 29.0056085,
        "tags": {
            "addr:city": "İstanbul",
            "addr:district": null,
            "description": "",
            "opening_hours": null,
            "phone": null,
            "branch": null,
            "amenity": "cafe",
            "mobile": null,
            "addr:street": "Jandarma Mektebi sokak",
            "cuisine": null,
            "name": "Tarhun fırın",
            "name:en": null,
            "name:uk": null,
            "name:de": null,
            "name:tr": "Tarhun Fırın",
            "name:ru": null,
            "name:ar": null
        }
    },
    {
        "lat": 40.9893481,
        "lon": 29.0238485,
        "tags": {
            "addr:city": "İstanbul",
            "addr:district": null,
            "description": "",
            "opening_hours": null,
            "phone": null,
            "branch": null,
            "amenity": "pastry",
            "mobile": null,
            "addr:street": null,
            "cuisine": null,
            "name": "Hacı Şerif",
            "name:en": null,
            "name:uk": null,
            "name:de": null,
            "name:tr": null,
            "name:ru": null,
            "name:ar": null
        }
    },
    {
        "lat": 41.0486084,
        "lon": 28.9208108,
        "tags": {
            "addr:city": "İstanbul",
            "addr:district": "Eyüpsultan",
            "description": "",
            "opening_hours": null,
            "phone": "+90 212 578 5159",
            "branch": null,
            "amenity": "pastry",
            "mobile": null,
            "addr:street": "Mahmudiye Caddesi",
            "cuisine": null,
            "name": "Yılmaz Pastanesi",
            "name:en": null,
            "name:uk": null,
            "name:de": null,
            "name:tr": null,
            "name:ru": null,
            "name:ar": null
        }
    },
    {
        "lat": 40.9789466,
        "lon": 29.1169901,
        "tags": {
            "addr:city": "İstanbul",
            "addr:district": null,
            "description": "",
            "opening_hours": null,
            "phone": null,
            "branch": null,
            "amenity": "pastry",
            "mobile": null,
            "addr:street": null,
            "cuisine": null,
            "name": "Çınar Ağacı Pastanesi",
            "name:en": null,
            "name:uk": null,
            "name:de": null,
            "name:tr": null,
            "name:ru": null,
            "name:ar": null
        }
    },
    {
        "lat": 41.0460649,
        "lon": 28.9121754,
        "tags": {
            "addr:city": "İstanbul",
            "addr:district": "Bayrampaşa",
            "description": "",
            "opening_hours": null,
            "phone": null,
            "branch": null,
            "amenity": "pastry",
            "mobile": null,
            "addr:street": "Abdi İpekçi Caddesi",
            "cuisine": null,
            "name": "Yetat Fabrika Satış Noktası",
            "name:en": null,
            "name:uk": null,
            "name:de": null,
            "name:tr": null,
            "name:ru": null,
            "name:ar": null
        }
    },
    {
        "lat": 41.0456278,
        "lon": 28.9117744,
        "tags": {
            "addr:city": "İstanbul",
            "addr:district": "Bayrampaşa",
            "description": "",
            "opening_hours": null,
            "phone": null,
            "branch": "Rami İmalathanesi",
            "amenity": "pastry",
            "mobile": null,
            "addr:street": "Abdi İpekçi Caddesi",
            "cuisine": null,
            "name": "Tatlı Park",
            "name:en": null,
            "name:uk": null,
            "name:de": null,
            "name:tr": null,
            "name:ru": null,
            "name:ar": null
        }
    },
    {
        "lat": 41.0388441,
        "lon": 28.9122049,
        "tags": {
            "addr:city": "İstanbul",
            "addr:district": null,
            "description": "",
            "opening_hours": null,
            "phone": null,
            "branch": "Bayrampaşa",
            "amenity": "pastry",
            "mobile": null,
            "addr:street": null,
            "cuisine": null,
            "name": "Asıltat",
            "name:en": null,
            "name:uk": null,
            "name:de": null,
            "name:tr": null,
            "name:ru": null,
            "name:ar": null
        }
    },
    {
        "lat": 40.9873817,
        "lon": 28.7718402,
        "tags": {
            "addr:city": "İstanbul",
            "addr:district": null,
            "description": "",
            "opening_hours": null,
            "phone": null,
            "branch": null,
            "amenity": "pastry",
            "mobile": null,
            "addr:street": null,
            "cuisine": null,
            "name": "Koska Fabrika Satış Mağazası",
            "name:en": null,
            "name:uk": null,
            "name:de": null,
            "name:tr": null,
            "name:ru": null,
            "name:ar": null
        }
    },
    {
        "lat": 40.9692933,
        "lon": 29.0537068,
        "tags": {
            "addr:city": "İstanbul",
            "addr:district": null,
            "description": "",
            "opening_hours": null,
            "phone": null,
            "branch": null,
            "amenity": "pastry",
            "mobile": null,
            "addr:street": null,
            "cuisine": null,
            "name": "Pelit Pastanesi",
            "name:en": null,
            "name:uk": null,
            "name:de": null,
            "name:tr": null,
            "name:ru": null,
            "name:ar": null
        }
    },
    {
        "lat": 40.9020926,
        "lon": 29.2270054,
        "tags": {
            "addr:city": "İstanbul",
            "addr:district": "Kartal",
            "description": "",
            "opening_hours": "06:00-22:00",
            "phone": "(0216) 377 03 11",
            "branch": null,
            "amenity": "pastry",
            "mobile": null,
            "addr:street": "Mehmet Akif Ersoy Caddesi",
            "cuisine": null,
            "name": "Yeni Gözde Ekmek Pasta & Cafe",
            "name:en": null,
            "name:uk": null,
            "name:de": null,
            "name:tr": null,
            "name:ru": null,
            "name:ar": null
        }
    },
    {
        "lat": 40.8253353,
        "lon": 29.3216309,
        "tags": {
            "addr:city": "İstanbul",
            "addr:district": null,
            "description": "",
            "opening_hours": null,
            "phone": null,
            "branch": null,
            "amenity": "pastry",
            "mobile": null,
            "addr:street": null,
            "cuisine": null,
            "name": "Vatan Pastanesi",
            "name:en": null,
            "name:uk": null,
            "name:de": null,
            "name:tr": null,
            "name:ru": null,
            "name:ar": null
        }
    },
    {
        "lat": 40.9030398,
        "lon": 29.2328883,
        "tags": {
            "addr:city": "İstanbul",
            "addr:district": null,
            "description": "",
            "opening_hours": null,
            "phone": null,
            "branch": null,
            "amenity": "pastry",
            "mobile": null,
            "addr:street": null,
            "cuisine": null,
            "name": "Haşimoğlu Börek",
            "name:en": null,
            "name:uk": null,
            "name:de": null,
            "name:tr": null,
            "name:ru": null,
            "name:ar": null
        }
    },
    {
        "lat": 41.0918755,
        "lon": 28.86564,
        "tags": {
            "addr:city": "İstanbul",
            "addr:district": null,
            "description": "",
            "opening_hours": null,
            "phone": null,
            "branch": null,
            "amenity": "pastry",
            "mobile": null,
            "addr:street": null,
            "cuisine": null,
            "name": "Uludağ Börek Salonu",
            "name:en": null,
            "name:uk": null,
            "name:de": null,
            "name:tr": null,
            "name:ru": null,
            "name:ar": null
        }
    },
    {
        "lat": 40.9795356,
        "lon": 29.0831493,
        "tags": {
            "addr:city": "İstanbul",
            "addr:district": null,
            "description": "",
            "opening_hours": null,
            "phone": null,
            "branch": null,
            "amenity": "pastry",
            "mobile": null,
            "addr:street": null,
            "cuisine": null,
            "name": "Ebrum Patisserie",
            "name:en": null,
            "name:uk": null,
            "name:de": null,
            "name:tr": null,
            "name:ru": null,
            "name:ar": null
        }
    },
    {
        "lat": 40.9845738,
        "lon": 29.0522569,
        "tags": {
            "addr:city": "İstanbul",
            "addr:district": null,
            "description": "",
            "opening_hours": null,
            "phone": null,
            "branch": null,
            "amenity": "pastry",
            "mobile": null,
            "addr:street": null,
            "cuisine": null,
            "name": "Bağ",
            "name:en": null,
            "name:uk": null,
            "name:de": null,
            "name:tr": null,
            "name:ru": null,
            "name:ar": null
        }
    },
    {
        "lat": 41.0226765,
        "lon": 28.9008065,
        "tags": {
            "addr:city": "İstanbul",
            "addr:district": null,
            "description": "",
            "opening_hours": null,
            "phone": null,
            "branch": null,
            "amenity": "pastry",
            "mobile": null,
            "addr:street": null,
            "cuisine": null,
            "name": "Marlet Pastanesi",
            "name:en": null,
            "name:uk": null,
            "name:de": null,
            "name:tr": null,
            "name:ru": null,
            "name:ar": null
        }
    },
    {
        "lat": 41.1822237,
        "lon": 28.7426231,
        "tags": {
            "addr:city": "İstanbul",
            "addr:district": null,
            "description": "",
            "opening_hours": null,
            "phone": null,
            "branch": null,
            "amenity": "pastry",
            "mobile": null,
            "addr:street": null,
            "cuisine": null,
            "name": "Baksan Anteplioğlu",
            "name:en": null,
            "name:uk": null,
            "name:de": null,
            "name:tr": null,
            "name:ru": null,
            "name:ar": null
        }
    },
    {
        "lat": 40.983984,
        "lon": 29.1066872,
        "tags": {
            "addr:city": "İstanbul",
            "addr:district": null,
            "description": "",
            "opening_hours": null,
            "phone": null,
            "branch": null,
            "amenity": "pastry",
            "mobile": null,
            "addr:street": null,
            "cuisine": null,
            "name": "Pelit",
            "name:en": null,
            "name:uk": null,
            "name:de": null,
            "name:tr": null,
            "name:ru": null,
            "name:ar": null
        }
    },
    {
        "lat": 40.9791565,
        "lon": 29.111368,
        "tags": {
            "addr:city": "İstanbul",
            "addr:district": null,
            "description": "",
            "opening_hours": null,
            "phone": null,
            "branch": null,
            "amenity": "pastry",
            "mobile": null,
            "addr:street": null,
            "cuisine": null,
            "name": "Bürr",
            "name:en": null,
            "name:uk": null,
            "name:de": null,
            "name:tr": null,
            "name:ru": null,
            "name:ar": null
        }
    },
    {
        "lat": 40.9855346,
        "lon": 29.0484166,
        "tags": {
            "addr:city": "İstanbul",
            "addr:district": null,
            "description": "",
            "opening_hours": null,
            "phone": null,
            "branch": null,
            "amenity": "pastry",
            "mobile": null,
            "addr:street": null,
            "cuisine": null,
            "name": "Kerem Pastanesi",
            "name:en": null,
            "name:uk": null,
            "name:de": null,
            "name:tr": null,
            "name:ru": null,
            "name:ar": null
        }
    },
    {
        "lat": 41.0726221,
        "lon": 28.2521906,
        "tags": {
            "addr:city": "İstanbul",
            "addr:district": null,
            "description": "",
            "opening_hours": null,
            "phone": null,
            "branch": null,
            "amenity": "pastry",
            "mobile": null,
            "addr:street": null,
            "cuisine": null,
            "name": "İmren Pastaneleri",
            "name:en": null,
            "name:uk": null,
            "name:de": null,
            "name:tr": null,
            "name:ru": null,
            "name:ar": null
        }
    },
    {
        "lat": 40.9767615,
        "lon": 29.1146128,
        "tags": {
            "addr:city": "İstanbul",
            "addr:district": null,
            "description": "",
            "opening_hours": null,
            "phone": null,
            "branch": null,
            "amenity": "pastry",
            "mobile": null,
            "addr:street": null,
            "cuisine": null,
            "name": "Çağlayan Pasta & Cafe",
            "name:en": null,
            "name:uk": null,
            "name:de": null,
            "name:tr": null,
            "name:ru": null,
            "name:ar": null
        }
    },
    {
        "lat": 41.0990944,
        "lon": 28.8651529,
        "tags": {
            "addr:city": "İstanbul",
            "addr:district": null,
            "description": "",
            "opening_hours": null,
            "phone": null,
            "branch": null,
            "amenity": "pastry",
            "mobile": null,
            "addr:street": null,
            "cuisine": null,
            "name": "Hacıbaba Pastanesi",
            "name:en": null,
            "name:uk": null,
            "name:de": null,
            "name:tr": null,
            "name:ru": null,
            "name:ar": null
        }
    },
    {
        "lat": 40.9802907,
        "lon": 28.8741582,
        "tags": {
            "addr:city": "İstanbul",
            "addr:district": null,
            "description": "",
            "opening_hours": null,
            "phone": null,
            "branch": null,
            "amenity": "pastry",
            "mobile": null,
            "addr:street": null,
            "cuisine": null,
            "name": "Hacı Bozan Oğulları",
            "name:en": null,
            "name:uk": null,
            "name:de": null,
            "name:tr": null,
            "name:ru": null,
            "name:ar": null
        }
    },
    {
        "lat": 41.0735203,
        "lon": 28.9223146,
        "tags": {
            "addr:city": "İstanbul",
            "addr:district": null,
            "description": "",
            "opening_hours": null,
            "phone": null,
            "branch": null,
            "amenity": "pastry",
            "mobile": null,
            "addr:street": null,
            "cuisine": null,
            "name": "Simit Sarayı",
            "name:en": null,
            "name:uk": null,
            "name:de": null,
            "name:tr": null,
            "name:ru": null,
            "name:ar": null
        }
    },
    {
        "lat": 41.0411842,
        "lon": 28.9079995,
        "tags": {
            "addr:city": "İstanbul",
            "addr:district": null,
            "description": "",
            "opening_hours": null,
            "phone": null,
            "branch": null,
            "amenity": "pastry",
            "mobile": null,
            "addr:street": null,
            "cuisine": null,
            "name": null,
            "name:en": null,
            "name:uk": null,
            "name:de": null,
            "name:tr": null,
            "name:ru": null,
            "name:ar": null
        }
    },
    {
        "lat": 40.8743738,
        "lon": 29.1285967,
        "tags": {
            "addr:city": "İstanbul",
            "addr:district": null,
            "description": "",
            "opening_hours": null,
            "phone": null,
            "branch": null,
            "amenity": "pastry",
            "mobile": null,
            "addr:street": null,
            "cuisine": null,
            "name": "Ada Lokmasi",
            "name:en": null,
            "name:uk": null,
            "name:de": null,
            "name:tr": null,
            "name:ru": null,
            "name:ar": null
        }
    },
    {
        "lat": 40.8742845,
        "lon": 29.128507,
        "tags": {
            "addr:city": "İstanbul",
            "addr:district": null,
            "description": "",
            "opening_hours": null,
            "phone": null,
            "branch": null,
            "amenity": "pastry",
            "mobile": null,
            "addr:street": null,
            "cuisine": null,
            "name": "Princess Lokma",
            "name:en": null,
            "name:uk": null,
            "name:de": null,
            "name:tr": null,
            "name:ru": null,
            "name:ar": null
        }
    },
    {
        "lat": 41.053201,
        "lon": 28.9032675,
        "tags": {
            "addr:city": "İstanbul",
            "addr:district": "Bayrampaşa",
            "description": "",
            "opening_hours": null,
            "phone": null,
            "branch": null,
            "amenity": "pastry",
            "mobile": null,
            "addr:street": "Mustafa Kemal Atatürk Caddesi",
            "cuisine": null,
            "name": "Yeşim Pastaneleri",
            "name:en": null,
            "name:uk": null,
            "name:de": null,
            "name:tr": null,
            "name:ru": null,
            "name:ar": null
        }
    },
    {
        "lat": 41.036768,
        "lon": 28.9913639,
        "tags": {
            "addr:city": "İstanbul",
            "addr:district": null,
            "description": "",
            "opening_hours": null,
            "phone": null,
            "branch": null,
            "amenity": "pastry",
            "mobile": null,
            "addr:street": null,
            "cuisine": null,
            "name": "Yavuz",
            "name:en": null,
            "name:uk": null,
            "name:de": null,
            "name:tr": null,
            "name:ru": null,
            "name:ar": null
        }
    },
    {
        "lat": 41.0981587,
        "lon": 28.8633565,
        "tags": {
            "addr:city": "İstanbul",
            "addr:district": null,
            "description": "",
            "opening_hours": null,
            "phone": null,
            "branch": null,
            "amenity": "pastry",
            "mobile": null,
            "addr:street": null,
            "cuisine": null,
            "name": "Şerifoğlu Baklava, Pasta ve Su böreği",
            "name:en": null,
            "name:uk": null,
            "name:de": null,
            "name:tr": null,
            "name:ru": null,
            "name:ar": null
        }
    },
    {
        "lat": 41.0808969,
        "lon": 28.9728121,
        "tags": {
            "addr:city": "İstanbul",
            "addr:district": null,
            "description": "",
            "opening_hours": null,
            "phone": null,
            "branch": null,
            "amenity": "pastry",
            "mobile": null,
            "addr:street": null,
            "cuisine": null,
            "name": "Huzur Pastanesi",
            "name:en": null,
            "name:uk": null,
            "name:de": null,
            "name:tr": null,
            "name:ru": null,
            "name:ar": null
        }
    },
    {
        "lat": 41.0812704,
        "lon": 28.9721928,
        "tags": {
            "addr:city": "İstanbul",
            "addr:district": null,
            "description": "",
            "opening_hours": null,
            "phone": null,
            "branch": null,
            "amenity": "pastry",
            "mobile": null,
            "addr:street": null,
            "cuisine": null,
            "name": "Hüseyin Balcıoğlu Pasta & Börek",
            "name:en": null,
            "name:uk": null,
            "name:de": null,
            "name:tr": null,
            "name:ru": null,
            "name:ar": null
        }
    },
    {
        "lat": 40.9697557,
        "lon": 29.0917314,
        "tags": {
            "addr:city": "İstanbul",
            "addr:district": "Kadıköy",
            "description": "",
            "opening_hours": null,
            "phone": null,
            "branch": null,
            "amenity": "pastry",
            "mobile": null,
            "addr:street": "Buket Sokağı",
            "cuisine": null,
            "name": "Pelit",
            "name:en": null,
            "name:uk": null,
            "name:de": null,
            "name:tr": null,
            "name:ru": null,
            "name:ar": null
        }
    },
    {
        "lat": 40.8769267,
        "lon": 29.1005389,
        "tags": {
            "addr:city": "İstanbul",
            "addr:district": null,
            "description": "",
            "opening_hours": null,
            "phone": null,
            "branch": null,
            "amenity": "pastry",
            "mobile": null,
            "addr:street": null,
            "cuisine": null,
            "name": "Firin",
            "name:en": null,
            "name:uk": null,
            "name:de": null,
            "name:tr": null,
            "name:ru": null,
            "name:ar": null
        }
    },
    {
        "lat": 40.9811354,
        "lon": 29.0836017,
        "tags": {
            "addr:city": "İstanbul",
            "addr:district": null,
            "description": "",
            "opening_hours": null,
            "phone": null,
            "branch": null,
            "amenity": "pastry",
            "mobile": null,
            "addr:street": null,
            "cuisine": null,
            "name": "Manolya Pastanesi",
            "name:en": null,
            "name:uk": null,
            "name:de": null,
            "name:tr": null,
            "name:ru": null,
            "name:ar": null
        }
    },
    {
        "lat": 41.1424642,
        "lon": 28.45974,
        "tags": {
            "addr:city": "İstanbul",
            "addr:district": null,
            "description": "",
            "opening_hours": null,
            "phone": null,
            "branch": null,
            "amenity": "pastry",
            "mobile": null,
            "addr:street": null,
            "cuisine": null,
            "name": "Fidan Pastanesi",
            "name:en": null,
            "name:uk": null,
            "name:de": null,
            "name:tr": null,
            "name:ru": null,
            "name:ar": null
        }
    },
    {
        "lat": 41.143012,
        "lon": 28.4601026,
        "tags": {
            "addr:city": "İstanbul",
            "addr:district": null,
            "description": "",
            "opening_hours": null,
            "phone": null,
            "branch": null,
            "amenity": "pastry",
            "mobile": null,
            "addr:street": null,
            "cuisine": null,
            "name": "Fırat Pastanesi",
            "name:en": null,
            "name:uk": null,
            "name:de": null,
            "name:tr": null,
            "name:ru": null,
            "name:ar": null
        }
    },
    {
        "lat": 41.1429568,
        "lon": 28.460063,
        "tags": {
            "addr:city": "İstanbul",
            "addr:district": null,
            "description": "",
            "opening_hours": null,
            "phone": null,
            "branch": null,
            "amenity": "pastry",
            "mobile": null,
            "addr:street": null,
            "cuisine": null,
            "name": "Nehir Pastaneleri",
            "name:en": null,
            "name:uk": null,
            "name:de": null,
            "name:tr": null,
            "name:ru": null,
            "name:ar": null
        }
    },
    {
        "lat": 41.0543426,
        "lon": 28.8378157,
        "tags": {
            "addr:city": "İstanbul",
            "addr:district": null,
            "description": "",
            "opening_hours": null,
            "phone": null,
            "branch": null,
            "amenity": "pastry",
            "mobile": null,
            "addr:street": null,
            "cuisine": null,
            "name": "Murat Pastanesi",
            "name:en": null,
            "name:uk": null,
            "name:de": null,
            "name:tr": null,
            "name:ru": null,
            "name:ar": null
        }
    },
    {
        "lat": 41.0338471,
        "lon": 28.8318365,
        "tags": {
            "addr:city": "İstanbul",
            "addr:district": null,
            "description": "",
            "opening_hours": null,
            "phone": null,
            "branch": null,
            "amenity": "pastry",
            "mobile": null,
            "addr:street": null,
            "cuisine": null,
            "name": "Güneş Pastanesi",
            "name:en": null,
            "name:uk": null,
            "name:de": null,
            "name:tr": null,
            "name:ru": null,
            "name:ar": null
        }
    },
    {
        "lat": 40.9672746,
        "lon": 29.093005,
        "tags": {
            "addr:city": "İstanbul",
            "addr:district": "Kadıköy",
            "description": "",
            "opening_hours": null,
            "phone": null,
            "branch": null,
            "amenity": "pastry",
            "mobile": null,
            "addr:street": "Kaya Sultan Sokağı",
            "cuisine": null,
            "name": "Ejder Pastaneleri",
            "name:en": null,
            "name:uk": null,
            "name:de": null,
            "name:tr": null,
            "name:ru": null,
            "name:ar": null
        }
    },
    {
        "lat": 40.9690632,
        "lon": 29.0753806,
        "tags": {
            "addr:city": "İstanbul",
            "addr:district": "Kadıköy",
            "description": "",
            "opening_hours": null,
            "phone": "+90 216 999 0 864",
            "branch": null,
            "amenity": "pastry",
            "mobile": null,
            "addr:street": "Eralp Sokağı",
            "cuisine": null,
            "name": "Kaptan Nili",
            "name:en": null,
            "name:uk": null,
            "name:de": null,
            "name:tr": null,
            "name:ru": null,
            "name:ar": null
        }
    },
    {
        "lat": 40.992484,
        "lon": 29.1215665,
        "tags": {
            "addr:city": "İstanbul",
            "addr:district": "Ataşehir",
            "description": "",
            "opening_hours": "Mo-Su 09:00-21:00",
            "phone": "02164564627",
            "branch": null,
            "amenity": "pastry",
            "mobile": null,
            "addr:street": "Ataşehir Bulvarı",
            "cuisine": null,
            "name": "Pelit Pastanesi",
            "name:en": null,
            "name:uk": null,
            "name:de": null,
            "name:tr": null,
            "name:ru": null,
            "name:ar": null
        }
    },
    {
        "lat": 41.0008996,
        "lon": 29.1238596,
        "tags": {
            "addr:city": "İstanbul",
            "addr:district": "Ümraniye",
            "description": "",
            "opening_hours": null,
            "phone": "216 415 82 75",
            "branch": null,
            "amenity": "pastry",
            "mobile": null,
            "addr:street": "İkbal Caddesi111",
            "cuisine": null,
            "name": "Cadde",
            "name:en": null,
            "name:uk": null,
            "name:de": null,
            "name:tr": null,
            "name:ru": null,
            "name:ar": null
        }
    },
    {
        "lat": 41.0828297,
        "lon": 28.9133918,
        "tags": {
            "addr:city": "İstanbul",
            "addr:district": null,
            "description": "",
            "opening_hours": null,
            "phone": null,
            "branch": null,
            "amenity": "pastry",
            "mobile": null,
            "addr:street": null,
            "cuisine": null,
            "name": "Kervan Pastanesi",
            "name:en": null,
            "name:uk": null,
            "name:de": null,
            "name:tr": null,
            "name:ru": null,
            "name:ar": null
        }
    },
    {
        "lat": 41.0762516,
        "lon": 28.9300127,
        "tags": {
            "addr:city": "İstanbul",
            "addr:district": null,
            "description": "",
            "opening_hours": null,
            "phone": null,
            "branch": null,
            "amenity": "pastry",
            "mobile": null,
            "addr:street": null,
            "cuisine": null,
            "name": "Çanga Pasta & Cafe",
            "name:en": null,
            "name:uk": null,
            "name:de": null,
            "name:tr": null,
            "name:ru": null,
            "name:ar": null
        }
    },
    {
        "lat": 41.055674,
        "lon": 29.0345865,
        "tags": {
            "addr:city": "İstanbul",
            "addr:district": "Beşiktaş",
            "description": "",
            "opening_hours": null,
            "phone": "+90 212 265 0888",
            "branch": null,
            "amenity": "pastry",
            "mobile": null,
            "addr:street": "Muallim Naci Caddesi",
            "cuisine": null,
            "name": "Qurabiye",
            "name:en": null,
            "name:uk": null,
            "name:de": null,
            "name:tr": null,
            "name:ru": null,
            "name:ar": null
        }
    },
    {
        "lat": 40.9747834,
        "lon": 29.0756601,
        "tags": {
            "addr:city": "İstanbul",
            "addr:district": "Kadıköy",
            "description": "",
            "opening_hours": null,
            "phone": null,
            "branch": null,
            "amenity": "pastry",
            "mobile": null,
            "addr:street": "Ethem Efendi Caddesi",
            "cuisine": null,
            "name": "Çelebihan Baklava",
            "name:en": null,
            "name:uk": null,
            "name:de": null,
            "name:tr": null,
            "name:ru": null,
            "name:ar": null
        }
    },
    {
        "lat": 41.0803449,
        "lon": 28.9440809,
        "tags": {
            "addr:city": "İstanbul",
            "addr:district": null,
            "description": "",
            "opening_hours": null,
            "phone": null,
            "branch": null,
            "amenity": "pastry",
            "mobile": null,
            "addr:street": null,
            "cuisine": null,
            "name": "A'saftat Anteplioğlu Tatlı Baklava Pasta",
            "name:en": null,
            "name:uk": null,
            "name:de": null,
            "name:tr": null,
            "name:ru": null,
            "name:ar": null
        }
    },
    {
        "lat": 41.0237499,
        "lon": 29.0394043,
        "tags": {
            "addr:city": "İstanbul",
            "addr:district": "Üsküdar",
            "description": "",
            "opening_hours": "06:00-00:00",
            "phone": null,
            "branch": null,
            "amenity": "pastry",
            "mobile": null,
            "addr:street": "Kısıklı Caddesi",
            "cuisine": null,
            "name": "Ganache Altunizade Merkez",
            "name:en": null,
            "name:uk": null,
            "name:de": null,
            "name:tr": null,
            "name:ru": null,
            "name:ar": null
        }
    },
    {
        "lat": 41.2717058,
        "lon": 28.4830639,
        "tags": {
            "addr:city": "İstanbul",
            "addr:district": null,
            "description": "",
            "opening_hours": null,
            "phone": null,
            "branch": null,
            "amenity": "pastry",
            "mobile": null,
            "addr:street": null,
            "cuisine": null,
            "name": "Çanakça Pastanesi 2",
            "name:en": null,
            "name:uk": null,
            "name:de": null,
            "name:tr": null,
            "name:ru": null,
            "name:ar": null
        }
    },
    {
        "lat": 40.9843023,
        "lon": 29.0242069,
        "tags": {
            "addr:city": "İstanbul",
            "addr:district": null,
            "description": "",
            "opening_hours": null,
            "phone": null,
            "branch": null,
            "amenity": "pastry",
            "mobile": null,
            "addr:street": "Moda Caddesi",
            "cuisine": null,
            "name": "Moda Elif Pastanesi",
            "name:en": null,
            "name:uk": null,
            "name:de": null,
            "name:tr": null,
            "name:ru": null,
            "name:ar": null
        }
    },
    {
        "lat": 41.0058942,
        "lon": 29.0364379,
        "tags": {
            "addr:city": "İstanbul",
            "addr:district": "Kadıköy",
            "description": "",
            "opening_hours": null,
            "phone": null,
            "branch": null,
            "amenity": "pastry",
            "mobile": null,
            "addr:street": "Salih Omurtak Sokağı",
            "cuisine": null,
            "name": "Beyzade Künefe & Kahvaltı Koşuyolu",
            "name:en": null,
            "name:uk": null,
            "name:de": null,
            "name:tr": null,
            "name:ru": null,
            "name:ar": null
        }
    },
    {
        "lat": 40.9614922,
        "lon": 29.0840924,
        "tags": {
            "addr:city": "İstanbul",
            "addr:district": null,
            "description": "",
            "opening_hours": null,
            "phone": null,
            "branch": null,
            "amenity": "pastry",
            "mobile": null,
            "addr:street": null,
            "cuisine": null,
            "name": "Cevizade Baklava & Kuruyemiş",
            "name:en": null,
            "name:uk": null,
            "name:de": null,
            "name:tr": null,
            "name:ru": null,
            "name:ar": null
        }
    },
    {
        "lat": 40.9280436,
        "lon": 29.3089816,
        "tags": {
            "addr:city": "İstanbul",
            "addr:district": "Pendik",
            "description": "",
            "opening_hours": null,
            "phone": "+90 216 428 92 92",
            "branch": null,
            "amenity": "pastry",
            "mobile": null,
            "addr:street": "Osmanlı Bulvarı",
            "cuisine": null,
            "name": "Kadayıfzade",
            "name:en": null,
            "name:uk": null,
            "name:de": null,
            "name:tr": null,
            "name:ru": null,
            "name:ar": null
        }
    },
    {
        "lat": 40.9277824,
        "lon": 29.310781,
        "tags": {
            "addr:city": "İstanbul",
            "addr:district": "Pendik",
            "description": "",
            "opening_hours": null,
            "phone": null,
            "branch": null,
            "amenity": "pastry",
            "mobile": null,
            "addr:street": null,
            "cuisine": null,
            "name": "Faruk Güllüoğlu",
            "name:en": null,
            "name:uk": null,
            "name:de": null,
            "name:tr": null,
            "name:ru": null,
            "name:ar": null
        }
    },
    {
        "lat": 40.9663752,
        "lon": 29.0817958,
        "tags": {
            "addr:city": "İstanbul",
            "addr:district": null,
            "description": "",
            "opening_hours": null,
            "phone": null,
            "branch": null,
            "amenity": "pastry",
            "mobile": null,
            "addr:street": null,
            "cuisine": null,
            "name": "Manolya Pastanesi",
            "name:en": null,
            "name:uk": null,
            "name:de": null,
            "name:tr": null,
            "name:ru": null,
            "name:ar": null
        }
    },
    {
        "lat": 41.0734124,
        "lon": 29.0585886,
        "tags": {
            "addr:city": "İstanbul",
            "addr:district": "Üsküdar",
            "description": "",
            "opening_hours": null,
            "phone": null,
            "branch": null,
            "amenity": "pastry",
            "mobile": null,
            "addr:street": "Kandilli İskele Caddesi",
            "cuisine": null,
            "name": "Kandilli Pastanesi",
            "name:en": null,
            "name:uk": null,
            "name:de": null,
            "name:tr": null,
            "name:ru": null,
            "name:ar": null
        }
    },
    {
        "lat": 41.0008595,
        "lon": 28.6942296,
        "tags": {
            "addr:city": "İstanbul",
            "addr:district": "Esenyurt",
            "description": "",
            "opening_hours": null,
            "phone": null,
            "branch": null,
            "amenity": "pastry",
            "mobile": null,
            "addr:street": "64. Sokak",
            "cuisine": null,
            "name": "Ardıç Pasta Börek Kafe",
            "name:en": null,
            "name:uk": null,
            "name:de": null,
            "name:tr": null,
            "name:ru": null,
            "name:ar": null
        }
    },
    {
        "lat": 41.0017658,
        "lon": 28.6944077,
        "tags": {
            "addr:city": "İstanbul",
            "addr:district": "Esenyurt",
            "description": "",
            "opening_hours": null,
            "phone": null,
            "branch": null,
            "amenity": "pastry",
            "mobile": null,
            "addr:street": "64. Sokak",
            "cuisine": null,
            "name": "İsmet Gümüş Baklavaları",
            "name:en": null,
            "name:uk": null,
            "name:de": null,
            "name:tr": null,
            "name:ru": null,
            "name:ar": null
        }
    },
    {
        "lat": 41.0741119,
        "lon": 29.0704194,
        "tags": {
            "addr:city": "İstanbul",
            "addr:district": null,
            "description": "",
            "opening_hours": null,
            "phone": null,
            "branch": null,
            "amenity": "pastry",
            "mobile": null,
            "addr:street": null,
            "cuisine": null,
            "name": "Baklavacı Zaaki",
            "name:en": null,
            "name:uk": null,
            "name:de": null,
            "name:tr": null,
            "name:ru": null,
            "name:ar": null
        }
    },
    {
        "lat": 41.0034606,
        "lon": 28.6928827,
        "tags": {
            "addr:city": "İstanbul",
            "addr:district": null,
            "description": "",
            "opening_hours": null,
            "phone": null,
            "branch": null,
            "amenity": "pastry",
            "mobile": null,
            "addr:street": null,
            "cuisine": null,
            "name": "Bahri Usta pasta&tatlı",
            "name:en": null,
            "name:uk": null,
            "name:de": null,
            "name:tr": null,
            "name:ru": null,
            "name:ar": null
        }
    },
    {
        "lat": 41.1788399,
        "lon": 28.8910765,
        "tags": {
            "addr:city": "İstanbul",
            "addr:district": null,
            "description": "",
            "opening_hours": null,
            "phone": null,
            "branch": null,
            "amenity": "pastry",
            "mobile": null,
            "addr:street": null,
            "cuisine": null,
            "name": "Backhaus",
            "name:en": null,
            "name:uk": null,
            "name:de": null,
            "name:tr": null,
            "name:ru": null,
            "name:ar": null
        }
    },
    {
        "lat": 41.0276204,
        "lon": 29.0930946,
        "tags": {
            "addr:city": "İstanbul",
            "addr:district": null,
            "description": "",
            "opening_hours": null,
            "phone": null,
            "branch": null,
            "amenity": "pastry",
            "mobile": null,
            "addr:street": null,
            "cuisine": null,
            "name": "Nur Pastaneleri",
            "name:en": null,
            "name:uk": null,
            "name:de": null,
            "name:tr": null,
            "name:ru": null,
            "name:ar": null
        }
    },
    {
        "lat": 40.9923702,
        "lon": 29.1197171,
        "tags": {
            "addr:city": "İstanbul",
            "addr:district": null,
            "description": "",
            "opening_hours": null,
            "phone": null,
            "branch": null,
            "amenity": "pastry",
            "mobile": null,
            "addr:street": null,
            "cuisine": null,
            "name": "Divan",
            "name:en": null,
            "name:uk": null,
            "name:de": null,
            "name:tr": null,
            "name:ru": null,
            "name:ar": null
        }
    },
    {
        "lat": 41.026213,
        "lon": 28.9795663,
        "tags": {
            "addr:city": "İstanbul",
            "addr:district": null,
            "description": "",
            "opening_hours": "Mo-Su 08:00-22:00",
            "phone": null,
            "branch": null,
            "amenity": "pastry",
            "mobile": null,
            "addr:street": null,
            "cuisine": null,
            "name": "Köşkeroğlu Karaköy",
            "name:en": null,
            "name:uk": null,
            "name:de": null,
            "name:tr": null,
            "name:ru": null,
            "name:ar": null
        }
    },
    {
        "lat": 40.9907031,
        "lon": 29.0292349,
        "tags": {
            "addr:city": "İstanbul",
            "addr:district": "Kadıköy",
            "description": "",
            "opening_hours": null,
            "phone": null,
            "branch": null,
            "amenity": "pastry",
            "mobile": null,
            "addr:street": "Söğütlüçeşme Caddesi",
            "cuisine": null,
            "name": "Faruk Güllüoğlu",
            "name:en": null,
            "name:uk": null,
            "name:de": null,
            "name:tr": null,
            "name:ru": null,
            "name:ar": null
        }
    },
    {
        "lat": 40.9769415,
        "lon": 29.1350386,
        "tags": {
            "addr:city": "İstanbul",
            "addr:district": null,
            "description": "",
            "opening_hours": null,
            "phone": null,
            "branch": null,
            "amenity": "pastry",
            "mobile": null,
            "addr:street": null,
            "cuisine": null,
            "name": "Diyar Burma Tatlıcısı",
            "name:en": null,
            "name:uk": null,
            "name:de": null,
            "name:tr": null,
            "name:ru": null,
            "name:ar": null
        }
    },
    {
        "lat": 41.0479631,
        "lon": 28.915178,
        "tags": {
            "addr:city": "İstanbul",
            "addr:district": "Eyüpsultan",
            "description": "",
            "opening_hours": null,
            "phone": null,
            "branch": "Rami Kütüphanesi",
            "amenity": "pastry",
            "mobile": null,
            "addr:street": "Rami Kışla Caddesi",
            "cuisine": null,
            "name": "Simit Sarayı",
            "name:en": null,
            "name:uk": null,
            "name:de": null,
            "name:tr": null,
            "name:ru": null,
            "name:ar": null
        }
    },
    {
        "lat": 40.9847107,
        "lon": 29.0271442,
        "tags": {
            "addr:city": "İstanbul",
            "addr:district": null,
            "description": "",
            "opening_hours": null,
            "phone": null,
            "branch": null,
            "amenity": "pastry",
            "mobile": null,
            "addr:street": null,
            "cuisine": null,
            "name": "Beylerbeyi Profiterol",
            "name:en": null,
            "name:uk": null,
            "name:de": null,
            "name:tr": null,
            "name:ru": null,
            "name:ar": null
        }
    },
    {
        "lat": 41.022348,
        "lon": 28.5213735,
        "tags": {
            "addr:city": "İstanbul",
            "addr:district": null,
            "description": "",
            "opening_hours": null,
            "phone": null,
            "branch": null,
            "amenity": "pastry",
            "mobile": null,
            "addr:street": null,
            "cuisine": null,
            "name": "Faruk Güllüoğlu",
            "name:en": null,
            "name:uk": null,
            "name:de": null,
            "name:tr": null,
            "name:ru": null,
            "name:ar": null
        }
    },
    {
        "lat": 40.9966827,
        "lon": 29.0742619,
        "tags": {
            "addr:city": "İstanbul",
            "addr:district": null,
            "description": "",
            "opening_hours": null,
            "phone": null,
            "branch": null,
            "amenity": "pastry",
            "mobile": null,
            "addr:street": null,
            "cuisine": null,
            "name": "Değirmen Pasta & Cafe",
            "name:en": null,
            "name:uk": null,
            "name:de": null,
            "name:tr": null,
            "name:ru": null,
            "name:ar": null
        }
    },
    {
        "lat": 40.9717128,
        "lon": 29.0771573,
        "tags": {
            "addr:city": "İstanbul",
            "addr:district": "Kadıköy",
            "description": "",
            "opening_hours": null,
            "phone": null,
            "branch": null,
            "amenity": "pastry",
            "mobile": null,
            "addr:street": "Erenköy İstasyon Caddesi",
            "cuisine": null,
            "name": "Hacıbey Baklava & Dondurma",
            "name:en": null,
            "name:uk": null,
            "name:de": null,
            "name:tr": null,
            "name:ru": null,
            "name:ar": null
        }
    },
    {
        "lat": 40.9814021,
        "lon": 29.0679681,
        "tags": {
            "addr:city": "İstanbul",
            "addr:district": "Kadıköy",
            "description": "",
            "opening_hours": null,
            "phone": null,
            "branch": null,
            "amenity": "pastry",
            "mobile": null,
            "addr:street": "Tütüncü Mehmet Efendi Caddesi",
            "cuisine": null,
            "name": "Beylerbeyi Profiterol",
            "name:en": null,
            "name:uk": null,
            "name:de": null,
            "name:tr": null,
            "name:ru": null,
            "name:ar": null
        }
    },
    {
        "lat": 41.0990754,
        "lon": 28.900086,
        "tags": {
            "addr:city": "İstanbul",
            "addr:district": null,
            "description": "",
            "opening_hours": null,
            "phone": null,
            "branch": null,
            "amenity": "pastry",
            "mobile": null,
            "addr:street": null,
            "cuisine": null,
            "name": "Dilek Pastanesi",
            "name:en": null,
            "name:uk": null,
            "name:de": null,
            "name:tr": null,
            "name:ru": null,
            "name:ar": null
        }
    },
    {
        "lat": 41.0811712,
        "lon": 28.8773439,
        "tags": {
            "addr:city": "İstanbul",
            "addr:district": null,
            "description": "",
            "opening_hours": null,
            "phone": null,
            "branch": null,
            "amenity": "pastry",
            "mobile": null,
            "addr:street": null,
            "cuisine": null,
            "name": "Faruk Güllüoğlu",
            "name:en": null,
            "name:uk": null,
            "name:de": null,
            "name:tr": null,
            "name:ru": null,
            "name:ar": null
        }
    },
    {
        "lat": 40.9759449,
        "lon": 29.0475377,
        "tags": {
            "addr:city": "İstanbul",
            "addr:district": "Kadıköy",
            "description": "",
            "opening_hours": null,
            "phone": null,
            "branch": null,
            "amenity": "pastry",
            "mobile": null,
            "addr:street": null,
            "cuisine": null,
            "name": "Elan Pastanesi",
            "name:en": null,
            "name:uk": null,
            "name:de": null,
            "name:tr": null,
            "name:ru": null,
            "name:ar": null
        }
    },
    {
        "lat": 40.9791871,
        "lon": 29.0839051,
        "tags": {
            "addr:city": "İstanbul",
            "addr:district": "Kadıköy",
            "description": "",
            "opening_hours": "Mo-Sa 08:00-20:00",
            "phone": null,
            "branch": null,
            "amenity": "pastry",
            "mobile": null,
            "addr:street": "Bayar Caddesi",
            "cuisine": null,
            "name": "Nar Bakery",
            "name:en": null,
            "name:uk": null,
            "name:de": null,
            "name:tr": null,
            "name:ru": null,
            "name:ar": null
        }
    },
    {
        "lat": 41.0200536,
        "lon": 28.791065,
        "tags": {
            "addr:city": "İstanbul",
            "addr:district": "Küçükçekmece",
            "description": "",
            "opening_hours": "Mo-Su 06:30-00:00",
            "phone": null,
            "branch": null,
            "amenity": "pastry",
            "mobile": null,
            "addr:street": "Halkalı Caddesi",
            "cuisine": null,
            "name": "Yağcıoğlu",
            "name:en": null,
            "name:uk": null,
            "name:de": null,
            "name:tr": null,
            "name:ru": null,
            "name:ar": null
        }
    },
    {
        "lat": 41.0907082,
        "lon": 29.0050477,
        "tags": {
            "addr:city": "İstanbul",
            "addr:district": null,
            "description": "",
            "opening_hours": null,
            "phone": null,
            "branch": null,
            "amenity": "pastry",
            "mobile": null,
            "addr:street": null,
            "cuisine": null,
            "name": "Düzgünler",
            "name:en": null,
            "name:uk": null,
            "name:de": null,
            "name:tr": null,
            "name:ru": null,
            "name:ar": null
        }
    },
    {
        "lat": 41.0676794,
        "lon": 28.9994849,
        "tags": {
            "addr:city": "İstanbul",
            "addr:district": "Şişli",
            "description": "",
            "opening_hours": "11:00-23:00",
            "phone": "+90 530 427 8205",
            "branch": null,
            "amenity": "pastry",
            "mobile": null,
            "addr:street": "Raşit Rıza Sokağı",
            "cuisine": null,
            "name": "Culina Patisserie",
            "name:en": null,
            "name:uk": null,
            "name:de": null,
            "name:tr": null,
            "name:ru": null,
            "name:ar": null
        }
    },
    {
        "lat": 41.0387731,
        "lon": 28.9107031,
        "tags": {
            "addr:city": "İstanbul",
            "addr:district": "Bayrampaşa",
            "description": "",
            "opening_hours": "06:00-15:00",
            "phone": "+90 212 577 0113",
            "branch": null,
            "amenity": "pastry",
            "mobile": null,
            "addr:street": "Atışalanı Caddesi",
            "cuisine": null,
            "name": "Üsküp Simit Poğaça",
            "name:en": null,
            "name:uk": null,
            "name:de": null,
            "name:tr": null,
            "name:ru": null,
            "name:ar": null
        }
    },
    {
        "lat": 41.1007318,
        "lon": 28.8991189,
        "tags": {
            "addr:city": "İstanbul",
            "addr:district": "Sultangazi",
            "description": "",
            "opening_hours": null,
            "phone": null,
            "branch": null,
            "amenity": "pastry",
            "mobile": null,
            "addr:street": "İsmetpaşa Caddesi",
            "cuisine": null,
            "name": "İrten Börek",
            "name:en": null,
            "name:uk": null,
            "name:de": null,
            "name:tr": null,
            "name:ru": null,
            "name:ar": null
        }
    },
    {
        "lat": 40.9523293,
        "lon": 29.1005436,
        "tags": {
            "addr:city": "İstanbul",
            "addr:district": null,
            "description": "",
            "opening_hours": null,
            "phone": null,
            "branch": null,
            "amenity": "pastry",
            "mobile": null,
            "addr:street": "Galipbey Cd.",
            "cuisine": null,
            "name": "Sweet and more",
            "name:en": null,
            "name:uk": null,
            "name:de": null,
            "name:tr": null,
            "name:ru": null,
            "name:ar": null
        }
    },
    {
        "lat": 40.9924864,
        "lon": 29.1051695,
        "tags": {
            "addr:city": "İstanbul",
            "addr:district": "Ataşehir",
            "description": "",
            "opening_hours": null,
            "phone": null,
            "branch": null,
            "amenity": "pastry",
            "mobile": null,
            "addr:street": "Ihlamur Bulvarı",
            "cuisine": null,
            "name": "The Churroll",
            "name:en": null,
            "name:uk": null,
            "name:de": null,
            "name:tr": null,
            "name:ru": null,
            "name:ar": null
        }
    },
    {
        "lat": 41.0905114,
        "lon": 28.8113221,
        "tags": {
            "addr:city": "İstanbul",
            "addr:district": null,
            "description": "",
            "opening_hours": null,
            "phone": null,
            "branch": null,
            "amenity": "pastry",
            "mobile": null,
            "addr:street": null,
            "cuisine": null,
            "name": "Lellini Patisserie",
            "name:en": null,
            "name:uk": null,
            "name:de": null,
            "name:tr": null,
            "name:ru": null,
            "name:ar": null
        }
    },
    {
        "lat": 41.1738081,
        "lon": 29.6100309,
        "tags": {
            "addr:city": "İstanbul",
            "addr:district": null,
            "description": "",
            "opening_hours": null,
            "phone": null,
            "branch": null,
            "amenity": "pastry",
            "mobile": null,
            "addr:street": null,
            "cuisine": null,
            "name": "Lilyum",
            "name:en": null,
            "name:uk": null,
            "name:de": null,
            "name:tr": null,
            "name:ru": null,
            "name:ar": null
        }
    },
    {
        "lat": 40.9278133,
        "lon": 29.3101524,
        "tags": {
            "addr:city": "İstanbul",
            "addr:district": "Pendik",
            "description": "",
            "opening_hours": null,
            "phone": null,
            "branch": null,
            "amenity": "pastry",
            "mobile": null,
            "addr:street": null,
            "cuisine": null,
            "name": "Pelit",
            "name:en": null,
            "name:uk": null,
            "name:de": null,
            "name:tr": null,
            "name:ru": null,
            "name:ar": null
        }
    },
    {
        "lat": 41.0355735,
        "lon": 28.8340032,
        "tags": {
            "addr:city": "İstanbul",
            "addr:district": null,
            "description": "",
            "opening_hours": null,
            "phone": null,
            "branch": null,
            "amenity": "pastry",
            "mobile": null,
            "addr:street": null,
            "cuisine": null,
            "name": "Ünver Börek",
            "name:en": null,
            "name:uk": null,
            "name:de": null,
            "name:tr": null,
            "name:ru": null,
            "name:ar": null
        }
    },
    {
        "lat": 41.0328298,
        "lon": 28.8339267,
        "tags": {
            "addr:city": "İstanbul",
            "addr:district": null,
            "description": "",
            "opening_hours": null,
            "phone": null,
            "branch": null,
            "amenity": "pastry",
            "mobile": null,
            "addr:street": null,
            "cuisine": null,
            "name": "Bülent Börekçilik",
            "name:en": null,
            "name:uk": null,
            "name:de": null,
            "name:tr": null,
            "name:ru": null,
            "name:ar": null
        }
    },
    {
        "lat": 41.0342407,
        "lon": 28.8266398,
        "tags": {
            "addr:city": "İstanbul",
            "addr:district": null,
            "description": "",
            "opening_hours": null,
            "phone": null,
            "branch": null,
            "amenity": "pastry",
            "mobile": null,
            "addr:street": null,
            "cuisine": null,
            "name": "Seyran",
            "name:en": null,
            "name:uk": null,
            "name:de": null,
            "name:tr": null,
            "name:ru": null,
            "name:ar": null
        }
    },
    {
        "lat": 41.0245005,
        "lon": 29.092101,
        "tags": {
            "addr:city": "İstanbul",
            "addr:district": null,
            "description": "",
            "opening_hours": null,
            "phone": null,
            "branch": null,
            "amenity": "pastry",
            "mobile": null,
            "addr:street": null,
            "cuisine": null,
            "name": "Safa",
            "name:en": null,
            "name:uk": null,
            "name:de": null,
            "name:tr": "Safa",
            "name:ru": null,
            "name:ar": null
        }
    },
    {
        "lat": 40.9005484,
        "lon": 29.1666292,
        "tags": {
            "addr:city": "İstanbul",
            "addr:district": null,
            "description": "",
            "opening_hours": null,
            "phone": null,
            "branch": null,
            "amenity": "pastry",
            "mobile": null,
            "addr:street": null,
            "cuisine": null,
            "name": "Dragos Pastane",
            "name:en": null,
            "name:uk": null,
            "name:de": null,
            "name:tr": null,
            "name:ru": null,
            "name:ar": null
        }
    },
    {
        "lat": 40.8866494,
        "lon": 29.2193969,
        "tags": {
            "addr:city": "İstanbul",
            "addr:district": null,
            "description": "",
            "opening_hours": null,
            "phone": null,
            "branch": null,
            "amenity": "pastry",
            "mobile": null,
            "addr:street": null,
            "cuisine": null,
            "name": "Sahra Pasta & Cafe",
            "name:en": null,
            "name:uk": null,
            "name:de": null,
            "name:tr": null,
            "name:ru": null,
            "name:ar": null
        }
    },
    {
        "lat": 40.9929329,
        "lon": 29.2312426,
        "tags": {
            "addr:city": "İstanbul",
            "addr:district": null,
            "description": "",
            "opening_hours": null,
            "phone": null,
            "branch": null,
            "amenity": "pastry",
            "mobile": null,
            "addr:street": null,
            "cuisine": null,
            "name": "Mekan Börek",
            "name:en": null,
            "name:uk": null,
            "name:de": null,
            "name:tr": null,
            "name:ru": null,
            "name:ar": null
        }
    },
    {
        "lat": 40.9906801,
        "lon": 29.2304576,
        "tags": {
            "addr:city": "İstanbul",
            "addr:district": null,
            "description": "",
            "opening_hours": null,
            "phone": null,
            "branch": null,
            "amenity": "pastry",
            "mobile": null,
            "addr:street": null,
            "cuisine": null,
            "name": "Lavin Bakery",
            "name:en": null,
            "name:uk": null,
            "name:de": null,
            "name:tr": null,
            "name:ru": null,
            "name:ar": null
        }
    },
    {
        "lat": 40.9878803,
        "lon": 29.232406,
        "tags": {
            "addr:city": "İstanbul",
            "addr:district": null,
            "description": "",
            "opening_hours": null,
            "phone": null,
            "branch": null,
            "amenity": "pastry",
            "mobile": null,
            "addr:street": null,
            "cuisine": null,
            "name": "Peksimet Eyüpoğlu",
            "name:en": null,
            "name:uk": null,
            "name:de": null,
            "name:tr": null,
            "name:ru": null,
            "name:ar": null
        }
    },
    {
        "lat": 41.0660669,
        "lon": 28.905279,
        "tags": {
            "addr:city": "İstanbul",
            "addr:district": null,
            "description": "",
            "opening_hours": "Mo-Su 05:00-00:00",
            "phone": null,
            "branch": null,
            "amenity": "pastry",
            "mobile": null,
            "addr:street": "18. Sokak",
            "cuisine": null,
            "name": "Cennet Pastanesi",
            "name:en": null,
            "name:uk": null,
            "name:de": null,
            "name:tr": null,
            "name:ru": null,
            "name:ar": null
        }
    },
    {
        "lat": 41.0138422,
        "lon": 28.9768951,
        "tags": {
            "addr:city": "İstanbul",
            "addr:district": null,
            "description": "",
            "opening_hours": null,
            "phone": null,
            "branch": null,
            "amenity": "pastry",
            "mobile": null,
            "addr:street": null,
            "cuisine": null,
            "name": "Baklavacı Diyar Usta",
            "name:en": null,
            "name:uk": null,
            "name:de": null,
            "name:tr": null,
            "name:ru": null,
            "name:ar": null
        }
    },
    {
        "lat": 41.0141798,
        "lon": 28.9765528,
        "tags": {
            "addr:city": "İstanbul",
            "addr:district": null,
            "description": "",
            "opening_hours": null,
            "phone": null,
            "branch": null,
            "amenity": "pastry",
            "mobile": null,
            "addr:street": null,
            "cuisine": null,
            "name": "Tambu Sanat Baklava",
            "name:en": null,
            "name:uk": null,
            "name:de": null,
            "name:tr": null,
            "name:ru": null,
            "name:ar": null
        }
    },
    {
        "lat": 41.0392673,
        "lon": 28.9652757,
        "tags": {
            "addr:city": "İstanbul",
            "addr:district": null,
            "description": "",
            "opening_hours": null,
            "phone": null,
            "branch": null,
            "amenity": "pastry",
            "mobile": null,
            "addr:street": null,
            "cuisine": null,
            "name": "Demir pastanesi",
            "name:en": null,
            "name:uk": null,
            "name:de": null,
            "name:tr": null,
            "name:ru": null,
            "name:ar": null
        }
    },
    {
        "lat": 40.9149849,
        "lon": 29.3028154,
        "tags": {
            "addr:city": "İstanbul",
            "addr:district": "Pendik",
            "description": "",
            "opening_hours": null,
            "phone": null,
            "branch": null,
            "amenity": "pastry",
            "mobile": null,
            "addr:street": "Ankara Caddesi",
            "cuisine": null,
            "name": "Antephan Künefe",
            "name:en": null,
            "name:uk": null,
            "name:de": null,
            "name:tr": null,
            "name:ru": null,
            "name:ar": null
        }
    },
    {
        "lat": 40.978051,
        "lon": 29.1257927,
        "tags": {
            "addr:city": "İstanbul",
            "addr:district": "Ataşehir",
            "description": "",
            "opening_hours": null,
            "phone": null,
            "branch": null,
            "amenity": "pastry",
            "mobile": null,
            "addr:street": "Kayışdağı Caddesi",
            "cuisine": null,
            "name": "Manolya Pastanesi",
            "name:en": null,
            "name:uk": null,
            "name:de": null,
            "name:tr": null,
            "name:ru": null,
            "name:ar": null
        }
    },
    {
        "lat": 40.9815318,
        "lon": 29.0833685,
        "tags": {
            "addr:city": "İstanbul",
            "addr:district": null,
            "description": "",
            "opening_hours": null,
            "phone": null,
            "branch": null,
            "amenity": "pastry",
            "mobile": null,
            "addr:street": null,
            "cuisine": null,
            "name": "Emiroğlu",
            "name:en": null,
            "name:uk": null,
            "name:de": null,
            "name:tr": null,
            "name:ru": null,
            "name:ar": null
        }
    },
    {
        "lat": 40.981234,
        "lon": 29.0898613,
        "tags": {
            "addr:city": "İstanbul",
            "addr:district": "Kadıköy",
            "description": "",
            "opening_hours": null,
            "phone": null,
            "branch": null,
            "amenity": "pastry",
            "mobile": null,
            "addr:street": "Atatürk Caddesi",
            "cuisine": null,
            "name": "Görgülü Pastanesi",
            "name:en": null,
            "name:uk": null,
            "name:de": null,
            "name:tr": null,
            "name:ru": null,
            "name:ar": null
        }
    },
    {
        "lat": 40.9775704,
        "lon": 29.0860993,
        "tags": {
            "addr:city": "istanbul",
            "addr:district": "Kadıköy",
            "description": "",
            "opening_hours": null,
            "phone": null,
            "branch": null,
            "amenity": "cafe",
            "mobile": null,
            "addr:street": "Bayar Caddesi",
            "cuisine": null,
            "name": "Gülpembe Pasta Kafe",
            "name:en": null,
            "name:uk": null,
            "name:de": null,
            "name:tr": null,
            "name:ru": null,
            "name:ar": null
        }
    },
    {
        "lat": 41.0229007,
        "lon": 28.9760947,
        "tags": {
            "addr:city": "İstanbul",
            "addr:district": null,
            "description": "",
            "opening_hours": null,
            "phone": null,
            "branch": null,
            "amenity": "pastry",
            "mobile": null,
            "addr:street": null,
            "cuisine": null,
            "name": "Köşkeroğlu",
            "name:en": null,
            "name:uk": null,
            "name:de": null,
            "name:tr": null,
            "name:ru": null,
            "name:ar": null
        }
    },
    {
        "lat": 41.023069,
        "lon": 28.9768687,
        "tags": {
            "addr:city": "İstanbul",
            "addr:district": null,
            "description": "",
            "opening_hours": null,
            "phone": null,
            "branch": null,
            "amenity": "pastry",
            "mobile": null,
            "addr:street": null,
            "cuisine": null,
            "name": "Faruk Güllüoğlu",
            "name:en": null,
            "name:uk": null,
            "name:de": null,
            "name:tr": null,
            "name:ru": null,
            "name:ar": null
        }
    }
]