[
    {
        "lat": 40.9242017,
        "lon": 29.1324949,
        "tags": {
            "addr:city": "İstanbul",
            "addr:district": null,
            "description": "",
            "opening_hours": null,
            "phone": null,
            "branch": null,
            "amenity": "perfumery",
            "mobile": null,
            "addr:street": null,
            "cuisine": null,
            "name": "Jully",
            "name:en": null,
            "name:uk": null,
            "name:de": null,
            "name:tr": null,
            "name:ru": null,
            "name:ar": null
        }
    },
    {
        "lat": 41.0351771,
        "lon": 28.9812,
        "tags": {
            "addr:city": "İstanbul",
            "addr:district": null,
            "description": "",
            "opening_hours": null,
            "phone": null,
            "branch": null,
            "amenity": "perfumery",
            "mobile": null,
            "addr:street": null,
            "cuisine": null,
            "name": "L'adresse Des Parfums",
            "name:en": null,
            "name:uk": null,
            "name:de": null,
            "name:tr": null,
            "name:ru": null,
            "name:ar": null
        }
    },
    {
        "lat": 40.9972668,
        "lon": 28.9296637,
        "tags": {
            "addr:city": "Istanbul",
            "addr:district": "Fatih",
            "description": "",
            "opening_hours": null,
            "phone": "05413053371",
            "branch": null,
            "amenity": "perfumery",
            "mobile": null,
            "addr:street": "Feridun Kılıç Sokak",
            "cuisine": null,
            "name": "Morisol Perfume",
            "name:en": null,
            "name:uk": null,
            "name:de": null,
            "name:tr": null,
            "name:ru": null,
            "name:ar": "موريسول للعطور"
        }
    },
    {
        "lat": 41.0096978,
        "lon": 28.9567477,
        "tags": {
            "addr:city": "Istanbul",
            "addr:district": "Turkey",
            "description": "",
            "opening_hours": "mo-sa 09:00-22:00",
            "phone": null,
            "branch": null,
            "amenity": "perfumery",
            "mobile": null,
            "addr:street": "Ordu Caddesi",
            "cuisine": null,
            "name": "Bargello",
            "name:en": null,
            "name:uk": null,
            "name:de": null,
            "name:tr": null,
            "name:ru": null,
            "name:ar": null
        }
    },
    {
        "lat": 41.0098032,
        "lon": 28.9540252,
        "tags": {
            "addr:city": "Istanbul",
            "addr:district": "Turkey",
            "description": "",
            "opening_hours": "mo-sa 09:00-23:00",
            "phone": null,
            "branch": null,
            "amenity": "perfumery",
            "mobile": null,
            "addr:street": "Selimpaşa Sokak",
            "cuisine": null,
            "name": "Eyfel Perfume",
            "name:en": null,
            "name:uk": null,
            "name:de": null,
            "name:tr": null,
            "name:ru": null,
            "name:ar": "عطور ايفل"
        }
    },
    {
        "lat": 41.0246009,
        "lon": 28.9412794,
        "tags": {
            "addr:city": "Istanbul",
            "addr:district": "Turkey",
            "description": "",
            "opening_hours": "mo-sa 09:00-21:00",
            "phone": null,
            "branch": null,
            "amenity": "perfumery",
            "mobile": null,
            "addr:street": "Fevzi Paşa Caddesi",
            "cuisine": null,
            "name": "Yasemin Şham Parfüm",
            "name:en": null,
            "name:uk": null,
            "name:de": null,
            "name:tr": null,
            "name:ru": null,
            "name:ar": "ياسمين الشام للعطورات"
        }
    },
    {
        "lat": 41.0267357,
        "lon": 28.9470246,
        "tags": {
            "addr:city": "Istanbul",
            "addr:district": "Turkey",
            "description": "",
            "opening_hours": "mo-su 09:00-20:00",
            "phone": null,
            "branch": null,
            "amenity": "perfumery",
            "mobile": null,
            "addr:street": "Manyasizade Caddesi",
            "cuisine": null,
            "name": "Attar",
            "name:en": null,
            "name:uk": null,
            "name:de": null,
            "name:tr": null,
            "name:ru": null,
            "name:ar": "العطار"
        }
    },
    {
        "lat": 41.0267802,
        "lon": 28.9469361,
        "tags": {
            "addr:city": "Istanbul",
            "addr:district": "Turkey",
            "description": "",
            "opening_hours": "mo-su 09:00-20:00",
            "phone": null,
            "branch": null,
            "amenity": "perfumery",
            "mobile": null,
            "addr:street": "Manyasizade Caddesi",
            "cuisine": null,
            "name": "Halil İbrahim Al ansari",
            "name:en": null,
            "name:uk": null,
            "name:de": null,
            "name:tr": null,
            "name:ru": null,
            "name:ar": "عطورات خليل إبراهيم الانصاري"
        }
    },
    {
        "lat": 41.0155916,
        "lon": 28.9298558,
        "tags": {
            "addr:city": "Istanbul",
            "addr:district": "Turkey",
            "description": "",
            "opening_hours": "mo-sa09:00-21:00",
            "phone": null,
            "branch": null,
            "amenity": "perfumery",
            "mobile": null,
            "addr:street": "Günaydın Sokağı",
            "cuisine": null,
            "name": "Eyfel perfume",
            "name:en": null,
            "name:uk": null,
            "name:de": null,
            "name:tr": null,
            "name:ru": null,
            "name:ar": "عطورات ايفيل"
        }
    },
    {
        "lat": 41.0055117,
        "lon": 28.9304432,
        "tags": {
            "addr:city": "Istanbul",
            "addr:district": "Fatih",
            "description": "",
            "opening_hours": null,
            "phone": null,
            "branch": null,
            "amenity": "perfumery",
            "mobile": null,
            "addr:street": "Ramazan Efendi Sokak",
            "cuisine": null,
            "name": "Gümüş Parfüm ve Saat",
            "name:en": null,
            "name:uk": null,
            "name:de": null,
            "name:tr": null,
            "name:ru": null,
            "name:ar": "غوموش بارفوم في ساات"
        }
    },
    {
        "lat": 41.0158288,
        "lon": 28.9726703,
        "tags": {
            "addr:city": "Istanbul",
            "addr:district": "Fatih",
            "description": "",
            "opening_hours": null,
            "phone": null,
            "branch": null,
            "amenity": "perfumery",
            "mobile": null,
            "addr:street": "Rahvanci sokak",
            "cuisine": null,
            "name": "Yıldız esans",
            "name:en": null,
            "name:uk": null,
            "name:de": null,
            "name:tr": null,
            "name:ru": null,
            "name:ar": null
        }
    },
    {
        "lat": 41.0142966,
        "lon": 28.9747719,
        "tags": {
            "addr:city": "Istanbul",
            "addr:district": "Fatih",
            "description": "",
            "opening_hours": null,
            "phone": null,
            "branch": null,
            "amenity": "perfumery",
            "mobile": null,
            "addr:street": "Büyük postane caddesi",
            "cuisine": null,
            "name": "My kozmetik",
            "name:en": null,
            "name:uk": null,
            "name:de": null,
            "name:tr": null,
            "name:ru": null,
            "name:ar": "ماي كوزميتيك"
        }
    },
    {
        "lat": 41.0150259,
        "lon": 28.9732886,
        "tags": {
            "addr:city": "Istanbul",
            "addr:district": "Fatih",
            "description": "",
            "opening_hours": null,
            "phone": null,
            "branch": null,
            "amenity": "perfumery",
            "mobile": null,
            "addr:street": "Büyük postane caddesi",
            "cuisine": null,
            "name": "Eyfel perfume",
            "name:en": null,
            "name:uk": null,
            "name:de": null,
            "name:tr": null,
            "name:ru": null,
            "name:ar": "ايفل بيرفومي"
        }
    },
    {
        "lat": 41.0155907,
        "lon": 28.9759416,
        "tags": {
            "addr:city": "Istanbul",
            "addr:district": "Fatih",
            "description": "",
            "opening_hours": null,
            "phone": null,
            "branch": null,
            "amenity": "perfumery",
            "mobile": null,
            "addr:street": "Ankara caddesi",
            "cuisine": null,
            "name": "Lamas perfume",
            "name:en": null,
            "name:uk": null,
            "name:de": null,
            "name:tr": null,
            "name:ru": null,
            "name:ar": null
        }
    },
    {
        "lat": 41.0162164,
        "lon": 28.9762392,
        "tags": {
            "addr:city": "Istanbul",
            "addr:district": "Fatih",
            "description": "",
            "opening_hours": null,
            "phone": null,
            "branch": null,
            "amenity": "perfumery",
            "mobile": null,
            "addr:street": "Ankara caddesi",
            "cuisine": null,
            "name": "D&P Perfumum",
            "name:en": null,
            "name:uk": null,
            "name:de": null,
            "name:tr": null,
            "name:ru": null,
            "name:ar": null
        }
    },
    {
        "lat": 41.012661,
        "lon": 28.9705664,
        "tags": {
            "addr:city": "Istanbul",
            "addr:district": "Fatih",
            "description": "",
            "opening_hours": null,
            "phone": null,
            "branch": null,
            "amenity": "perfumery",
            "mobile": null,
            "addr:street": "Mahmodpasa yks sokak",
            "cuisine": null,
            "name": "Saniro",
            "name:en": null,
            "name:uk": null,
            "name:de": null,
            "name:tr": null,
            "name:ru": null,
            "name:ar": "سانسيرو"
        }
    },
    {
        "lat": 41.0136487,
        "lon": 28.9702928,
        "tags": {
            "addr:city": "Istanbul",
            "addr:district": "Fatih",
            "description": "",
            "opening_hours": null,
            "phone": null,
            "branch": null,
            "amenity": "perfumery",
            "mobile": null,
            "addr:street": "Mahmodpasa yks sokak",
            "cuisine": null,
            "name": "Eyfel perfume",
            "name:en": null,
            "name:uk": null,
            "name:de": null,
            "name:tr": null,
            "name:ru": null,
            "name:ar": "ايفيل بيرفيوم"
        }
    },
    {
        "lat": 41.0044485,
        "lon": 28.9311236,
        "tags": {
            "addr:city": "Istanbul",
            "addr:district": "Fatih",
            "description": "",
            "opening_hours": null,
            "phone": null,
            "branch": null,
            "amenity": "perfumery",
            "mobile": null,
            "addr:street": "Kuvayi Milliye Caddesi",
            "cuisine": null,
            "name": "Roma Parfümeri",
            "name:en": null,
            "name:uk": null,
            "name:de": null,
            "name:tr": null,
            "name:ru": null,
            "name:ar": "روما بيرفومي"
        }
    },
    {
        "lat": 41.0041104,
        "lon": 28.9312274,
        "tags": {
            "addr:city": "Istanbul",
            "addr:district": "Fatih",
            "description": "",
            "opening_hours": null,
            "phone": null,
            "branch": null,
            "amenity": "perfumery",
            "mobile": null,
            "addr:street": "Kuvayi Milliye Caddesi",
            "cuisine": null,
            "name": "Eyfel Perfume",
            "name:en": null,
            "name:uk": null,
            "name:de": null,
            "name:tr": null,
            "name:ru": null,
            "name:ar": "آيفل بيرفوم"
        }
    },
    {
        "lat": 41.0093621,
        "lon": 28.955019,
        "tags": {
            "addr:city": "Istanbul",
            "addr:district": "Fatih",
            "description": "",
            "opening_hours": null,
            "phone": null,
            "branch": null,
            "amenity": "perfumery",
            "mobile": null,
            "addr:street": "Ordu Caddesi",
            "cuisine": null,
            "name": "David Walker Fragrance",
            "name:en": null,
            "name:uk": null,
            "name:de": null,
            "name:tr": null,
            "name:ru": null,
            "name:ar": "دافيد والكر فراغرانسي"
        }
    },
    {
        "lat": 41.0079569,
        "lon": 28.9537297,
        "tags": {
            "addr:city": "Istanbul",
            "addr:district": "Fatih",
            "description": "",
            "opening_hours": null,
            "phone": null,
            "branch": null,
            "amenity": "perfumery",
            "mobile": null,
            "addr:street": "Gazi Mustafa Kemal Paşa Caddesi",
            "cuisine": null,
            "name": "Burak Parfumer",
            "name:en": null,
            "name:uk": null,
            "name:de": null,
            "name:tr": null,
            "name:ru": null,
            "name:ar": "بوراك بيرفومر"
        }
    },
    {
        "lat": 41.0206878,
        "lon": 28.9485359,
        "tags": {
            "addr:city": "Istanbul",
            "addr:district": "Fatih",
            "description": "",
            "opening_hours": null,
            "phone": null,
            "branch": null,
            "amenity": "perfumery",
            "mobile": null,
            "addr:street": "Fatih caddesi",
            "cuisine": null,
            "name": "alghabra",
            "name:en": null,
            "name:uk": null,
            "name:de": null,
            "name:tr": null,
            "name:ru": null,
            "name:ar": "عطورات الغبرة"
        }
    },
    {
        "lat": 41.0202806,
        "lon": 28.9485175,
        "tags": {
            "addr:city": "Istanbul",
            "addr:district": "Fatih",
            "description": "",
            "opening_hours": null,
            "phone": null,
            "branch": null,
            "amenity": "perfumery",
            "mobile": null,
            "addr:street": "Islambol caddesi",
            "cuisine": null,
            "name": "Yasemen şham parfüm",
            "name:en": null,
            "name:uk": null,
            "name:de": null,
            "name:tr": null,
            "name:ru": null,
            "name:ar": "عطورات ياسمين الشام"
        }
    },
    {
        "lat": 41.0260876,
        "lon": 28.9373653,
        "tags": {
            "addr:city": "Istanbul",
            "addr:district": "Fatih",
            "description": "",
            "opening_hours": null,
            "phone": null,
            "branch": null,
            "amenity": "perfumery",
            "mobile": null,
            "addr:street": "Uzun yol sokak",
            "cuisine": null,
            "name": "Gürdamar",
            "name:en": null,
            "name:uk": null,
            "name:de": null,
            "name:tr": null,
            "name:ru": null,
            "name:ar": "كوردمار"
        }
    },
    {
        "lat": 41.02087,
        "lon": 28.9465701,
        "tags": {
            "addr:city": "Istanbul",
            "addr:district": "Turkey",
            "description": "",
            "opening_hours": null,
            "phone": null,
            "branch": null,
            "amenity": "perfumery",
            "mobile": null,
            "addr:street": "Fevzi paşa caddesi",
            "cuisine": null,
            "name": "Yasemin sham parfüm",
            "name:en": null,
            "name:uk": null,
            "name:de": null,
            "name:tr": null,
            "name:ru": null,
            "name:ar": "عطورات ياسمين الشام"
        }
    },
    {
        "lat": 41.0204809,
        "lon": 28.9469361,
        "tags": {
            "addr:city": "Istanbul",
            "addr:district": "Turkey",
            "description": "",
            "opening_hours": null,
            "phone": null,
            "branch": null,
            "amenity": "perfumery",
            "mobile": null,
            "addr:street": "Fevzi paşa caddesi",
            "cuisine": null,
            "name": "Maa althahab şık parfüm",
            "name:en": null,
            "name:uk": null,
            "name:de": null,
            "name:tr": null,
            "name:ru": null,
            "name:ar": "ماء الذهب للعطور"
        }
    },
    {
        "lat": 41.0107919,
        "lon": 28.9430712,
        "tags": {
            "addr:city": "Istanbul",
            "addr:district": "Fatih",
            "description": "",
            "opening_hours": null,
            "phone": null,
            "branch": null,
            "amenity": "perfumery",
            "mobile": null,
            "addr:street": "Turgut özal millet Caddesi",
            "cuisine": null,
            "name": "Maa althahab",
            "name:en": null,
            "name:uk": null,
            "name:de": null,
            "name:tr": null,
            "name:ru": null,
            "name:ar": "ماء الذهب"
        }
    },
    {
        "lat": 41.0112951,
        "lon": 28.9388227,
        "tags": {
            "addr:city": "Istanbul",
            "addr:district": "Turkey",
            "description": "",
            "opening_hours": null,
            "phone": null,
            "branch": null,
            "amenity": "perfumery",
            "mobile": null,
            "addr:street": "KIZILELMA CADDESİ",
            "cuisine": null,
            "name": "ITIRHANE PARFÜM",
            "name:en": null,
            "name:uk": null,
            "name:de": null,
            "name:tr": null,
            "name:ru": null,
            "name:ar": "خان العطر"
        }
    },
    {
        "lat": 41.0115429,
        "lon": 28.940195,
        "tags": {
            "addr:city": "Istanbul",
            "addr:district": "Turkey",
            "description": "",
            "opening_hours": null,
            "phone": null,
            "branch": null,
            "amenity": "perfumery",
            "mobile": null,
            "addr:street": "Turgut özal millet caddesi",
            "cuisine": null,
            "name": "B&E",
            "name:en": null,
            "name:uk": null,
            "name:de": null,
            "name:tr": null,
            "name:ru": null,
            "name:ar": "بي & اي"
        }
    },
    {
        "lat": 41.0087014,
        "lon": 28.9312195,
        "tags": {
            "addr:city": "Istanbul",
            "addr:district": "Fatih",
            "description": "",
            "opening_hours": null,
            "phone": null,
            "branch": null,
            "amenity": "perfumery",
            "mobile": null,
            "addr:street": "Altımermer Caddesi",
            "cuisine": null,
            "name": "Filika Parfum",
            "name:en": null,
            "name:uk": null,
            "name:de": null,
            "name:tr": null,
            "name:ru": null,
            "name:ar": "فيليكا للعطورات"
        }
    },
    {
        "lat": 41.0076842,
        "lon": 28.9311959,
        "tags": {
            "addr:city": "Istanbul",
            "addr:district": "Fatih",
            "description": "",
            "opening_hours": null,
            "phone": null,
            "branch": null,
            "amenity": "perfumery",
            "mobile": null,
            "addr:street": "Altımermer Caddesi",
            "cuisine": null,
            "name": "Parfum",
            "name:en": null,
            "name:uk": null,
            "name:de": null,
            "name:tr": null,
            "name:ru": null,
            "name:ar": "محل عطورات"
        }
    },
    {
        "lat": 41.0207002,
        "lon": 28.9462551,
        "tags": {
            "addr:city": "Istanbul",
            "addr:district": "Turkey",
            "description": "",
            "opening_hours": null,
            "phone": null,
            "branch": null,
            "amenity": "perfumery",
            "mobile": null,
            "addr:street": "Fevzi Paşa Caddesi",
            "cuisine": null,
            "name": "Eyfel",
            "name:en": null,
            "name:uk": null,
            "name:de": null,
            "name:tr": null,
            "name:ru": null,
            "name:ar": null
        }
    },
    {
        "lat": 41.0204586,
        "lon": 28.9465103,
        "tags": {
            "addr:city": "Istanbul",
            "addr:district": "Turkey",
            "description": "",
            "opening_hours": null,
            "phone": null,
            "branch": null,
            "amenity": "perfumery",
            "mobile": null,
            "addr:street": "Fevzi Paşa Caddesi",
            "cuisine": null,
            "name": "Loris",
            "name:en": null,
            "name:uk": null,
            "name:de": null,
            "name:tr": null,
            "name:ru": null,
            "name:ar": "لوريس"
        }
    },
    {
        "lat": 41.0267306,
        "lon": 28.9473967,
        "tags": {
            "addr:city": "Istanbul",
            "addr:district": "Turkey",
            "description": "",
            "opening_hours": null,
            "phone": null,
            "branch": null,
            "amenity": "perfumery",
            "mobile": null,
            "addr:street": "Manyasizade Caddesi",
            "cuisine": null,
            "name": "Miskhane",
            "name:en": null,
            "name:uk": null,
            "name:de": null,
            "name:tr": null,
            "name:ru": null,
            "name:ar": "مسك هانة"
        }
    },
    {
        "lat": 41.016191,
        "lon": 28.9691826,
        "tags": {
            "addr:city": "Istanbul",
            "addr:district": "Fatih",
            "description": "",
            "opening_hours": null,
            "phone": null,
            "branch": null,
            "amenity": "perfumery",
            "mobile": null,
            "addr:street": "Tahtakale Caddesi",
            "cuisine": null,
            "name": "Zaza Han",
            "name:en": null,
            "name:uk": null,
            "name:de": null,
            "name:tr": null,
            "name:ru": null,
            "name:ar": "زازا هان"
        }
    },
    {
        "lat": 41.0158574,
        "lon": 28.969352,
        "tags": {
            "addr:city": "Istanbul",
            "addr:district": "Fatih",
            "description": "",
            "opening_hours": null,
            "phone": null,
            "branch": null,
            "amenity": "perfumery",
            "mobile": null,
            "addr:street": "Tahtakale Caddesi",
            "cuisine": null,
            "name": "Ata Parfumeri",
            "name:en": null,
            "name:uk": null,
            "name:de": null,
            "name:tr": null,
            "name:ru": null,
            "name:ar": "أتا بيرفوميري"
        }
    },
    {
        "lat": 41.0158766,
        "lon": 28.9696263,
        "tags": {
            "addr:city": "Istanbul",
            "addr:district": "Fatih",
            "description": "",
            "opening_hours": null,
            "phone": null,
            "branch": null,
            "amenity": "perfumery",
            "mobile": null,
            "addr:street": "Tahtakale Caddesi",
            "cuisine": null,
            "name": "Mio Pasajı",
            "name:en": null,
            "name:uk": null,
            "name:de": null,
            "name:tr": null,
            "name:ru": null,
            "name:ar": "ميو باساجي"
        }
    },
    {
        "lat": 41.0163331,
        "lon": 28.9702997,
        "tags": {
            "addr:city": "Istanbul",
            "addr:district": "Fatih",
            "description": "",
            "opening_hours": null,
            "phone": null,
            "branch": null,
            "amenity": "perfumery",
            "mobile": null,
            "addr:street": "Tahmis Sokak",
            "cuisine": null,
            "name": "Sansiro",
            "name:en": null,
            "name:uk": null,
            "name:de": null,
            "name:tr": null,
            "name:ru": null,
            "name:ar": "سانسيرو"
        }
    },
    {
        "lat": 41.0136757,
        "lon": 28.9701996,
        "tags": {
            "addr:city": "Istanbul",
            "addr:district": "Fatih",
            "description": "",
            "opening_hours": null,
            "phone": null,
            "branch": null,
            "amenity": "perfumery",
            "mobile": null,
            "addr:street": "Mahmutpaşa Yokuşu Sokak",
            "cuisine": null,
            "name": "Timuçin Perfumery",
            "name:en": null,
            "name:uk": null,
            "name:de": null,
            "name:tr": null,
            "name:ru": null,
            "name:ar": "تيموتشين بيرفورميري"
        }
    },
    {
        "lat": 41.0186981,
        "lon": 28.965986,
        "tags": {
            "addr:city": "Istanbul",
            "addr:district": "Fatih",
            "description": "",
            "opening_hours": null,
            "phone": null,
            "branch": null,
            "amenity": "perfumery",
            "mobile": null,
            "addr:street": "Ragıp Gümüşpala Caddesi",
            "cuisine": null,
            "name": "Birsen Kolonyaları",
            "name:en": null,
            "name:uk": null,
            "name:de": null,
            "name:tr": null,
            "name:ru": null,
            "name:ar": null
        }
    },
    {
        "lat": 41.0185227,
        "lon": 28.9663988,
        "tags": {
            "addr:city": "Istanbul",
            "addr:district": "Fatih",
            "description": "",
            "opening_hours": null,
            "phone": null,
            "branch": null,
            "amenity": "perfumery",
            "mobile": null,
            "addr:street": "Kıble Çeşme Caddesi",
            "cuisine": null,
            "name": "Birsen Kolonya",
            "name:en": null,
            "name:uk": null,
            "name:de": null,
            "name:tr": null,
            "name:ru": null,
            "name:ar": null
        }
    },
    {
        "lat": 41.0609745,
        "lon": 28.913939,
        "tags": {
            "addr:city": "İstanbul",
            "addr:district": null,
            "description": "",
            "opening_hours": null,
            "phone": null,
            "branch": null,
            "amenity": "perfumery",
            "mobile": null,
            "addr:street": null,
            "cuisine": null,
            "name": "Eyfel",
            "name:en": null,
            "name:uk": null,
            "name:de": null,
            "name:tr": null,
            "name:ru": null,
            "name:ar": null
        }
    },
    {
        "lat": 41.0598235,
        "lon": 28.9135564,
        "tags": {
            "addr:city": "İstanbul",
            "addr:district": null,
            "description": "",
            "opening_hours": null,
            "phone": null,
            "branch": null,
            "amenity": "perfumery",
            "mobile": null,
            "addr:street": null,
            "cuisine": null,
            "name": "Özleydi",
            "name:en": null,
            "name:uk": null,
            "name:de": null,
            "name:tr": null,
            "name:ru": null,
            "name:ar": null
        }
    },
    {
        "lat": 40.962069,
        "lon": 29.0767754,
        "tags": {
            "addr:city": "İstanbul",
            "addr:district": "Kadıköy",
            "description": "",
            "opening_hours": null,
            "phone": null,
            "branch": null,
            "amenity": "perfumery",
            "mobile": null,
            "addr:street": "Bağdat Caddesi",
            "cuisine": null,
            "name": "D&P Perfumum",
            "name:en": null,
            "name:uk": null,
            "name:de": null,
            "name:tr": null,
            "name:ru": null,
            "name:ar": null
        }
    },
    {
        "lat": 40.9622289,
        "lon": 29.0764652,
        "tags": {
            "addr:city": "İstanbul",
            "addr:district": "Kadıköy",
            "description": "",
            "opening_hours": null,
            "phone": null,
            "branch": null,
            "amenity": "perfumery",
            "mobile": null,
            "addr:street": "Bağdat Caddesi",
            "cuisine": null,
            "name": "Sevil",
            "name:en": null,
            "name:uk": null,
            "name:de": null,
            "name:tr": null,
            "name:ru": null,
            "name:ar": null
        }
    },
    {
        "lat": 40.9610393,
        "lon": 29.0840617,
        "tags": {
            "addr:city": "İstanbul",
            "addr:district": "Kadıköy",
            "description": "",
            "opening_hours": null,
            "phone": null,
            "branch": null,
            "amenity": "perfumery",
            "mobile": null,
            "addr:street": "Ayşe Çavuş Caddesi",
            "cuisine": null,
            "name": "Parfümeri",
            "name:en": null,
            "name:uk": null,
            "name:de": null,
            "name:tr": null,
            "name:ru": null,
            "name:ar": null
        }
    },
    {
        "lat": 41.1030055,
        "lon": 28.8643279,
        "tags": {
            "addr:city": "İstanbul",
            "addr:district": null,
            "description": "",
            "opening_hours": null,
            "phone": null,
            "branch": null,
            "amenity": "perfumery",
            "mobile": null,
            "addr:street": null,
            "cuisine": null,
            "name": "Yenigün",
            "name:en": null,
            "name:uk": null,
            "name:de": null,
            "name:tr": null,
            "name:ru": null,
            "name:ar": null
        }
    },
    {
        "lat": 40.966776,
        "lon": 29.2673802,
        "tags": {
            "addr:city": "Istanbul",
            "addr:district": "Sultanbeyli",
            "description": "",
            "opening_hours": "Mo-Fr 07:00-13:30; Mo-Fr 17:00-20:00",
            "phone": "08508405856",
            "branch": null,
            "amenity": "perfumery",
            "mobile": null,
            "addr:street": "Fatih bulvarı",
            "cuisine": null,
            "name": "Eyfel perfume",
            "name:en": null,
            "name:uk": null,
            "name:de": null,
            "name:tr": null,
            "name:ru": null,
            "name:ar": "عطورات ايفيل"
        }
    },
    {
        "lat": 40.9678532,
        "lon": 29.2632616,
        "tags": {
            "addr:city": "Istanbul",
            "addr:district": "Sultanbeyli",
            "description": "",
            "opening_hours": "Mo-Fr 07:00-13:30; Mo-Fr 17:00-20:00",
            "phone": null,
            "branch": null,
            "amenity": "perfumery",
            "mobile": null,
            "addr:street": "Fatih Bulvarı Caddesi",
            "cuisine": null,
            "name": "D&P perfumum",
            "name:en": null,
            "name:uk": null,
            "name:de": null,
            "name:tr": null,
            "name:ru": null,
            "name:ar": "عطورات D&P"
        }
    },
    {
        "lat": 40.9926106,
        "lon": 28.9037227,
        "tags": {
            "addr:city": "Istanbul",
            "addr:district": "Zeytinburnu",
            "description": "",
            "opening_hours": null,
            "phone": null,
            "branch": null,
            "amenity": "perfumery",
            "mobile": null,
            "addr:street": "58.Blv Cd",
            "cuisine": null,
            "name": "Loris",
            "name:en": null,
            "name:uk": null,
            "name:de": null,
            "name:tr": null,
            "name:ru": null,
            "name:ar": "لوريس"
        }
    },
    {
        "lat": 40.9927223,
        "lon": 28.903752,
        "tags": {
            "addr:city": "Istanbul",
            "addr:district": "Zeytinburnu",
            "description": "",
            "opening_hours": null,
            "phone": "02125825919",
            "branch": null,
            "amenity": "perfumery",
            "mobile": null,
            "addr:street": "58.Blv Cd",
            "cuisine": null,
            "name": "Soydan",
            "name:en": null,
            "name:uk": null,
            "name:de": null,
            "name:tr": null,
            "name:ru": null,
            "name:ar": "سويدان بارفورماري"
        }
    },
    {
        "lat": 41.0475205,
        "lon": 28.8457838,
        "tags": {
            "addr:city": "Istanbul",
            "addr:district": "Bağcılar",
            "description": "",
            "opening_hours": null,
            "phone": null,
            "branch": null,
            "amenity": "perfumery",
            "mobile": null,
            "addr:street": "Velioğlu caddesi",
            "cuisine": null,
            "name": "Narsist",
            "name:en": null,
            "name:uk": null,
            "name:de": null,
            "name:tr": null,
            "name:ru": null,
            "name:ar": "نارسيست"
        }
    },
    {
        "lat": 41.0674686,
        "lon": 28.830814,
        "tags": {
            "addr:city": "Istanbul",
            "addr:district": "Bağcılar",
            "description": "",
            "opening_hours": null,
            "phone": null,
            "branch": null,
            "amenity": "perfumery",
            "mobile": null,
            "addr:street": null,
            "cuisine": null,
            "name": "Uğurlu",
            "name:en": null,
            "name:uk": null,
            "name:de": null,
            "name:tr": null,
            "name:ru": null,
            "name:ar": "اوغورلو"
        }
    },
    {
        "lat": 41.021341,
        "lon": 28.8580182,
        "tags": {
            "addr:city": "Istanbul",
            "addr:district": "Zeytinburnu",
            "description": "",
            "opening_hours": null,
            "phone": null,
            "branch": null,
            "amenity": "perfumery",
            "mobile": null,
            "addr:street": null,
            "cuisine": null,
            "name": "B & E PERFÜM",
            "name:en": null,
            "name:uk": null,
            "name:de": null,
            "name:tr": null,
            "name:ru": null,
            "name:ar": "محل عطور"
        }
    },
    {
        "lat": 41.0212477,
        "lon": 28.8578844,
        "tags": {
            "addr:city": "Istanbul",
            "addr:district": "Bağcılar",
            "description": "",
            "opening_hours": null,
            "phone": null,
            "branch": null,
            "amenity": "perfumery",
            "mobile": null,
            "addr:street": "Bağcılar Caddesi",
            "cuisine": null,
            "name": "Hobren",
            "name:en": null,
            "name:uk": null,
            "name:de": null,
            "name:tr": null,
            "name:ru": null,
            "name:ar": "هوبران"
        }
    },
    {
        "lat": 40.8691288,
        "lon": 29.327609,
        "tags": {
            "addr:city": "İstanbul",
            "addr:district": null,
            "description": "",
            "opening_hours": null,
            "phone": null,
            "branch": null,
            "amenity": "perfumery",
            "mobile": null,
            "addr:street": null,
            "cuisine": null,
            "name": "B & E perfumum",
            "name:en": null,
            "name:uk": null,
            "name:de": null,
            "name:tr": null,
            "name:ru": null,
            "name:ar": null
        }
    },
    {
        "lat": 41.0359629,
        "lon": 28.9837076,
        "tags": {
            "addr:city": "İstanbul",
            "addr:district": null,
            "description": "",
            "opening_hours": null,
            "phone": null,
            "branch": null,
            "amenity": "perfumery",
            "mobile": null,
            "addr:street": null,
            "cuisine": null,
            "name": "Flormar",
            "name:en": null,
            "name:uk": null,
            "name:de": null,
            "name:tr": null,
            "name:ru": null,
            "name:ar": null
        }
    },
    {
        "lat": 41.0341942,
        "lon": 28.9791992,
        "tags": {
            "addr:city": "İstanbul",
            "addr:district": null,
            "description": "",
            "opening_hours": null,
            "phone": null,
            "branch": null,
            "amenity": "perfumery",
            "mobile": null,
            "addr:street": null,
            "cuisine": null,
            "name": "D&P perfumum",
            "name:en": null,
            "name:uk": null,
            "name:de": null,
            "name:tr": null,
            "name:ru": null,
            "name:ar": null
        }
    },
    {
        "lat": 41.0275387,
        "lon": 28.9744169,
        "tags": {
            "addr:city": "İstanbul",
            "addr:district": null,
            "description": "",
            "opening_hours": null,
            "phone": null,
            "branch": null,
            "amenity": "perfumery",
            "mobile": null,
            "addr:street": null,
            "cuisine": null,
            "name": "Sansiro",
            "name:en": null,
            "name:uk": null,
            "name:de": null,
            "name:tr": null,
            "name:ru": null,
            "name:ar": null
        }
    },
    {
        "lat": 41.0352009,
        "lon": 28.9812206,
        "tags": {
            "addr:city": "İstanbul",
            "addr:district": null,
            "description": "",
            "opening_hours": null,
            "phone": null,
            "branch": null,
            "amenity": "perfumery",
            "mobile": null,
            "addr:street": null,
            "cuisine": null,
            "name": "bargello",
            "name:en": null,
            "name:uk": null,
            "name:de": null,
            "name:tr": null,
            "name:ru": null,
            "name:ar": null
        }
    },
    {
        "lat": 40.9792884,
        "lon": 28.8740987,
        "tags": {
            "addr:city": "İstanbul",
            "addr:district": null,
            "description": "",
            "opening_hours": null,
            "phone": null,
            "branch": null,
            "amenity": "perfumery",
            "mobile": null,
            "addr:street": null,
            "cuisine": null,
            "name": "David Walker",
            "name:en": null,
            "name:uk": null,
            "name:de": null,
            "name:tr": null,
            "name:ru": null,
            "name:ar": null
        }
    },
    {
        "lat": 40.9901716,
        "lon": 29.0242472,
        "tags": {
            "addr:city": "İstanbul",
            "addr:district": null,
            "description": "",
            "opening_hours": null,
            "phone": null,
            "branch": null,
            "amenity": "perfumery",
            "mobile": null,
            "addr:street": null,
            "cuisine": null,
            "name": "Eyfel Perfume",
            "name:en": null,
            "name:uk": null,
            "name:de": null,
            "name:tr": null,
            "name:ru": null,
            "name:ar": null
        }
    },
    {
        "lat": 40.990169,
        "lon": 29.0242796,
        "tags": {
            "addr:city": "İstanbul",
            "addr:district": null,
            "description": "",
            "opening_hours": null,
            "phone": null,
            "branch": null,
            "amenity": "perfumery",
            "mobile": null,
            "addr:street": null,
            "cuisine": null,
            "name": "Bargello",
            "name:en": null,
            "name:uk": null,
            "name:de": null,
            "name:tr": null,
            "name:ru": null,
            "name:ar": null
        }
    },
    {
        "lat": 40.8165789,
        "lon": 29.3036359,
        "tags": {
            "addr:city": "İstanbul",
            "addr:district": null,
            "description": "",
            "opening_hours": null,
            "phone": null,
            "branch": null,
            "amenity": "perfumery",
            "mobile": null,
            "addr:street": null,
            "cuisine": null,
            "name": "Eyfel Parfüm",
            "name:en": null,
            "name:uk": null,
            "name:de": null,
            "name:tr": null,
            "name:ru": null,
            "name:ar": null
        }
    },
    {
        "lat": 41.0189876,
        "lon": 28.5868928,
        "tags": {
            "addr:city": "İstanbul",
            "addr:district": null,
            "description": "",
            "opening_hours": null,
            "phone": null,
            "branch": null,
            "amenity": "perfumery",
            "mobile": null,
            "addr:street": null,
            "cuisine": null,
            "name": "Melita Parfüm",
            "name:en": null,
            "name:uk": null,
            "name:de": null,
            "name:tr": null,
            "name:ru": null,
            "name:ar": null
        }
    },
    {
        "lat": 41.0324948,
        "lon": 28.9763091,
        "tags": {
            "addr:city": "İstanbul",
            "addr:district": null,
            "description": "",
            "opening_hours": null,
            "phone": null,
            "branch": null,
            "amenity": "perfumery",
            "mobile": null,
            "addr:street": "İstiklal Caddesi",
            "cuisine": null,
            "name": "Loris",
            "name:en": null,
            "name:uk": null,
            "name:de": null,
            "name:tr": null,
            "name:ru": null,
            "name:ar": null
        }
    },
    {
        "lat": 40.9793722,
        "lon": 29.1137773,
        "tags": {
            "addr:city": "İstanbul",
            "addr:district": null,
            "description": "",
            "opening_hours": null,
            "phone": null,
            "branch": null,
            "amenity": "perfumery",
            "mobile": null,
            "addr:street": null,
            "cuisine": null,
            "name": "The Parfum Shop",
            "name:en": null,
            "name:uk": null,
            "name:de": null,
            "name:tr": null,
            "name:ru": null,
            "name:ar": null
        }
    },
    {
        "lat": 40.9592278,
        "lon": 29.08242,
        "tags": {
            "addr:city": "İstanbul",
            "addr:district": null,
            "description": "",
            "opening_hours": null,
            "phone": null,
            "branch": null,
            "amenity": "perfumery",
            "mobile": null,
            "addr:street": null,
            "cuisine": null,
            "name": "Atelier Rebul",
            "name:en": null,
            "name:uk": null,
            "name:de": null,
            "name:tr": null,
            "name:ru": null,
            "name:ar": null
        }
    },
    {
        "lat": 41.0224274,
        "lon": 29.0157905,
        "tags": {
            "addr:city": "İstanbul",
            "addr:district": null,
            "description": "",
            "opening_hours": null,
            "phone": null,
            "branch": null,
            "amenity": "perfumery",
            "mobile": null,
            "addr:street": null,
            "cuisine": null,
            "name": "Eyfel",
            "name:en": null,
            "name:uk": null,
            "name:de": null,
            "name:tr": null,
            "name:ru": null,
            "name:ar": null
        }
    },
    {
        "lat": 41.0432907,
        "lon": 29.0063271,
        "tags": {
            "addr:city": "İstanbul",
            "addr:district": null,
            "description": "",
            "opening_hours": null,
            "phone": null,
            "branch": null,
            "amenity": "perfumery",
            "mobile": null,
            "addr:street": null,
            "cuisine": null,
            "name": "L'Adresse Des Parfums",
            "name:en": null,
            "name:uk": null,
            "name:de": null,
            "name:tr": null,
            "name:ru": null,
            "name:ar": null
        }
    },
    {
        "lat": 40.8798251,
        "lon": 29.2320439,
        "tags": {
            "addr:city": "İstanbul",
            "addr:district": null,
            "description": "",
            "opening_hours": null,
            "phone": null,
            "branch": null,
            "amenity": "perfumery",
            "mobile": null,
            "addr:street": null,
            "cuisine": null,
            "name": "Eyfel",
            "name:en": null,
            "name:uk": null,
            "name:de": null,
            "name:tr": null,
            "name:ru": null,
            "name:ar": null
        }
    },
    {
        "lat": 40.9817881,
        "lon": 29.1316387,
        "tags": {
            "addr:city": "İstanbul",
            "addr:district": null,
            "description": "",
            "opening_hours": null,
            "phone": null,
            "branch": null,
            "amenity": "perfumery",
            "mobile": null,
            "addr:street": null,
            "cuisine": null,
            "name": "Mad",
            "name:en": null,
            "name:uk": null,
            "name:de": null,
            "name:tr": null,
            "name:ru": null,
            "name:ar": null
        }
    },
    {
        "lat": 40.9818977,
        "lon": 29.1319347,
        "tags": {
            "addr:city": "İstanbul",
            "addr:district": null,
            "description": "",
            "opening_hours": null,
            "phone": null,
            "branch": null,
            "amenity": "perfumery",
            "mobile": null,
            "addr:street": null,
            "cuisine": null,
            "name": "B&E Perfumum",
            "name:en": null,
            "name:uk": null,
            "name:de": null,
            "name:tr": null,
            "name:ru": null,
            "name:ar": null
        }
    },
    {
        "lat": 40.9921683,
        "lon": 28.8449618,
        "tags": {
            "addr:city": "İstanbul",
            "addr:district": null,
            "description": "",
            "opening_hours": null,
            "phone": null,
            "branch": null,
            "amenity": "perfumery",
            "mobile": null,
            "addr:street": null,
            "cuisine": null,
            "name": "Kız Kulesi Perfume",
            "name:en": null,
            "name:uk": null,
            "name:de": null,
            "name:tr": null,
            "name:ru": null,
            "name:ar": null
        }
    },
    {
        "lat": 41.0198989,
        "lon": 28.9477192,
        "tags": {
            "addr:city": "Istanbul",
            "addr:district": "Fatih",
            "description": "",
            "opening_hours": "Mo-Su 09:00-24:00",
            "phone": null,
            "branch": null,
            "amenity": "perfumery",
            "mobile": null,
            "addr:street": "İslambol Caddesi",
            "cuisine": null,
            "name": "Nurxos",
            "name:en": null,
            "name:uk": null,
            "name:de": null,
            "name:tr": null,
            "name:ru": null,
            "name:ar": null
        }
    },
    {
        "lat": 40.9880676,
        "lon": 29.0284997,
        "tags": {
            "addr:city": "İstanbul",
            "addr:district": null,
            "description": "",
            "opening_hours": null,
            "phone": null,
            "branch": null,
            "amenity": "perfumery",
            "mobile": null,
            "addr:street": null,
            "cuisine": null,
            "name": "Lelas",
            "name:en": null,
            "name:uk": null,
            "name:de": null,
            "name:tr": null,
            "name:ru": null,
            "name:ar": null
        }
    },
    {
        "lat": 41.0142498,
        "lon": 28.975171,
        "tags": {
            "addr:city": "Istanbul",
            "addr:district": "Fatih",
            "description": "",
            "opening_hours": "Mo-Su 10:00-23:00",
            "phone": null,
            "branch": null,
            "amenity": "perfumery",
            "mobile": null,
            "addr:street": "Ankara Caddesi",
            "cuisine": null,
            "name": "Nurxos",
            "name:en": null,
            "name:uk": null,
            "name:de": null,
            "name:tr": null,
            "name:ru": null,
            "name:ar": null
        }
    },
    {
        "lat": 40.9654433,
        "lon": 29.0717668,
        "tags": {
            "addr:city": "İstanbul",
            "addr:district": "Kadıköy",
            "description": "",
            "opening_hours": null,
            "phone": null,
            "branch": null,
            "amenity": "perfumery",
            "mobile": null,
            "addr:street": "Bağdat Caddesi",
            "cuisine": null,
            "name": "Perfume Point",
            "name:en": null,
            "name:uk": null,
            "name:de": null,
            "name:tr": null,
            "name:ru": null,
            "name:ar": null
        }
    },
    {
        "lat": 40.9233163,
        "lon": 29.1338496,
        "tags": {
            "addr:city": "İstanbul",
            "addr:district": null,
            "description": "",
            "opening_hours": null,
            "phone": null,
            "branch": null,
            "amenity": "perfumery",
            "mobile": null,
            "addr:street": null,
            "cuisine": null,
            "name": "D&P",
            "name:en": null,
            "name:uk": null,
            "name:de": null,
            "name:tr": null,
            "name:ru": null,
            "name:ar": null
        }
    },
    {
        "lat": 40.9232764,
        "lon": 29.1339162,
        "tags": {
            "addr:city": "İstanbul",
            "addr:district": null,
            "description": "",
            "opening_hours": null,
            "phone": null,
            "branch": null,
            "amenity": "perfumery",
            "mobile": null,
            "addr:street": null,
            "cuisine": null,
            "name": "B&E Parfüm",
            "name:en": null,
            "name:uk": null,
            "name:de": null,
            "name:tr": null,
            "name:ru": null,
            "name:ar": null
        }
    },
    {
        "lat": 41.0250676,
        "lon": 29.0888998,
        "tags": {
            "addr:city": "İstanbul",
            "addr:district": null,
            "description": "",
            "opening_hours": null,
            "phone": null,
            "branch": null,
            "amenity": "perfumery",
            "mobile": null,
            "addr:street": null,
            "cuisine": null,
            "name": "Eyfel",
            "name:en": null,
            "name:uk": null,
            "name:de": null,
            "name:tr": "Eyfel",
            "name:ru": null,
            "name:ar": null
        }
    },
    {
        "lat": 41.0248634,
        "lon": 29.0890757,
        "tags": {
            "addr:city": "İstanbul",
            "addr:district": null,
            "description": "",
            "opening_hours": null,
            "phone": null,
            "branch": null,
            "amenity": "perfumery",
            "mobile": null,
            "addr:street": null,
            "cuisine": null,
            "name": "D&P perfumum",
            "name:en": null,
            "name:uk": null,
            "name:de": null,
            "name:tr": "D&P perfumum",
            "name:ru": null,
            "name:ar": null
        }
    },
    {
        "lat": 41.0250892,
        "lon": 29.0891165,
        "tags": {
            "addr:city": "İstanbul",
            "addr:district": null,
            "description": "",
            "opening_hours": null,
            "phone": null,
            "branch": null,
            "amenity": "perfumery",
            "mobile": null,
            "addr:street": null,
            "cuisine": null,
            "name": "Seven Sky Boutique",
            "name:en": null,
            "name:uk": null,
            "name:de": null,
            "name:tr": "Seven Sky Boutique",
            "name:ru": null,
            "name:ar": null
        }
    },
    {
        "lat": 41.0251973,
        "lon": 29.0900892,
        "tags": {
            "addr:city": "İstanbul",
            "addr:district": null,
            "description": "",
            "opening_hours": null,
            "phone": null,
            "branch": null,
            "amenity": "perfumery",
            "mobile": null,
            "addr:street": null,
            "cuisine": null,
            "name": "Bargello",
            "name:en": null,
            "name:uk": null,
            "name:de": null,
            "name:tr": "Bargello",
            "name:ru": null,
            "name:ar": null
        }
    },
    {
        "lat": 41.0309397,
        "lon": 28.9758913,
        "tags": {
            "addr:city": "İstanbul",
            "addr:district": null,
            "description": "",
            "opening_hours": null,
            "phone": null,
            "branch": null,
            "amenity": "perfumery",
            "mobile": null,
            "addr:street": "İstiklal Caddesi",
            "cuisine": null,
            "name": "Mad Parfumeur",
            "name:en": null,
            "name:uk": null,
            "name:de": null,
            "name:tr": null,
            "name:ru": null,
            "name:ar": null
        }
    },
    {
        "lat": 41.0138086,
        "lon": 28.9771309,
        "tags": {
            "addr:city": "İstanbul",
            "addr:district": null,
            "description": "",
            "opening_hours": null,
            "phone": null,
            "branch": null,
            "amenity": "perfumery",
            "mobile": null,
            "addr:street": null,
            "cuisine": null,
            "name": null,
            "name:en": null,
            "name:uk": null,
            "name:de": null,
            "name:tr": null,
            "name:ru": null,
            "name:ar": null
        }
    },
    {
        "lat": 40.9903959,
        "lon": 29.0289174,
        "tags": {
            "addr:city": "İstanbul",
            "addr:district": "Kadıköy",
            "description": "",
            "opening_hours": null,
            "phone": null,
            "branch": null,
            "amenity": "perfumery",
            "mobile": null,
            "addr:street": "Söğütlüçeşme Caddesi",
            "cuisine": null,
            "name": "Loris Parfüm",
            "name:en": null,
            "name:uk": null,
            "name:de": null,
            "name:tr": null,
            "name:ru": null,
            "name:ar": null
        }
    },
    {
        "lat": 40.9894713,
        "lon": 29.0289804,
        "tags": {
            "addr:city": "İstanbul",
            "addr:district": "Kadıköy",
            "description": "",
            "opening_hours": null,
            "phone": null,
            "branch": null,
            "amenity": "perfumery",
            "mobile": null,
            "addr:street": "General Asım Gündüz Caddesi",
            "cuisine": null,
            "name": "D&P Perfumum",
            "name:en": null,
            "name:uk": null,
            "name:de": null,
            "name:tr": null,
            "name:ru": null,
            "name:ar": null
        }
    },
    {
        "lat": 41.0389724,
        "lon": 28.9844939,
        "tags": {
            "addr:city": "İstanbul",
            "addr:district": null,
            "description": "",
            "opening_hours": null,
            "phone": null,
            "branch": null,
            "amenity": "perfumery",
            "mobile": null,
            "addr:street": null,
            "cuisine": null,
            "name": "Rosecolya Kozmetik",
            "name:en": null,
            "name:uk": null,
            "name:de": null,
            "name:tr": null,
            "name:ru": null,
            "name:ar": null
        }
    },
    {
        "lat": 41.0357779,
        "lon": 28.9846576,
        "tags": {
            "addr:city": "İstanbul",
            "addr:district": null,
            "description": "",
            "opening_hours": null,
            "phone": null,
            "branch": null,
            "amenity": "perfumery",
            "mobile": null,
            "addr:street": "Sıraselviler Caddesi",
            "cuisine": null,
            "name": "Emissa Perfumes",
            "name:en": null,
            "name:uk": null,
            "name:de": null,
            "name:tr": null,
            "name:ru": null,
            "name:ar": null
        }
    },
    {
        "lat": 41.0363852,
        "lon": 28.9851522,
        "tags": {
            "addr:city": "İstanbul",
            "addr:district": null,
            "description": "",
            "opening_hours": null,
            "phone": null,
            "branch": null,
            "amenity": "perfumery",
            "mobile": null,
            "addr:street": null,
            "cuisine": null,
            "name": "Loris Parfum",
            "name:en": null,
            "name:uk": null,
            "name:de": null,
            "name:tr": null,
            "name:ru": null,
            "name:ar": null
        }
    },
    {
        "lat": 41.0253779,
        "lon": 28.9797777,
        "tags": {
            "addr:city": "İstanbul",
            "addr:district": null,
            "description": "",
            "opening_hours": null,
            "phone": null,
            "branch": null,
            "amenity": "perfumery",
            "mobile": null,
            "addr:street": null,
            "cuisine": null,
            "name": "Tekin Acar",
            "name:en": null,
            "name:uk": null,
            "name:de": null,
            "name:tr": null,
            "name:ru": null,
            "name:ar": null
        }
    },
    {
        "lat": 40.9229929,
        "lon": 29.133816,
        "tags": {
            "addr:city": "İstanbul",
            "addr:district": null,
            "description": "",
            "opening_hours": null,
            "phone": null,
            "branch": null,
            "amenity": "perfumery",
            "mobile": null,
            "addr:street": null,
            "cuisine": null,
            "name": "Mad Parfüm",
            "name:en": null,
            "name:uk": null,
            "name:de": null,
            "name:tr": null,
            "name:ru": null,
            "name:ar": null
        }
    }
]