[
    {
        "lat": 40.9849559,
        "lon": 29.0266131,
        "tags": {
            "addr:city": "İstanbul",
            "addr:district": null,
            "description": "",
            "opening_hours": null,
            "phone": "+905362176887",
            "branch": null,
            "amenity": "pet",
            "mobile": null,
            "addr:street": "Dr. Eşat İşık Caddesi",
            "cuisine": null,
            "name": "Moda Pet House",
            "name:en": null,
            "name:uk": null,
            "name:de": null,
            "name:tr": null,
            "name:ru": null,
            "name:ar": null
        }
    },
    {
        "lat": 40.9697284,
        "lon": 29.1157292,
        "tags": {
            "addr:city": "İstanbul",
            "addr:district": null,
            "description": "",
            "opening_hours": null,
            "phone": null,
            "branch": null,
            "amenity": "pet",
            "mobile": null,
            "addr:street": null,
            "cuisine": null,
            "name": null,
            "name:en": null,
            "name:uk": null,
            "name:de": null,
            "name:tr": null,
            "name:ru": null,
            "name:ar": null
        }
    },
    {
        "lat": 41.0516973,
        "lon": 28.9902825,
        "tags": {
            "addr:city": "İstanbul",
            "addr:district": null,
            "description": "",
            "opening_hours": null,
            "phone": null,
            "branch": null,
            "amenity": "pet",
            "mobile": null,
            "addr:street": null,
            "cuisine": null,
            "name": null,
            "name:en": null,
            "name:uk": null,
            "name:de": null,
            "name:tr": null,
            "name:ru": null,
            "name:ar": null
        }
    },
    {
        "lat": 40.9589463,
        "lon": 29.0932841,
        "tags": {
            "addr:city": "İstanbul",
            "addr:district": null,
            "description": "",
            "opening_hours": null,
            "phone": null,
            "branch": null,
            "amenity": "pet",
            "mobile": null,
            "addr:street": "Taşlı Çeşme Sokak",
            "cuisine": null,
            "name": "Mamamia Pet Shop",
            "name:en": null,
            "name:uk": null,
            "name:de": null,
            "name:tr": null,
            "name:ru": null,
            "name:ar": null
        }
    },
    {
        "lat": 41.0927751,
        "lon": 29.0854744,
        "tags": {
            "addr:city": "İstanbul",
            "addr:district": null,
            "description": "",
            "opening_hours": null,
            "phone": null,
            "branch": null,
            "amenity": "pet",
            "mobile": null,
            "addr:street": "Fatih Sultan Mehmet Cd.",
            "cuisine": null,
            "name": "arda petshop",
            "name:en": null,
            "name:uk": null,
            "name:de": null,
            "name:tr": null,
            "name:ru": null,
            "name:ar": null
        }
    },
    {
        "lat": 40.985688,
        "lon": 29.028663,
        "tags": {
            "addr:city": "İstanbul",
            "addr:district": null,
            "description": "",
            "opening_hours": null,
            "phone": null,
            "branch": null,
            "amenity": "pet",
            "mobile": null,
            "addr:street": null,
            "cuisine": null,
            "name": "Eos",
            "name:en": null,
            "name:uk": null,
            "name:de": null,
            "name:tr": null,
            "name:ru": null,
            "name:ar": null
        }
    },
    {
        "lat": 40.9867115,
        "lon": 29.0312782,
        "tags": {
            "addr:city": "İstanbul",
            "addr:district": null,
            "description": "",
            "opening_hours": null,
            "phone": null,
            "branch": null,
            "amenity": "pet",
            "mobile": null,
            "addr:street": null,
            "cuisine": null,
            "name": "Petsev",
            "name:en": null,
            "name:uk": null,
            "name:de": null,
            "name:tr": null,
            "name:ru": null,
            "name:ar": null
        }
    },
    {
        "lat": 41.0392253,
        "lon": 28.8623351,
        "tags": {
            "addr:city": "İstanbul",
            "addr:district": null,
            "description": "",
            "opening_hours": null,
            "phone": null,
            "branch": null,
            "amenity": "pet",
            "mobile": null,
            "addr:street": null,
            "cuisine": null,
            "name": null,
            "name:en": null,
            "name:uk": null,
            "name:de": null,
            "name:tr": null,
            "name:ru": null,
            "name:ar": null
        }
    },
    {
        "lat": 41.0021252,
        "lon": 28.7994724,
        "tags": {
            "addr:city": "İstanbul",
            "addr:district": null,
            "description": "",
            "opening_hours": null,
            "phone": null,
            "branch": null,
            "amenity": "pet",
            "mobile": null,
            "addr:street": null,
            "cuisine": null,
            "name": null,
            "name:en": null,
            "name:uk": null,
            "name:de": null,
            "name:tr": null,
            "name:ru": null,
            "name:ar": null
        }
    },
    {
        "lat": 40.9972573,
        "lon": 28.9288217,
        "tags": {
            "addr:city": "Istanbul",
            "addr:district": "Fatih",
            "description": "",
            "opening_hours": null,
            "phone": "(0212) 586 00 37",
            "branch": null,
            "amenity": "pet",
            "mobile": null,
            "addr:street": "İmrahor ilyasbey caddesi",
            "cuisine": null,
            "name": "Petmanya",
            "name:en": null,
            "name:uk": null,
            "name:de": null,
            "name:tr": null,
            "name:ru": null,
            "name:ar": "بيتمانيا للحيوانات الأليفة"
        }
    },
    {
        "lat": 41.0031297,
        "lon": 28.9314831,
        "tags": {
            "addr:city": "Istanbul",
            "addr:district": "Fatih",
            "description": "",
            "opening_hours": null,
            "phone": null,
            "branch": null,
            "amenity": "pet",
            "mobile": null,
            "addr:street": "Berber Şefik Sokak",
            "cuisine": null,
            "name": "Petshop",
            "name:en": null,
            "name:uk": null,
            "name:de": null,
            "name:tr": null,
            "name:ru": null,
            "name:ar": "بيع حيوانات"
        }
    },
    {
        "lat": 41.019239,
        "lon": 28.9602242,
        "tags": {
            "addr:city": "Istanbul",
            "addr:district": "Fatih",
            "description": "",
            "opening_hours": null,
            "phone": null,
            "branch": null,
            "amenity": "pet",
            "mobile": null,
            "addr:street": "Hacı Kadın Caddesi",
            "cuisine": null,
            "name": "Ak yol",
            "name:en": null,
            "name:uk": null,
            "name:de": null,
            "name:tr": null,
            "name:ru": null,
            "name:ar": "اك يول"
        }
    },
    {
        "lat": 41.0168658,
        "lon": 28.9714401,
        "tags": {
            "addr:city": "İstanbul",
            "addr:district": null,
            "description": "",
            "opening_hours": null,
            "phone": null,
            "branch": null,
            "amenity": "pet",
            "mobile": null,
            "addr:street": null,
            "cuisine": null,
            "name": null,
            "name:en": null,
            "name:uk": null,
            "name:de": null,
            "name:tr": null,
            "name:ru": null,
            "name:ar": null
        }
    },
    {
        "lat": 41.0001532,
        "lon": 28.9307175,
        "tags": {
            "addr:city": "Istanbul",
            "addr:district": "Fatih",
            "description": "",
            "opening_hours": null,
            "phone": null,
            "branch": null,
            "amenity": "pet",
            "mobile": null,
            "addr:street": "Hacı Kadın Çeşmesi Caddesi",
            "cuisine": null,
            "name": "Şeref Kuş Ve Akvaryum Galerisi",
            "name:en": null,
            "name:uk": null,
            "name:de": null,
            "name:tr": null,
            "name:ru": null,
            "name:ar": "شريف للطيور والاسماك"
        }
    },
    {
        "lat": 40.9999128,
        "lon": 28.9308751,
        "tags": {
            "addr:city": "Istanbul",
            "addr:district": "Fatih",
            "description": "",
            "opening_hours": null,
            "phone": "02126329383",
            "branch": null,
            "amenity": "pet",
            "mobile": null,
            "addr:street": "Hacı Kadın Çeşmesi Caddesi",
            "cuisine": null,
            "name": "Nisa",
            "name:en": null,
            "name:uk": null,
            "name:de": null,
            "name:tr": null,
            "name:ru": null,
            "name:ar": "نيسا للحيوانات"
        }
    },
    {
        "lat": 41.0069343,
        "lon": 28.9326873,
        "tags": {
            "addr:city": "Istanbul",
            "addr:district": "Fatih",
            "description": "",
            "opening_hours": "mo-su 09:00-21:00",
            "phone": "02125876255",
            "branch": null,
            "amenity": "pet",
            "mobile": null,
            "addr:street": "Hekimoğlu Alipaşa Caddesi",
            "cuisine": null,
            "name": "Amazon Aquarium Pet Center",
            "name:en": null,
            "name:uk": null,
            "name:de": null,
            "name:tr": null,
            "name:ru": null,
            "name:ar": "أمازون أكواريوم لبيع الحيوانات"
        }
    },
    {
        "lat": 41.0029474,
        "lon": 28.932765,
        "tags": {
            "addr:city": "Istanbul",
            "addr:district": "Fatih",
            "description": "",
            "opening_hours": null,
            "phone": null,
            "branch": null,
            "amenity": "pet",
            "mobile": null,
            "addr:street": "Demirci Osman Sokak",
            "cuisine": null,
            "name": "Dobbys Hobby Shop",
            "name:en": null,
            "name:uk": null,
            "name:de": null,
            "name:tr": null,
            "name:ru": null,
            "name:ar": "دوبيس هوبي شوب للحيوانات"
        }
    },
    {
        "lat": 41.046893,
        "lon": 28.8979259,
        "tags": {
            "addr:city": "İstanbul",
            "addr:district": null,
            "description": "",
            "opening_hours": null,
            "phone": null,
            "branch": null,
            "amenity": "pet",
            "mobile": null,
            "addr:street": null,
            "cuisine": null,
            "name": null,
            "name:en": null,
            "name:uk": null,
            "name:de": null,
            "name:tr": null,
            "name:ru": null,
            "name:ar": null
        }
    },
    {
        "lat": 41.0205231,
        "lon": 28.942132,
        "tags": {
            "addr:city": "Istanbul",
            "addr:district": "Turkey",
            "description": "",
            "opening_hours": null,
            "phone": null,
            "branch": null,
            "amenity": "pet",
            "mobile": null,
            "addr:street": "MÜTERCIM ASIM cadde",
            "cuisine": null,
            "name": "Minik Distlar",
            "name:en": null,
            "name:uk": null,
            "name:de": null,
            "name:tr": null,
            "name:ru": null,
            "name:ar": "مينيك دوستلار"
        }
    },
    {
        "lat": 40.9508986,
        "lon": 29.1074942,
        "tags": {
            "addr:city": "İstanbul",
            "addr:district": null,
            "description": "",
            "opening_hours": null,
            "phone": null,
            "branch": null,
            "amenity": "pet",
            "mobile": null,
            "addr:street": null,
            "cuisine": null,
            "name": "Çisem Pet Shop",
            "name:en": null,
            "name:uk": null,
            "name:de": null,
            "name:tr": null,
            "name:ru": null,
            "name:ar": null
        }
    },
    {
        "lat": 40.9593065,
        "lon": 29.0958165,
        "tags": {
            "addr:city": "İstanbul",
            "addr:district": "Kadıköy",
            "description": "",
            "opening_hours": null,
            "phone": null,
            "branch": null,
            "amenity": "pet",
            "mobile": null,
            "addr:street": "Prof. Dr. Kemal Akgüder Caddesi",
            "cuisine": null,
            "name": null,
            "name:en": null,
            "name:uk": null,
            "name:de": null,
            "name:tr": null,
            "name:ru": null,
            "name:ar": null
        }
    },
    {
        "lat": 40.9574585,
        "lon": 29.0969371,
        "tags": {
            "addr:city": "İstanbul",
            "addr:district": "Kadıköy",
            "description": "",
            "opening_hours": null,
            "phone": null,
            "branch": null,
            "amenity": "pet",
            "mobile": null,
            "addr:street": "Emin Ali Paşa Caddesi",
            "cuisine": null,
            "name": "Nuhun Gemisi Pet Shop",
            "name:en": null,
            "name:uk": null,
            "name:de": null,
            "name:tr": null,
            "name:ru": null,
            "name:ar": null
        }
    },
    {
        "lat": 41.0321413,
        "lon": 29.1803638,
        "tags": {
            "addr:city": "İstanbul",
            "addr:district": "Çekmeköy",
            "description": "",
            "opening_hours": "Mo-Su 08:00-20:30",
            "phone": "+90 537 476 26 13",
            "branch": null,
            "amenity": "pet",
            "mobile": null,
            "addr:street": "Mimar Sinan Caddesi",
            "cuisine": null,
            "name": "Evcil Dünya",
            "name:en": null,
            "name:uk": null,
            "name:de": null,
            "name:tr": null,
            "name:ru": null,
            "name:ar": null
        }
    },
    {
        "lat": 40.9550847,
        "lon": 29.0925493,
        "tags": {
            "addr:city": "İstanbul",
            "addr:district": "Kadıköy",
            "description": "",
            "opening_hours": null,
            "phone": null,
            "branch": null,
            "amenity": "pet",
            "mobile": null,
            "addr:street": "Kasadar Sokak",
            "cuisine": null,
            "name": "Kanaryam Kuş Dünyası",
            "name:en": null,
            "name:uk": null,
            "name:de": null,
            "name:tr": null,
            "name:ru": null,
            "name:ar": null
        }
    },
    {
        "lat": 40.9624678,
        "lon": 29.0914662,
        "tags": {
            "addr:city": "İstanbul",
            "addr:district": "Kadıköy",
            "description": "",
            "opening_hours": null,
            "phone": null,
            "branch": null,
            "amenity": "pet",
            "mobile": null,
            "addr:street": "Şemsettin Günaltay Caddesi",
            "cuisine": null,
            "name": "Petonya Pet Shop",
            "name:en": null,
            "name:uk": null,
            "name:de": null,
            "name:tr": null,
            "name:ru": null,
            "name:ar": null
        }
    },
    {
        "lat": 40.8857127,
        "lon": 29.2321456,
        "tags": {
            "addr:city": "İstanbul",
            "addr:district": null,
            "description": "",
            "opening_hours": null,
            "phone": null,
            "branch": null,
            "amenity": "pet",
            "mobile": null,
            "addr:street": null,
            "cuisine": null,
            "name": "Petco",
            "name:en": null,
            "name:uk": null,
            "name:de": null,
            "name:tr": null,
            "name:ru": null,
            "name:ar": null
        }
    },
    {
        "lat": 40.9611368,
        "lon": 29.083903,
        "tags": {
            "addr:city": "İstanbul",
            "addr:district": "Kadıköy",
            "description": "",
            "opening_hours": null,
            "phone": null,
            "branch": null,
            "amenity": "pet",
            "mobile": null,
            "addr:street": "Ayşe Çavuş Caddesi",
            "cuisine": null,
            "name": "Pet Premier",
            "name:en": null,
            "name:uk": null,
            "name:de": null,
            "name:tr": null,
            "name:ru": null,
            "name:ar": null
        }
    },
    {
        "lat": 41.1070764,
        "lon": 28.8625326,
        "tags": {
            "addr:city": "İstanbul",
            "addr:district": null,
            "description": "",
            "opening_hours": null,
            "phone": null,
            "branch": null,
            "amenity": "pet",
            "mobile": null,
            "addr:street": null,
            "cuisine": null,
            "name": "PetShop",
            "name:en": null,
            "name:uk": null,
            "name:de": null,
            "name:tr": null,
            "name:ru": null,
            "name:ar": null
        }
    },
    {
        "lat": 40.9636762,
        "lon": 29.0862614,
        "tags": {
            "addr:city": "İstanbul",
            "addr:district": "Kadıköy",
            "description": "",
            "opening_hours": null,
            "phone": null,
            "branch": null,
            "amenity": "pet",
            "mobile": null,
            "addr:street": "Ayşe Çavuş Caddesi",
            "cuisine": null,
            "name": "Mamacı Pet Shop",
            "name:en": null,
            "name:uk": null,
            "name:de": null,
            "name:tr": null,
            "name:ru": null,
            "name:ar": null
        }
    },
    {
        "lat": 40.9602672,
        "lon": 29.090826,
        "tags": {
            "addr:city": "İstanbul",
            "addr:district": "Kadıköy",
            "description": "",
            "opening_hours": null,
            "phone": null,
            "branch": null,
            "amenity": "pet",
            "mobile": null,
            "addr:street": "Emin Ali Paşa Caddesi",
            "cuisine": null,
            "name": "Dost Pet",
            "name:en": null,
            "name:uk": null,
            "name:de": null,
            "name:tr": null,
            "name:ru": null,
            "name:ar": null
        }
    },
    {
        "lat": 40.8886838,
        "lon": 29.1861009,
        "tags": {
            "addr:city": "İstanbul",
            "addr:district": null,
            "description": "",
            "opening_hours": null,
            "phone": null,
            "branch": null,
            "amenity": "pet",
            "mobile": null,
            "addr:street": null,
            "cuisine": null,
            "name": "PetSmart",
            "name:en": null,
            "name:uk": null,
            "name:de": null,
            "name:tr": null,
            "name:ru": null,
            "name:ar": null
        }
    },
    {
        "lat": 40.9197965,
        "lon": 29.1310648,
        "tags": {
            "addr:city": "İstanbul",
            "addr:district": null,
            "description": "",
            "opening_hours": null,
            "phone": null,
            "branch": null,
            "amenity": "pet",
            "mobile": null,
            "addr:street": null,
            "cuisine": null,
            "name": "Mırmır Petshop",
            "name:en": null,
            "name:uk": null,
            "name:de": null,
            "name:tr": null,
            "name:ru": null,
            "name:ar": null
        }
    },
    {
        "lat": 41.0180159,
        "lon": 29.1921203,
        "tags": {
            "addr:city": "İstanbul",
            "addr:district": null,
            "description": "",
            "opening_hours": null,
            "phone": null,
            "branch": null,
            "amenity": "pet",
            "mobile": null,
            "addr:street": null,
            "cuisine": null,
            "name": "Oğuz Akvaryum & Pet Shop",
            "name:en": null,
            "name:uk": null,
            "name:de": null,
            "name:tr": null,
            "name:ru": null,
            "name:ar": null
        }
    },
    {
        "lat": 41.0198588,
        "lon": 28.9024162,
        "tags": {
            "addr:city": "Istanbul",
            "addr:district": "Zeytinburnu",
            "description": "",
            "opening_hours": "Mo-Fr 08:00-17:00; Mo-Sa 07:30-15:00",
            "phone": "(0212) 481 10 88",
            "branch": null,
            "amenity": "pet",
            "mobile": null,
            "addr:street": "Yılanlı Ayazma Yolu",
            "cuisine": null,
            "name": "Lale Akvaryum Market",
            "name:en": null,
            "name:uk": null,
            "name:de": null,
            "name:tr": null,
            "name:ru": null,
            "name:ar": "محل لالي لبيع الاسماك"
        }
    },
    {
        "lat": 40.9901559,
        "lon": 28.9029981,
        "tags": {
            "addr:city": "Istanbul",
            "addr:district": "Zeytinburnu",
            "description": "",
            "opening_hours": "Mo-Su 09:00-17:00",
            "phone": null,
            "branch": null,
            "amenity": "pet",
            "mobile": null,
            "addr:street": null,
            "cuisine": null,
            "name": "Ozan Akvaryum",
            "name:en": null,
            "name:uk": null,
            "name:de": null,
            "name:tr": null,
            "name:ru": null,
            "name:ar": "اوزان للحيونات الاليفة"
        }
    },
    {
        "lat": 40.9942254,
        "lon": 28.9023039,
        "tags": {
            "addr:city": "Istanbul",
            "addr:district": "Zeytinburnu",
            "description": "",
            "opening_hours": null,
            "phone": "532 482 58 93",
            "branch": null,
            "amenity": "pet",
            "mobile": null,
            "addr:street": null,
            "cuisine": null,
            "name": "Hatıpoğlu Akvaryum",
            "name:en": null,
            "name:uk": null,
            "name:de": null,
            "name:tr": null,
            "name:ru": null,
            "name:ar": "هاتب اوغلوا للحيونات الاليفة"
        }
    },
    {
        "lat": 40.986449,
        "lon": 28.8953018,
        "tags": {
            "addr:city": "Istanbul",
            "addr:district": "Zeytinburnu",
            "description": "",
            "opening_hours": null,
            "phone": null,
            "branch": null,
            "amenity": "pet",
            "mobile": null,
            "addr:street": "30.sokak",
            "cuisine": null,
            "name": "petmix store",
            "name:en": null,
            "name:uk": null,
            "name:de": null,
            "name:tr": null,
            "name:ru": null,
            "name:ar": "بيتميكس ستور"
        }
    },
    {
        "lat": 40.9894794,
        "lon": 28.905277,
        "tags": {
            "addr:city": "Istanbul",
            "addr:district": "Zeytinburnu",
            "description": "",
            "opening_hours": null,
            "phone": null,
            "branch": null,
            "amenity": "pet",
            "mobile": null,
            "addr:street": "48 Sokak",
            "cuisine": null,
            "name": "Pet",
            "name:en": null,
            "name:uk": null,
            "name:de": null,
            "name:tr": null,
            "name:ru": null,
            "name:ar": "بيت"
        }
    },
    {
        "lat": 41.0538719,
        "lon": 28.8464081,
        "tags": {
            "addr:city": "Istanbul",
            "addr:district": "Bağcılar",
            "description": "",
            "opening_hours": null,
            "phone": null,
            "branch": null,
            "amenity": "pet",
            "mobile": null,
            "addr:street": null,
            "cuisine": null,
            "name": "Kuş yemek",
            "name:en": null,
            "name:uk": null,
            "name:de": null,
            "name:tr": null,
            "name:ru": null,
            "name:ar": "لوازم طيور"
        }
    },
    {
        "lat": 41.0467397,
        "lon": 28.8489126,
        "tags": {
            "addr:city": "Istanbul",
            "addr:district": "Bağcılar",
            "description": "",
            "opening_hours": null,
            "phone": null,
            "branch": null,
            "amenity": "pet",
            "mobile": null,
            "addr:street": null,
            "cuisine": null,
            "name": "Cennet kuş dünyası",
            "name:en": null,
            "name:uk": null,
            "name:de": null,
            "name:tr": null,
            "name:ru": null,
            "name:ar": "جنت للطيور ومستلزماتها"
        }
    },
    {
        "lat": 41.0259836,
        "lon": 28.8306989,
        "tags": {
            "addr:city": "Istanbul",
            "addr:district": "Bağcılar",
            "description": "",
            "opening_hours": null,
            "phone": null,
            "branch": null,
            "amenity": "pet",
            "mobile": null,
            "addr:street": null,
            "cuisine": null,
            "name": "Salih Petshop",
            "name:en": null,
            "name:uk": null,
            "name:de": null,
            "name:tr": null,
            "name:ru": null,
            "name:ar": "متجر حيوانات أليفة صالح"
        }
    },
    {
        "lat": 41.0445837,
        "lon": 28.8387008,
        "tags": {
            "addr:city": "Istanbul",
            "addr:district": "Bağcılar",
            "description": "",
            "opening_hours": null,
            "phone": null,
            "branch": null,
            "amenity": "pet",
            "mobile": null,
            "addr:street": "Mevlana caddesi",
            "cuisine": null,
            "name": "Hira akvaryum",
            "name:en": null,
            "name:uk": null,
            "name:de": null,
            "name:tr": null,
            "name:ru": null,
            "name:ar": "هرة اكواريوم"
        }
    },
    {
        "lat": 41.0395437,
        "lon": 28.8403137,
        "tags": {
            "addr:city": "Istanbul",
            "addr:district": "Bağcılar",
            "description": "",
            "opening_hours": null,
            "phone": null,
            "branch": null,
            "amenity": "pet",
            "mobile": null,
            "addr:street": "Mevlana caddesi",
            "cuisine": null,
            "name": "Özgür Akvaryum",
            "name:en": null,
            "name:uk": null,
            "name:de": null,
            "name:tr": null,
            "name:ru": null,
            "name:ar": "اوزغور اكواريوم"
        }
    },
    {
        "lat": 41.0415788,
        "lon": 28.8586472,
        "tags": {
            "addr:city": "Istanbul",
            "addr:district": null,
            "description": "",
            "opening_hours": null,
            "phone": null,
            "branch": null,
            "amenity": "pet",
            "mobile": null,
            "addr:street": "1993 Sokak",
            "cuisine": null,
            "name": "Besler Akvaryum",
            "name:en": null,
            "name:uk": null,
            "name:de": null,
            "name:tr": null,
            "name:ru": null,
            "name:ar": "باسلار أكفاريوم"
        }
    },
    {
        "lat": 41.0263787,
        "lon": 28.8504896,
        "tags": {
            "addr:city": "Istanbul",
            "addr:district": "Bağcılar",
            "description": "",
            "opening_hours": null,
            "phone": null,
            "branch": null,
            "amenity": "pet",
            "mobile": null,
            "addr:street": "30/11. sokak",
            "cuisine": null,
            "name": "Hekimoğlu petshop",
            "name:en": null,
            "name:uk": null,
            "name:de": null,
            "name:tr": null,
            "name:ru": null,
            "name:ar": "محل حكيم أوغلو للحيوانات الاليفة"
        }
    },
    {
        "lat": 40.9710504,
        "lon": 29.0610602,
        "tags": {
            "addr:city": "istanbul",
            "addr:district": "kadıköy",
            "description": "",
            "opening_hours": null,
            "phone": null,
            "branch": null,
            "amenity": "pet",
            "mobile": null,
            "addr:street": "Bağdat Caddesi",
            "cuisine": null,
            "name": "Bağdat Evcil",
            "name:en": null,
            "name:uk": null,
            "name:de": null,
            "name:tr": null,
            "name:ru": null,
            "name:ar": null
        }
    },
    {
        "lat": 40.8627771,
        "lon": 29.3344106,
        "tags": {
            "addr:city": "İstanbul",
            "addr:district": null,
            "description": "",
            "opening_hours": null,
            "phone": null,
            "branch": null,
            "amenity": "pet",
            "mobile": null,
            "addr:street": null,
            "cuisine": null,
            "name": "Pekcan Petshop",
            "name:en": null,
            "name:uk": null,
            "name:de": null,
            "name:tr": null,
            "name:ru": null,
            "name:ar": null
        }
    },
    {
        "lat": 40.8694315,
        "lon": 29.3229361,
        "tags": {
            "addr:city": "İstanbul",
            "addr:district": null,
            "description": "",
            "opening_hours": null,
            "phone": null,
            "branch": null,
            "amenity": "pet",
            "mobile": null,
            "addr:street": null,
            "cuisine": null,
            "name": "Pet Corner",
            "name:en": null,
            "name:uk": null,
            "name:de": null,
            "name:tr": null,
            "name:ru": null,
            "name:ar": null
        }
    },
    {
        "lat": 41.0921209,
        "lon": 29.1415725,
        "tags": {
            "addr:city": "İstanbul",
            "addr:district": null,
            "description": "",
            "opening_hours": null,
            "phone": null,
            "branch": null,
            "amenity": "pet",
            "mobile": null,
            "addr:street": null,
            "cuisine": null,
            "name": "Klea",
            "name:en": null,
            "name:uk": null,
            "name:de": null,
            "name:tr": null,
            "name:ru": null,
            "name:ar": null
        }
    },
    {
        "lat": 41.0033361,
        "lon": 29.0853591,
        "tags": {
            "addr:city": "istanbul",
            "addr:district": "ataşehir",
            "description": "",
            "opening_hours": null,
            "phone": null,
            "branch": null,
            "amenity": "pet",
            "mobile": null,
            "addr:street": "ziyapaşa",
            "cuisine": null,
            "name": "mamakent petshop",
            "name:en": null,
            "name:uk": null,
            "name:de": null,
            "name:tr": null,
            "name:ru": null,
            "name:ar": null
        }
    },
    {
        "lat": 40.9714352,
        "lon": 29.1367653,
        "tags": {
            "addr:city": "İstanbul",
            "addr:district": null,
            "description": "",
            "opening_hours": null,
            "phone": null,
            "branch": null,
            "amenity": "pet",
            "mobile": null,
            "addr:street": null,
            "cuisine": null,
            "name": null,
            "name:en": null,
            "name:uk": null,
            "name:de": null,
            "name:tr": null,
            "name:ru": null,
            "name:ar": null
        }
    },
    {
        "lat": 40.9920027,
        "lon": 29.1185751,
        "tags": {
            "addr:city": "Istanbul",
            "addr:district": "Ataşehir",
            "description": "",
            "opening_hours": "Mo-Sa 08:00-20:00; Su 12:00-18:00",
            "phone": null,
            "branch": null,
            "amenity": "pet",
            "mobile": null,
            "addr:street": "Sedef Caddesi",
            "cuisine": null,
            "name": "Viskypet Petshop",
            "name:en": null,
            "name:uk": null,
            "name:de": null,
            "name:tr": null,
            "name:ru": null,
            "name:ar": null
        }
    },
    {
        "lat": 40.9131679,
        "lon": 29.2826357,
        "tags": {
            "addr:city": "İstanbul",
            "addr:district": null,
            "description": "",
            "opening_hours": null,
            "phone": null,
            "branch": null,
            "amenity": "pet",
            "mobile": null,
            "addr:street": null,
            "cuisine": null,
            "name": "Bulut Petshop",
            "name:en": null,
            "name:uk": null,
            "name:de": null,
            "name:tr": null,
            "name:ru": null,
            "name:ar": null
        }
    },
    {
        "lat": 41.009905,
        "lon": 29.1181029,
        "tags": {
            "addr:city": "İstanbul",
            "addr:district": null,
            "description": "",
            "opening_hours": null,
            "phone": null,
            "branch": null,
            "amenity": "pet",
            "mobile": null,
            "addr:street": null,
            "cuisine": null,
            "name": "afacan petshop",
            "name:en": null,
            "name:uk": null,
            "name:de": null,
            "name:tr": null,
            "name:ru": null,
            "name:ar": null
        }
    },
    {
        "lat": 41.1275209,
        "lon": 29.2588854,
        "tags": {
            "addr:city": "İstanbul",
            "addr:district": null,
            "description": "",
            "opening_hours": null,
            "phone": null,
            "branch": null,
            "amenity": "pet",
            "mobile": null,
            "addr:street": null,
            "cuisine": null,
            "name": "Topaz Kennels",
            "name:en": null,
            "name:uk": null,
            "name:de": null,
            "name:tr": null,
            "name:ru": null,
            "name:ar": null
        }
    },
    {
        "lat": 41.0589118,
        "lon": 28.9150828,
        "tags": {
            "addr:city": "İstanbul",
            "addr:district": null,
            "description": "",
            "opening_hours": null,
            "phone": null,
            "branch": null,
            "amenity": "pet",
            "mobile": null,
            "addr:street": null,
            "cuisine": null,
            "name": "Irmak Pet Shop",
            "name:en": null,
            "name:uk": null,
            "name:de": null,
            "name:tr": null,
            "name:ru": null,
            "name:ar": null
        }
    },
    {
        "lat": 41.0039797,
        "lon": 28.6596375,
        "tags": {
            "addr:city": "İstanbul",
            "addr:district": null,
            "description": "",
            "opening_hours": null,
            "phone": "+90 212 87 67 655",
            "branch": null,
            "amenity": "pet",
            "mobile": null,
            "addr:street": "Ali Çebi Caddesi",
            "cuisine": null,
            "name": "Apimaye",
            "name:en": null,
            "name:uk": null,
            "name:de": null,
            "name:tr": null,
            "name:ru": null,
            "name:ar": null
        }
    },
    {
        "lat": 41.0300306,
        "lon": 29.227648,
        "tags": {
            "addr:city": "İstanbul",
            "addr:district": null,
            "description": "",
            "opening_hours": null,
            "phone": null,
            "branch": null,
            "amenity": "pet",
            "mobile": null,
            "addr:street": null,
            "cuisine": null,
            "name": "Minik Pet Shop",
            "name:en": null,
            "name:uk": null,
            "name:de": null,
            "name:tr": null,
            "name:ru": null,
            "name:ar": null
        }
    },
    {
        "lat": 40.9777188,
        "lon": 29.0858897,
        "tags": {
            "addr:city": "istanbul",
            "addr:district": "kadıköy",
            "description": "",
            "opening_hours": null,
            "phone": null,
            "branch": null,
            "amenity": "pet",
            "mobile": null,
            "addr:street": "Panaroma Sokağı",
            "cuisine": null,
            "name": "Bülent Pet shop",
            "name:en": null,
            "name:uk": null,
            "name:de": null,
            "name:tr": null,
            "name:ru": null,
            "name:ar": null
        }
    },
    {
        "lat": 40.9027496,
        "lon": 29.2309122,
        "tags": {
            "addr:city": "İstanbul",
            "addr:district": null,
            "description": "",
            "opening_hours": null,
            "phone": null,
            "branch": null,
            "amenity": "pet",
            "mobile": null,
            "addr:street": null,
            "cuisine": null,
            "name": "Genç Petshop",
            "name:en": null,
            "name:uk": null,
            "name:de": null,
            "name:tr": null,
            "name:ru": null,
            "name:ar": null
        }
    },
    {
        "lat": 40.9823707,
        "lon": 29.1190357,
        "tags": {
            "addr:city": "İstanbul",
            "addr:district": null,
            "description": "",
            "opening_hours": null,
            "phone": null,
            "branch": null,
            "amenity": "pet",
            "mobile": null,
            "addr:street": "Cengiz Topel Caddesi",
            "cuisine": null,
            "name": "Ataşehir Pet Shop",
            "name:en": null,
            "name:uk": null,
            "name:de": null,
            "name:tr": null,
            "name:ru": null,
            "name:ar": null
        }
    },
    {
        "lat": 41.0212378,
        "lon": 28.5883679,
        "tags": {
            "addr:city": "İstanbul",
            "addr:district": null,
            "description": "",
            "opening_hours": null,
            "phone": null,
            "branch": null,
            "amenity": "pet",
            "mobile": null,
            "addr:street": null,
            "cuisine": null,
            "name": "Naz Akvaryum",
            "name:en": null,
            "name:uk": null,
            "name:de": null,
            "name:tr": null,
            "name:ru": null,
            "name:ar": null
        }
    },
    {
        "lat": 41.2342504,
        "lon": 29.0554366,
        "tags": {
            "addr:city": "İstanbul",
            "addr:district": null,
            "description": "",
            "opening_hours": null,
            "phone": null,
            "branch": null,
            "amenity": "pet",
            "mobile": null,
            "addr:street": null,
            "cuisine": null,
            "name": "Rakun Pet Shop",
            "name:en": null,
            "name:uk": null,
            "name:de": null,
            "name:tr": null,
            "name:ru": null,
            "name:ar": null
        }
    },
    {
        "lat": 41.0331364,
        "lon": 29.0318795,
        "tags": {
            "addr:city": "İstanbul",
            "addr:district": null,
            "description": "",
            "opening_hours": null,
            "phone": null,
            "branch": null,
            "amenity": "pet",
            "mobile": null,
            "addr:street": null,
            "cuisine": null,
            "name": "Recep's Pet Shop",
            "name:en": null,
            "name:uk": null,
            "name:de": null,
            "name:tr": null,
            "name:ru": null,
            "name:ar": null
        }
    },
    {
        "lat": 41.1006286,
        "lon": 28.8101276,
        "tags": {
            "addr:city": "İstanbul",
            "addr:district": null,
            "description": "",
            "opening_hours": null,
            "phone": null,
            "branch": null,
            "amenity": "pet",
            "mobile": null,
            "addr:street": null,
            "cuisine": null,
            "name": "gökkuşağı akvaryum",
            "name:en": null,
            "name:uk": null,
            "name:de": null,
            "name:tr": null,
            "name:ru": null,
            "name:ar": null
        }
    },
    {
        "lat": 40.9530695,
        "lon": 29.10079,
        "tags": {
            "addr:city": "İstanbul",
            "addr:district": null,
            "description": "",
            "opening_hours": null,
            "phone": "+90 (216) 388 16 66",
            "branch": null,
            "amenity": "pet",
            "mobile": null,
            "addr:street": null,
            "cuisine": null,
            "name": "Altın Pet Market",
            "name:en": null,
            "name:uk": null,
            "name:de": null,
            "name:tr": null,
            "name:ru": null,
            "name:ar": null
        }
    },
    {
        "lat": 40.9832526,
        "lon": 29.0637837,
        "tags": {
            "addr:city": "İstanbul",
            "addr:district": null,
            "description": "",
            "opening_hours": null,
            "phone": null,
            "branch": null,
            "amenity": "pet",
            "mobile": null,
            "addr:street": null,
            "cuisine": null,
            "name": "Pars Pet Shop",
            "name:en": null,
            "name:uk": null,
            "name:de": null,
            "name:tr": null,
            "name:ru": null,
            "name:ar": null
        }
    },
    {
        "lat": 40.9791746,
        "lon": 29.1152739,
        "tags": {
            "addr:city": "İstanbul",
            "addr:district": null,
            "description": "",
            "opening_hours": null,
            "phone": null,
            "branch": null,
            "amenity": "pet",
            "mobile": null,
            "addr:street": null,
            "cuisine": null,
            "name": "Yem Dünyası Pet Shop",
            "name:en": null,
            "name:uk": null,
            "name:de": null,
            "name:tr": null,
            "name:ru": null,
            "name:ar": null
        }
    },
    {
        "lat": 41.0152236,
        "lon": 28.5965413,
        "tags": {
            "addr:city": "İstanbul",
            "addr:district": null,
            "description": "",
            "opening_hours": null,
            "phone": null,
            "branch": null,
            "amenity": "pet",
            "mobile": null,
            "addr:street": null,
            "cuisine": null,
            "name": "Petlove",
            "name:en": null,
            "name:uk": null,
            "name:de": null,
            "name:tr": null,
            "name:ru": null,
            "name:ar": null
        }
    },
    {
        "lat": 41.1148671,
        "lon": 28.9986988,
        "tags": {
            "addr:city": "İstanbul",
            "addr:district": null,
            "description": "",
            "opening_hours": null,
            "phone": null,
            "branch": null,
            "amenity": "pet",
            "mobile": null,
            "addr:street": null,
            "cuisine": null,
            "name": "Pet Base",
            "name:en": null,
            "name:uk": null,
            "name:de": null,
            "name:tr": null,
            "name:ru": null,
            "name:ar": null
        }
    },
    {
        "lat": 40.9892167,
        "lon": 29.0293948,
        "tags": {
            "addr:city": "İstanbul",
            "addr:district": null,
            "description": "",
            "opening_hours": null,
            "phone": null,
            "branch": null,
            "amenity": "pet",
            "mobile": null,
            "addr:street": null,
            "cuisine": null,
            "name": "Bahariye Pet Shop",
            "name:en": null,
            "name:uk": null,
            "name:de": null,
            "name:tr": null,
            "name:ru": null,
            "name:ar": null
        }
    },
    {
        "lat": 41.0477307,
        "lon": 28.9325034,
        "tags": {
            "addr:city": "İstanbul",
            "addr:district": null,
            "description": "",
            "opening_hours": null,
            "phone": null,
            "branch": null,
            "amenity": "pet",
            "mobile": null,
            "addr:street": null,
            "cuisine": null,
            "name": "Enes Akvaryum Kuş Galerisi",
            "name:en": null,
            "name:uk": null,
            "name:de": null,
            "name:tr": null,
            "name:ru": null,
            "name:ar": null
        }
    },
    {
        "lat": 40.9800816,
        "lon": 28.7384722,
        "tags": {
            "addr:city": "İstanbul",
            "addr:district": null,
            "description": "",
            "opening_hours": null,
            "phone": null,
            "branch": null,
            "amenity": "pet",
            "mobile": null,
            "addr:street": null,
            "cuisine": null,
            "name": "Quik",
            "name:en": null,
            "name:uk": null,
            "name:de": null,
            "name:tr": null,
            "name:ru": null,
            "name:ar": null
        }
    },
    {
        "lat": 40.9303842,
        "lon": 29.3053799,
        "tags": {
            "addr:city": "İstanbul",
            "addr:district": "Pendik",
            "description": "",
            "opening_hours": "Mo-Su 09:00-21:00",
            "phone": "+905550215553",
            "branch": null,
            "amenity": "pet",
            "mobile": null,
            "addr:street": "Mustafa Akyol Sokağı",
            "cuisine": null,
            "name": "Black Petshop",
            "name:en": null,
            "name:uk": null,
            "name:de": null,
            "name:tr": null,
            "name:ru": null,
            "name:ar": null
        }
    },
    {
        "lat": 40.9819643,
        "lon": 29.1148894,
        "tags": {
            "addr:city": "İstanbul",
            "addr:district": null,
            "description": "",
            "opening_hours": null,
            "phone": null,
            "branch": null,
            "amenity": "pet",
            "mobile": null,
            "addr:street": null,
            "cuisine": null,
            "name": "Nokta Pet Shop",
            "name:en": null,
            "name:uk": null,
            "name:de": null,
            "name:tr": null,
            "name:ru": null,
            "name:ar": null
        }
    },
    {
        "lat": 41.0782553,
        "lon": 29.0115879,
        "tags": {
            "addr:city": "İstanbul",
            "addr:district": "Şişli",
            "description": "\"Pop Dog 2016 yılında İstanbul'da kurulmuştur. Zee Dog markasının tek ithalatçısı ve distribütörüdür. Hedefimiz kaliteli kedi ve köpek aksesuarlarını Türkiye'de ulaşılabilir kılmaktır. Hayvanseverlere en kaliteli, güvenli ve şık aksesuarları sunmamıza ek",
            "opening_hours": "Mo-Su 10:00-22:00",
            "phone": "+90536 976 73 64",
            "branch": null,
            "amenity": "pet",
            "mobile": null,
            "addr:street": "Büyükdere Caddesi",
            "cuisine": null,
            "name": "Pop Dog Kanyon",
            "name:en": null,
            "name:uk": null,
            "name:de": null,
            "name:tr": null,
            "name:ru": null,
            "name:ar": null
        }
    },
    {
        "lat": 40.9807358,
        "lon": 29.112393,
        "tags": {
            "addr:city": "İstanbul",
            "addr:district": null,
            "description": "",
            "opening_hours": null,
            "phone": null,
            "branch": null,
            "amenity": "pet",
            "mobile": null,
            "addr:street": null,
            "cuisine": null,
            "name": "Pink-Shadow",
            "name:en": null,
            "name:uk": null,
            "name:de": null,
            "name:tr": null,
            "name:ru": null,
            "name:ar": null
        }
    },
    {
        "lat": 41.052837,
        "lon": 28.9907841,
        "tags": {
            "addr:city": "İstanbul",
            "addr:district": null,
            "description": "",
            "opening_hours": null,
            "phone": null,
            "branch": null,
            "amenity": "pet",
            "mobile": null,
            "addr:street": null,
            "cuisine": null,
            "name": "Zafer",
            "name:en": null,
            "name:uk": null,
            "name:de": null,
            "name:tr": null,
            "name:ru": null,
            "name:ar": null
        }
    },
    {
        "lat": 40.9844334,
        "lon": 29.0278058,
        "tags": {
            "addr:city": "İstanbul",
            "addr:district": "Kadıköy",
            "description": "",
            "opening_hours": null,
            "phone": "+905369513797",
            "branch": null,
            "amenity": "pet",
            "mobile": null,
            "addr:street": "Şair Latifi Sokağı",
            "cuisine": null,
            "name": "Moda Petshop",
            "name:en": null,
            "name:uk": null,
            "name:de": null,
            "name:tr": null,
            "name:ru": null,
            "name:ar": null
        }
    },
    {
        "lat": 40.9963448,
        "lon": 29.0294135,
        "tags": {
            "addr:city": "İstanbul",
            "addr:district": "Kadıköy",
            "description": "",
            "opening_hours": null,
            "phone": "+905327852581",
            "branch": null,
            "amenity": "pet",
            "mobile": null,
            "addr:street": "İskele Sokağı",
            "cuisine": null,
            "name": "Ocean Fishers",
            "name:en": null,
            "name:uk": null,
            "name:de": null,
            "name:tr": null,
            "name:ru": null,
            "name:ar": null
        }
    },
    {
        "lat": 40.9606951,
        "lon": 29.1590291,
        "tags": {
            "addr:city": "İstanbul",
            "addr:district": null,
            "description": "",
            "opening_hours": null,
            "phone": null,
            "branch": null,
            "amenity": "pet",
            "mobile": "+905376358282",
            "addr:street": null,
            "cuisine": null,
            "name": "Özgür Koç Adak Kurban Satış Yeri",
            "name:en": null,
            "name:uk": null,
            "name:de": null,
            "name:tr": null,
            "name:ru": null,
            "name:ar": null
        }
    },
    {
        "lat": 41.0820956,
        "lon": 28.9733683,
        "tags": {
            "addr:city": "İstanbul",
            "addr:district": null,
            "description": "",
            "opening_hours": null,
            "phone": null,
            "branch": null,
            "amenity": "pet",
            "mobile": null,
            "addr:street": null,
            "cuisine": null,
            "name": "Pomerboo Pet Shop",
            "name:en": null,
            "name:uk": null,
            "name:de": null,
            "name:tr": null,
            "name:ru": null,
            "name:ar": null
        }
    },
    {
        "lat": 40.9221549,
        "lon": 29.1321087,
        "tags": {
            "addr:city": "İstanbul",
            "addr:district": null,
            "description": "",
            "opening_hours": null,
            "phone": null,
            "branch": null,
            "amenity": "pet",
            "mobile": null,
            "addr:street": null,
            "cuisine": null,
            "name": "Hill’s",
            "name:en": null,
            "name:uk": null,
            "name:de": null,
            "name:tr": null,
            "name:ru": null,
            "name:ar": null
        }
    },
    {
        "lat": 40.9277895,
        "lon": 29.1301244,
        "tags": {
            "addr:city": "İstanbul",
            "addr:district": null,
            "description": "",
            "opening_hours": null,
            "phone": null,
            "branch": null,
            "amenity": "pet",
            "mobile": null,
            "addr:street": null,
            "cuisine": null,
            "name": null,
            "name:en": null,
            "name:uk": null,
            "name:de": null,
            "name:tr": null,
            "name:ru": null,
            "name:ar": null
        }
    },
    {
        "lat": 40.9225141,
        "lon": 29.1322897,
        "tags": {
            "addr:city": "İstanbul",
            "addr:district": null,
            "description": "",
            "opening_hours": null,
            "phone": null,
            "branch": null,
            "amenity": "pet",
            "mobile": null,
            "addr:street": null,
            "cuisine": null,
            "name": null,
            "name:en": null,
            "name:uk": null,
            "name:de": null,
            "name:tr": null,
            "name:ru": null,
            "name:ar": null
        }
    },
    {
        "lat": 41.0006586,
        "lon": 28.8570056,
        "tags": {
            "addr:city": "İstanbul",
            "addr:district": null,
            "description": "",
            "opening_hours": null,
            "phone": null,
            "branch": null,
            "amenity": "pet",
            "mobile": null,
            "addr:street": null,
            "cuisine": null,
            "name": "Discover Pet Shop ve Akvaryum",
            "name:en": null,
            "name:uk": null,
            "name:de": null,
            "name:tr": null,
            "name:ru": null,
            "name:ar": null
        }
    },
    {
        "lat": 40.9988126,
        "lon": 28.8579308,
        "tags": {
            "addr:city": "İstanbul",
            "addr:district": null,
            "description": "",
            "opening_hours": null,
            "phone": null,
            "branch": null,
            "amenity": "pet",
            "mobile": null,
            "addr:street": null,
            "cuisine": null,
            "name": "Deniz Pet Shop Akvaryum",
            "name:en": null,
            "name:uk": null,
            "name:de": null,
            "name:tr": null,
            "name:ru": null,
            "name:ar": null
        }
    },
    {
        "lat": 40.9669294,
        "lon": 29.063438,
        "tags": {
            "addr:city": "İstanbul",
            "addr:district": "Kadıköy",
            "description": "Pop Dog 2016 yılında İstanbul'da kurulmuştur.\n\nZee Dog markasının tek ithalatçısı ve distribütörüdür.\n\nHedefimiz kaliteli kedi ve köpek aksesuarlarını Türkiye'de ulaşılabilir kılmaktır.\n\nHayvanseverlere en kaliteli, güvenli ve şık aksesuarları sunmamıza e",
            "opening_hours": "Mo-Su 10:00-22:00",
            "phone": "+905369767364",
            "branch": null,
            "amenity": "pet",
            "mobile": null,
            "addr:street": "Kiraz Çıkmazı",
            "cuisine": null,
            "name": "Pop Dog Caddebostan",
            "name:en": null,
            "name:uk": null,
            "name:de": null,
            "name:tr": null,
            "name:ru": null,
            "name:ar": null
        }
    },
    {
        "lat": 40.9846296,
        "lon": 29.0241999,
        "tags": {
            "addr:city": "İstanbul",
            "addr:district": "Kadıköy",
            "description": "Eski muhitimiz Moda’ya geri döndük. Zaten hiç içimize de sinmemişti oraları bırakmak. Mühürdar Karakolu sokaktayız. Bekleriz ✌️🐶\n.\nConnecting dogs and people\n.\n#zeedog #connectingdogsandpeople",
            "opening_hours": "Mo-Su 11:00-20:00",
            "phone": "+90 536 976 73 64",
            "branch": null,
            "amenity": "pet",
            "mobile": null,
            "addr:street": "Mühürdar Karakolu Sokağı",
            "cuisine": null,
            "name": "Pop Dog Moda",
            "name:en": null,
            "name:uk": null,
            "name:de": null,
            "name:tr": null,
            "name:ru": null,
            "name:ar": null
        }
    },
    {
        "lat": 41.078319,
        "lon": 28.9340602,
        "tags": {
            "addr:city": "İstanbul",
            "addr:district": null,
            "description": "",
            "opening_hours": null,
            "phone": null,
            "branch": null,
            "amenity": "pet",
            "mobile": null,
            "addr:street": null,
            "cuisine": null,
            "name": "Petshop",
            "name:en": null,
            "name:uk": null,
            "name:de": null,
            "name:tr": null,
            "name:ru": null,
            "name:ar": null
        }
    },
    {
        "lat": 41.0224675,
        "lon": 29.1144735,
        "tags": {
            "addr:city": "İstanbul",
            "addr:district": null,
            "description": "",
            "opening_hours": null,
            "phone": null,
            "branch": null,
            "amenity": "pet",
            "mobile": null,
            "addr:street": null,
            "cuisine": null,
            "name": "Vetbu Pet Shop",
            "name:en": null,
            "name:uk": null,
            "name:de": null,
            "name:tr": null,
            "name:ru": null,
            "name:ar": null
        }
    },
    {
        "lat": 41.0227368,
        "lon": 29.113362,
        "tags": {
            "addr:city": "İstanbul",
            "addr:district": null,
            "description": "",
            "opening_hours": null,
            "phone": null,
            "branch": null,
            "amenity": "pet",
            "mobile": null,
            "addr:street": null,
            "cuisine": null,
            "name": "N10 Pet Shop",
            "name:en": null,
            "name:uk": null,
            "name:de": null,
            "name:tr": null,
            "name:ru": null,
            "name:ar": null
        }
    },
    {
        "lat": 41.0136173,
        "lon": 28.9442881,
        "tags": {
            "addr:city": "İstanbul",
            "addr:district": null,
            "description": "",
            "opening_hours": null,
            "phone": null,
            "branch": null,
            "amenity": "pet",
            "mobile": null,
            "addr:street": null,
            "cuisine": null,
            "name": "Köşk Akvaryum",
            "name:en": null,
            "name:uk": null,
            "name:de": null,
            "name:tr": null,
            "name:ru": null,
            "name:ar": null
        }
    },
    {
        "lat": 40.9712622,
        "lon": 29.0772068,
        "tags": {
            "addr:city": "İstanbul",
            "addr:district": null,
            "description": "",
            "opening_hours": null,
            "phone": "+90 216 3685250",
            "branch": null,
            "amenity": "pet",
            "mobile": null,
            "addr:street": null,
            "cuisine": null,
            "name": "Erenköy Petshop",
            "name:en": null,
            "name:uk": null,
            "name:de": null,
            "name:tr": null,
            "name:ru": null,
            "name:ar": null
        }
    },
    {
        "lat": 40.9033836,
        "lon": 29.1807603,
        "tags": {
            "addr:city": "İstanbul",
            "addr:district": null,
            "description": "",
            "opening_hours": null,
            "phone": null,
            "branch": null,
            "amenity": "pet",
            "mobile": null,
            "addr:street": null,
            "cuisine": null,
            "name": "Burak pet market",
            "name:en": null,
            "name:uk": null,
            "name:de": null,
            "name:tr": null,
            "name:ru": "Зоомагазин Burak",
            "name:ar": null
        }
    },
    {
        "lat": 40.9646387,
        "lon": 29.0759983,
        "tags": {
            "addr:city": "İstanbul",
            "addr:district": "Kadıköy",
            "description": "",
            "opening_hours": null,
            "phone": null,
            "branch": null,
            "amenity": "pet",
            "mobile": null,
            "addr:street": "Bilim Sokağı",
            "cuisine": null,
            "name": "Petzade",
            "name:en": null,
            "name:uk": null,
            "name:de": null,
            "name:tr": null,
            "name:ru": null,
            "name:ar": null
        }
    },
    {
        "lat": 40.8984064,
        "lon": 29.1701895,
        "tags": {
            "addr:city": "İstanbul",
            "addr:district": null,
            "description": "",
            "opening_hours": null,
            "phone": null,
            "branch": null,
            "amenity": "pet",
            "mobile": null,
            "addr:street": null,
            "cuisine": null,
            "name": "My Tears Pet Shop",
            "name:en": null,
            "name:uk": null,
            "name:de": null,
            "name:tr": null,
            "name:ru": null,
            "name:ar": null
        }
    },
    {
        "lat": 40.9931731,
        "lon": 29.0273774,
        "tags": {
            "addr:city": "İstanbul",
            "addr:district": null,
            "description": "",
            "opening_hours": null,
            "phone": null,
            "branch": null,
            "amenity": "pet",
            "mobile": null,
            "addr:street": null,
            "cuisine": null,
            "name": "Kadıköy Kedi Oteli&Pet Shop",
            "name:en": null,
            "name:uk": null,
            "name:de": null,
            "name:tr": null,
            "name:ru": null,
            "name:ar": null
        }
    },
    {
        "lat": 41.073486,
        "lon": 29.0705229,
        "tags": {
            "addr:city": "İstanbul",
            "addr:district": null,
            "description": "",
            "opening_hours": null,
            "phone": null,
            "branch": null,
            "amenity": "pet",
            "mobile": null,
            "addr:street": null,
            "cuisine": null,
            "name": "Kara Kedi Petshop",
            "name:en": null,
            "name:uk": null,
            "name:de": null,
            "name:tr": null,
            "name:ru": null,
            "name:ar": null
        }
    },
    {
        "lat": 41.0036473,
        "lon": 28.6921604,
        "tags": {
            "addr:city": "İstanbul",
            "addr:district": null,
            "description": "",
            "opening_hours": null,
            "phone": null,
            "branch": null,
            "amenity": "pet",
            "mobile": null,
            "addr:street": null,
            "cuisine": null,
            "name": "Nehir Petshop",
            "name:en": null,
            "name:uk": null,
            "name:de": null,
            "name:tr": null,
            "name:ru": null,
            "name:ar": null
        }
    },
    {
        "lat": 41.0023216,
        "lon": 28.6945665,
        "tags": {
            "addr:city": "İstanbul",
            "addr:district": null,
            "description": "",
            "opening_hours": null,
            "phone": null,
            "branch": null,
            "amenity": "pet",
            "mobile": null,
            "addr:street": null,
            "cuisine": null,
            "name": null,
            "name:en": null,
            "name:uk": null,
            "name:de": null,
            "name:tr": null,
            "name:ru": null,
            "name:ar": null
        }
    },
    {
        "lat": 40.9726551,
        "lon": 29.0454811,
        "tags": {
            "addr:city": "İstanbul",
            "addr:district": null,
            "description": "",
            "opening_hours": null,
            "phone": null,
            "branch": null,
            "amenity": "pet",
            "mobile": null,
            "addr:street": "Fuat Paşa Caddesi",
            "cuisine": null,
            "name": "Dalyan Pet Shop",
            "name:en": null,
            "name:uk": null,
            "name:de": null,
            "name:tr": null,
            "name:ru": null,
            "name:ar": null
        }
    },
    {
        "lat": 41.0128593,
        "lon": 29.0949423,
        "tags": {
            "addr:city": "İstanbul",
            "addr:district": null,
            "description": "",
            "opening_hours": null,
            "phone": null,
            "branch": null,
            "amenity": "pet",
            "mobile": null,
            "addr:street": null,
            "cuisine": null,
            "name": "Ç",
            "name:en": null,
            "name:uk": null,
            "name:de": null,
            "name:tr": null,
            "name:ru": null,
            "name:ar": null
        }
    },
    {
        "lat": 41.0019193,
        "lon": 29.1402291,
        "tags": {
            "addr:city": "İstanbul",
            "addr:district": null,
            "description": "",
            "opening_hours": null,
            "phone": null,
            "branch": null,
            "amenity": "pet",
            "mobile": null,
            "addr:street": null,
            "cuisine": null,
            "name": null,
            "name:en": null,
            "name:uk": null,
            "name:de": null,
            "name:tr": null,
            "name:ru": null,
            "name:ar": null
        }
    },
    {
        "lat": 40.9855434,
        "lon": 29.0249403,
        "tags": {
            "addr:city": "İstanbul",
            "addr:district": null,
            "description": "",
            "opening_hours": null,
            "phone": null,
            "branch": null,
            "amenity": "pet",
            "mobile": null,
            "addr:street": null,
            "cuisine": null,
            "name": "Cardinal Pet Shot",
            "name:en": null,
            "name:uk": null,
            "name:de": null,
            "name:tr": null,
            "name:ru": null,
            "name:ar": null
        }
    },
    {
        "lat": 40.9299334,
        "lon": 29.1295381,
        "tags": {
            "addr:city": "Maltepe/İstanbul",
            "addr:district": "Maltepe",
            "description": "",
            "opening_hours": "Mo-Su 10:00-21:00",
            "phone": "+90 216 459 14 60",
            "branch": null,
            "amenity": "pet",
            "mobile": null,
            "addr:street": "Kışlalı Caddesi",
            "cuisine": null,
            "name": "oyer petshop",
            "name:en": null,
            "name:uk": null,
            "name:de": null,
            "name:tr": "Oyer Petshop",
            "name:ru": null,
            "name:ar": null
        }
    },
    {
        "lat": 40.9711178,
        "lon": 29.0634499,
        "tags": {
            "addr:city": "İstanbul",
            "addr:district": "Kadıköy",
            "description": "",
            "opening_hours": null,
            "phone": "+90 216 755 77 99",
            "branch": null,
            "amenity": "pet",
            "mobile": null,
            "addr:street": "Tanzimat Sokağı",
            "cuisine": null,
            "name": "Empati Petshop",
            "name:en": null,
            "name:uk": null,
            "name:de": null,
            "name:tr": null,
            "name:ru": null,
            "name:ar": null
        }
    },
    {
        "lat": 40.9601035,
        "lon": 29.0839931,
        "tags": {
            "addr:city": "İstanbul",
            "addr:district": "Kadıköy",
            "description": "",
            "opening_hours": null,
            "phone": null,
            "branch": null,
            "amenity": "pet",
            "mobile": null,
            "addr:street": "Kitapçı Sokağı",
            "cuisine": null,
            "name": "Jack's Dog Cafe",
            "name:en": null,
            "name:uk": null,
            "name:de": null,
            "name:tr": null,
            "name:ru": null,
            "name:ar": null
        }
    },
    {
        "lat": 40.9238298,
        "lon": 29.1347315,
        "tags": {
            "addr:city": "İstanbul",
            "addr:district": null,
            "description": "",
            "opening_hours": null,
            "phone": null,
            "branch": null,
            "amenity": "pet",
            "mobile": null,
            "addr:street": null,
            "cuisine": null,
            "name": "Amazon Pet Shop",
            "name:en": null,
            "name:uk": null,
            "name:de": null,
            "name:tr": null,
            "name:ru": null,
            "name:ar": null
        }
    },
    {
        "lat": 41.0032859,
        "lon": 28.6876114,
        "tags": {
            "addr:city": "İstanbul",
            "addr:district": null,
            "description": "",
            "opening_hours": null,
            "phone": null,
            "branch": null,
            "amenity": "pet",
            "mobile": null,
            "addr:street": null,
            "cuisine": null,
            "name": "Von Alp Petshop",
            "name:en": null,
            "name:uk": null,
            "name:de": null,
            "name:tr": null,
            "name:ru": null,
            "name:ar": null
        }
    },
    {
        "lat": 40.9543235,
        "lon": 29.0973887,
        "tags": {
            "addr:city": "İstanbul",
            "addr:district": "Kadıköy",
            "description": "",
            "opening_hours": null,
            "phone": null,
            "branch": null,
            "amenity": "pet",
            "mobile": null,
            "addr:street": "Bahçelerarası Sokağı",
            "cuisine": null,
            "name": "Paragon Pet Shop",
            "name:en": null,
            "name:uk": null,
            "name:de": null,
            "name:tr": null,
            "name:ru": null,
            "name:ar": null
        }
    },
    {
        "lat": 41.0506422,
        "lon": 29.0766662,
        "tags": {
            "addr:city": "İstanbul",
            "addr:district": "Üsküdar",
            "description": "",
            "opening_hours": null,
            "phone": null,
            "branch": null,
            "amenity": "pet",
            "mobile": null,
            "addr:street": "Zübeyde Hanım Caddesi",
            "cuisine": null,
            "name": "Petcanlar",
            "name:en": null,
            "name:uk": null,
            "name:de": null,
            "name:tr": null,
            "name:ru": null,
            "name:ar": null
        }
    },
    {
        "lat": 41.0542769,
        "lon": 28.3667212,
        "tags": {
            "addr:city": "İstanbul",
            "addr:district": null,
            "description": "",
            "opening_hours": null,
            "phone": null,
            "branch": null,
            "amenity": "pet",
            "mobile": null,
            "addr:street": null,
            "cuisine": null,
            "name": "Tolga Petshop",
            "name:en": null,
            "name:uk": null,
            "name:de": null,
            "name:tr": null,
            "name:ru": null,
            "name:ar": null
        }
    },
    {
        "lat": 40.9302732,
        "lon": 29.1384761,
        "tags": {
            "addr:city": "İstanbul",
            "addr:district": null,
            "description": "",
            "opening_hours": null,
            "phone": null,
            "branch": null,
            "amenity": "pet",
            "mobile": null,
            "addr:street": null,
            "cuisine": null,
            "name": "Tropikal Kuş Evi & Pet Shop",
            "name:en": null,
            "name:uk": null,
            "name:de": null,
            "name:tr": null,
            "name:ru": null,
            "name:ar": null
        }
    },
    {
        "lat": 41.012678,
        "lon": 29.1988821,
        "tags": {
            "addr:city": "İstanbul",
            "addr:district": null,
            "description": "",
            "opening_hours": null,
            "phone": null,
            "branch": null,
            "amenity": "pet",
            "mobile": null,
            "addr:street": null,
            "cuisine": null,
            "name": "Elif Petshop",
            "name:en": null,
            "name:uk": null,
            "name:de": null,
            "name:tr": null,
            "name:ru": null,
            "name:ar": null
        }
    },
    {
        "lat": 41.0637556,
        "lon": 29.0053952,
        "tags": {
            "addr:city": "İstanbul",
            "addr:district": null,
            "description": "",
            "opening_hours": "Mo-Sa 10:00-21:30, Su  10:00- 20:00",
            "phone": null,
            "branch": null,
            "amenity": "pet",
            "mobile": null,
            "addr:street": "Süleymanbey Sokak",
            "cuisine": null,
            "name": "Atlas Petshop",
            "name:en": null,
            "name:uk": null,
            "name:de": null,
            "name:tr": null,
            "name:ru": null,
            "name:ar": null
        }
    },
    {
        "lat": 40.9347226,
        "lon": 29.1244637,
        "tags": {
            "addr:city": "İstanbul",
            "addr:district": null,
            "description": "",
            "opening_hours": "Mo-Sa 10:00-21:30; Su 11:00-21:30",
            "phone": "+90 216 459 1460",
            "branch": null,
            "amenity": "pet",
            "mobile": null,
            "addr:street": null,
            "cuisine": null,
            "name": "Adatepe Oyer Petshop",
            "name:en": null,
            "name:uk": null,
            "name:de": null,
            "name:tr": null,
            "name:ru": null,
            "name:ar": null
        }
    },
    {
        "lat": 40.9930263,
        "lon": 29.0470559,
        "tags": {
            "addr:city": "İstanbul",
            "addr:district": "Kadıköy",
            "description": "",
            "opening_hours": "Mo-Sa 10:00-22:00, Su-Su 10:00-18:00",
            "phone": "+90 545 947 18 20",
            "branch": null,
            "amenity": "pet",
            "mobile": null,
            "addr:street": "Yıldırım Sokağı / Fortis Sinanlı / A Blok",
            "cuisine": null,
            "name": "Başak Hanım Pet Store",
            "name:en": null,
            "name:uk": null,
            "name:de": null,
            "name:tr": null,
            "name:ru": null,
            "name:ar": null
        }
    }
]