[
    {
        "lat": 41.0336998,
        "lon": 28.7739638,
        "tags": {
            "addr:city": "İstasyon Mahallesi",
            "addr:district": "Küçükçekmece",
            "description": "",
            "opening_hours": null,
            "phone": "+905435795077",
            "branch": null,
            "amenity": "pet_grooming",
            "mobile": null,
            "addr:street": "Huzur Sokak",
            "cuisine": null,
            "name": "Atakent Pet Kuaför",
            "name:en": null,
            "name:uk": null,
            "name:de": null,
            "name:tr": null,
            "name:ru": null,
            "name:ar": null
        }
    },
    {
        "lat": 40.9308171,
        "lon": 29.3056618,
        "tags": {
            "addr:city": "İstanbul",
            "addr:district": "Pendik",
            "description": "",
            "opening_hours": null,
            "phone": null,
            "branch": null,
            "amenity": "pet_grooming",
            "mobile": null,
            "addr:street": null,
            "cuisine": null,
            "name": "Petpark Petshop - Kedi Kopek Kuaförü",
            "name:en": null,
            "name:uk": null,
            "name:de": null,
            "name:tr": null,
            "name:ru": null,
            "name:ar": null
        }
    },
    {
        "lat": 40.9863317,
        "lon": 29.0220693,
        "tags": {
            "addr:city": "İstanbul",
            "addr:district": "Kadıköy",
            "description": "",
            "opening_hours": null,
            "phone": null,
            "branch": null,
            "amenity": "pet_grooming",
            "mobile": null,
            "addr:street": "Tuğlacı Eminbey Sokağı",
            "cuisine": null,
            "name": "Pawz Up Pet Kuaför",
            "name:en": null,
            "name:uk": null,
            "name:de": null,
            "name:tr": null,
            "name:ru": null,
            "name:ar": null
        }
    },
    {
        "lat": 40.983168,
        "lon": 29.0398577,
        "tags": {
            "addr:city": "İstanbul",
            "addr:district": null,
            "description": "",
            "opening_hours": "Mo-Sa 10:00-19:00, Su 12:00-17:00",
            "phone": "0535 775 01 15",
            "branch": null,
            "amenity": "pet_grooming",
            "mobile": null,
            "addr:street": null,
            "cuisine": null,
            "name": "Pets kuaför Sedat",
            "name:en": null,
            "name:uk": null,
            "name:de": null,
            "name:tr": "Pets kuaför Sedat",
            "name:ru": null,
            "name:ar": null
        }
    }
]