[
    {
        "lat": 41.0069596,
        "lon": 29.1335543,
        "tags": {
            "addr:city": "İstanbul",
            "addr:district": null,
            "description": "",
            "opening_hours": null,
            "phone": null,
            "branch": null,
            "amenity": "photo",
            "mobile": null,
            "addr:street": null,
            "cuisine": null,
            "name": "Eda Stüdyo",
            "name:en": null,
            "name:uk": null,
            "name:de": null,
            "name:tr": null,
            "name:ru": null,
            "name:ar": null
        }
    },
    {
        "lat": 41.0120086,
        "lon": 29.1363251,
        "tags": {
            "addr:city": "İstanbul",
            "addr:district": null,
            "description": "",
            "opening_hours": null,
            "phone": null,
            "branch": null,
            "amenity": "photo",
            "mobile": null,
            "addr:street": null,
            "cuisine": null,
            "name": "Ersoylar Fotoğrafçılık",
            "name:en": null,
            "name:uk": null,
            "name:de": null,
            "name:tr": null,
            "name:ru": null,
            "name:ar": null
        }
    },
    {
        "lat": 41.0140962,
        "lon": 28.9767893,
        "tags": {
            "addr:city": "İstanbul",
            "addr:district": null,
            "description": "",
            "opening_hours": null,
            "phone": null,
            "branch": null,
            "amenity": "photo",
            "mobile": null,
            "addr:street": null,
            "cuisine": null,
            "name": "Fotoğraf Dünyası",
            "name:en": null,
            "name:uk": null,
            "name:de": null,
            "name:tr": null,
            "name:ru": null,
            "name:ar": null
        }
    },
    {
        "lat": 41.1766025,
        "lon": 29.6104271,
        "tags": {
            "addr:city": "İstanbul",
            "addr:district": null,
            "description": "",
            "opening_hours": null,
            "phone": null,
            "branch": null,
            "amenity": "photo",
            "mobile": null,
            "addr:street": null,
            "cuisine": null,
            "name": "Kemal",
            "name:en": null,
            "name:uk": null,
            "name:de": null,
            "name:tr": "Kemal",
            "name:ru": null,
            "name:ar": null
        }
    },
    {
        "lat": 41.007352,
        "lon": 28.6574379,
        "tags": {
            "addr:city": "İstanbul",
            "addr:district": null,
            "description": "",
            "opening_hours": "Mo-Su 10:00-22:00",
            "phone": "8525012",
            "branch": null,
            "amenity": "photo",
            "mobile": null,
            "addr:street": "Sakarya Caddesi",
            "cuisine": null,
            "name": "FOTOSHOP",
            "name:en": null,
            "name:uk": null,
            "name:de": null,
            "name:tr": "FOTOSHOP",
            "name:ru": null,
            "name:ar": null
        }
    },
    {
        "lat": 41.0161944,
        "lon": 28.6281258,
        "tags": {
            "addr:city": "İstanbul",
            "addr:district": null,
            "description": "",
            "opening_hours": "Mo-Su 09:00-22:00",
            "phone": "8721030",
            "branch": null,
            "amenity": "photo",
            "mobile": null,
            "addr:street": "Adnan Kahveci Bulvarı",
            "cuisine": null,
            "name": "FOTOSHOP",
            "name:en": null,
            "name:uk": null,
            "name:de": null,
            "name:tr": "FOTOSHOP",
            "name:ru": null,
            "name:ar": null
        }
    },
    {
        "lat": 41.0062992,
        "lon": 28.5371019,
        "tags": {
            "addr:city": "İstanbul",
            "addr:district": null,
            "description": "",
            "opening_hours": null,
            "phone": null,
            "branch": null,
            "amenity": "photo",
            "mobile": null,
            "addr:street": null,
            "cuisine": null,
            "name": "Foto Turan",
            "name:en": null,
            "name:uk": null,
            "name:de": null,
            "name:tr": null,
            "name:ru": null,
            "name:ar": null
        }
    },
    {
        "lat": 40.9759638,
        "lon": 29.051309,
        "tags": {
            "addr:city": "İstanbul",
            "addr:district": "Kadıköy",
            "description": "",
            "opening_hours": null,
            "phone": null,
            "branch": null,
            "amenity": "photo",
            "mobile": null,
            "addr:street": "Bağdat Caddesi",
            "cuisine": null,
            "name": "Zümrüt",
            "name:en": null,
            "name:uk": null,
            "name:de": null,
            "name:tr": null,
            "name:ru": null,
            "name:ar": null
        }
    },
    {
        "lat": 41.0009182,
        "lon": 28.7995959,
        "tags": {
            "addr:city": "İstanbul",
            "addr:district": null,
            "description": "",
            "opening_hours": null,
            "phone": null,
            "branch": null,
            "amenity": "photo",
            "mobile": null,
            "addr:street": null,
            "cuisine": null,
            "name": "Foto Dost",
            "name:en": null,
            "name:uk": null,
            "name:de": null,
            "name:tr": null,
            "name:ru": null,
            "name:ar": null
        }
    },
    {
        "lat": 40.9946013,
        "lon": 28.8450237,
        "tags": {
            "addr:city": "İstanbul",
            "addr:district": null,
            "description": "",
            "opening_hours": null,
            "phone": null,
            "branch": null,
            "amenity": "photo",
            "mobile": null,
            "addr:street": null,
            "cuisine": null,
            "name": "Fotoğrafçı",
            "name:en": null,
            "name:uk": null,
            "name:de": null,
            "name:tr": "Fotoğrafçı",
            "name:ru": null,
            "name:ar": null
        }
    },
    {
        "lat": 41.0182651,
        "lon": 28.9447942,
        "tags": {
            "addr:city": "Istanbul",
            "addr:district": "Turkey",
            "description": "",
            "opening_hours": null,
            "phone": null,
            "branch": null,
            "amenity": "photo",
            "mobile": null,
            "addr:street": "Akdeniz Caddesi",
            "cuisine": null,
            "name": "Foto namık",
            "name:en": null,
            "name:uk": null,
            "name:de": null,
            "name:tr": null,
            "name:ru": null,
            "name:ar": "فوتو ناميك"
        }
    },
    {
        "lat": 41.0143018,
        "lon": 28.9752152,
        "tags": {
            "addr:city": "İstanbul",
            "addr:district": null,
            "description": "",
            "opening_hours": null,
            "phone": null,
            "branch": null,
            "amenity": "photo",
            "mobile": null,
            "addr:street": null,
            "cuisine": null,
            "name": "farukfotografcilik",
            "name:en": "Faruk Photography",
            "name:uk": null,
            "name:de": null,
            "name:tr": null,
            "name:ru": null,
            "name:ar": null
        }
    },
    {
        "lat": 40.9666058,
        "lon": 29.2655777,
        "tags": {
            "addr:city": "Istanbul",
            "addr:district": "Sultanbeyli",
            "description": "",
            "opening_hours": "Mo-Fr 07:00-13:30; Mo-Fr 17:00-20:00",
            "phone": "05331684461",
            "branch": null,
            "amenity": "photo",
            "mobile": null,
            "addr:street": "Şen caddesi",
            "cuisine": null,
            "name": "Stüdyo A Fotoğrafçılık",
            "name:en": null,
            "name:uk": null,
            "name:de": null,
            "name:tr": null,
            "name:ru": null,
            "name:ar": "زد للكومبيوتر"
        }
    },
    {
        "lat": 40.9651274,
        "lon": 29.2770675,
        "tags": {
            "addr:city": "Istanbul",
            "addr:district": "Sultanbeyli",
            "description": "",
            "opening_hours": null,
            "phone": null,
            "branch": null,
            "amenity": "photo",
            "mobile": null,
            "addr:street": "Fatih Bulvarı Caddesi",
            "cuisine": null,
            "name": "Kodak Kexpress",
            "name:en": null,
            "name:uk": null,
            "name:de": null,
            "name:tr": null,
            "name:ru": null,
            "name:ar": "كودك للتصوير"
        }
    },
    {
        "lat": 40.9882887,
        "lon": 29.2635441,
        "tags": {
            "addr:city": "Istanbul",
            "addr:district": "Sultanbeyli",
            "description": "",
            "opening_hours": "Mo-Fr 07:00-13:30; Mo-Fr 17:00-20:00",
            "phone": null,
            "branch": null,
            "amenity": "photo",
            "mobile": null,
            "addr:street": "bosna Caddesi",
            "cuisine": null,
            "name": "Foto nehir",
            "name:en": null,
            "name:uk": null,
            "name:de": null,
            "name:tr": null,
            "name:ru": null,
            "name:ar": "مصور نيهير"
        }
    },
    {
        "lat": 41.0095354,
        "lon": 28.9103535,
        "tags": {
            "addr:city": "Istanbul",
            "addr:district": "Zeytinburnu",
            "description": "",
            "opening_hours": null,
            "phone": null,
            "branch": null,
            "amenity": "photo",
            "mobile": null,
            "addr:street": "G-41. Sokak",
            "cuisine": null,
            "name": "SEMPATİ FOTOĞRAF",
            "name:en": null,
            "name:uk": null,
            "name:de": null,
            "name:tr": null,
            "name:ru": null,
            "name:ar": "أستديو سيمباتي"
        }
    },
    {
        "lat": 41.0118909,
        "lon": 28.9098153,
        "tags": {
            "addr:city": "Istanbul",
            "addr:district": "Zeytinburnu",
            "description": "",
            "opening_hours": null,
            "phone": null,
            "branch": null,
            "amenity": "photo",
            "mobile": null,
            "addr:street": "Gümüşsuyu Davutpaşa Caddesi",
            "cuisine": null,
            "name": "Lider Fotoğrafçılık",
            "name:en": null,
            "name:uk": null,
            "name:de": null,
            "name:tr": null,
            "name:ru": null,
            "name:ar": "أستوديو ليدر"
        }
    },
    {
        "lat": 41.0032406,
        "lon": 28.9026991,
        "tags": {
            "addr:city": "Istanbul",
            "addr:district": "Zeytinburnu",
            "description": "",
            "opening_hours": "Mo-Fr 09:00-17:00",
            "phone": null,
            "branch": null,
            "amenity": "photo",
            "mobile": null,
            "addr:street": null,
            "cuisine": null,
            "name": "Yüzer fotoğraf ve bayan kuaförü",
            "name:en": null,
            "name:uk": null,
            "name:de": null,
            "name:tr": null,
            "name:ru": null,
            "name:ar": "استديو تصوير يوزر وكوافير"
        }
    },
    {
        "lat": 41.0037476,
        "lon": 28.9037931,
        "tags": {
            "addr:city": "Istanbul",
            "addr:district": "Zeytinburnu",
            "description": "",
            "opening_hours": "Mo-Fr 09:00-17:00",
            "phone": null,
            "branch": null,
            "amenity": "photo",
            "mobile": null,
            "addr:street": null,
            "cuisine": null,
            "name": "Foto Emir",
            "name:en": null,
            "name:uk": null,
            "name:de": null,
            "name:tr": null,
            "name:ru": null,
            "name:ar": "امير للتصوير"
        }
    },
    {
        "lat": 41.0021835,
        "lon": 28.9101542,
        "tags": {
            "addr:city": "Istanbul",
            "addr:district": "Zeytinburnu",
            "description": "",
            "opening_hours": null,
            "phone": null,
            "branch": null,
            "amenity": "photo",
            "mobile": null,
            "addr:street": null,
            "cuisine": null,
            "name": "Studio batul",
            "name:en": null,
            "name:uk": null,
            "name:de": null,
            "name:tr": null,
            "name:ru": null,
            "name:ar": "استديو بتول للتصوير"
        }
    },
    {
        "lat": 40.9975288,
        "lon": 28.9116152,
        "tags": {
            "addr:city": "Istanbul",
            "addr:district": "Zeytinburnu",
            "description": "",
            "opening_hours": null,
            "phone": null,
            "branch": null,
            "amenity": "photo",
            "mobile": null,
            "addr:street": null,
            "cuisine": null,
            "name": "MOZAİK",
            "name:en": null,
            "name:uk": null,
            "name:de": null,
            "name:tr": null,
            "name:ru": null,
            "name:ar": "مصور"
        }
    },
    {
        "lat": 40.9880479,
        "lon": 28.904372,
        "tags": {
            "addr:city": "Istanbul",
            "addr:district": "Zeytinburnu",
            "description": "",
            "opening_hours": null,
            "phone": null,
            "branch": null,
            "amenity": "photo",
            "mobile": null,
            "addr:street": "50/1 Sokak",
            "cuisine": null,
            "name": "Kodak Express",
            "name:en": null,
            "name:uk": null,
            "name:de": null,
            "name:tr": null,
            "name:ru": null,
            "name:ar": "كودااك"
        }
    },
    {
        "lat": 40.9876173,
        "lon": 28.895374,
        "tags": {
            "addr:city": "Istanbul",
            "addr:district": "Zeytinburnu",
            "description": "",
            "opening_hours": null,
            "phone": null,
            "branch": null,
            "amenity": "photo",
            "mobile": null,
            "addr:street": "Merv Caddesi",
            "cuisine": null,
            "name": "Dijital",
            "name:en": null,
            "name:uk": null,
            "name:de": null,
            "name:tr": null,
            "name:ru": null,
            "name:ar": "ديجيتال"
        }
    },
    {
        "lat": 40.9874435,
        "lon": 28.8958933,
        "tags": {
            "addr:city": "Istanbul",
            "addr:district": "Zeytinburnu",
            "description": "",
            "opening_hours": null,
            "phone": null,
            "branch": null,
            "amenity": "photo",
            "mobile": null,
            "addr:street": "Merv Caddesi",
            "cuisine": null,
            "name": "vurallar",
            "name:en": null,
            "name:uk": null,
            "name:de": null,
            "name:tr": null,
            "name:ru": null,
            "name:ar": "فورالار"
        }
    },
    {
        "lat": 40.9864426,
        "lon": 28.8949452,
        "tags": {
            "addr:city": "Istanbul",
            "addr:district": "Zeytinburnu",
            "description": "",
            "opening_hours": null,
            "phone": null,
            "branch": null,
            "amenity": "photo",
            "mobile": null,
            "addr:street": "30. sokak",
            "cuisine": null,
            "name": "nazlım fotoğrafçilik",
            "name:en": null,
            "name:uk": null,
            "name:de": null,
            "name:tr": null,
            "name:ru": null,
            "name:ar": "نازليم فوتوغرافجيليك"
        }
    },
    {
        "lat": 40.9942411,
        "lon": 28.899479,
        "tags": {
            "addr:city": "Istanbul",
            "addr:district": "Zeytinburnu",
            "description": "",
            "opening_hours": null,
            "phone": null,
            "branch": null,
            "amenity": "photo",
            "mobile": null,
            "addr:street": "74. sok.",
            "cuisine": null,
            "name": "Foto yıldız",
            "name:en": null,
            "name:uk": null,
            "name:de": null,
            "name:tr": null,
            "name:ru": null,
            "name:ar": "فوتو يلديز"
        }
    },
    {
        "lat": 41.0470512,
        "lon": 28.8460842,
        "tags": {
            "addr:city": "Istanbul",
            "addr:district": "Bağcılar",
            "description": "",
            "opening_hours": null,
            "phone": null,
            "branch": null,
            "amenity": "photo",
            "mobile": null,
            "addr:street": "Velioğlu caddesi",
            "cuisine": null,
            "name": "Foto Eren",
            "name:en": null,
            "name:uk": null,
            "name:de": null,
            "name:tr": null,
            "name:ru": null,
            "name:ar": "فوتو ايرين"
        }
    },
    {
        "lat": 41.0549295,
        "lon": 28.8464695,
        "tags": {
            "addr:city": "Istanbul",
            "addr:district": "Bağcılar",
            "description": "",
            "opening_hours": null,
            "phone": null,
            "branch": null,
            "amenity": "photo",
            "mobile": null,
            "addr:street": null,
            "cuisine": null,
            "name": "Foto Kent",
            "name:en": null,
            "name:uk": null,
            "name:de": null,
            "name:tr": null,
            "name:ru": null,
            "name:ar": "فوتو كنت للصور"
        }
    },
    {
        "lat": 41.0632934,
        "lon": 28.8552782,
        "tags": {
            "addr:city": "Istanbul",
            "addr:district": "Bağcılar",
            "description": "",
            "opening_hours": null,
            "phone": null,
            "branch": null,
            "amenity": "photo",
            "mobile": null,
            "addr:street": "Barbaros caddesi",
            "cuisine": null,
            "name": "Foto Yüzyıl",
            "name:en": null,
            "name:uk": null,
            "name:de": null,
            "name:tr": null,
            "name:ru": null,
            "name:ar": "فوتو يوز يل"
        }
    },
    {
        "lat": 41.0631679,
        "lon": 28.8552116,
        "tags": {
            "addr:city": "Istanbul",
            "addr:district": "Bağcılar",
            "description": "",
            "opening_hours": null,
            "phone": null,
            "branch": null,
            "amenity": "photo",
            "mobile": null,
            "addr:street": "Barbaros caddesi",
            "cuisine": null,
            "name": "Foto Erdoğan",
            "name:en": null,
            "name:uk": null,
            "name:de": null,
            "name:tr": null,
            "name:ru": null,
            "name:ar": "فوتو اردوغان"
        }
    },
    {
        "lat": 41.05926,
        "lon": 28.854796,
        "tags": {
            "addr:city": "Istanbul",
            "addr:district": "Bağcılar",
            "description": "",
            "opening_hours": null,
            "phone": null,
            "branch": null,
            "amenity": "photo",
            "mobile": null,
            "addr:street": "Barbaros caddesi",
            "cuisine": null,
            "name": "Foto Anı",
            "name:en": null,
            "name:uk": null,
            "name:de": null,
            "name:tr": null,
            "name:ru": null,
            "name:ar": "فوتو انى"
        }
    },
    {
        "lat": 41.0292221,
        "lon": 28.8302059,
        "tags": {
            "addr:city": "Istanbul",
            "addr:district": "Bağcılar",
            "description": "",
            "opening_hours": null,
            "phone": null,
            "branch": null,
            "amenity": "photo",
            "mobile": null,
            "addr:street": null,
            "cuisine": null,
            "name": "Studio Ümit",
            "name:en": null,
            "name:uk": null,
            "name:de": null,
            "name:tr": null,
            "name:ru": null,
            "name:ar": "استوديو أوميت"
        }
    },
    {
        "lat": 41.0304124,
        "lon": 28.8285766,
        "tags": {
            "addr:city": "Istanbul",
            "addr:district": "Bağcılar",
            "description": "",
            "opening_hours": null,
            "phone": null,
            "branch": null,
            "amenity": "photo",
            "mobile": null,
            "addr:street": null,
            "cuisine": null,
            "name": "Foto 79",
            "name:en": null,
            "name:uk": null,
            "name:de": null,
            "name:tr": null,
            "name:ru": null,
            "name:ar": "صورة ٧٩"
        }
    },
    {
        "lat": 41.0311811,
        "lon": 28.829311,
        "tags": {
            "addr:city": "Istanbul",
            "addr:district": "Bağcılar",
            "description": "",
            "opening_hours": null,
            "phone": null,
            "branch": null,
            "amenity": "photo",
            "mobile": null,
            "addr:street": "Cumhuriyet Caddesi",
            "cuisine": null,
            "name": "Stüdyo Öncü",
            "name:en": null,
            "name:uk": null,
            "name:de": null,
            "name:tr": null,
            "name:ru": null,
            "name:ar": "ستوديو اونجو"
        }
    },
    {
        "lat": 41.0451946,
        "lon": 28.846602,
        "tags": {
            "addr:city": "Istanbul",
            "addr:district": "Bağcılar",
            "description": "",
            "opening_hours": null,
            "phone": null,
            "branch": null,
            "amenity": "photo",
            "mobile": null,
            "addr:street": "Velioğlu caddesi",
            "cuisine": null,
            "name": "Foto Anı",
            "name:en": null,
            "name:uk": null,
            "name:de": null,
            "name:tr": null,
            "name:ru": null,
            "name:ar": "فوتو انى"
        }
    },
    {
        "lat": 41.042719,
        "lon": 28.8397428,
        "tags": {
            "addr:city": "Istanbul",
            "addr:district": "Bağcılar",
            "description": "",
            "opening_hours": null,
            "phone": null,
            "branch": null,
            "amenity": "photo",
            "mobile": null,
            "addr:street": "Mevlana caddesi",
            "cuisine": null,
            "name": "Foto serhat",
            "name:en": null,
            "name:uk": null,
            "name:de": null,
            "name:tr": null,
            "name:ru": null,
            "name:ar": "فوتو سيرحات"
        }
    },
    {
        "lat": 41.0439167,
        "lon": 28.85066,
        "tags": {
            "addr:city": "Istanbul",
            "addr:district": null,
            "description": "",
            "opening_hours": null,
            "phone": null,
            "branch": null,
            "amenity": "photo",
            "mobile": null,
            "addr:street": "Namık Kemal Caddesi",
            "cuisine": null,
            "name": "BERKAY FOTOĞRAFCILIK",
            "name:en": null,
            "name:uk": null,
            "name:de": null,
            "name:tr": null,
            "name:ru": null,
            "name:ar": "باركاي فوتوغرافجالاك"
        }
    },
    {
        "lat": 41.0418636,
        "lon": 28.859221,
        "tags": {
            "addr:city": "Istanbul",
            "addr:district": null,
            "description": "",
            "opening_hours": null,
            "phone": null,
            "branch": null,
            "amenity": "photo",
            "mobile": null,
            "addr:street": "Osmangazi Caddesi",
            "cuisine": null,
            "name": "Studio Bilginer",
            "name:en": null,
            "name:uk": null,
            "name:de": null,
            "name:tr": null,
            "name:ru": null,
            "name:ar": "ستوديو بلكينار"
        }
    },
    {
        "lat": 41.0201555,
        "lon": 28.8586648,
        "tags": {
            "addr:city": "Istanbul",
            "addr:district": "Zeytinburnu",
            "description": "",
            "opening_hours": null,
            "phone": null,
            "branch": null,
            "amenity": "photo",
            "mobile": null,
            "addr:street": null,
            "cuisine": null,
            "name": "Acar Dijital Fotoğraf",
            "name:en": null,
            "name:uk": null,
            "name:de": null,
            "name:tr": null,
            "name:ru": null,
            "name:ar": "مصور"
        }
    },
    {
        "lat": 41.0323094,
        "lon": 28.8488331,
        "tags": {
            "addr:city": "Istanbul",
            "addr:district": "Bağcılar",
            "description": "",
            "opening_hours": null,
            "phone": null,
            "branch": null,
            "amenity": "photo",
            "mobile": null,
            "addr:street": "Hoca Ahmet Yesevi Caddesi",
            "cuisine": null,
            "name": "stüdyo şark",
            "name:en": null,
            "name:uk": null,
            "name:de": null,
            "name:tr": null,
            "name:ru": null,
            "name:ar": "استديو شارك"
        }
    },
    {
        "lat": 40.9219177,
        "lon": 29.1359977,
        "tags": {
            "addr:city": "İstanbul",
            "addr:district": null,
            "description": "",
            "opening_hours": null,
            "phone": null,
            "branch": null,
            "amenity": "atm",
            "mobile": null,
            "addr:street": null,
            "cuisine": null,
            "name": null,
            "name:en": null,
            "name:uk": null,
            "name:de": null,
            "name:tr": null,
            "name:ru": null,
            "name:ar": null
        }
    },
    {
        "lat": 40.8955078,
        "lon": 29.3566631,
        "tags": {
            "addr:city": "İstanbul",
            "addr:district": null,
            "description": "",
            "opening_hours": null,
            "phone": null,
            "branch": null,
            "amenity": "photo",
            "mobile": null,
            "addr:street": null,
            "cuisine": null,
            "name": "Foto Ünal",
            "name:en": null,
            "name:uk": null,
            "name:de": null,
            "name:tr": null,
            "name:ru": null,
            "name:ar": null
        }
    },
    {
        "lat": 41.0245708,
        "lon": 28.9749906,
        "tags": {
            "addr:city": "İstanbul",
            "addr:district": null,
            "description": "",
            "opening_hours": null,
            "phone": null,
            "branch": null,
            "amenity": "photo",
            "mobile": null,
            "addr:street": null,
            "cuisine": null,
            "name": "arslan photography",
            "name:en": null,
            "name:uk": null,
            "name:de": null,
            "name:tr": null,
            "name:ru": null,
            "name:ar": null
        }
    },
    {
        "lat": 41.0021659,
        "lon": 28.7929074,
        "tags": {
            "addr:city": "İstanbul",
            "addr:district": null,
            "description": "",
            "opening_hours": null,
            "phone": null,
            "branch": null,
            "amenity": "photo",
            "mobile": null,
            "addr:street": null,
            "cuisine": null,
            "name": "Foto Ebru",
            "name:en": null,
            "name:uk": null,
            "name:de": null,
            "name:tr": null,
            "name:ru": null,
            "name:ar": null
        }
    },
    {
        "lat": 41.0049609,
        "lon": 28.7982023,
        "tags": {
            "addr:city": "İstanbul",
            "addr:district": null,
            "description": "",
            "opening_hours": null,
            "phone": null,
            "branch": null,
            "amenity": "photo",
            "mobile": null,
            "addr:street": null,
            "cuisine": null,
            "name": "Dost Fotoğrafçılık",
            "name:en": null,
            "name:uk": null,
            "name:de": null,
            "name:tr": null,
            "name:ru": null,
            "name:ar": null
        }
    },
    {
        "lat": 41.0004022,
        "lon": 28.7987405,
        "tags": {
            "addr:city": "İstanbul",
            "addr:district": null,
            "description": "",
            "opening_hours": null,
            "phone": null,
            "branch": null,
            "amenity": "photo",
            "mobile": null,
            "addr:street": null,
            "cuisine": null,
            "name": null,
            "name:en": null,
            "name:uk": null,
            "name:de": null,
            "name:tr": null,
            "name:ru": null,
            "name:ar": null
        }
    },
    {
        "lat": 41.0159303,
        "lon": 29.190568,
        "tags": {
            "addr:city": "İstanbul",
            "addr:district": null,
            "description": "",
            "opening_hours": null,
            "phone": null,
            "branch": null,
            "amenity": "photo",
            "mobile": null,
            "addr:street": null,
            "cuisine": null,
            "name": "Hayal Dijital",
            "name:en": null,
            "name:uk": null,
            "name:de": null,
            "name:tr": null,
            "name:ru": null,
            "name:ar": null
        }
    },
    {
        "lat": 40.9301198,
        "lon": 29.3057079,
        "tags": {
            "addr:city": "İstanbul",
            "addr:district": null,
            "description": "",
            "opening_hours": null,
            "phone": null,
            "branch": null,
            "amenity": "photo",
            "mobile": null,
            "addr:street": null,
            "cuisine": null,
            "name": "Aşkar Foto",
            "name:en": null,
            "name:uk": null,
            "name:de": null,
            "name:tr": null,
            "name:ru": null,
            "name:ar": null
        }
    },
    {
        "lat": 40.9928253,
        "lon": 29.1242797,
        "tags": {
            "addr:city": "İstanbul",
            "addr:district": "Ataşehir",
            "description": "",
            "opening_hours": null,
            "phone": "+90 216 456 23 29",
            "branch": null,
            "amenity": "photo",
            "mobile": null,
            "addr:street": "Ataşehir Bulvarı",
            "cuisine": null,
            "name": "Foto Didem",
            "name:en": null,
            "name:uk": null,
            "name:de": null,
            "name:tr": null,
            "name:ru": null,
            "name:ar": null
        }
    },
    {
        "lat": 41.135232,
        "lon": 29.0894814,
        "tags": {
            "addr:city": "İstanbul",
            "addr:district": null,
            "description": "",
            "opening_hours": null,
            "phone": null,
            "branch": null,
            "amenity": "photo",
            "mobile": null,
            "addr:street": null,
            "cuisine": null,
            "name": "Fotoğrafya",
            "name:en": null,
            "name:uk": null,
            "name:de": null,
            "name:tr": null,
            "name:ru": null,
            "name:ar": null
        }
    },
    {
        "lat": 41.0145531,
        "lon": 28.9761669,
        "tags": {
            "addr:city": "İstanbul",
            "addr:district": null,
            "description": "",
            "opening_hours": null,
            "phone": null,
            "branch": null,
            "amenity": "photo",
            "mobile": null,
            "addr:street": null,
            "cuisine": null,
            "name": "Fotoğraf Dünyası",
            "name:en": null,
            "name:uk": null,
            "name:de": null,
            "name:tr": null,
            "name:ru": null,
            "name:ar": null
        }
    },
    {
        "lat": 41.0496116,
        "lon": 29.0626395,
        "tags": {
            "addr:city": "İstanbul",
            "addr:district": "Üsküdar",
            "description": "",
            "opening_hours": "Mo-Fr 09:00-19:30; Sa 09:30-19:00",
            "phone": "+905519395930",
            "branch": null,
            "amenity": "photo",
            "mobile": null,
            "addr:street": "Kireçocağı Sokak",
            "cuisine": null,
            "name": "Stüdyo Seçkin Fotoğrafçılık",
            "name:en": "Seçkin Photograpy",
            "name:uk": null,
            "name:de": null,
            "name:tr": null,
            "name:ru": null,
            "name:ar": null
        }
    },
    {
        "lat": 41.0129205,
        "lon": 28.9704601,
        "tags": {
            "addr:city": "İstanbul",
            "addr:district": null,
            "description": "",
            "opening_hours": null,
            "phone": null,
            "branch": null,
            "amenity": "photo",
            "mobile": null,
            "addr:street": null,
            "cuisine": null,
            "name": null,
            "name:en": null,
            "name:uk": null,
            "name:de": null,
            "name:tr": null,
            "name:ru": null,
            "name:ar": null
        }
    },
    {
        "lat": 41.0638682,
        "lon": 28.6877434,
        "tags": {
            "addr:city": "İstanbul",
            "addr:district": null,
            "description": "",
            "opening_hours": null,
            "phone": null,
            "branch": null,
            "amenity": "photo",
            "mobile": null,
            "addr:street": null,
            "cuisine": null,
            "name": "Zümrüt Fotoğraf",
            "name:en": null,
            "name:uk": null,
            "name:de": null,
            "name:tr": null,
            "name:ru": null,
            "name:ar": null
        }
    },
    {
        "lat": 41.0153676,
        "lon": 28.9661445,
        "tags": {
            "addr:city": "İstanbul",
            "addr:district": null,
            "description": "",
            "opening_hours": null,
            "phone": null,
            "branch": null,
            "amenity": "photo",
            "mobile": null,
            "addr:street": "Siyavuş Paşa Sokağı",
            "cuisine": null,
            "name": "Taht Istanbul",
            "name:en": null,
            "name:uk": null,
            "name:de": null,
            "name:tr": null,
            "name:ru": "Тахт Стамбул (крыша)",
            "name:ar": null
        }
    },
    {
        "lat": 40.9488135,
        "lon": 29.1059416,
        "tags": {
            "addr:city": "İstanbul",
            "addr:district": null,
            "description": "",
            "opening_hours": null,
            "phone": null,
            "branch": null,
            "amenity": "photo",
            "mobile": null,
            "addr:street": null,
            "cuisine": null,
            "name": "Studio Deniz",
            "name:en": null,
            "name:uk": null,
            "name:de": null,
            "name:tr": null,
            "name:ru": null,
            "name:ar": null
        }
    },
    {
        "lat": 41.0793515,
        "lon": 29.0030258,
        "tags": {
            "addr:city": "İstanbul",
            "addr:district": null,
            "description": "",
            "opening_hours": null,
            "phone": null,
            "branch": null,
            "amenity": "photo",
            "mobile": null,
            "addr:street": null,
            "cuisine": null,
            "name": "Burak Bulut Foto",
            "name:en": null,
            "name:uk": null,
            "name:de": null,
            "name:tr": null,
            "name:ru": null,
            "name:ar": null
        }
    },
    {
        "lat": 41.0499321,
        "lon": 28.9193829,
        "tags": {
            "addr:city": "İstanbul",
            "addr:district": "Eyüpsultan",
            "description": "",
            "opening_hours": "Mo-Sa 09:00-20:00; Su 12:00-19:00",
            "phone": "+90 212 578 4430",
            "branch": null,
            "amenity": "photo",
            "mobile": null,
            "addr:street": "Reşadiye Caddesi",
            "cuisine": null,
            "name": "Foto Şen",
            "name:en": null,
            "name:uk": null,
            "name:de": null,
            "name:tr": null,
            "name:ru": null,
            "name:ar": null
        }
    },
    {
        "lat": 41.0347536,
        "lon": 28.9785315,
        "tags": {
            "addr:city": "İstanbul",
            "addr:district": null,
            "description": "",
            "opening_hours": null,
            "phone": null,
            "branch": null,
            "amenity": "photo",
            "mobile": null,
            "addr:street": null,
            "cuisine": null,
            "name": null,
            "name:en": "Foto for Visa",
            "name:uk": null,
            "name:de": null,
            "name:tr": null,
            "name:ru": null,
            "name:ar": null
        }
    },
    {
        "lat": 41.0153649,
        "lon": 28.9757308,
        "tags": {
            "addr:city": "İstanbul",
            "addr:district": null,
            "description": "",
            "opening_hours": null,
            "phone": null,
            "branch": null,
            "amenity": "photo",
            "mobile": null,
            "addr:street": null,
            "cuisine": null,
            "name": null,
            "name:en": "Sony",
            "name:uk": null,
            "name:de": null,
            "name:tr": null,
            "name:ru": null,
            "name:ar": null
        }
    },
    {
        "lat": 41.014323,
        "lon": 28.9762933,
        "tags": {
            "addr:city": "İstanbul",
            "addr:district": null,
            "description": "",
            "opening_hours": null,
            "phone": null,
            "branch": null,
            "amenity": "photo",
            "mobile": null,
            "addr:street": "Muradiye Caddesi",
            "cuisine": null,
            "name": "Hobi Foto",
            "name:en": null,
            "name:uk": null,
            "name:de": null,
            "name:tr": null,
            "name:ru": null,
            "name:ar": null
        }
    },
    {
        "lat": 41.1012007,
        "lon": 28.8640991,
        "tags": {
            "addr:city": "İstanbul",
            "addr:district": null,
            "description": "",
            "opening_hours": null,
            "phone": null,
            "branch": null,
            "amenity": "photo",
            "mobile": null,
            "addr:street": null,
            "cuisine": null,
            "name": "Stüdyo Ahmet",
            "name:en": null,
            "name:uk": null,
            "name:de": null,
            "name:tr": null,
            "name:ru": null,
            "name:ar": null
        }
    },
    {
        "lat": 40.9250874,
        "lon": 29.1320713,
        "tags": {
            "addr:city": "İstanbul",
            "addr:district": null,
            "description": "",
            "opening_hours": null,
            "phone": null,
            "branch": null,
            "amenity": "photo",
            "mobile": null,
            "addr:street": null,
            "cuisine": null,
            "name": null,
            "name:en": null,
            "name:uk": null,
            "name:de": null,
            "name:tr": null,
            "name:ru": null,
            "name:ar": null
        }
    },
    {
        "lat": 41.0481228,
        "lon": 28.9943673,
        "tags": {
            "addr:city": "İstanbul",
            "addr:district": null,
            "description": "",
            "opening_hours": null,
            "phone": null,
            "branch": null,
            "amenity": "photo",
            "mobile": null,
            "addr:street": null,
            "cuisine": null,
            "name": "Foto Serengil",
            "name:en": null,
            "name:uk": null,
            "name:de": null,
            "name:tr": null,
            "name:ru": null,
            "name:ar": null
        }
    },
    {
        "lat": 41.1001646,
        "lon": 28.8991225,
        "tags": {
            "addr:city": "İstanbul",
            "addr:district": null,
            "description": "",
            "opening_hours": null,
            "phone": null,
            "branch": null,
            "amenity": "photo",
            "mobile": null,
            "addr:street": null,
            "cuisine": null,
            "name": "Foto Burcu",
            "name:en": null,
            "name:uk": null,
            "name:de": null,
            "name:tr": null,
            "name:ru": null,
            "name:ar": null
        }
    },
    {
        "lat": 41.0361496,
        "lon": 28.8266452,
        "tags": {
            "addr:city": "İstanbul",
            "addr:district": null,
            "description": "",
            "opening_hours": null,
            "phone": null,
            "branch": null,
            "amenity": "photo",
            "mobile": null,
            "addr:street": null,
            "cuisine": null,
            "name": null,
            "name:en": null,
            "name:uk": null,
            "name:de": null,
            "name:tr": null,
            "name:ru": null,
            "name:ar": null
        }
    },
    {
        "lat": 40.9310625,
        "lon": 29.3052867,
        "tags": {
            "addr:city": "İstanbul",
            "addr:district": null,
            "description": "",
            "opening_hours": null,
            "phone": null,
            "branch": null,
            "amenity": "photo",
            "mobile": null,
            "addr:street": null,
            "cuisine": null,
            "name": "Zümrüt Fotoğraf",
            "name:en": null,
            "name:uk": null,
            "name:de": null,
            "name:tr": null,
            "name:ru": null,
            "name:ar": null
        }
    },
    {
        "lat": 40.9892702,
        "lon": 29.2287966,
        "tags": {
            "addr:city": "İstanbul",
            "addr:district": null,
            "description": "",
            "opening_hours": null,
            "phone": null,
            "branch": null,
            "amenity": "photo",
            "mobile": null,
            "addr:street": null,
            "cuisine": null,
            "name": "Lümrüt Fotoğraf Stüdyoları",
            "name:en": null,
            "name:uk": null,
            "name:de": null,
            "name:tr": null,
            "name:ru": null,
            "name:ar": null
        }
    }
]