[
    {
        "lat": 41.0300031,
        "lon": 28.9408371,
        "tags": {
            "addr:city": "Istanbul",
            "addr:district": "Fatih",
            "description": "",
            "opening_hours": null,
            "phone": null,
            "branch": null,
            "amenity": "plumbing",
            "mobile": null,
            "addr:street": "Draman Caddesi",
            "cuisine": null,
            "name": "Elçi su tesisatı",
            "name:en": null,
            "name:uk": null,
            "name:de": null,
            "name:tr": null,
            "name:ru": null,
            "name:ar": "إلجي سو تاسيساته"
        }
    },
    {
        "lat": 41.0338296,
        "lon": 28.9461853,
        "tags": {
            "addr:city": "Istanbul",
            "addr:district": "Fatih",
            "description": "",
            "opening_hours": null,
            "phone": null,
            "branch": null,
            "amenity": "plumbing",
            "mobile": null,
            "addr:street": "Lavanta Sokağı",
            "cuisine": null,
            "name": "Telli Tesisat",
            "name:en": null,
            "name:uk": null,
            "name:de": null,
            "name:tr": null,
            "name:ru": null,
            "name:ar": "سمكري تيللي تاسيسات"
        }
    },
    {
        "lat": 41.0336635,
        "lon": 28.946506,
        "tags": {
            "addr:city": "Istanbul",
            "addr:district": "Fatih",
            "description": "",
            "opening_hours": null,
            "phone": null,
            "branch": null,
            "amenity": "plumbing",
            "mobile": null,
            "addr:street": "Leblebiciler Sokağı",
            "cuisine": null,
            "name": "Genç Tesisat",
            "name:en": null,
            "name:uk": null,
            "name:de": null,
            "name:tr": null,
            "name:ru": null,
            "name:ar": "سمكري غينش تاسيسات"
        }
    }
]