[
    {
        "lat": 40.8778376,
        "lon": 29.2304861,
        "tags": {
            "addr:city": "İstanbul",
            "addr:district": "Pendik",
            "description": "",
            "opening_hours": null,
            "phone": null,
            "branch": null,
            "amenity": "printer_ink",
            "mobile": null,
            "addr:street": "Vişne Sokağı",
            "cuisine": null,
            "name": "Taha Dijital Baskı Merkezi",
            "name:en": null,
            "name:uk": null,
            "name:de": null,
            "name:tr": null,
            "name:ru": null,
            "name:ar": null
        }
    },
    {
        "lat": 41.0005578,
        "lon": 28.6954726,
        "tags": {
            "addr:city": "İstanbul",
            "addr:district": "Esenyurt",
            "description": "",
            "opening_hours": null,
            "phone": "+90212 916 27 28",
            "branch": null,
            "amenity": "printer_ink",
            "mobile": null,
            "addr:street": "67. Sokak",
            "cuisine": null,
            "name": "inkwel Toner",
            "name:en": null,
            "name:uk": null,
            "name:de": null,
            "name:tr": null,
            "name:ru": null,
            "name:ar": null
        }
    }
]