[
    {
        "lat": 40.912922,
        "lon": 29.2271981,
        "tags": {
            "addr:city": "İstanbul",
            "addr:district": "Kartal",
            "description": "",
            "opening_hours": null,
            "phone": "+90 531 950 94 08",
            "branch": null,
            "amenity": "repair",
            "mobile": null,
            "addr:street": "Vatansever Caddesi",
            "cuisine": null,
            "name": "Doğa Kombi ve Beyaz Eşya Servisi",
            "name:en": null,
            "name:uk": null,
            "name:de": null,
            "name:tr": null,
            "name:ru": null,
            "name:ar": null
        }
    },
    {
        "lat": 41.076136,
        "lon": 28.896044,
        "tags": {
            "addr:city": "İstanbul",
            "addr:district": "Gaziosmanpaşa",
            "description": "",
            "opening_hours": null,
            "phone": null,
            "branch": null,
            "amenity": "repair",
            "mobile": null,
            "addr:street": "1058. Sokak",
            "cuisine": null,
            "name": "Sema Aparat",
            "name:en": null,
            "name:uk": null,
            "name:de": null,
            "name:tr": null,
            "name:ru": null,
            "name:ar": null
        }
    },
    {
        "lat": 40.9738021,
        "lon": 28.714128,
        "tags": {
            "addr:city": "İstanbul",
            "addr:district": null,
            "description": "",
            "opening_hours": null,
            "phone": "05354254929",
            "branch": null,
            "amenity": "repair",
            "mobile": null,
            "addr:street": null,
            "cuisine": null,
            "name": "Kuğu Bisiklet",
            "name:en": null,
            "name:uk": null,
            "name:de": null,
            "name:tr": null,
            "name:ru": null,
            "name:ar": null
        }
    },
    {
        "lat": 40.9867835,
        "lon": 28.881093,
        "tags": {
            "addr:city": "Bakırköy/İstanbul",
            "addr:district": null,
            "description": "",
            "opening_hours": "Mo-Sa 08:30-19:00",
            "phone": "+90 212 269 1001",
            "branch": null,
            "amenity": "repair",
            "mobile": null,
            "addr:street": "Koşuyolu Caddesi",
            "cuisine": null,
            "name": "VitrA Artema Villeroy & Boch Yetkili Servis - Başarı Yapı",
            "name:en": null,
            "name:uk": null,
            "name:de": null,
            "name:tr": null,
            "name:ru": null,
            "name:ar": null
        }
    },
    {
        "lat": 40.8280385,
        "lon": 29.3212187,
        "tags": {
            "addr:city": "İstanbul",
            "addr:district": null,
            "description": "",
            "opening_hours": null,
            "phone": null,
            "branch": null,
            "amenity": "repair",
            "mobile": null,
            "addr:street": null,
            "cuisine": null,
            "name": "Kalaycı",
            "name:en": null,
            "name:uk": null,
            "name:de": null,
            "name:tr": null,
            "name:ru": null,
            "name:ar": null
        }
    },
    {
        "lat": 40.8758001,
        "lon": 29.2692806,
        "tags": {
            "addr:city": "İstanbul",
            "addr:district": null,
            "description": "",
            "opening_hours": null,
            "phone": null,
            "branch": null,
            "amenity": "repair",
            "mobile": null,
            "addr:street": null,
            "cuisine": null,
            "name": "Anadolu Elektrik",
            "name:en": null,
            "name:uk": null,
            "name:de": null,
            "name:tr": null,
            "name:ru": null,
            "name:ar": null
        }
    },
    {
        "lat": 41.0128342,
        "lon": 28.9749802,
        "tags": {
            "addr:city": "Istanbul",
            "addr:district": "Fatih",
            "description": "",
            "opening_hours": "Mo-Sa 08:30-19:30",
            "phone": "0850 840 0211",
            "branch": null,
            "amenity": "repair",
            "mobile": null,
            "addr:street": "Cağaloğlu Yokuşu",
            "cuisine": null,
            "name": "ServisXYZ for Apple Repair Service",
            "name:en": null,
            "name:uk": null,
            "name:de": null,
            "name:tr": null,
            "name:ru": null,
            "name:ar": null
        }
    },
    {
        "lat": 41.0157068,
        "lon": 28.6813255,
        "tags": {
            "addr:city": "Zafer Mahallesi",
            "addr:district": null,
            "description": "",
            "opening_hours": "24/7",
            "phone": "+90 542 416 46 53",
            "branch": null,
            "amenity": "repair",
            "mobile": null,
            "addr:street": "Harami Dere Yolu Caddesi",
            "cuisine": null,
            "name": "Gold Garage Esenyurt",
            "name:en": null,
            "name:uk": null,
            "name:de": null,
            "name:tr": null,
            "name:ru": null,
            "name:ar": null
        }
    }
]