[
    {
        "lat": 41.0160455,
        "lon": 28.9301866,
        "tags": {
            "addr:city": "İstanbul",
            "addr:district": null,
            "description": "",
            "opening_hours": null,
            "phone": null,
            "branch": null,
            "amenity": "seafood",
            "mobile": null,
            "addr:street": null,
            "cuisine": null,
            "name": "Palukçu",
            "name:en": null,
            "name:uk": null,
            "name:de": null,
            "name:tr": null,
            "name:ru": null,
            "name:ar": "بالوكجو"
        }
    },
    {
        "lat": 40.9901815,
        "lon": 29.0249696,
        "tags": {
            "addr:city": "İstanbul",
            "addr:district": null,
            "description": "",
            "opening_hours": null,
            "phone": null,
            "branch": null,
            "amenity": "restaurant",
            "mobile": null,
            "addr:street": "Serasker Caddesi",
            "cuisine": "fish",
            "name": "Kadi Nimet Balıkçılık",
            "name:en": null,
            "name:uk": null,
            "name:de": null,
            "name:tr": null,
            "name:ru": null,
            "name:ar": null
        }
    },
    {
        "lat": 41.2475122,
        "lon": 29.0344976,
        "tags": {
            "addr:city": "İstanbul",
            "addr:district": null,
            "description": "",
            "opening_hours": null,
            "phone": null,
            "branch": null,
            "amenity": "seafood",
            "mobile": null,
            "addr:street": "Plaj Yolu Caddesi",
            "cuisine": null,
            "name": "Plj",
            "name:en": "Sea",
            "name:uk": null,
            "name:de": null,
            "name:tr": "Plj",
            "name:ru": null,
            "name:ar": null
        }
    },
    {
        "lat": 41.0191805,
        "lon": 28.9598173,
        "tags": {
            "addr:city": "Istanbul",
            "addr:district": "Fatih",
            "description": "",
            "opening_hours": null,
            "phone": null,
            "branch": null,
            "amenity": "seafood",
            "mobile": null,
            "addr:street": "Hacı Kadın Caddesi",
            "cuisine": null,
            "name": "Necipoğlu balıkçılık",
            "name:en": null,
            "name:uk": null,
            "name:de": null,
            "name:tr": null,
            "name:ru": null,
            "name:ar": "نجيب اوغلو بالكجك"
        }
    },
    {
        "lat": 41.0166012,
        "lon": 28.9701801,
        "tags": {
            "addr:city": "Istanbul",
            "addr:district": "Fatih",
            "description": "",
            "opening_hours": null,
            "phone": null,
            "branch": null,
            "amenity": "seafood",
            "mobile": null,
            "addr:street": "Hasırcılar Caddesi",
            "cuisine": null,
            "name": "Taze Balıkçı",
            "name:en": null,
            "name:uk": null,
            "name:de": null,
            "name:tr": null,
            "name:ru": null,
            "name:ar": "تازة بلكتشي"
        }
    },
    {
        "lat": 41.0336056,
        "lon": 28.9681517,
        "tags": {
            "addr:city": "İstanbul",
            "addr:district": null,
            "description": "",
            "opening_hours": null,
            "phone": null,
            "branch": null,
            "amenity": "seafood",
            "mobile": null,
            "addr:street": null,
            "cuisine": null,
            "name": "محل طريق للاسماك",
            "name:en": null,
            "name:uk": null,
            "name:de": null,
            "name:tr": null,
            "name:ru": null,
            "name:ar": null
        }
    },
    {
        "lat": 40.988128,
        "lon": 28.8969117,
        "tags": {
            "addr:city": "Istanbul",
            "addr:district": "Zeytinburnu",
            "description": "",
            "opening_hours": null,
            "phone": null,
            "branch": null,
            "amenity": "seafood",
            "mobile": null,
            "addr:street": "27/1. sokak",
            "cuisine": null,
            "name": "balıkçı ali",
            "name:en": null,
            "name:uk": null,
            "name:de": null,
            "name:tr": null,
            "name:ru": null,
            "name:ar": "باليكشي علي"
        }
    },
    {
        "lat": 41.0317851,
        "lon": 28.8561786,
        "tags": {
            "addr:city": "Istanbul",
            "addr:district": "Bağcılar",
            "description": "",
            "opening_hours": null,
            "phone": null,
            "branch": null,
            "amenity": "seafood",
            "mobile": null,
            "addr:street": "Bağcılar caddesi",
            "cuisine": null,
            "name": "Şen kardeşler balıkçılık",
            "name:en": null,
            "name:uk": null,
            "name:de": null,
            "name:tr": null,
            "name:ru": null,
            "name:ar": "أسماك شن كارديشلار"
        }
    },
    {
        "lat": 41.0317009,
        "lon": 28.8561786,
        "tags": {
            "addr:city": "Istanbul",
            "addr:district": "Bağcılar",
            "description": "",
            "opening_hours": null,
            "phone": null,
            "branch": null,
            "amenity": "seafood",
            "mobile": null,
            "addr:street": "Bağcılar caddesi",
            "cuisine": null,
            "name": "Kara kaya balıkçılık",
            "name:en": null,
            "name:uk": null,
            "name:de": null,
            "name:tr": null,
            "name:ru": null,
            "name:ar": "أسماك كاراكايا"
        }
    },
    {
        "lat": 41.0222266,
        "lon": 28.9725745,
        "tags": {
            "addr:city": "İstanbul",
            "addr:district": null,
            "description": "",
            "opening_hours": null,
            "phone": null,
            "branch": null,
            "amenity": "seafood",
            "mobile": null,
            "addr:street": null,
            "cuisine": null,
            "name": null,
            "name:en": null,
            "name:uk": null,
            "name:de": null,
            "name:tr": null,
            "name:ru": null,
            "name:ar": null
        }
    },
    {
        "lat": 40.8632833,
        "lon": 29.3349707,
        "tags": {
            "addr:city": "İstanbul",
            "addr:district": null,
            "description": "",
            "opening_hours": null,
            "phone": null,
            "branch": null,
            "amenity": "seafood",
            "mobile": null,
            "addr:street": null,
            "cuisine": null,
            "name": "Mert Balıkçılık",
            "name:en": null,
            "name:uk": null,
            "name:de": null,
            "name:tr": null,
            "name:ru": null,
            "name:ar": null
        }
    },
    {
        "lat": 40.8706063,
        "lon": 29.329153,
        "tags": {
            "addr:city": "İstanbul",
            "addr:district": null,
            "description": "",
            "opening_hours": null,
            "phone": null,
            "branch": null,
            "amenity": "seafood",
            "mobile": null,
            "addr:street": null,
            "cuisine": null,
            "name": "Aydınlı Balık Evi",
            "name:en": null,
            "name:uk": null,
            "name:de": null,
            "name:tr": null,
            "name:ru": null,
            "name:ar": null
        }
    },
    {
        "lat": 41.0197839,
        "lon": 28.5918722,
        "tags": {
            "addr:city": "İstanbul",
            "addr:district": null,
            "description": "",
            "opening_hours": null,
            "phone": "+902128816922",
            "branch": null,
            "amenity": "restaurant",
            "mobile": null,
            "addr:street": null,
            "cuisine": null,
            "name": "Kaya Balık",
            "name:en": null,
            "name:uk": null,
            "name:de": null,
            "name:tr": null,
            "name:ru": null,
            "name:ar": null
        }
    },
    {
        "lat": 40.848387,
        "lon": 29.3032044,
        "tags": {
            "addr:city": "İstanbul",
            "addr:district": null,
            "description": "",
            "opening_hours": null,
            "phone": null,
            "branch": null,
            "amenity": "seafood",
            "mobile": null,
            "addr:street": null,
            "cuisine": null,
            "name": "İçmeler Merkez Balıkçısı",
            "name:en": null,
            "name:uk": null,
            "name:de": null,
            "name:tr": null,
            "name:ru": null,
            "name:ar": null
        }
    },
    {
        "lat": 41.0461501,
        "lon": 28.8053745,
        "tags": {
            "addr:city": "İstanbul",
            "addr:district": null,
            "description": "",
            "opening_hours": null,
            "phone": null,
            "branch": null,
            "amenity": "seafood",
            "mobile": null,
            "addr:street": null,
            "cuisine": null,
            "name": "Balıkçınız Şafak",
            "name:en": null,
            "name:uk": null,
            "name:de": null,
            "name:tr": null,
            "name:ru": null,
            "name:ar": null
        }
    },
    {
        "lat": 40.9904423,
        "lon": 29.0252553,
        "tags": {
            "addr:city": "İstanbul",
            "addr:district": null,
            "description": "",
            "opening_hours": null,
            "phone": null,
            "branch": null,
            "amenity": "seafood",
            "mobile": null,
            "addr:street": "Güneşlibahçe Sokağı",
            "cuisine": null,
            "name": "Sen Balikcilik",
            "name:en": "Fish market",
            "name:uk": null,
            "name:de": null,
            "name:tr": null,
            "name:ru": null,
            "name:ar": null
        }
    },
    {
        "lat": 41.0515931,
        "lon": 28.9873919,
        "tags": {
            "addr:city": "İstanbul",
            "addr:district": null,
            "description": "",
            "opening_hours": null,
            "phone": null,
            "branch": null,
            "amenity": "seafood",
            "mobile": null,
            "addr:street": null,
            "cuisine": null,
            "name": null,
            "name:en": null,
            "name:uk": null,
            "name:de": null,
            "name:tr": null,
            "name:ru": null,
            "name:ar": null
        }
    },
    {
        "lat": 41.1371405,
        "lon": 29.0865713,
        "tags": {
            "addr:city": "İstanbul",
            "addr:district": null,
            "description": "",
            "opening_hours": null,
            "phone": null,
            "branch": null,
            "amenity": "seafood",
            "mobile": null,
            "addr:street": null,
            "cuisine": null,
            "name": "Güven Kısmet Toptan Balık Market",
            "name:en": null,
            "name:uk": null,
            "name:de": null,
            "name:tr": null,
            "name:ru": null,
            "name:ar": null
        }
    },
    {
        "lat": 41.1341467,
        "lon": 29.0924808,
        "tags": {
            "addr:city": "İstanbul",
            "addr:district": null,
            "description": "",
            "opening_hours": null,
            "phone": null,
            "branch": null,
            "amenity": "seafood",
            "mobile": null,
            "addr:street": null,
            "cuisine": null,
            "name": null,
            "name:en": null,
            "name:uk": null,
            "name:de": null,
            "name:tr": null,
            "name:ru": null,
            "name:ar": null
        }
    },
    {
        "lat": 41.0521915,
        "lon": 28.9849784,
        "tags": {
            "addr:city": "İstanbul",
            "addr:district": null,
            "description": "",
            "opening_hours": null,
            "phone": null,
            "branch": null,
            "amenity": "seafood",
            "mobile": null,
            "addr:street": null,
            "cuisine": null,
            "name": "Pangaltı Balık",
            "name:en": null,
            "name:uk": null,
            "name:de": null,
            "name:tr": null,
            "name:ru": null,
            "name:ar": null
        }
    },
    {
        "lat": 40.9192817,
        "lon": 29.1404996,
        "tags": {
            "addr:city": "İstanbul",
            "addr:district": null,
            "description": "",
            "opening_hours": null,
            "phone": null,
            "branch": null,
            "amenity": "seafood",
            "mobile": null,
            "addr:street": null,
            "cuisine": null,
            "name": "Günkar Balık",
            "name:en": null,
            "name:uk": null,
            "name:de": null,
            "name:tr": null,
            "name:ru": null,
            "name:ar": null
        }
    },
    {
        "lat": 41.034304,
        "lon": 28.9772605,
        "tags": {
            "addr:city": "İstanbul",
            "addr:district": null,
            "description": "",
            "opening_hours": null,
            "phone": null,
            "branch": null,
            "amenity": "seafood",
            "mobile": null,
            "addr:street": null,
            "cuisine": null,
            "name": null,
            "name:en": "Tunc Balik",
            "name:uk": null,
            "name:de": null,
            "name:tr": null,
            "name:ru": null,
            "name:ar": null
        }
    },
    {
        "lat": 41.0345205,
        "lon": 28.9774466,
        "tags": {
            "addr:city": "İstanbul",
            "addr:district": null,
            "description": "",
            "opening_hours": "Mo-Sa 08:00-20:00; Su 08:00-19:00",
            "phone": null,
            "branch": null,
            "amenity": "seafood",
            "mobile": null,
            "addr:street": "Sahne Sokağı",
            "cuisine": null,
            "name": null,
            "name:en": "Resat Balik Market",
            "name:uk": null,
            "name:de": null,
            "name:tr": null,
            "name:ru": null,
            "name:ar": null
        }
    },
    {
        "lat": 41.0023557,
        "lon": 28.9602847,
        "tags": {
            "addr:city": "İstanbul",
            "addr:district": null,
            "description": "",
            "opening_hours": null,
            "phone": null,
            "branch": null,
            "amenity": "seafood",
            "mobile": null,
            "addr:street": null,
            "cuisine": null,
            "name": "Balikcilik",
            "name:en": "Fish market",
            "name:uk": "Рибний ринок",
            "name:de": null,
            "name:tr": null,
            "name:ru": null,
            "name:ar": null
        }
    },
    {
        "lat": 41.1155595,
        "lon": 28.9992143,
        "tags": {
            "addr:city": "İstanbul",
            "addr:district": null,
            "description": "",
            "opening_hours": null,
            "phone": null,
            "branch": null,
            "amenity": "seafood",
            "mobile": null,
            "addr:street": null,
            "cuisine": null,
            "name": "Karadeniz Balıkçısı Kaygın Kardeşler",
            "name:en": null,
            "name:uk": null,
            "name:de": null,
            "name:tr": null,
            "name:ru": null,
            "name:ar": null
        }
    },
    {
        "lat": 40.9899651,
        "lon": 29.0248999,
        "tags": {
            "addr:city": "İstanbul",
            "addr:district": null,
            "description": "",
            "opening_hours": null,
            "phone": null,
            "branch": null,
            "amenity": "seafood",
            "mobile": null,
            "addr:street": null,
            "cuisine": null,
            "name": "Kadıköy balık",
            "name:en": null,
            "name:uk": null,
            "name:de": null,
            "name:tr": null,
            "name:ru": null,
            "name:ar": null
        }
    },
    {
        "lat": 40.8776155,
        "lon": 29.0998926,
        "tags": {
            "addr:city": "İstanbul",
            "addr:district": null,
            "description": "",
            "opening_hours": null,
            "phone": null,
            "branch": null,
            "amenity": "seafood",
            "mobile": null,
            "addr:street": null,
            "cuisine": null,
            "name": null,
            "name:en": null,
            "name:uk": null,
            "name:de": null,
            "name:tr": null,
            "name:ru": null,
            "name:ar": null
        }
    },
    {
        "lat": 40.9876456,
        "lon": 28.7715525,
        "tags": {
            "addr:city": "İstanbul",
            "addr:district": null,
            "description": "",
            "opening_hours": null,
            "phone": null,
            "branch": null,
            "amenity": "seafood",
            "mobile": null,
            "addr:street": "830. Yanyol",
            "cuisine": null,
            "name": "Güven Marmara",
            "name:en": null,
            "name:uk": null,
            "name:de": null,
            "name:tr": null,
            "name:ru": null,
            "name:ar": null
        }
    },
    {
        "lat": 40.9736311,
        "lon": 29.0754084,
        "tags": {
            "addr:city": "İstanbul",
            "addr:district": "Kadıköy",
            "description": "",
            "opening_hours": null,
            "phone": "+90 532 120 61 24",
            "branch": null,
            "amenity": "seafood",
            "mobile": null,
            "addr:street": "Hatboyu Sokağı",
            "cuisine": null,
            "name": "Marmaara Balık Evi",
            "name:en": null,
            "name:uk": null,
            "name:de": null,
            "name:tr": null,
            "name:ru": null,
            "name:ar": null
        }
    },
    {
        "lat": 41.0010535,
        "lon": 28.9745078,
        "tags": {
            "addr:city": "İstanbul",
            "addr:district": null,
            "description": "",
            "opening_hours": null,
            "phone": null,
            "branch": null,
            "amenity": "seafood",
            "mobile": null,
            "addr:street": null,
            "cuisine": null,
            "name": null,
            "name:en": null,
            "name:uk": null,
            "name:de": null,
            "name:tr": null,
            "name:ru": null,
            "name:ar": null
        }
    },
    {
        "lat": 41.0016859,
        "lon": 29.1239959,
        "tags": {
            "addr:city": "İstanbul",
            "addr:district": "Ümraniye",
            "description": "",
            "opening_hours": "Mo-Su 09:00-21:00",
            "phone": "216 527 34 65",
            "branch": null,
            "amenity": "seafood",
            "mobile": null,
            "addr:street": "İkbal Caddesi",
            "cuisine": null,
            "name": "Karadeniz Balık",
            "name:en": null,
            "name:uk": null,
            "name:de": null,
            "name:tr": null,
            "name:ru": null,
            "name:ar": null
        }
    },
    {
        "lat": 40.8869014,
        "lon": 29.1892251,
        "tags": {
            "addr:city": "İstanbul",
            "addr:district": null,
            "description": "",
            "opening_hours": null,
            "phone": null,
            "branch": null,
            "amenity": "seafood",
            "mobile": null,
            "addr:street": null,
            "cuisine": null,
            "name": "Kartal Balık Pazarı",
            "name:en": null,
            "name:uk": null,
            "name:de": null,
            "name:tr": null,
            "name:ru": null,
            "name:ar": null
        }
    },
    {
        "lat": 40.961447,
        "lon": 29.0840536,
        "tags": {
            "addr:city": "İstanbul",
            "addr:district": "Kadıköy",
            "description": "",
            "opening_hours": null,
            "phone": null,
            "branch": null,
            "amenity": "seafood",
            "mobile": null,
            "addr:street": "Ayşe Çavuş Caddesi",
            "cuisine": null,
            "name": "Balıkla",
            "name:en": null,
            "name:uk": null,
            "name:de": null,
            "name:tr": null,
            "name:ru": null,
            "name:ar": null
        }
    },
    {
        "lat": 40.9717205,
        "lon": 29.0774928,
        "tags": {
            "addr:city": "İstanbul",
            "addr:district": "Kadıköy",
            "description": "",
            "opening_hours": null,
            "phone": "+90 216 350 0707",
            "branch": null,
            "amenity": "seafood",
            "mobile": null,
            "addr:street": "Erenköy İstasyon Caddesi",
            "cuisine": null,
            "name": "Erenköy Balıkçısı",
            "name:en": null,
            "name:uk": null,
            "name:de": null,
            "name:tr": null,
            "name:ru": null,
            "name:ar": null
        }
    },
    {
        "lat": 40.9905693,
        "lon": 29.0251971,
        "tags": {
            "addr:city": "İstanbul",
            "addr:district": null,
            "description": "",
            "opening_hours": null,
            "phone": null,
            "branch": null,
            "amenity": "seafood",
            "mobile": null,
            "addr:street": null,
            "cuisine": null,
            "name": "Seven balik market",
            "name:en": null,
            "name:uk": null,
            "name:de": null,
            "name:tr": null,
            "name:ru": null,
            "name:ar": null
        }
    },
    {
        "lat": 40.9897253,
        "lon": 29.2300767,
        "tags": {
            "addr:city": "İstanbul",
            "addr:district": null,
            "description": "",
            "opening_hours": null,
            "phone": null,
            "branch": null,
            "amenity": "seafood",
            "mobile": null,
            "addr:street": null,
            "cuisine": null,
            "name": "Pelikan",
            "name:en": null,
            "name:uk": null,
            "name:de": null,
            "name:tr": null,
            "name:ru": null,
            "name:ar": null
        }
    },
    {
        "lat": 41.0029208,
        "lon": 28.9597407,
        "tags": {
            "addr:city": "İstanbul",
            "addr:district": null,
            "description": "",
            "opening_hours": null,
            "phone": null,
            "branch": null,
            "amenity": "seafood",
            "mobile": null,
            "addr:street": null,
            "cuisine": null,
            "name": "Tarihi Yenikapı Balıklar Çarşısı",
            "name:en": null,
            "name:uk": null,
            "name:de": null,
            "name:tr": null,
            "name:ru": null,
            "name:ar": null
        }
    },
    {
        "lat": 41.0060632,
        "lon": 29.0813749,
        "tags": {
            "addr:city": "İstanbul",
            "addr:district": null,
            "description": "",
            "opening_hours": null,
            "phone": null,
            "branch": null,
            "amenity": "seafood",
            "mobile": null,
            "addr:street": null,
            "cuisine": null,
            "name": "Derya Balık",
            "name:en": null,
            "name:uk": null,
            "name:de": null,
            "name:tr": null,
            "name:ru": null,
            "name:ar": null
        }
    },
    {
        "lat": 41.0268279,
        "lon": 29.0896571,
        "tags": {
            "addr:city": "İstanbul",
            "addr:district": null,
            "description": "",
            "opening_hours": null,
            "phone": null,
            "branch": null,
            "amenity": "seafood",
            "mobile": null,
            "addr:street": null,
            "cuisine": null,
            "name": "Ay Işığı",
            "name:en": null,
            "name:uk": null,
            "name:de": null,
            "name:tr": "Ay Işığı",
            "name:ru": null,
            "name:ar": null
        }
    },
    {
        "lat": 41.0256781,
        "lon": 29.0869684,
        "tags": {
            "addr:city": "İstanbul",
            "addr:district": null,
            "description": "",
            "opening_hours": null,
            "phone": "3281024",
            "branch": null,
            "amenity": "seafood",
            "mobile": null,
            "addr:street": null,
            "cuisine": null,
            "name": "Irmak Balıkçısı",
            "name:en": null,
            "name:uk": null,
            "name:de": null,
            "name:tr": "Irmak Balıkçısı",
            "name:ru": null,
            "name:ar": null
        }
    },
    {
        "lat": 41.0296239,
        "lon": 29.0892962,
        "tags": {
            "addr:city": "İstanbul",
            "addr:district": null,
            "description": "",
            "opening_hours": null,
            "phone": null,
            "branch": null,
            "amenity": "seafood",
            "mobile": null,
            "addr:street": null,
            "cuisine": null,
            "name": "Atlas Su Ürünleri",
            "name:en": null,
            "name:uk": null,
            "name:de": null,
            "name:tr": "Atlas Su Ürünleri",
            "name:ru": null,
            "name:ar": null
        }
    },
    {
        "lat": 40.9743899,
        "lon": 29.0928679,
        "tags": {
            "addr:city": "İstanbul",
            "addr:district": "Kadıköy",
            "description": "",
            "opening_hours": null,
            "phone": null,
            "branch": null,
            "amenity": "seafood",
            "mobile": null,
            "addr:street": "Bayar Caddesi",
            "cuisine": null,
            "name": "Seven Balık",
            "name:en": null,
            "name:uk": null,
            "name:de": null,
            "name:tr": null,
            "name:ru": null,
            "name:ar": null
        }
    }
]