[
    {
        "lat": 41.0974391,
        "lon": 28.8629517,
        "tags": {
            "addr:city": "İstanbul",
            "addr:district": null,
            "description": "",
            "opening_hours": "Mo-Sa 08:30-19:30",
            "phone": null,
            "branch": null,
            "amenity": "sewing",
            "mobile": null,
            "addr:street": null,
            "cuisine": null,
            "name": "Sancaklı Makina",
            "name:en": null,
            "name:uk": null,
            "name:de": null,
            "name:tr": null,
            "name:ru": null,
            "name:ar": null
        }
    },
    {
        "lat": 40.9816401,
        "lon": 29.2666501,
        "tags": {
            "addr:city": "Istanbul",
            "addr:district": "Sultanbeyli",
            "description": "",
            "opening_hours": "Mo-Fr 07:00-13:30; Mo-Fr 17:00-20:00",
            "phone": null,
            "branch": null,
            "amenity": "sewing",
            "mobile": null,
            "addr:street": "kubbe Caddesi",
            "cuisine": null,
            "name": "Servet Nakış",
            "name:en": null,
            "name:uk": null,
            "name:de": null,
            "name:tr": null,
            "name:ru": null,
            "name:ar": "البسة سيرفيت ناكيش"
        }
    },
    {
        "lat": 41.0098055,
        "lon": 28.910803,
        "tags": {
            "addr:city": "Istanbul",
            "addr:district": "Zeytinburnu",
            "description": "",
            "opening_hours": null,
            "phone": null,
            "branch": null,
            "amenity": "sewing",
            "mobile": null,
            "addr:street": "G-42. Sokak",
            "cuisine": null,
            "name": "Öztürk Tuhafiye kırtasiye",
            "name:en": null,
            "name:uk": null,
            "name:de": null,
            "name:tr": null,
            "name:ru": null,
            "name:ar": "مخزن اوزتورك"
        }
    },
    {
        "lat": 41.0289309,
        "lon": 28.903124,
        "tags": {
            "addr:city": "Istanbul",
            "addr:district": "Zeytinburnu",
            "description": "",
            "opening_hours": "Mo-Fr 08:00-17:00; Mo-Sa 07:30-15:00",
            "phone": "05396814336",
            "branch": null,
            "amenity": "sewing",
            "mobile": null,
            "addr:street": "Davutpaşa Çiftehavuzlar Caddesi",
            "cuisine": null,
            "name": "Dadaşkar İplik",
            "name:en": null,
            "name:uk": null,
            "name:de": null,
            "name:tr": null,
            "name:ru": null,
            "name:ar": "مصنع داداشكار للخيوط"
        }
    },
    {
        "lat": 41.0289621,
        "lon": 28.902793,
        "tags": {
            "addr:city": "Istanbul",
            "addr:district": "Zeytinburnu",
            "description": "",
            "opening_hours": "Mo-Fr 08:00-17:00; Mo-Sa 07:30-15:00",
            "phone": "02125018520",
            "branch": null,
            "amenity": "sewing",
            "mobile": null,
            "addr:street": "Davutpaşa Çiftehavuzlar Caddesi",
            "cuisine": null,
            "name": "Yalçın İplik",
            "name:en": null,
            "name:uk": null,
            "name:de": null,
            "name:tr": null,
            "name:ru": null,
            "name:ar": "مصنع يالجين للخيوط"
        }
    },
    {
        "lat": 41.020265,
        "lon": 28.9059037,
        "tags": {
            "addr:city": "Istanbul",
            "addr:district": "Zeytinburnu",
            "description": "",
            "opening_hours": "Mo-Fr 09:00-17:00; Mo-Sa 07:30-15:00",
            "phone": "(0212) 482 17 44",
            "branch": null,
            "amenity": "sewing",
            "mobile": null,
            "addr:street": "Davutpaşa Caddesi",
            "cuisine": null,
            "name": "Nako",
            "name:en": null,
            "name:uk": null,
            "name:de": null,
            "name:tr": null,
            "name:ru": null,
            "name:ar": "نقليات ناكو"
        }
    },
    {
        "lat": 41.030104,
        "lon": 28.9131067,
        "tags": {
            "addr:city": "Istanbul",
            "addr:district": "Zeytinburnu",
            "description": "",
            "opening_hours": "Mo-Fr 08:00-17:00; Mo-Sa 07:30-15:00",
            "phone": "0555 976 83 67",
            "branch": null,
            "amenity": "sewing",
            "mobile": null,
            "addr:street": "Gümüşsuyu Caddesi",
            "cuisine": null,
            "name": "Gürteks Iplik",
            "name:en": null,
            "name:uk": null,
            "name:de": null,
            "name:tr": null,
            "name:ru": null,
            "name:ar": "غورتكس"
        }
    },
    {
        "lat": 41.0292241,
        "lon": 28.9037635,
        "tags": {
            "addr:city": "Istanbul",
            "addr:district": "Zeytinburnu",
            "description": "",
            "opening_hours": "Mo-Fr 08:00-17:00; Mo-Sa 07:30-15:00",
            "phone": "02125676729",
            "branch": null,
            "amenity": "sewing",
            "mobile": null,
            "addr:street": "Davutpaşa Çiftehavuzlar Caddesi",
            "cuisine": null,
            "name": "Atydın İplik",
            "name:en": null,
            "name:uk": null,
            "name:de": null,
            "name:tr": null,
            "name:ru": null,
            "name:ar": "مصنع ايدن للخيوط"
        }
    },
    {
        "lat": 41.0294886,
        "lon": 28.9093545,
        "tags": {
            "addr:city": "Istanbul",
            "addr:district": "Zeytinburnu",
            "description": "",
            "opening_hours": "Mo-Fr 08:00-17:00; Mo-Sa 07:30-15:00",
            "phone": "02125443600",
            "branch": null,
            "amenity": "sewing",
            "mobile": null,
            "addr:street": "Bestekar Nasibi Mehmet Sk.",
            "cuisine": null,
            "name": "Meriç Iplik",
            "name:en": null,
            "name:uk": null,
            "name:de": null,
            "name:tr": null,
            "name:ru": null,
            "name:ar": "مصنع مريج للنسيج"
        }
    },
    {
        "lat": 40.9932651,
        "lon": 28.8970017,
        "tags": {
            "addr:city": "Istanbul",
            "addr:district": "Zeytinburnu",
            "description": "",
            "opening_hours": null,
            "phone": null,
            "branch": null,
            "amenity": "sewing",
            "mobile": null,
            "addr:street": "24. sokak",
            "cuisine": null,
            "name": "Aydın Yük",
            "name:en": null,
            "name:uk": null,
            "name:de": null,
            "name:tr": null,
            "name:ru": null,
            "name:ar": "أيدن يوك"
        }
    },
    {
        "lat": 40.9877373,
        "lon": 28.8967185,
        "tags": {
            "addr:city": "Istanbul",
            "addr:district": "Zeytinburnu",
            "description": "",
            "opening_hours": null,
            "phone": null,
            "branch": null,
            "amenity": "sewing",
            "mobile": null,
            "addr:street": "27/1. sokak",
            "cuisine": null,
            "name": "oteks iplik",
            "name:en": null,
            "name:uk": null,
            "name:de": null,
            "name:tr": null,
            "name:ru": null,
            "name:ar": "أوتيكس إبليك"
        }
    },
    {
        "lat": 40.9897689,
        "lon": 28.8983083,
        "tags": {
            "addr:city": "Istanbul",
            "addr:district": "Zeytinburnu",
            "description": "",
            "opening_hours": null,
            "phone": null,
            "branch": null,
            "amenity": "sewing",
            "mobile": null,
            "addr:street": "65/4. sokak",
            "cuisine": null,
            "name": "Nur Hat İplik",
            "name:en": null,
            "name:uk": null,
            "name:de": null,
            "name:tr": null,
            "name:ru": null,
            "name:ar": "نور هات إبليك"
        }
    },
    {
        "lat": 41.0484928,
        "lon": 28.8492875,
        "tags": {
            "addr:city": "Istanbul",
            "addr:district": "Zeytinburnu",
            "description": "",
            "opening_hours": null,
            "phone": null,
            "branch": null,
            "amenity": "sewing",
            "mobile": null,
            "addr:street": null,
            "cuisine": null,
            "name": "AYDEMİR MAKİNA",
            "name:en": null,
            "name:uk": null,
            "name:de": null,
            "name:tr": null,
            "name:ru": null,
            "name:ar": "محل مكائن خياطة"
        }
    },
    {
        "lat": 41.0479084,
        "lon": 28.8587312,
        "tags": {
            "addr:city": "Istanbul",
            "addr:district": null,
            "description": "",
            "opening_hours": null,
            "phone": "02125195353",
            "branch": null,
            "amenity": "sewing",
            "mobile": null,
            "addr:street": "2004 Sokak",
            "cuisine": null,
            "name": "İstanbul Makina",
            "name:en": null,
            "name:uk": null,
            "name:de": null,
            "name:tr": null,
            "name:ru": null,
            "name:ar": "اسطنبول ماكينة"
        }
    },
    {
        "lat": 41.0540802,
        "lon": 28.8493197,
        "tags": {
            "addr:city": "Istanbul",
            "addr:district": "Zeytinburnu",
            "description": "",
            "opening_hours": null,
            "phone": null,
            "branch": null,
            "amenity": "sewing",
            "mobile": null,
            "addr:street": null,
            "cuisine": null,
            "name": "Boyraz makinası",
            "name:en": null,
            "name:uk": null,
            "name:de": null,
            "name:tr": null,
            "name:ru": null,
            "name:ar": "ماكينات بويراز"
        }
    },
    {
        "lat": 41.0280504,
        "lon": 28.819707,
        "tags": {
            "addr:city": "Istanbul",
            "addr:district": "Bağcılar",
            "description": "",
            "opening_hours": null,
            "phone": null,
            "branch": null,
            "amenity": "sewing",
            "mobile": null,
            "addr:street": "Gul sokak",
            "cuisine": null,
            "name": "Oskar",
            "name:en": null,
            "name:uk": null,
            "name:de": null,
            "name:tr": null,
            "name:ru": null,
            "name:ar": "اوسكار"
        }
    },
    {
        "lat": 41.0291364,
        "lon": 28.8274651,
        "tags": {
            "addr:city": "Istanbul",
            "addr:district": "Bağcılar",
            "description": "",
            "opening_hours": null,
            "phone": null,
            "branch": null,
            "amenity": "sewing",
            "mobile": null,
            "addr:street": "Cesme sokak",
            "cuisine": null,
            "name": "Ifas",
            "name:en": null,
            "name:uk": null,
            "name:de": null,
            "name:tr": null,
            "name:ru": null,
            "name:ar": "افاش"
        }
    },
    {
        "lat": 41.0310947,
        "lon": 28.8316446,
        "tags": {
            "addr:city": "Istanbul",
            "addr:district": "Bağcılar",
            "description": "",
            "opening_hours": null,
            "phone": "6302617",
            "branch": null,
            "amenity": "sewing",
            "mobile": null,
            "addr:street": "Cumhuriyet Caddesi",
            "cuisine": null,
            "name": "Özen Makina",
            "name:en": null,
            "name:uk": null,
            "name:de": null,
            "name:tr": null,
            "name:ru": null,
            "name:ar": "أوزان ماكينة"
        }
    },
    {
        "lat": 41.04577,
        "lon": 28.8597717,
        "tags": {
            "addr:city": "Istanbul",
            "addr:district": "Bağcılar",
            "description": "",
            "opening_hours": null,
            "phone": "4332266",
            "branch": null,
            "amenity": "sewing",
            "mobile": null,
            "addr:street": "Osmangazi Caddesi",
            "cuisine": null,
            "name": "Kale İplik",
            "name:en": null,
            "name:uk": null,
            "name:de": null,
            "name:tr": null,
            "name:ru": null,
            "name:ar": "كالة ابليك"
        }
    },
    {
        "lat": 40.9803065,
        "lon": 29.114902,
        "tags": {
            "addr:city": "İstanbul",
            "addr:district": null,
            "description": "",
            "opening_hours": null,
            "phone": null,
            "branch": null,
            "amenity": "sewing",
            "mobile": null,
            "addr:street": "Kazım Paşa Sokağı",
            "cuisine": null,
            "name": "Elif Çeyiz",
            "name:en": null,
            "name:uk": null,
            "name:de": null,
            "name:tr": null,
            "name:ru": null,
            "name:ar": null
        }
    },
    {
        "lat": 41.0708694,
        "lon": 28.8928493,
        "tags": {
            "addr:city": "İstanbul",
            "addr:district": "Gaziosmanpaşa",
            "description": "",
            "opening_hours": null,
            "phone": null,
            "branch": null,
            "amenity": "sewing",
            "mobile": null,
            "addr:street": "1012. Sokak",
            "cuisine": null,
            "name": "Mutlu Makine",
            "name:en": null,
            "name:uk": null,
            "name:de": null,
            "name:tr": null,
            "name:ru": null,
            "name:ar": null
        }
    },
    {
        "lat": 41.0828433,
        "lon": 28.8823311,
        "tags": {
            "addr:city": "İstanbul",
            "addr:district": "Gaziosmanpaşa",
            "description": "",
            "opening_hours": "Mo-Fr 08:00-20:00; Sa 08:00-16:00",
            "phone": null,
            "branch": "Karadeniz",
            "amenity": "sewing",
            "mobile": null,
            "addr:street": "1139. Sokak",
            "cuisine": null,
            "name": "Üstün Makina",
            "name:en": null,
            "name:uk": null,
            "name:de": null,
            "name:tr": null,
            "name:ru": null,
            "name:ar": null
        }
    },
    {
        "lat": 41.0072733,
        "lon": 28.9680944,
        "tags": {
            "addr:city": "İstanbul",
            "addr:district": null,
            "description": "",
            "opening_hours": null,
            "phone": null,
            "branch": null,
            "amenity": "sewing",
            "mobile": null,
            "addr:street": null,
            "cuisine": null,
            "name": "Toker Deri",
            "name:en": "Toker Leather",
            "name:uk": null,
            "name:de": null,
            "name:tr": null,
            "name:ru": null,
            "name:ar": null
        }
    },
    {
        "lat": 41.0071165,
        "lon": 28.9679411,
        "tags": {
            "addr:city": "İstanbul",
            "addr:district": null,
            "description": "",
            "opening_hours": null,
            "phone": null,
            "branch": null,
            "amenity": "sewing",
            "mobile": null,
            "addr:street": null,
            "cuisine": null,
            "name": "Adım Taban",
            "name:en": "Adım Shoe Foam Store",
            "name:uk": null,
            "name:de": null,
            "name:tr": null,
            "name:ru": null,
            "name:ar": null
        }
    },
    {
        "lat": 41.0767316,
        "lon": 28.8896083,
        "tags": {
            "addr:city": "İstanbul",
            "addr:district": "Gaziosmanpaşa",
            "description": "",
            "opening_hours": "Mo-Fr 08:00-20:00; Sa 08:00-16:00",
            "phone": null,
            "branch": "Barbaros Hayrettin Paşa",
            "amenity": "sewing",
            "mobile": null,
            "addr:street": "1045. Sokak",
            "cuisine": null,
            "name": "Üstün Makina",
            "name:en": null,
            "name:uk": null,
            "name:de": null,
            "name:tr": null,
            "name:ru": null,
            "name:ar": null
        }
    },
    {
        "lat": 40.9917632,
        "lon": 29.2313679,
        "tags": {
            "addr:city": "İstanbul",
            "addr:district": null,
            "description": "",
            "opening_hours": null,
            "phone": null,
            "branch": null,
            "amenity": "sewing",
            "mobile": null,
            "addr:street": null,
            "cuisine": null,
            "name": "Düşler Hobi Atölyesi",
            "name:en": null,
            "name:uk": null,
            "name:de": null,
            "name:tr": null,
            "name:ru": null,
            "name:ar": null
        }
    },
    {
        "lat": 41.1844245,
        "lon": 28.7422454,
        "tags": {
            "addr:city": "İstanbul",
            "addr:district": null,
            "description": "",
            "opening_hours": null,
            "phone": null,
            "branch": null,
            "amenity": "sewing",
            "mobile": null,
            "addr:street": null,
            "cuisine": null,
            "name": "Murat Tuhafiye",
            "name:en": null,
            "name:uk": null,
            "name:de": null,
            "name:tr": null,
            "name:ru": null,
            "name:ar": null
        }
    },
    {
        "lat": 41.027133,
        "lon": 29.0305237,
        "tags": {
            "addr:city": "İstanbul",
            "addr:district": "Üsküdar",
            "description": "",
            "opening_hours": null,
            "phone": "+90 533 696 42 75",
            "branch": null,
            "amenity": "sewing",
            "mobile": null,
            "addr:street": "Fıstıkağacı Sokağı",
            "cuisine": null,
            "name": "Zehra Yüksel Yün Ve Tuhafiye",
            "name:en": null,
            "name:uk": null,
            "name:de": null,
            "name:tr": null,
            "name:ru": null,
            "name:ar": null
        }
    }
]