[
    {
        "lat": 41.0172025,
        "lon": 28.9668489,
        "tags": {
            "addr:city": "Istanbul",
            "addr:district": "Fatih",
            "description": "",
            "opening_hours": null,
            "phone": null,
            "branch": null,
            "amenity": "shipment",
            "mobile": null,
            "addr:street": "Cemil birsel caddesi",
            "cuisine": null,
            "name": "MNG kargo",
            "name:en": null,
            "name:uk": null,
            "name:de": null,
            "name:tr": null,
            "name:ru": null,
            "name:ar": "م ن ك كارغو"
        }
    },
    {
        "lat": 41.0132251,
        "lon": 28.9739341,
        "tags": {
            "addr:city": "Istanbul",
            "addr:district": "Fatih",
            "description": "",
            "opening_hours": null,
            "phone": null,
            "branch": null,
            "amenity": "shipment",
            "mobile": null,
            "addr:street": "Cemal nadir sokak",
            "cuisine": null,
            "name": "Mng kargo",
            "name:en": null,
            "name:uk": null,
            "name:de": null,
            "name:tr": null,
            "name:ru": null,
            "name:ar": "م ن غ كارغو"
        }
    },
    {
        "lat": 41.0131559,
        "lon": 28.9740371,
        "tags": {
            "addr:city": "Istanbul",
            "addr:district": "Fatih",
            "description": "",
            "opening_hours": null,
            "phone": null,
            "branch": null,
            "amenity": "shipment",
            "mobile": null,
            "addr:street": "Cemal nadir sokak",
            "cuisine": null,
            "name": "Aras kargo",
            "name:en": null,
            "name:uk": null,
            "name:de": null,
            "name:tr": null,
            "name:ru": null,
            "name:ar": "اراس كارغو"
        }
    },
    {
        "lat": 41.0192895,
        "lon": 28.9605984,
        "tags": {
            "addr:city": "Istanbul",
            "addr:district": "Fatih",
            "description": "",
            "opening_hours": null,
            "phone": null,
            "branch": null,
            "amenity": "shipment",
            "mobile": null,
            "addr:street": "Hacı Kadın Caddesi",
            "cuisine": null,
            "name": "Aras kargo",
            "name:en": null,
            "name:uk": null,
            "name:de": null,
            "name:tr": null,
            "name:ru": null,
            "name:ar": "اراس كارغو"
        }
    }
]