[
    {
        "lat": 41.0132132,
        "lon": 28.9777329,
        "tags": {
            "addr:city": "İstanbul",
            "addr:district": null,
            "description": "",
            "opening_hours": null,
            "phone": null,
            "branch": null,
            "amenity": "spices",
            "mobile": null,
            "addr:street": null,
            "cuisine": null,
            "name": "Sweet Spice",
            "name:en": null,
            "name:uk": null,
            "name:de": null,
            "name:tr": null,
            "name:ru": null,
            "name:ar": null
        }
    },
    {
        "lat": 41.0136947,
        "lon": 28.977253,
        "tags": {
            "addr:city": "İstanbul",
            "addr:district": null,
            "description": "",
            "opening_hours": null,
            "phone": null,
            "branch": null,
            "amenity": "spices",
            "mobile": null,
            "addr:street": null,
            "cuisine": null,
            "name": "Home Made",
            "name:en": null,
            "name:uk": null,
            "name:de": null,
            "name:tr": null,
            "name:ru": null,
            "name:ar": null
        }
    },
    {
        "lat": 41.0076015,
        "lon": 28.9437386,
        "tags": {
            "addr:city": "Istanbul",
            "addr:district": "Fatih",
            "description": "",
            "opening_hours": null,
            "phone": "0545 976 39 76",
            "branch": null,
            "amenity": "spices",
            "mobile": null,
            "addr:street": "Kocamustafapaşa caddesi",
            "cuisine": null,
            "name": "İmren Kuruyemiş",
            "name:en": null,
            "name:uk": null,
            "name:de": null,
            "name:tr": null,
            "name:ru": null,
            "name:ar": "إيمران للبهارات"
        }
    },
    {
        "lat": 41.007146,
        "lon": 28.9425105,
        "tags": {
            "addr:city": "Istanbul",
            "addr:district": "Fatih",
            "description": "",
            "opening_hours": null,
            "phone": "(0212) 588 69 26",
            "branch": null,
            "amenity": "spices",
            "mobile": null,
            "addr:street": "Kocamustafapaşa caddesi",
            "cuisine": null,
            "name": "ŞAH-I ŞİFA",
            "name:en": null,
            "name:uk": null,
            "name:de": null,
            "name:tr": null,
            "name:ru": null,
            "name:ar": "أعشاب شاهي شيفا"
        }
    },
    {
        "lat": 41.0043826,
        "lon": 28.9276499,
        "tags": {
            "addr:city": "Istanbul",
            "addr:district": "Fatih",
            "description": "",
            "opening_hours": null,
            "phone": null,
            "branch": null,
            "amenity": "spices",
            "mobile": null,
            "addr:street": "Meşeli Mescit Sokak",
            "cuisine": null,
            "name": "Sümbül Efendi Baharatçısı",
            "name:en": null,
            "name:uk": null,
            "name:de": null,
            "name:tr": null,
            "name:ru": null,
            "name:ar": "بهارات سمبل افندي"
        }
    },
    {
        "lat": 41.0041043,
        "lon": 28.9281546,
        "tags": {
            "addr:city": "Istanbul",
            "addr:district": "Fatih",
            "description": "",
            "opening_hours": null,
            "phone": null,
            "branch": null,
            "amenity": "spices",
            "mobile": null,
            "addr:street": "Meşeli Mescit Sokak",
            "cuisine": null,
            "name": "Peynircimm Nihat",
            "name:en": null,
            "name:uk": null,
            "name:de": null,
            "name:tr": null,
            "name:ru": null,
            "name:ar": "بينيرجيم نهات"
        }
    },
    {
        "lat": 41.0035246,
        "lon": 28.9248752,
        "tags": {
            "addr:city": "Istanbul",
            "addr:district": "Fatih",
            "description": "",
            "opening_hours": null,
            "phone": null,
            "branch": null,
            "amenity": "spices",
            "mobile": null,
            "addr:street": "Alay İmamı Sokak",
            "cuisine": null,
            "name": "Sümbülefendi Baharatçısı",
            "name:en": null,
            "name:uk": null,
            "name:de": null,
            "name:tr": null,
            "name:ru": null,
            "name:ar": "بهارات سمبل افندي"
        }
    },
    {
        "lat": 41.006198,
        "lon": 28.9291053,
        "tags": {
            "addr:city": "Istanbul",
            "addr:district": "Fatih",
            "description": "",
            "opening_hours": null,
            "phone": null,
            "branch": null,
            "amenity": "spices",
            "mobile": null,
            "addr:street": "Serdengeçti Sokak",
            "cuisine": null,
            "name": "Seyhan Baharat",
            "name:en": null,
            "name:uk": null,
            "name:de": null,
            "name:tr": null,
            "name:ru": null,
            "name:ar": "سيهان بهارات"
        }
    },
    {
        "lat": 41.0157757,
        "lon": 28.9718968,
        "tags": {
            "addr:city": "Istanbul",
            "addr:district": "Fatih",
            "description": "",
            "opening_hours": null,
            "phone": null,
            "branch": null,
            "amenity": "spices",
            "mobile": null,
            "addr:street": "Yeni Cami caddesi",
            "cuisine": null,
            "name": "marmara lokum",
            "name:en": null,
            "name:uk": null,
            "name:de": null,
            "name:tr": null,
            "name:ru": null,
            "name:ar": null
        }
    },
    {
        "lat": 41.0169111,
        "lon": 28.9715266,
        "tags": {
            "addr:city": "Istanbul",
            "addr:district": "Fatih",
            "description": "",
            "opening_hours": null,
            "phone": null,
            "branch": null,
            "amenity": "spices",
            "mobile": null,
            "addr:street": "Bankacilar sokak",
            "cuisine": null,
            "name": "Kosem Ziraat",
            "name:en": null,
            "name:uk": null,
            "name:de": null,
            "name:tr": null,
            "name:ru": null,
            "name:ar": "كوسيم زراات"
        }
    },
    {
        "lat": 41.0143913,
        "lon": 28.9274237,
        "tags": {
            "addr:city": "Istanbul",
            "addr:district": "Fatih",
            "description": "",
            "opening_hours": null,
            "phone": null,
            "branch": null,
            "amenity": "spices",
            "mobile": null,
            "addr:street": "Küçük Saray Meydanı Caddesi",
            "cuisine": null,
            "name": "Furkan Baharat",
            "name:en": null,
            "name:uk": null,
            "name:de": null,
            "name:tr": null,
            "name:ru": null,
            "name:ar": "متجر بهارات فوركان"
        }
    },
    {
        "lat": 41.0204883,
        "lon": 28.9486515,
        "tags": {
            "addr:city": "Istanbul",
            "addr:district": "Fatih",
            "description": "",
            "opening_hours": null,
            "phone": null,
            "branch": null,
            "amenity": "spices",
            "mobile": null,
            "addr:street": "Fatih caddesi",
            "cuisine": null,
            "name": "Kurukahveci salim efendi",
            "name:en": null,
            "name:uk": null,
            "name:de": null,
            "name:tr": null,
            "name:ru": null,
            "name:ar": "كوروكاهفاجى سليم افندي"
        }
    },
    {
        "lat": 41.0204548,
        "lon": 28.9486682,
        "tags": {
            "addr:city": "Istanbul",
            "addr:district": "Fatih",
            "description": "",
            "opening_hours": null,
            "phone": null,
            "branch": null,
            "amenity": "spices",
            "mobile": null,
            "addr:street": "Fatih caddesi",
            "cuisine": null,
            "name": "Malata baharatcısı",
            "name:en": null,
            "name:uk": null,
            "name:de": null,
            "name:tr": null,
            "name:ru": null,
            "name:ar": "بهارات ملطه"
        }
    },
    {
        "lat": 41.0201871,
        "lon": 28.9481511,
        "tags": {
            "addr:city": "Istanbul",
            "addr:district": "Fatih",
            "description": "",
            "opening_hours": null,
            "phone": null,
            "branch": null,
            "amenity": "spices",
            "mobile": null,
            "addr:street": "Islambol caddesi",
            "cuisine": null,
            "name": "şam şerif",
            "name:en": null,
            "name:uk": null,
            "name:de": null,
            "name:tr": null,
            "name:ru": null,
            "name:ar": "شام شريف"
        }
    },
    {
        "lat": 41.020836,
        "lon": 28.9491269,
        "tags": {
            "addr:city": "Istanbul",
            "addr:district": "Fatih",
            "description": "",
            "opening_hours": null,
            "phone": null,
            "branch": null,
            "amenity": "spices",
            "mobile": null,
            "addr:street": "Darüşşafaka caddesi",
            "cuisine": null,
            "name": "Şam kahvesi",
            "name:en": null,
            "name:uk": null,
            "name:de": null,
            "name:tr": null,
            "name:ru": null,
            "name:ar": "بن الشام"
        }
    },
    {
        "lat": 41.0217434,
        "lon": 28.9481117,
        "tags": {
            "addr:city": "Istanbul",
            "addr:district": "Fatih",
            "description": "",
            "opening_hours": null,
            "phone": null,
            "branch": null,
            "amenity": "spices",
            "mobile": null,
            "addr:street": "Başmüezzin sokak",
            "cuisine": null,
            "name": "Acve hurma pazarı",
            "name:en": null,
            "name:uk": null,
            "name:de": null,
            "name:tr": null,
            "name:ru": null,
            "name:ar": "اجفر هوركى بازارى"
        }
    },
    {
        "lat": 41.0225956,
        "lon": 28.9470243,
        "tags": {
            "addr:city": "Istanbul",
            "addr:district": "Fatih",
            "description": "",
            "opening_hours": null,
            "phone": null,
            "branch": null,
            "amenity": "spices",
            "mobile": null,
            "addr:street": "Fatih caddesi",
            "cuisine": null,
            "name": "Şam balı",
            "name:en": null,
            "name:uk": null,
            "name:de": null,
            "name:tr": null,
            "name:ru": null,
            "name:ar": "عسل الشام"
        }
    },
    {
        "lat": 41.0223933,
        "lon": 28.9472322,
        "tags": {
            "addr:city": "Istanbul",
            "addr:district": "Fatih",
            "description": "",
            "opening_hours": null,
            "phone": null,
            "branch": null,
            "amenity": "spices",
            "mobile": null,
            "addr:street": "Fatih caddesi",
            "cuisine": null,
            "name": "Alp baharat",
            "name:en": null,
            "name:uk": null,
            "name:de": null,
            "name:tr": null,
            "name:ru": null,
            "name:ar": "بهارات الب"
        }
    },
    {
        "lat": 41.0213341,
        "lon": 28.9481199,
        "tags": {
            "addr:city": "Istanbul",
            "addr:district": "Fatih",
            "description": "",
            "opening_hours": null,
            "phone": null,
            "branch": null,
            "amenity": "spices",
            "mobile": null,
            "addr:street": "Fatih caddesi",
            "cuisine": null,
            "name": "Temel baharat",
            "name:en": null,
            "name:uk": null,
            "name:de": null,
            "name:tr": null,
            "name:ru": null,
            "name:ar": "تيمل بهارات"
        }
    },
    {
        "lat": 41.0210556,
        "lon": 28.948288,
        "tags": {
            "addr:city": "Istanbul",
            "addr:district": "Fatih",
            "description": "",
            "opening_hours": null,
            "phone": null,
            "branch": null,
            "amenity": "spices",
            "mobile": null,
            "addr:street": "Fatih caddesi",
            "cuisine": null,
            "name": "Mim bal",
            "name:en": null,
            "name:uk": null,
            "name:de": null,
            "name:tr": null,
            "name:ru": null,
            "name:ar": "عسل ميم"
        }
    },
    {
        "lat": 41.0208937,
        "lon": 28.948245,
        "tags": {
            "addr:city": "Istanbul",
            "addr:district": "Fatih",
            "description": "",
            "opening_hours": null,
            "phone": null,
            "branch": null,
            "amenity": "spices",
            "mobile": null,
            "addr:street": "Fatih caddesi",
            "cuisine": null,
            "name": "Aksa bal ve baharat",
            "name:en": null,
            "name:uk": null,
            "name:de": null,
            "name:tr": null,
            "name:ru": null,
            "name:ar": "عسل وبهارات اقصى"
        }
    },
    {
        "lat": 41.0206553,
        "lon": 28.9487103,
        "tags": {
            "addr:city": "Istanbul",
            "addr:district": "Fatih",
            "description": "",
            "opening_hours": null,
            "phone": null,
            "branch": null,
            "amenity": "spices",
            "mobile": null,
            "addr:street": "Feraizci sokak",
            "cuisine": null,
            "name": "Çerezcim",
            "name:en": null,
            "name:uk": null,
            "name:de": null,
            "name:tr": null,
            "name:ru": null,
            "name:ar": "جيريزجيم"
        }
    },
    {
        "lat": 41.0206901,
        "lon": 28.9489316,
        "tags": {
            "addr:city": "Istanbul",
            "addr:district": "Fatih",
            "description": "",
            "opening_hours": null,
            "phone": null,
            "branch": null,
            "amenity": "spices",
            "mobile": null,
            "addr:street": "Feraizci sokak",
            "cuisine": null,
            "name": "Malatya",
            "name:en": null,
            "name:uk": null,
            "name:de": null,
            "name:tr": null,
            "name:ru": null,
            "name:ar": "مالاطيا"
        }
    },
    {
        "lat": 41.0214179,
        "lon": 28.9479513,
        "tags": {
            "addr:city": "Istanbul",
            "addr:district": "Fatih",
            "description": "",
            "opening_hours": null,
            "phone": null,
            "branch": null,
            "amenity": "spices",
            "mobile": null,
            "addr:street": "Fatih caddesi",
            "cuisine": null,
            "name": "Zaman kuruyemiş ve baharat",
            "name:en": null,
            "name:uk": null,
            "name:de": null,
            "name:tr": null,
            "name:ru": null,
            "name:ar": "زمان كورويميش في بهارات"
        }
    },
    {
        "lat": 41.0081909,
        "lon": 28.9732334,
        "tags": {
            "addr:city": "Istanbul",
            "addr:district": "Fatih",
            "description": "",
            "opening_hours": null,
            "phone": null,
            "branch": null,
            "amenity": "spices",
            "mobile": null,
            "addr:street": "Divan yolu caddesi",
            "cuisine": null,
            "name": "Ramazan canbaz",
            "name:en": null,
            "name:uk": null,
            "name:de": null,
            "name:tr": null,
            "name:ru": null,
            "name:ar": null
        }
    },
    {
        "lat": 41.0080649,
        "lon": 28.9742437,
        "tags": {
            "addr:city": "Istanbul",
            "addr:district": "Fatih",
            "description": "",
            "opening_hours": null,
            "phone": null,
            "branch": null,
            "amenity": "spices",
            "mobile": null,
            "addr:street": "Divan yolu caddesi",
            "cuisine": null,
            "name": "Jasmine",
            "name:en": null,
            "name:uk": null,
            "name:de": null,
            "name:tr": null,
            "name:ru": null,
            "name:ar": null
        }
    },
    {
        "lat": 41.0267358,
        "lon": 28.9375427,
        "tags": {
            "addr:city": "Istanbul",
            "addr:district": "Fatih",
            "description": "",
            "opening_hours": null,
            "phone": null,
            "branch": null,
            "amenity": "spices",
            "mobile": null,
            "addr:street": "Prof. naci şensoy caddesi",
            "cuisine": null,
            "name": "Zad alhayr",
            "name:en": null,
            "name:uk": null,
            "name:de": null,
            "name:tr": null,
            "name:ru": null,
            "name:ar": "زاد الخير"
        }
    },
    {
        "lat": 41.0268381,
        "lon": 28.9388016,
        "tags": {
            "addr:city": "Istanbul",
            "addr:district": "Fatih",
            "description": "",
            "opening_hours": null,
            "phone": null,
            "branch": null,
            "amenity": "spices",
            "mobile": null,
            "addr:street": "Türkistan sokak",
            "cuisine": null,
            "name": "Albaşa",
            "name:en": null,
            "name:uk": null,
            "name:de": null,
            "name:tr": null,
            "name:ru": null,
            "name:ar": "الباشا"
        }
    },
    {
        "lat": 41.0264113,
        "lon": 28.9418899,
        "tags": {
            "addr:city": "Istanbul",
            "addr:district": "Fatih",
            "description": "",
            "opening_hours": null,
            "phone": null,
            "branch": null,
            "amenity": "spices",
            "mobile": null,
            "addr:street": "Nurettin tekke Sokak",
            "cuisine": null,
            "name": "Işık baharat",
            "name:en": null,
            "name:uk": null,
            "name:de": null,
            "name:tr": null,
            "name:ru": null,
            "name:ar": "اشك بهارات"
        }
    },
    {
        "lat": 41.009349,
        "lon": 28.9669005,
        "tags": {
            "addr:city": "Istanbul",
            "addr:district": "Fatih",
            "description": "",
            "opening_hours": null,
            "phone": "02125222532",
            "branch": null,
            "amenity": "spices",
            "mobile": null,
            "addr:street": "Çarşıkapı Caddesi",
            "cuisine": null,
            "name": "Ramazan Canbaz",
            "name:en": null,
            "name:uk": null,
            "name:de": null,
            "name:tr": null,
            "name:ru": null,
            "name:ar": "رمضان جنباز للبهارات"
        }
    },
    {
        "lat": 41.0032682,
        "lon": 28.930226,
        "tags": {
            "addr:city": "Istanbul",
            "addr:district": "Fatih",
            "description": "",
            "opening_hours": null,
            "phone": null,
            "branch": null,
            "amenity": "spices",
            "mobile": null,
            "addr:street": "Kocamustafapaşa Caddesi",
            "cuisine": null,
            "name": "Baharat Dünyası",
            "name:en": null,
            "name:uk": null,
            "name:de": null,
            "name:tr": null,
            "name:ru": null,
            "name:ar": "عالم البهارات"
        }
    },
    {
        "lat": 41.0092903,
        "lon": 28.9306484,
        "tags": {
            "addr:city": "Istanbul",
            "addr:district": "Fatih",
            "description": "",
            "opening_hours": null,
            "phone": "02125878905",
            "branch": null,
            "amenity": "spices",
            "mobile": null,
            "addr:street": "Altımermer Caddesi",
            "cuisine": null,
            "name": "Furkan Baharat",
            "name:en": null,
            "name:uk": null,
            "name:de": null,
            "name:tr": null,
            "name:ru": null,
            "name:ar": "فرقان للبهارات"
        }
    },
    {
        "lat": 41.003824,
        "lon": 28.9714648,
        "tags": {
            "addr:city": "Istanbul",
            "addr:district": "Fatih",
            "description": "",
            "opening_hours": null,
            "phone": null,
            "branch": null,
            "amenity": "spices",
            "mobile": null,
            "addr:street": "Kadırga Limanı Caddesi",
            "cuisine": null,
            "name": "Kizilirmak Spice Shop",
            "name:en": null,
            "name:uk": null,
            "name:de": null,
            "name:tr": null,
            "name:ru": null,
            "name:ar": "كيزيلرماك سبايس شوب"
        }
    },
    {
        "lat": 41.1024594,
        "lon": 28.8646338,
        "tags": {
            "addr:city": "İstanbul",
            "addr:district": null,
            "description": "",
            "opening_hours": null,
            "phone": null,
            "branch": null,
            "amenity": "spices",
            "mobile": null,
            "addr:street": null,
            "cuisine": null,
            "name": "Gözde Kuruyemiş",
            "name:en": null,
            "name:uk": null,
            "name:de": null,
            "name:tr": null,
            "name:ru": null,
            "name:ar": null
        }
    },
    {
        "lat": 40.9760456,
        "lon": 29.2661646,
        "tags": {
            "addr:city": "Istanbul",
            "addr:district": "Sultanbeyli",
            "description": "",
            "opening_hours": "24/7",
            "phone": null,
            "branch": null,
            "amenity": "spices",
            "mobile": null,
            "addr:street": "Biberlik Caddesi",
            "cuisine": null,
            "name": "Kadir Baharat Şifa Bahçesi",
            "name:en": null,
            "name:uk": null,
            "name:de": null,
            "name:tr": null,
            "name:ru": null,
            "name:ar": "بهارات وأعشاب"
        }
    },
    {
        "lat": 40.965342,
        "lon": 29.2687105,
        "tags": {
            "addr:city": "Istanbul",
            "addr:district": "Sultanbeyli",
            "description": "",
            "opening_hours": "Mo-Fr 07:00-13:30; Mo-Fr 17:00-20:00",
            "phone": "02163985126",
            "branch": null,
            "amenity": "spices",
            "mobile": null,
            "addr:street": "Şanlıurfa caddesi",
            "cuisine": null,
            "name": "Aksis",
            "name:en": null,
            "name:uk": null,
            "name:de": null,
            "name:tr": null,
            "name:ru": null,
            "name:ar": "بهارات اكسيس"
        }
    },
    {
        "lat": 40.9650828,
        "lon": 29.2689466,
        "tags": {
            "addr:city": "Istanbul",
            "addr:district": "Sultanbeyli",
            "description": "",
            "opening_hours": "Mo-Fr 07:00-13:30; Mo-Fr 17:00-20:00",
            "phone": "02164198990",
            "branch": null,
            "amenity": "spices",
            "mobile": null,
            "addr:street": "Şanlıurfa caddesi",
            "cuisine": null,
            "name": "Çimenler baharat",
            "name:en": null,
            "name:uk": null,
            "name:de": null,
            "name:tr": null,
            "name:ru": null,
            "name:ar": "بهارات تشيمانلار"
        }
    },
    {
        "lat": 40.9645481,
        "lon": 29.2653846,
        "tags": {
            "addr:city": "Istanbul",
            "addr:district": "Sultanbeyli",
            "description": "",
            "opening_hours": "Mo-Fr 07:00-13:30; Mo-Fr 17:00-20:00",
            "phone": "02164961300",
            "branch": null,
            "amenity": "spices",
            "mobile": null,
            "addr:street": "Cami caddesi",
            "cuisine": null,
            "name": "Osman aktar baharat",
            "name:en": null,
            "name:uk": null,
            "name:de": null,
            "name:tr": null,
            "name:ru": null,
            "name:ar": "توابل وبهارات عثمان اكتر"
        }
    },
    {
        "lat": 40.9675214,
        "lon": 29.2594245,
        "tags": {
            "addr:city": "Istanbul",
            "addr:district": "Sultanbeyli",
            "description": "",
            "opening_hours": "Mo-Fr 07:00-13:30; Mo-Fr 17:00-20:00",
            "phone": "02164960577",
            "branch": null,
            "amenity": "spices",
            "mobile": null,
            "addr:street": "Şanlıurfa Caddesi",
            "cuisine": null,
            "name": "Çamluk",
            "name:en": null,
            "name:uk": null,
            "name:de": null,
            "name:tr": null,
            "name:ru": null,
            "name:ar": "بهارات شاملوك"
        }
    },
    {
        "lat": 40.9859401,
        "lon": 29.276762,
        "tags": {
            "addr:city": "Istanbul",
            "addr:district": "Sultanbeyli",
            "description": "",
            "opening_hours": "Mo-Fr 07:00-13:30; Mo-Fr 17:00-20:00",
            "phone": "02164597232",
            "branch": null,
            "amenity": "spices",
            "mobile": null,
            "addr:street": "ilham sokağı",
            "cuisine": null,
            "name": "Yemen",
            "name:en": null,
            "name:uk": null,
            "name:de": null,
            "name:tr": null,
            "name:ru": null,
            "name:ar": "بهارات يمن"
        }
    },
    {
        "lat": 41.006277,
        "lon": 28.9055785,
        "tags": {
            "addr:city": "Istanbul",
            "addr:district": "Zeytinburnu",
            "description": "",
            "opening_hours": null,
            "phone": null,
            "branch": null,
            "amenity": "spices",
            "mobile": null,
            "addr:street": "G-24 sk",
            "cuisine": null,
            "name": "hacı bey",
            "name:en": null,
            "name:uk": null,
            "name:de": null,
            "name:tr": null,
            "name:ru": null,
            "name:ar": "حجي بي"
        }
    },
    {
        "lat": 40.99176,
        "lon": 28.9047044,
        "tags": {
            "addr:city": "Istanbul",
            "addr:district": "Zeytinburnu",
            "description": "",
            "opening_hours": null,
            "phone": null,
            "branch": null,
            "amenity": "spices",
            "mobile": null,
            "addr:street": "48. sokak",
            "cuisine": null,
            "name": "Altunbey",
            "name:en": null,
            "name:uk": null,
            "name:de": null,
            "name:tr": null,
            "name:ru": null,
            "name:ar": "السيد الطون"
        }
    },
    {
        "lat": 40.9896274,
        "lon": 28.904169,
        "tags": {
            "addr:city": "Istanbul",
            "addr:district": "Zeytinburnu",
            "description": "",
            "opening_hours": null,
            "phone": null,
            "branch": null,
            "amenity": "spices",
            "mobile": null,
            "addr:street": "Sht komseri Gunaydin caddesi",
            "cuisine": null,
            "name": "Sumbul efendi",
            "name:en": null,
            "name:uk": null,
            "name:de": null,
            "name:tr": null,
            "name:ru": null,
            "name:ar": "سومبول افندي"
        }
    },
    {
        "lat": 40.9857081,
        "lon": 28.902729,
        "tags": {
            "addr:city": "Istanbul",
            "addr:district": "Zeytinburnu",
            "description": "",
            "opening_hours": null,
            "phone": null,
            "branch": null,
            "amenity": "spices",
            "mobile": null,
            "addr:street": "14. Sokak",
            "cuisine": null,
            "name": "Komşu Kapısı",
            "name:en": null,
            "name:uk": null,
            "name:de": null,
            "name:tr": null,
            "name:ru": null,
            "name:ar": "باب الجيران"
        }
    },
    {
        "lat": 40.9938334,
        "lon": 28.905695,
        "tags": {
            "addr:city": "Istanbul",
            "addr:district": "Zeytinburnu",
            "description": "",
            "opening_hours": null,
            "phone": null,
            "branch": null,
            "amenity": "spices",
            "mobile": null,
            "addr:street": "48. sokak",
            "cuisine": null,
            "name": "CAN AKTAR",
            "name:en": null,
            "name:uk": null,
            "name:de": null,
            "name:tr": null,
            "name:ru": null,
            "name:ar": "جان اكتار"
        }
    },
    {
        "lat": 40.9907789,
        "lon": 28.9062456,
        "tags": {
            "addr:city": "Istanbul",
            "addr:district": "Zeytinburnu",
            "description": "",
            "opening_hours": null,
            "phone": null,
            "branch": null,
            "amenity": "spices",
            "mobile": null,
            "addr:street": "mektepönü sokak",
            "cuisine": null,
            "name": "DORUK",
            "name:en": null,
            "name:uk": null,
            "name:de": null,
            "name:tr": null,
            "name:ru": null,
            "name:ar": "دوروك"
        }
    },
    {
        "lat": 40.9943897,
        "lon": 28.9102392,
        "tags": {
            "addr:city": "Istanbul",
            "addr:district": "Zeytinburnu",
            "description": "",
            "opening_hours": null,
            "phone": null,
            "branch": null,
            "amenity": "spices",
            "mobile": null,
            "addr:street": "pro. Muammer Aksoy Cd",
            "cuisine": null,
            "name": "Osmanoğluları",
            "name:en": null,
            "name:uk": null,
            "name:de": null,
            "name:tr": null,
            "name:ru": null,
            "name:ar": "العثمانيون"
        }
    },
    {
        "lat": 41.0531236,
        "lon": 28.8383934,
        "tags": {
            "addr:city": "Istanbul",
            "addr:district": "Bağcılar",
            "description": "",
            "opening_hours": null,
            "phone": null,
            "branch": null,
            "amenity": "spices",
            "mobile": null,
            "addr:street": "velioğlu caddesi",
            "cuisine": null,
            "name": "şifa aktar",
            "name:en": null,
            "name:uk": null,
            "name:de": null,
            "name:tr": null,
            "name:ru": null,
            "name:ar": "محل الشفاء"
        }
    },
    {
        "lat": 41.049072,
        "lon": 28.8459517,
        "tags": {
            "addr:city": "Istanbul",
            "addr:district": "Bağcılar",
            "description": "",
            "opening_hours": null,
            "phone": null,
            "branch": null,
            "amenity": "spices",
            "mobile": null,
            "addr:street": null,
            "cuisine": null,
            "name": "Bahat baharat",
            "name:en": null,
            "name:uk": null,
            "name:de": null,
            "name:tr": null,
            "name:ru": null,
            "name:ar": "بهات للتوابل والبهارات"
        }
    },
    {
        "lat": 41.0546361,
        "lon": 28.8464695,
        "tags": {
            "addr:city": "Istanbul",
            "addr:district": "Bağcılar",
            "description": "",
            "opening_hours": null,
            "phone": null,
            "branch": null,
            "amenity": "spices",
            "mobile": null,
            "addr:street": null,
            "cuisine": null,
            "name": "Mahsul baharat",
            "name:en": null,
            "name:uk": null,
            "name:de": null,
            "name:tr": null,
            "name:ru": null,
            "name:ar": "محصول للبهارات"
        }
    },
    {
        "lat": 41.0616016,
        "lon": 28.8511686,
        "tags": {
            "addr:city": "Istanbul",
            "addr:district": "Bağcılar",
            "description": "",
            "opening_hours": null,
            "phone": null,
            "branch": null,
            "amenity": "spices",
            "mobile": null,
            "addr:street": "Veysel karani caddesi",
            "cuisine": null,
            "name": "Malatya",
            "name:en": null,
            "name:uk": null,
            "name:de": null,
            "name:tr": null,
            "name:ru": null,
            "name:ar": "مالاطيا"
        }
    },
    {
        "lat": 41.0535295,
        "lon": 28.8381476,
        "tags": {
            "addr:city": "Istanbul",
            "addr:district": "Bağcılar",
            "description": "",
            "opening_hours": null,
            "phone": null,
            "branch": null,
            "amenity": "spices",
            "mobile": null,
            "addr:street": "velioğlu caddesi",
            "cuisine": null,
            "name": "güven",
            "name:en": null,
            "name:uk": null,
            "name:de": null,
            "name:tr": null,
            "name:ru": null,
            "name:ar": "الثقة"
        }
    },
    {
        "lat": 41.0525956,
        "lon": 28.8496169,
        "tags": {
            "addr:city": "Istanbul",
            "addr:district": "Zeytinburnu",
            "description": "",
            "opening_hours": null,
            "phone": null,
            "branch": null,
            "amenity": "spices",
            "mobile": null,
            "addr:street": null,
            "cuisine": null,
            "name": "Harman",
            "name:en": null,
            "name:uk": null,
            "name:de": null,
            "name:tr": null,
            "name:ru": null,
            "name:ar": "هارمان"
        }
    },
    {
        "lat": 41.0634747,
        "lon": 28.8542381,
        "tags": {
            "addr:city": "Istanbul",
            "addr:district": "Bağcılar",
            "description": "",
            "opening_hours": null,
            "phone": null,
            "branch": null,
            "amenity": "spices",
            "mobile": null,
            "addr:street": "Pazar Sokak",
            "cuisine": null,
            "name": "Borlu Gıda",
            "name:en": null,
            "name:uk": null,
            "name:de": null,
            "name:tr": null,
            "name:ru": null,
            "name:ar": "بورلو غذاء"
        }
    },
    {
        "lat": 41.0311183,
        "lon": 28.8295985,
        "tags": {
            "addr:city": "Istanbul",
            "addr:district": "Bağcılar",
            "description": "",
            "opening_hours": null,
            "phone": null,
            "branch": null,
            "amenity": "spices",
            "mobile": null,
            "addr:street": "Cumhuriyet Caddesi",
            "cuisine": null,
            "name": "Makbul",
            "name:en": null,
            "name:uk": null,
            "name:de": null,
            "name:tr": null,
            "name:ru": null,
            "name:ar": "مقبول"
        }
    },
    {
        "lat": 41.0448761,
        "lon": 28.8350473,
        "tags": {
            "addr:city": "Istanbul",
            "addr:district": "Bağcılar",
            "description": "",
            "opening_hours": null,
            "phone": null,
            "branch": null,
            "amenity": "spices",
            "mobile": null,
            "addr:street": "Bağcılar Asf. Caddesi",
            "cuisine": null,
            "name": "Aktar",
            "name:en": null,
            "name:uk": null,
            "name:de": null,
            "name:tr": null,
            "name:ru": null,
            "name:ar": "اكتار"
        }
    },
    {
        "lat": 41.040425,
        "lon": 28.8446915,
        "tags": {
            "addr:city": "Istanbul",
            "addr:district": "Bağcılar",
            "description": "",
            "opening_hours": null,
            "phone": null,
            "branch": null,
            "amenity": "spices",
            "mobile": null,
            "addr:street": "Turna sokak",
            "cuisine": null,
            "name": "Elif baharat",
            "name:en": null,
            "name:uk": null,
            "name:de": null,
            "name:tr": null,
            "name:ru": null,
            "name:ar": "اليف بهارات"
        }
    },
    {
        "lat": 41.0431439,
        "lon": 28.8477845,
        "tags": {
            "addr:city": "Istanbul",
            "addr:district": null,
            "description": "",
            "opening_hours": null,
            "phone": "6563602",
            "branch": null,
            "amenity": "spices",
            "mobile": null,
            "addr:street": "Birlik Caddesi",
            "cuisine": null,
            "name": "KERVAN 2 BAHARAT",
            "name:en": null,
            "name:uk": null,
            "name:de": null,
            "name:tr": null,
            "name:ru": null,
            "name:ar": "كارفان ٢ باهارات"
        }
    },
    {
        "lat": 41.0392408,
        "lon": 28.8410487,
        "tags": {
            "addr:city": "Istanbul",
            "addr:district": "Bağcılar",
            "description": "",
            "opening_hours": null,
            "phone": null,
            "branch": null,
            "amenity": "spices",
            "mobile": null,
            "addr:street": "Tavukcu kopru caddesi",
            "cuisine": null,
            "name": "Kalite Baharat",
            "name:en": null,
            "name:uk": null,
            "name:de": null,
            "name:tr": null,
            "name:ru": null,
            "name:ar": "كليتا بهارات"
        }
    },
    {
        "lat": 41.0406438,
        "lon": 28.8581898,
        "tags": {
            "addr:city": "Istanbul",
            "addr:district": null,
            "description": "",
            "opening_hours": null,
            "phone": null,
            "branch": null,
            "amenity": "spices",
            "mobile": null,
            "addr:street": "Fatih Caddesi",
            "cuisine": null,
            "name": "BALBADEM",
            "name:en": null,
            "name:uk": null,
            "name:de": null,
            "name:tr": null,
            "name:ru": null,
            "name:ar": null
        }
    },
    {
        "lat": 40.9784928,
        "lon": 28.8743002,
        "tags": {
            "addr:city": "İstanbul",
            "addr:district": null,
            "description": "",
            "opening_hours": null,
            "phone": null,
            "branch": null,
            "amenity": "spices",
            "mobile": null,
            "addr:street": null,
            "cuisine": null,
            "name": "Tuğba",
            "name:en": null,
            "name:uk": null,
            "name:de": null,
            "name:tr": null,
            "name:ru": null,
            "name:ar": null
        }
    },
    {
        "lat": 41.137286,
        "lon": 29.0862078,
        "tags": {
            "addr:city": "İstanbul",
            "addr:district": null,
            "description": "",
            "opening_hours": null,
            "phone": null,
            "branch": null,
            "amenity": "spices",
            "mobile": null,
            "addr:street": null,
            "cuisine": null,
            "name": "Aktar Ambalaj",
            "name:en": null,
            "name:uk": null,
            "name:de": null,
            "name:tr": null,
            "name:ru": null,
            "name:ar": null
        }
    },
    {
        "lat": 41.0149166,
        "lon": 28.8897207,
        "tags": {
            "addr:city": "İstanbul",
            "addr:district": null,
            "description": "",
            "opening_hours": null,
            "phone": null,
            "branch": null,
            "amenity": "spices",
            "mobile": null,
            "addr:street": null,
            "cuisine": null,
            "name": "Anadolu Pazarı",
            "name:en": null,
            "name:uk": null,
            "name:de": null,
            "name:tr": null,
            "name:ru": null,
            "name:ar": null
        }
    },
    {
        "lat": 41.0471516,
        "lon": 28.9331667,
        "tags": {
            "addr:city": "İstanbul",
            "addr:district": null,
            "description": "",
            "opening_hours": null,
            "phone": null,
            "branch": null,
            "amenity": "spices",
            "mobile": null,
            "addr:street": null,
            "cuisine": null,
            "name": "Tarihi Lokman Baharat",
            "name:en": null,
            "name:uk": null,
            "name:de": null,
            "name:tr": null,
            "name:ru": null,
            "name:ar": null
        }
    },
    {
        "lat": 41.0474622,
        "lon": 28.9329348,
        "tags": {
            "addr:city": "İstanbul",
            "addr:district": null,
            "description": "",
            "opening_hours": null,
            "phone": null,
            "branch": null,
            "amenity": "spices",
            "mobile": null,
            "addr:street": null,
            "cuisine": null,
            "name": "Osmanlı Baharat",
            "name:en": null,
            "name:uk": null,
            "name:de": null,
            "name:tr": null,
            "name:ru": null,
            "name:ar": null
        }
    },
    {
        "lat": 40.8889436,
        "lon": 29.1887743,
        "tags": {
            "addr:city": "İstanbul",
            "addr:district": null,
            "description": "",
            "opening_hours": null,
            "phone": null,
            "branch": null,
            "amenity": "spices",
            "mobile": null,
            "addr:street": null,
            "cuisine": null,
            "name": "Bayram Baharat & Aktariye",
            "name:en": null,
            "name:uk": null,
            "name:de": null,
            "name:tr": null,
            "name:ru": null,
            "name:ar": null
        }
    },
    {
        "lat": 41.0207917,
        "lon": 28.589276,
        "tags": {
            "addr:city": "İstanbul",
            "addr:district": null,
            "description": "",
            "opening_hours": null,
            "phone": null,
            "branch": null,
            "amenity": "spices",
            "mobile": null,
            "addr:street": null,
            "cuisine": null,
            "name": "Rumeli Doğal Ürünler",
            "name:en": null,
            "name:uk": null,
            "name:de": null,
            "name:tr": null,
            "name:ru": null,
            "name:ar": null
        }
    },
    {
        "lat": 40.9585884,
        "lon": 29.0948281,
        "tags": {
            "addr:city": "İstanbul",
            "addr:district": null,
            "description": "",
            "opening_hours": null,
            "phone": null,
            "branch": null,
            "amenity": "spices",
            "mobile": null,
            "addr:street": null,
            "cuisine": null,
            "name": "Tarihi Kozyatağı Baharatçısı",
            "name:en": null,
            "name:uk": null,
            "name:de": null,
            "name:tr": null,
            "name:ru": null,
            "name:ar": null
        }
    },
    {
        "lat": 40.9478727,
        "lon": 29.1069322,
        "tags": {
            "addr:city": "İstanbul",
            "addr:district": null,
            "description": "",
            "opening_hours": null,
            "phone": null,
            "branch": null,
            "amenity": "spices",
            "mobile": null,
            "addr:street": null,
            "cuisine": null,
            "name": "Küçükyalı Baharat",
            "name:en": null,
            "name:uk": null,
            "name:de": null,
            "name:tr": null,
            "name:ru": null,
            "name:ar": null
        }
    },
    {
        "lat": 41.1799121,
        "lon": 28.9907894,
        "tags": {
            "addr:city": "İstanbul",
            "addr:district": null,
            "description": "",
            "opening_hours": null,
            "phone": null,
            "branch": null,
            "amenity": "spices",
            "mobile": null,
            "addr:street": null,
            "cuisine": null,
            "name": "Tan Baharat & Binbir Çeşit",
            "name:en": null,
            "name:uk": null,
            "name:de": null,
            "name:tr": null,
            "name:ru": null,
            "name:ar": null
        }
    },
    {
        "lat": 40.9736968,
        "lon": 29.0753601,
        "tags": {
            "addr:city": "İstanbul",
            "addr:district": "Kadıköy",
            "description": "",
            "opening_hours": null,
            "phone": null,
            "branch": null,
            "amenity": "spices",
            "mobile": null,
            "addr:street": "Hatboyu Sokağı",
            "cuisine": null,
            "name": "Tarihi Eminönü Baharatçısı",
            "name:en": null,
            "name:uk": null,
            "name:de": null,
            "name:tr": null,
            "name:ru": null,
            "name:ar": null
        }
    },
    {
        "lat": 41.073439,
        "lon": 29.0703588,
        "tags": {
            "addr:city": "İstanbul",
            "addr:district": null,
            "description": "",
            "opening_hours": null,
            "phone": null,
            "branch": null,
            "amenity": "spices",
            "mobile": null,
            "addr:street": null,
            "cuisine": null,
            "name": "Ortaçağ Baharat",
            "name:en": null,
            "name:uk": null,
            "name:de": null,
            "name:tr": null,
            "name:ru": null,
            "name:ar": null
        }
    },
    {
        "lat": 41.0175377,
        "lon": 28.9551437,
        "tags": {
            "addr:city": "İstanbul",
            "addr:district": null,
            "description": "",
            "opening_hours": null,
            "phone": null,
            "branch": null,
            "amenity": "spices",
            "mobile": null,
            "addr:street": "Itfaiye Cd.",
            "cuisine": null,
            "name": "Kuruyemis Baharat Bal Peynir",
            "name:en": null,
            "name:uk": null,
            "name:de": null,
            "name:tr": null,
            "name:ru": null,
            "name:ar": null
        }
    },
    {
        "lat": 40.9716031,
        "lon": 29.0972384,
        "tags": {
            "addr:city": "İstanbul",
            "addr:district": null,
            "description": "",
            "opening_hours": null,
            "phone": null,
            "branch": null,
            "amenity": "spices",
            "mobile": null,
            "addr:street": null,
            "cuisine": null,
            "name": "Kozyatağı Baharatçısı",
            "name:en": null,
            "name:uk": null,
            "name:de": null,
            "name:tr": null,
            "name:ru": null,
            "name:ar": null
        }
    },
    {
        "lat": 41.0368072,
        "lon": 28.8198546,
        "tags": {
            "addr:city": "İstanbul",
            "addr:district": null,
            "description": "",
            "opening_hours": null,
            "phone": null,
            "branch": null,
            "amenity": "spices",
            "mobile": null,
            "addr:street": null,
            "cuisine": null,
            "name": "Erhatoğulları Yöresel Ürünler",
            "name:en": null,
            "name:uk": null,
            "name:de": null,
            "name:tr": null,
            "name:ru": null,
            "name:ar": null
        }
    },
    {
        "lat": 40.9678916,
        "lon": 29.0934319,
        "tags": {
            "addr:city": "İstanbul",
            "addr:district": null,
            "description": "",
            "opening_hours": null,
            "phone": null,
            "branch": null,
            "amenity": "spices",
            "mobile": null,
            "addr:street": null,
            "cuisine": null,
            "name": "Tarihi Eminönü Baharatçısı",
            "name:en": null,
            "name:uk": null,
            "name:de": null,
            "name:tr": null,
            "name:ru": null,
            "name:ar": null
        }
    },
    {
        "lat": 40.9896574,
        "lon": 29.0268713,
        "tags": {
            "addr:city": "İstanbul",
            "addr:district": null,
            "description": "",
            "opening_hours": null,
            "phone": null,
            "branch": null,
            "amenity": "spices",
            "mobile": null,
            "addr:street": null,
            "cuisine": null,
            "name": "Safran Doğal Ürunler",
            "name:en": null,
            "name:uk": null,
            "name:de": null,
            "name:tr": null,
            "name:ru": null,
            "name:ar": null
        }
    },
    {
        "lat": 40.9750401,
        "lon": 29.1219296,
        "tags": {
            "addr:city": "İstanbul",
            "addr:district": null,
            "description": "",
            "opening_hours": null,
            "phone": null,
            "branch": null,
            "amenity": "spices",
            "mobile": null,
            "addr:street": null,
            "cuisine": null,
            "name": "Ataşehir Baharatçısı",
            "name:en": null,
            "name:uk": null,
            "name:de": null,
            "name:tr": null,
            "name:ru": null,
            "name:ar": null
        }
    },
    {
        "lat": 40.9248749,
        "lon": 29.1322786,
        "tags": {
            "addr:city": "İstanbul",
            "addr:district": null,
            "description": "",
            "opening_hours": null,
            "phone": null,
            "branch": null,
            "amenity": "spices",
            "mobile": null,
            "addr:street": null,
            "cuisine": null,
            "name": "Sakızağacı Aktar",
            "name:en": null,
            "name:uk": null,
            "name:de": null,
            "name:tr": null,
            "name:ru": null,
            "name:ar": null
        }
    },
    {
        "lat": 40.9247189,
        "lon": 29.1328848,
        "tags": {
            "addr:city": "İstanbul",
            "addr:district": null,
            "description": "",
            "opening_hours": null,
            "phone": null,
            "branch": null,
            "amenity": "spices",
            "mobile": null,
            "addr:street": null,
            "cuisine": null,
            "name": "Kekik Baharat",
            "name:en": null,
            "name:uk": null,
            "name:de": null,
            "name:tr": null,
            "name:ru": null,
            "name:ar": null
        }
    }
]