[
    {
        "lat": 41.0128913,
        "lon": 28.9334444,
        "tags": {
            "addr:city": "İstanbul",
            "addr:district": null,
            "description": "",
            "opening_hours": null,
            "phone": null,
            "branch": null,
            "amenity": "stationery",
            "mobile": null,
            "addr:street": null,
            "cuisine": null,
            "name": "Kırtasiye",
            "name:en": null,
            "name:uk": null,
            "name:de": null,
            "name:tr": null,
            "name:ru": null,
            "name:ar": "قرطاسية"
        }
    },
    {
        "lat": 41.0057295,
        "lon": 29.1388009,
        "tags": {
            "addr:city": "İstanbul",
            "addr:district": null,
            "description": "",
            "opening_hours": null,
            "phone": null,
            "branch": null,
            "amenity": "stationery",
            "mobile": null,
            "addr:street": null,
            "cuisine": null,
            "name": "Öğretmen Kirtasiye",
            "name:en": null,
            "name:uk": null,
            "name:de": null,
            "name:tr": null,
            "name:ru": null,
            "name:ar": null
        }
    },
    {
        "lat": 41.0009185,
        "lon": 29.1449448,
        "tags": {
            "addr:city": "İstanbul",
            "addr:district": null,
            "description": "",
            "opening_hours": null,
            "phone": null,
            "branch": null,
            "amenity": "stationery",
            "mobile": null,
            "addr:street": null,
            "cuisine": null,
            "name": "Nokta",
            "name:en": null,
            "name:uk": null,
            "name:de": null,
            "name:tr": null,
            "name:ru": null,
            "name:ar": null
        }
    },
    {
        "lat": 41.1046884,
        "lon": 29.0211373,
        "tags": {
            "addr:city": "İstanbul",
            "addr:district": null,
            "description": "",
            "opening_hours": null,
            "phone": null,
            "branch": null,
            "amenity": "stationery",
            "mobile": null,
            "addr:street": null,
            "cuisine": null,
            "name": "Mert Fotokopi-Kırtasiye",
            "name:en": null,
            "name:uk": null,
            "name:de": null,
            "name:tr": null,
            "name:ru": null,
            "name:ar": null
        }
    },
    {
        "lat": 40.9921628,
        "lon": 29.1167613,
        "tags": {
            "addr:city": "Istanbul",
            "addr:district": null,
            "description": "",
            "opening_hours": null,
            "phone": null,
            "branch": null,
            "amenity": "stationery",
            "mobile": null,
            "addr:street": "Ataşehir Bulvarı",
            "cuisine": null,
            "name": "Defter Sepeti Kırtasiye",
            "name:en": null,
            "name:uk": null,
            "name:de": null,
            "name:tr": null,
            "name:ru": null,
            "name:ar": null
        }
    },
    {
        "lat": 40.9770278,
        "lon": 29.0972023,
        "tags": {
            "addr:city": "Kadıköy/İstanbul",
            "addr:district": null,
            "description": "",
            "opening_hours": null,
            "phone": null,
            "branch": null,
            "amenity": "stationery",
            "mobile": null,
            "addr:street": null,
            "cuisine": null,
            "name": "Uno Kırtasiye",
            "name:en": null,
            "name:uk": null,
            "name:de": null,
            "name:tr": null,
            "name:ru": null,
            "name:ar": null
        }
    },
    {
        "lat": 41.0368358,
        "lon": 28.6324799,
        "tags": {
            "addr:city": "İstanbul",
            "addr:district": null,
            "description": "",
            "opening_hours": null,
            "phone": null,
            "branch": null,
            "amenity": "stationery",
            "mobile": null,
            "addr:street": null,
            "cuisine": null,
            "name": "Hür Kırtasiye Terzi Kimya Turizm San. Tic. Ltd. Şti.",
            "name:en": null,
            "name:uk": null,
            "name:de": null,
            "name:tr": null,
            "name:ru": null,
            "name:ar": null
        }
    },
    {
        "lat": 41.0508058,
        "lon": 29.0250337,
        "tags": {
            "addr:city": "İstanbul",
            "addr:district": null,
            "description": "",
            "opening_hours": null,
            "phone": null,
            "branch": null,
            "amenity": "stationery",
            "mobile": null,
            "addr:street": null,
            "cuisine": null,
            "name": "Kırtasiye Meva",
            "name:en": null,
            "name:uk": null,
            "name:de": null,
            "name:tr": null,
            "name:ru": null,
            "name:ar": null
        }
    },
    {
        "lat": 41.0077678,
        "lon": 28.5372479,
        "tags": {
            "addr:city": "İstanbul",
            "addr:district": null,
            "description": "",
            "opening_hours": null,
            "phone": null,
            "branch": null,
            "amenity": "stationery",
            "mobile": null,
            "addr:street": null,
            "cuisine": null,
            "name": "Cosmic Kırtasiye",
            "name:en": null,
            "name:uk": null,
            "name:de": null,
            "name:tr": null,
            "name:ru": null,
            "name:ar": null
        }
    },
    {
        "lat": 41.0080297,
        "lon": 28.5367453,
        "tags": {
            "addr:city": "İstanbul",
            "addr:district": null,
            "description": "",
            "opening_hours": null,
            "phone": null,
            "branch": null,
            "amenity": "stationery",
            "mobile": null,
            "addr:street": null,
            "cuisine": null,
            "name": "İrem Kırtasiye",
            "name:en": null,
            "name:uk": null,
            "name:de": null,
            "name:tr": null,
            "name:ru": null,
            "name:ar": null
        }
    },
    {
        "lat": 40.9018169,
        "lon": 29.1831839,
        "tags": {
            "addr:city": "İstanbul",
            "addr:district": null,
            "description": "",
            "opening_hours": null,
            "phone": null,
            "branch": null,
            "amenity": "stationery",
            "mobile": null,
            "addr:street": null,
            "cuisine": null,
            "name": "Umut Kırtasiye",
            "name:en": null,
            "name:uk": null,
            "name:de": null,
            "name:tr": null,
            "name:ru": null,
            "name:ar": null
        }
    },
    {
        "lat": 40.9016177,
        "lon": 29.1832003,
        "tags": {
            "addr:city": "İstanbul",
            "addr:district": null,
            "description": "",
            "opening_hours": null,
            "phone": null,
            "branch": null,
            "amenity": "stationery",
            "mobile": null,
            "addr:street": null,
            "cuisine": null,
            "name": "Ezgi Kırtasiye",
            "name:en": null,
            "name:uk": null,
            "name:de": null,
            "name:tr": null,
            "name:ru": null,
            "name:ar": null
        }
    },
    {
        "lat": 40.9449645,
        "lon": 29.1195976,
        "tags": {
            "addr:city": "İstanbul",
            "addr:district": null,
            "description": "",
            "opening_hours": null,
            "phone": null,
            "branch": null,
            "amenity": "stationery",
            "mobile": null,
            "addr:street": null,
            "cuisine": null,
            "name": "Kırtasiye",
            "name:en": null,
            "name:uk": null,
            "name:de": null,
            "name:tr": null,
            "name:ru": null,
            "name:ar": null
        }
    },
    {
        "lat": 41.0651703,
        "lon": 28.8202134,
        "tags": {
            "addr:city": "İstanbul",
            "addr:district": null,
            "description": "",
            "opening_hours": "Mo-Sa 09:00-18:00",
            "phone": null,
            "branch": null,
            "amenity": "stationery",
            "mobile": null,
            "addr:street": "bağcılar",
            "cuisine": null,
            "name": "Cemşen Toptan Kırtasiye",
            "name:en": "Cemşen Stationery",
            "name:uk": null,
            "name:de": null,
            "name:tr": null,
            "name:ru": null,
            "name:ar": null
        }
    },
    {
        "lat": 41.0042661,
        "lon": 28.9347174,
        "tags": {
            "addr:city": "Istanbul",
            "addr:district": "Fatih",
            "description": "",
            "opening_hours": null,
            "phone": "02125898800",
            "branch": null,
            "amenity": "stationery",
            "mobile": null,
            "addr:street": "Sancaktar Tekkesi Sokak",
            "cuisine": null,
            "name": "Ayhan Kırtasiye",
            "name:en": null,
            "name:uk": null,
            "name:de": null,
            "name:tr": null,
            "name:ru": null,
            "name:ar": "أيهان للقرطاسية"
        }
    },
    {
        "lat": 41.0158196,
        "lon": 28.9275654,
        "tags": {
            "addr:city": "Istanbul",
            "addr:district": "Turkey",
            "description": "",
            "opening_hours": null,
            "phone": null,
            "branch": null,
            "amenity": "stationery",
            "mobile": null,
            "addr:street": "Karanfilli Çavuş Sokağı",
            "cuisine": null,
            "name": "Mavi Kırtasiye",
            "name:en": null,
            "name:uk": null,
            "name:de": null,
            "name:tr": null,
            "name:ru": null,
            "name:ar": "مكتبة مافي"
        }
    },
    {
        "lat": 41.0072223,
        "lon": 28.938135,
        "tags": {
            "addr:city": "Istanbul",
            "addr:district": "Fatih",
            "description": "",
            "opening_hours": null,
            "phone": null,
            "branch": null,
            "amenity": "stationery",
            "mobile": null,
            "addr:street": "Hekimoğlu ali paşa Caddesi",
            "cuisine": null,
            "name": "Şafak kirtasiye",
            "name:en": null,
            "name:uk": null,
            "name:de": null,
            "name:tr": null,
            "name:ru": null,
            "name:ar": "شفق قرطاسية"
        }
    },
    {
        "lat": 41.0285755,
        "lon": 28.938314,
        "tags": {
            "addr:city": "Istanbul",
            "addr:district": "Fatih",
            "description": "",
            "opening_hours": null,
            "phone": null,
            "branch": null,
            "amenity": "stationery",
            "mobile": null,
            "addr:street": "Salma tomruk caddesi",
            "cuisine": null,
            "name": "Fatih tepe kirtasiye",
            "name:en": null,
            "name:uk": null,
            "name:de": null,
            "name:tr": null,
            "name:ru": null,
            "name:ar": "فاتح تبى قرطاسية"
        }
    },
    {
        "lat": 41.029743,
        "lon": 28.937094,
        "tags": {
            "addr:city": "Istanbul",
            "addr:district": "Fatih",
            "description": "",
            "opening_hours": null,
            "phone": null,
            "branch": null,
            "amenity": "stationery",
            "mobile": null,
            "addr:street": "Fevzi paşa Caddesi",
            "cuisine": null,
            "name": "Kitap-kırtasiye",
            "name:en": null,
            "name:uk": null,
            "name:de": null,
            "name:tr": null,
            "name:ru": null,
            "name:ar": "كتاب-قرطاسية"
        }
    },
    {
        "lat": 41.0257233,
        "lon": 28.940773,
        "tags": {
            "addr:city": "Istanbul",
            "addr:district": "Fatih",
            "description": "",
            "opening_hours": null,
            "phone": "02125210172",
            "branch": null,
            "amenity": "stationery",
            "mobile": null,
            "addr:street": "Hasan Fehmi Paşa Caddesi",
            "cuisine": null,
            "name": "Bilgisayar kırtasiye",
            "name:en": null,
            "name:uk": null,
            "name:de": null,
            "name:tr": null,
            "name:ru": null,
            "name:ar": "بيلغيسايار قرطاسية"
        }
    },
    {
        "lat": 41.0257398,
        "lon": 28.9407561,
        "tags": {
            "addr:city": "Istanbul",
            "addr:district": "Fatih",
            "description": "",
            "opening_hours": null,
            "phone": null,
            "branch": null,
            "amenity": "stationery",
            "mobile": null,
            "addr:street": "Hasan Fehmi Paşa Caddesi",
            "cuisine": null,
            "name": "Kırtasiye",
            "name:en": null,
            "name:uk": null,
            "name:de": null,
            "name:tr": null,
            "name:ru": null,
            "name:ar": "قرطاسية"
        }
    },
    {
        "lat": 41.0263162,
        "lon": 28.9406812,
        "tags": {
            "addr:city": "Istanbul",
            "addr:district": "Fatih",
            "description": "",
            "opening_hours": null,
            "phone": null,
            "branch": null,
            "amenity": "stationery",
            "mobile": null,
            "addr:street": "Canfeda cami Sokak",
            "cuisine": null,
            "name": "Cafe",
            "name:en": null,
            "name:uk": null,
            "name:de": null,
            "name:tr": null,
            "name:ru": null,
            "name:ar": "مقهى"
        }
    },
    {
        "lat": 41.0301806,
        "lon": 28.9400208,
        "tags": {
            "addr:city": "Istanbul",
            "addr:district": "Fatih",
            "description": "",
            "opening_hours": null,
            "phone": null,
            "branch": null,
            "amenity": "stationery",
            "mobile": null,
            "addr:street": "Slama tomruk Caddesi",
            "cuisine": null,
            "name": "Fırat kırtasiye",
            "name:en": null,
            "name:uk": null,
            "name:de": null,
            "name:tr": null,
            "name:ru": null,
            "name:ar": "فرات قرطاسية"
        }
    },
    {
        "lat": 41.0266979,
        "lon": 28.9421417,
        "tags": {
            "addr:city": "Istanbul",
            "addr:district": "Fatih",
            "description": "",
            "opening_hours": null,
            "phone": null,
            "branch": null,
            "amenity": "stationery",
            "mobile": null,
            "addr:street": "Drman çukru sokak",
            "cuisine": null,
            "name": "Gül kırtasiye",
            "name:en": null,
            "name:uk": null,
            "name:de": null,
            "name:tr": null,
            "name:ru": null,
            "name:ar": "غول قرطاسية"
        }
    },
    {
        "lat": 41.0079705,
        "lon": 28.9313304,
        "tags": {
            "addr:city": "Istanbul",
            "addr:district": "Fatih",
            "description": "",
            "opening_hours": null,
            "phone": null,
            "branch": null,
            "amenity": "stationery",
            "mobile": null,
            "addr:street": "Altımermer Caddesi",
            "cuisine": null,
            "name": "Seçkin Kırtasiye",
            "name:en": null,
            "name:uk": null,
            "name:de": null,
            "name:tr": null,
            "name:ru": null,
            "name:ar": "سيتشكن للقرطاسية"
        }
    },
    {
        "lat": 41.0107105,
        "lon": 28.9377621,
        "tags": {
            "addr:city": "Istanbul",
            "addr:district": "Fatih",
            "description": "",
            "opening_hours": null,
            "phone": null,
            "branch": null,
            "amenity": "stationery",
            "mobile": null,
            "addr:street": "Şair mehmet emin sokak",
            "cuisine": null,
            "name": "Kırtasiye",
            "name:en": null,
            "name:uk": null,
            "name:de": null,
            "name:tr": null,
            "name:ru": null,
            "name:ar": "قرطاسية"
        }
    },
    {
        "lat": 41.0106195,
        "lon": 28.9377611,
        "tags": {
            "addr:city": "Istanbul",
            "addr:district": "Fatih",
            "description": "",
            "opening_hours": null,
            "phone": null,
            "branch": null,
            "amenity": "stationery",
            "mobile": null,
            "addr:street": "Şair mehmet emin sokak",
            "cuisine": null,
            "name": "Güneş Kırtasiye",
            "name:en": null,
            "name:uk": null,
            "name:de": null,
            "name:tr": null,
            "name:ru": null,
            "name:ar": "غونش للقرطاسية"
        }
    },
    {
        "lat": 41.0190637,
        "lon": 28.9466219,
        "tags": {
            "addr:city": "Istanbul",
            "addr:district": "Fatih",
            "description": "",
            "opening_hours": null,
            "phone": null,
            "branch": null,
            "amenity": "stationery",
            "mobile": null,
            "addr:street": "Akdeniz Caddesi",
            "cuisine": null,
            "name": "TK Kırtasiye",
            "name:en": null,
            "name:uk": null,
            "name:de": null,
            "name:tr": null,
            "name:ru": null,
            "name:ar": "تي كي قرطاسية"
        }
    },
    {
        "lat": 41.020578,
        "lon": 28.9422369,
        "tags": {
            "addr:city": "Istanbul",
            "addr:district": "Turkey",
            "description": "",
            "opening_hours": null,
            "phone": null,
            "branch": null,
            "amenity": "stationery",
            "mobile": null,
            "addr:street": "MÜTERCIM ASIM cadde",
            "cuisine": null,
            "name": "Kemal Ajans",
            "name:en": null,
            "name:uk": null,
            "name:de": null,
            "name:tr": null,
            "name:ru": null,
            "name:ar": "كمال أجانس"
        }
    },
    {
        "lat": 41.0413747,
        "lon": 29.178934,
        "tags": {
            "addr:city": "İstanbul",
            "addr:district": null,
            "description": "",
            "opening_hours": null,
            "phone": null,
            "branch": null,
            "amenity": "stationery",
            "mobile": null,
            "addr:street": null,
            "cuisine": null,
            "name": "Beyaz Kırtasiye",
            "name:en": null,
            "name:uk": null,
            "name:de": null,
            "name:tr": null,
            "name:ru": null,
            "name:ar": null
        }
    },
    {
        "lat": 40.9552939,
        "lon": 29.0975822,
        "tags": {
            "addr:city": "İstanbul",
            "addr:district": null,
            "description": "",
            "opening_hours": null,
            "phone": null,
            "branch": null,
            "amenity": "stationery",
            "mobile": null,
            "addr:street": null,
            "cuisine": null,
            "name": "Zirve Kırtasiye",
            "name:en": null,
            "name:uk": null,
            "name:de": null,
            "name:tr": null,
            "name:ru": null,
            "name:ar": null
        }
    },
    {
        "lat": 41.0331714,
        "lon": 29.181064,
        "tags": {
            "addr:city": "İstanbul",
            "addr:district": "Çekmeköy",
            "description": "",
            "opening_hours": "Mo-Su 08:00-21:00",
            "phone": "+90 216 347 23 23",
            "branch": null,
            "amenity": "stationery",
            "mobile": null,
            "addr:street": "Selim Dede Caddesi",
            "cuisine": null,
            "name": "Özgür Kırtasiye",
            "name:en": null,
            "name:uk": null,
            "name:de": null,
            "name:tr": null,
            "name:ru": null,
            "name:ar": null
        }
    },
    {
        "lat": 41.1062851,
        "lon": 28.8628889,
        "tags": {
            "addr:city": "İstanbul",
            "addr:district": null,
            "description": "",
            "opening_hours": null,
            "phone": null,
            "branch": null,
            "amenity": "stationery",
            "mobile": null,
            "addr:street": null,
            "cuisine": null,
            "name": "Mavi Lale Kırtasiye",
            "name:en": null,
            "name:uk": null,
            "name:de": null,
            "name:tr": null,
            "name:ru": null,
            "name:ar": null
        }
    },
    {
        "lat": 41.1058143,
        "lon": 28.8626077,
        "tags": {
            "addr:city": "İstanbul",
            "addr:district": null,
            "description": "",
            "opening_hours": null,
            "phone": null,
            "branch": null,
            "amenity": "stationery",
            "mobile": null,
            "addr:street": null,
            "cuisine": null,
            "name": "Kardeş Kırtasiye",
            "name:en": null,
            "name:uk": null,
            "name:de": null,
            "name:tr": null,
            "name:ru": null,
            "name:ar": null
        }
    },
    {
        "lat": 40.9703207,
        "lon": 29.0863452,
        "tags": {
            "addr:city": "İstanbul",
            "addr:district": null,
            "description": "",
            "opening_hours": null,
            "phone": null,
            "branch": null,
            "amenity": "stationery",
            "mobile": null,
            "addr:street": null,
            "cuisine": null,
            "name": "Arzu Kırtasiye",
            "name:en": null,
            "name:uk": null,
            "name:de": null,
            "name:tr": null,
            "name:ru": null,
            "name:ar": null
        }
    },
    {
        "lat": 40.9788065,
        "lon": 29.2655381,
        "tags": {
            "addr:city": "Istanbul",
            "addr:district": "Sultanbeyli",
            "description": "",
            "opening_hours": null,
            "phone": null,
            "branch": null,
            "amenity": "stationery",
            "mobile": null,
            "addr:street": "Bosna Bulvarı",
            "cuisine": null,
            "name": "Zafer Kırtasiye",
            "name:en": null,
            "name:uk": null,
            "name:de": null,
            "name:tr": null,
            "name:ru": null,
            "name:ar": "قرطاسية ظافر"
        }
    },
    {
        "lat": 40.9658929,
        "lon": 29.2701267,
        "tags": {
            "addr:city": "Istanbul",
            "addr:district": "Sultanbeyli",
            "description": "",
            "opening_hours": null,
            "phone": null,
            "branch": null,
            "amenity": "stationery",
            "mobile": null,
            "addr:street": "Burcu sokağı",
            "cuisine": null,
            "name": "Bilgi kırtasiye",
            "name:en": null,
            "name:uk": null,
            "name:de": null,
            "name:tr": null,
            "name:ru": null,
            "name:ar": "مكتبة بيلغي"
        }
    },
    {
        "lat": 40.9916502,
        "lon": 29.2671441,
        "tags": {
            "addr:city": "Istanbul",
            "addr:district": "Sultanbeyli",
            "description": "",
            "opening_hours": null,
            "phone": null,
            "branch": null,
            "amenity": "stationery",
            "mobile": null,
            "addr:street": "Onur Sokağı",
            "cuisine": null,
            "name": "Kayalar Kırtasiye",
            "name:en": null,
            "name:uk": null,
            "name:de": null,
            "name:tr": null,
            "name:ru": null,
            "name:ar": "مكتبة كايالار"
        }
    },
    {
        "lat": 40.9922413,
        "lon": 29.2608785,
        "tags": {
            "addr:city": "Istanbul",
            "addr:district": "Sultanbeyli",
            "description": "",
            "opening_hours": null,
            "phone": null,
            "branch": null,
            "amenity": "stationery",
            "mobile": null,
            "addr:street": "Kıztaşı sokağı",
            "cuisine": null,
            "name": "Öz Fidan kırtasiye",
            "name:en": null,
            "name:uk": null,
            "name:de": null,
            "name:tr": null,
            "name:ru": null,
            "name:ar": "مكتبة اوز فيدان"
        }
    },
    {
        "lat": 40.9803796,
        "lon": 29.2659266,
        "tags": {
            "addr:city": "Istanbul",
            "addr:district": "Sultanbeyli",
            "description": "",
            "opening_hours": null,
            "phone": null,
            "branch": null,
            "amenity": "stationery",
            "mobile": null,
            "addr:street": "kubbe Caddesi",
            "cuisine": null,
            "name": "Mercek kırtasiye",
            "name:en": null,
            "name:uk": null,
            "name:de": null,
            "name:tr": null,
            "name:ru": null,
            "name:ar": "مكتبة ميرجيك"
        }
    },
    {
        "lat": 40.9817367,
        "lon": 29.2692947,
        "tags": {
            "addr:city": "Istanbul",
            "addr:district": "Sultanbeyli",
            "description": "",
            "opening_hours": null,
            "phone": null,
            "branch": null,
            "amenity": "stationery",
            "mobile": null,
            "addr:street": "tophane sokaği",
            "cuisine": null,
            "name": "Burak kırtasiye",
            "name:en": null,
            "name:uk": null,
            "name:de": null,
            "name:tr": null,
            "name:ru": null,
            "name:ar": "مكتبة بوراك"
        }
    },
    {
        "lat": 40.9817284,
        "lon": 29.2667537,
        "tags": {
            "addr:city": "Istanbul",
            "addr:district": "Sultanbeyli",
            "description": "",
            "opening_hours": null,
            "phone": null,
            "branch": null,
            "amenity": "stationery",
            "mobile": null,
            "addr:street": "kubbe Caddesi",
            "cuisine": null,
            "name": "Aydemir Kırtasiye",
            "name:en": null,
            "name:uk": null,
            "name:de": null,
            "name:tr": null,
            "name:ru": null,
            "name:ar": "مكتبة ايديمير"
        }
    },
    {
        "lat": 40.9684923,
        "lon": 29.2523774,
        "tags": {
            "addr:city": "Istanbul",
            "addr:district": "Sultanbeyli",
            "description": "",
            "opening_hours": null,
            "phone": null,
            "branch": null,
            "amenity": "stationery",
            "mobile": null,
            "addr:street": "fatih bulvarı فاتح بولفاري",
            "cuisine": null,
            "name": "Ambalaj",
            "name:en": null,
            "name:uk": null,
            "name:de": null,
            "name:tr": null,
            "name:ru": null,
            "name:ar": "مكتبه امبالاج"
        }
    },
    {
        "lat": 41.0106665,
        "lon": 28.9126664,
        "tags": {
            "addr:city": "Istanbul",
            "addr:district": "Zeytinburnu",
            "description": "",
            "opening_hours": null,
            "phone": null,
            "branch": null,
            "amenity": "stationery",
            "mobile": null,
            "addr:street": "G-44. Sokak",
            "cuisine": null,
            "name": "KIRTASIYE",
            "name:en": null,
            "name:uk": null,
            "name:de": null,
            "name:tr": null,
            "name:ru": null,
            "name:ar": "مكتبة لبيع مستلزمات دراسية"
        }
    },
    {
        "lat": 41.010012,
        "lon": 28.9110276,
        "tags": {
            "addr:city": "Istanbul",
            "addr:district": "Zeytinburnu",
            "description": "",
            "opening_hours": null,
            "phone": null,
            "branch": null,
            "amenity": "stationery",
            "mobile": null,
            "addr:street": "G-46. Sokak",
            "cuisine": null,
            "name": "Taha Kırtasiye",
            "name:en": null,
            "name:uk": null,
            "name:de": null,
            "name:tr": null,
            "name:ru": null,
            "name:ar": "طه قرطاسية"
        }
    },
    {
        "lat": 41.0291436,
        "lon": 28.9032699,
        "tags": {
            "addr:city": "Istanbul",
            "addr:district": "Zeytinburnu",
            "description": "",
            "opening_hours": "Mo-Fr 08:00-17:00; Mo-Sa 07:30-15:00",
            "phone": "02125766524",
            "branch": null,
            "amenity": "stationery",
            "mobile": null,
            "addr:street": "Davutpaşa Çiftehavuzlar Caddesi",
            "cuisine": null,
            "name": "Süper Ofis Kırtasiye",
            "name:en": null,
            "name:uk": null,
            "name:de": null,
            "name:tr": null,
            "name:ru": null,
            "name:ar": "محل سوبر لقرطاسية المكاتب"
        }
    },
    {
        "lat": 41.0200653,
        "lon": 28.9023455,
        "tags": {
            "addr:city": "Istanbul",
            "addr:district": "Zeytinburnu",
            "description": "",
            "opening_hours": "Mo-Fr 08:00-17:00; Mo-Sa 07:30-15:00",
            "phone": "(0212) 482 31 31",
            "branch": null,
            "amenity": "stationery",
            "mobile": null,
            "addr:street": "Yılanlı Ayazma Yolu",
            "cuisine": null,
            "name": "Güçlü Kırtasiye",
            "name:en": null,
            "name:uk": null,
            "name:de": null,
            "name:tr": null,
            "name:ru": null,
            "name:ar": "محل غوجلو للقرطاسية"
        }
    },
    {
        "lat": 41.0298643,
        "lon": 28.9110807,
        "tags": {
            "addr:city": "Istanbul",
            "addr:district": "Zeytinburnu",
            "description": "",
            "opening_hours": "Mo-Fr 08:00-17:00; Mo-Sa 07:30-15:00",
            "phone": "(0212) 501 51 90",
            "branch": null,
            "amenity": "stationery",
            "mobile": null,
            "addr:street": "Gümüşsuyu Caddesi",
            "cuisine": null,
            "name": "Emfa Kırtasiye",
            "name:en": null,
            "name:uk": null,
            "name:de": null,
            "name:tr": null,
            "name:ru": null,
            "name:ar": "قرطاسية امفا"
        }
    },
    {
        "lat": 40.9984394,
        "lon": 28.9030696,
        "tags": {
            "addr:city": "Istanbul",
            "addr:district": "Zeytinburnu",
            "description": "",
            "opening_hours": "Mo-Fr 09:00-17:00",
            "phone": null,
            "branch": null,
            "amenity": "stationery",
            "mobile": null,
            "addr:street": null,
            "cuisine": null,
            "name": "Yavuz Kırtasiye",
            "name:en": null,
            "name:uk": null,
            "name:de": null,
            "name:tr": null,
            "name:ru": null,
            "name:ar": "مكتبة يافوز"
        }
    },
    {
        "lat": 40.9979367,
        "lon": 28.903448,
        "tags": {
            "addr:city": "Istanbul",
            "addr:district": "Zeytinburnu",
            "description": "",
            "opening_hours": null,
            "phone": null,
            "branch": null,
            "amenity": "stationery",
            "mobile": null,
            "addr:street": "114. sokak",
            "cuisine": null,
            "name": "Kocatürk kırtasiye",
            "name:en": null,
            "name:uk": null,
            "name:de": null,
            "name:tr": null,
            "name:ru": null,
            "name:ar": "قرطاسية كوجاتورك"
        }
    },
    {
        "lat": 41.0023337,
        "lon": 28.9041527,
        "tags": {
            "addr:city": "Istanbul",
            "addr:district": "Zeytinburnu",
            "description": "",
            "opening_hours": "Mo-Sa 09:00-18:00",
            "phone": null,
            "branch": null,
            "amenity": "stationery",
            "mobile": null,
            "addr:street": null,
            "cuisine": null,
            "name": "Yüksel Kırtasiye",
            "name:en": null,
            "name:uk": null,
            "name:de": null,
            "name:tr": null,
            "name:ru": null,
            "name:ar": "قرطاسية يوكسيل"
        }
    },
    {
        "lat": 40.9991341,
        "lon": 28.9113121,
        "tags": {
            "addr:city": "Istanbul",
            "addr:district": "Zeytinburnu",
            "description": "",
            "opening_hours": null,
            "phone": null,
            "branch": null,
            "amenity": "stationery",
            "mobile": null,
            "addr:street": null,
            "cuisine": null,
            "name": "Eraslan",
            "name:en": null,
            "name:uk": null,
            "name:de": null,
            "name:tr": null,
            "name:ru": null,
            "name:ar": "قرطاسية اراسلان"
        }
    },
    {
        "lat": 40.9993868,
        "lon": 28.9124786,
        "tags": {
            "addr:city": "Istanbul",
            "addr:district": "Zeytinburnu",
            "description": "",
            "opening_hours": null,
            "phone": null,
            "branch": null,
            "amenity": "stationery",
            "mobile": null,
            "addr:street": null,
            "cuisine": null,
            "name": "KIRTASİYE",
            "name:en": null,
            "name:uk": null,
            "name:de": null,
            "name:tr": null,
            "name:ru": null,
            "name:ar": "قرطاسية"
        }
    },
    {
        "lat": 40.9941111,
        "lon": 28.8994109,
        "tags": {
            "addr:city": "Istanbul",
            "addr:district": "Zeytinburnu",
            "description": "",
            "opening_hours": "Mo-Su 09:00-19:00",
            "phone": null,
            "branch": null,
            "amenity": "stationery",
            "mobile": null,
            "addr:street": null,
            "cuisine": null,
            "name": "Volkan Kitap Kırtasiye",
            "name:en": null,
            "name:uk": null,
            "name:de": null,
            "name:tr": null,
            "name:ru": null,
            "name:ar": "قرطاسية فولكان"
        }
    },
    {
        "lat": 40.9917873,
        "lon": 28.8976074,
        "tags": {
            "addr:city": "Istanbul",
            "addr:district": "Zeytinburnu",
            "description": "",
            "opening_hours": "Mo-Su 09:00-19:00",
            "phone": null,
            "branch": null,
            "amenity": "stationery",
            "mobile": null,
            "addr:street": null,
            "cuisine": null,
            "name": "Kırtasiye Fotokopi",
            "name:en": null,
            "name:uk": null,
            "name:de": null,
            "name:tr": null,
            "name:ru": null,
            "name:ar": "قرطاسية ونسخ"
        }
    },
    {
        "lat": 40.9952886,
        "lon": 28.8991407,
        "tags": {
            "addr:city": "Istanbul",
            "addr:district": "Zeytinburnu",
            "description": "",
            "opening_hours": null,
            "phone": null,
            "branch": null,
            "amenity": "stationery",
            "mobile": null,
            "addr:street": "Ahmet yesevi sokak",
            "cuisine": null,
            "name": "Kare kırtasiye",
            "name:en": null,
            "name:uk": null,
            "name:de": null,
            "name:tr": null,
            "name:ru": null,
            "name:ar": "قرطاسية كاره"
        }
    },
    {
        "lat": 40.9892052,
        "lon": 28.8967411,
        "tags": {
            "addr:city": "Istanbul",
            "addr:district": "Zeytinburnu",
            "description": "",
            "opening_hours": null,
            "phone": null,
            "branch": null,
            "amenity": "stationery",
            "mobile": null,
            "addr:street": "27/1. sokak",
            "cuisine": null,
            "name": "gökbil kırtasiye",
            "name:en": null,
            "name:uk": null,
            "name:de": null,
            "name:tr": null,
            "name:ru": null,
            "name:ar": "قرطاسية غوكبيل"
        }
    },
    {
        "lat": 40.989416,
        "lon": 28.8971134,
        "tags": {
            "addr:city": "Istanbul",
            "addr:district": "Zeytinburnu",
            "description": "",
            "opening_hours": null,
            "phone": null,
            "branch": null,
            "amenity": "stationery",
            "mobile": null,
            "addr:street": "65/3. sokak",
            "cuisine": null,
            "name": "öğretmenim",
            "name:en": null,
            "name:uk": null,
            "name:de": null,
            "name:tr": null,
            "name:ru": null,
            "name:ar": "أوريتمانم"
        }
    },
    {
        "lat": 40.9858158,
        "lon": 28.8953627,
        "tags": {
            "addr:city": "Istanbul",
            "addr:district": "Zeytinburnu",
            "description": "",
            "opening_hours": null,
            "phone": null,
            "branch": null,
            "amenity": "stationery",
            "mobile": null,
            "addr:street": "8/3. sokak",
            "cuisine": null,
            "name": "viziyon kırtasiye",
            "name:en": null,
            "name:uk": null,
            "name:de": null,
            "name:tr": null,
            "name:ru": null,
            "name:ar": "فيزيون قرطاسية"
        }
    },
    {
        "lat": 40.9856914,
        "lon": 28.8975039,
        "tags": {
            "addr:city": "Istanbul",
            "addr:district": "Zeytinburnu",
            "description": "",
            "opening_hours": null,
            "phone": null,
            "branch": null,
            "amenity": "stationery",
            "mobile": null,
            "addr:street": "Şht. Piyade Er Yaşar Yeşilkır sokak",
            "cuisine": null,
            "name": "ezgi kırtasiye",
            "name:en": null,
            "name:uk": null,
            "name:de": null,
            "name:tr": null,
            "name:ru": null,
            "name:ar": "إيزكي قرطاسية"
        }
    },
    {
        "lat": 40.9856471,
        "lon": 28.897907,
        "tags": {
            "addr:city": "Istanbul",
            "addr:district": "Zeytinburnu",
            "description": "",
            "opening_hours": null,
            "phone": null,
            "branch": null,
            "amenity": "stationery",
            "mobile": null,
            "addr:street": "Şht. Piyade Er Yaşar Yeşilkır sokak",
            "cuisine": null,
            "name": "hisar kırtasiye",
            "name:en": null,
            "name:uk": null,
            "name:de": null,
            "name:tr": null,
            "name:ru": null,
            "name:ar": "حصار قرطاسية"
        }
    },
    {
        "lat": 41.0475947,
        "lon": 28.8216326,
        "tags": {
            "addr:city": "Istanbul",
            "addr:district": "Bağcılar",
            "description": "",
            "opening_hours": null,
            "phone": null,
            "branch": null,
            "amenity": "stationery",
            "mobile": null,
            "addr:street": "Karaoğlanoğlu caddesi",
            "cuisine": null,
            "name": "Çağrı kirtasiye",
            "name:en": null,
            "name:uk": null,
            "name:de": null,
            "name:tr": null,
            "name:ru": null,
            "name:ar": "شاغري للقرطاسية"
        }
    },
    {
        "lat": 41.0560567,
        "lon": 28.8259591,
        "tags": {
            "addr:city": "Istanbul",
            "addr:district": "Bağcılar",
            "description": "",
            "opening_hours": null,
            "phone": null,
            "branch": null,
            "amenity": "stationery",
            "mobile": null,
            "addr:street": "Soğuksu Caddesi",
            "cuisine": null,
            "name": "Sahin Kirtasiye",
            "name:en": null,
            "name:uk": null,
            "name:de": null,
            "name:tr": null,
            "name:ru": null,
            "name:ar": "شاهين للقرطاسية"
        }
    },
    {
        "lat": 41.0694363,
        "lon": 28.8289064,
        "tags": {
            "addr:city": "Istanbul",
            "addr:district": "Bağcılar",
            "description": "",
            "opening_hours": null,
            "phone": null,
            "branch": null,
            "amenity": "stationery",
            "mobile": null,
            "addr:street": "36.Yol sokak",
            "cuisine": null,
            "name": "Eren",
            "name:en": null,
            "name:uk": null,
            "name:de": null,
            "name:tr": null,
            "name:ru": null,
            "name:ar": "ايرين"
        }
    },
    {
        "lat": 41.0686004,
        "lon": 28.8292276,
        "tags": {
            "addr:city": "Istanbul",
            "addr:district": "Bağcılar",
            "description": "",
            "opening_hours": null,
            "phone": null,
            "branch": null,
            "amenity": "stationery",
            "mobile": null,
            "addr:street": "47.Yol sokak",
            "cuisine": null,
            "name": "İmkan Kırtasiye",
            "name:en": null,
            "name:uk": null,
            "name:de": null,
            "name:tr": null,
            "name:ru": null,
            "name:ar": "امكان قرطاسية"
        }
    },
    {
        "lat": 41.0683775,
        "lon": 28.8309761,
        "tags": {
            "addr:city": "Istanbul",
            "addr:district": "Bağcılar",
            "description": "",
            "opening_hours": null,
            "phone": null,
            "branch": null,
            "amenity": "stationery",
            "mobile": null,
            "addr:street": "42.Yol sokak",
            "cuisine": null,
            "name": "Doruk",
            "name:en": null,
            "name:uk": null,
            "name:de": null,
            "name:tr": null,
            "name:ru": null,
            "name:ar": "دروك"
        }
    },
    {
        "lat": 41.0468648,
        "lon": 28.8500786,
        "tags": {
            "addr:city": "Istanbul",
            "addr:district": "Zeytinburnu",
            "description": "",
            "opening_hours": null,
            "phone": null,
            "branch": null,
            "amenity": "stationery",
            "mobile": null,
            "addr:street": null,
            "cuisine": null,
            "name": "KIRTASİYE",
            "name:en": null,
            "name:uk": null,
            "name:de": null,
            "name:tr": null,
            "name:ru": null,
            "name:ar": "قرطاسية"
        }
    },
    {
        "lat": 41.05215,
        "lon": 28.8357161,
        "tags": {
            "addr:city": "Istanbul",
            "addr:district": "Bağcılar",
            "description": "",
            "opening_hours": null,
            "phone": null,
            "branch": null,
            "amenity": "stationery",
            "mobile": null,
            "addr:street": "2. sokak",
            "cuisine": null,
            "name": "Akın Kırtasiye",
            "name:en": null,
            "name:uk": null,
            "name:de": null,
            "name:tr": null,
            "name:ru": null,
            "name:ar": "مكتبه اكين"
        }
    },
    {
        "lat": 41.0467624,
        "lon": 28.8586322,
        "tags": {
            "addr:city": "Istanbul",
            "addr:district": null,
            "description": "",
            "opening_hours": null,
            "phone": null,
            "branch": null,
            "amenity": "stationery",
            "mobile": null,
            "addr:street": "2004 Sokak",
            "cuisine": null,
            "name": "Furkan Kırtasiye Tuhafiye",
            "name:en": null,
            "name:uk": null,
            "name:de": null,
            "name:tr": null,
            "name:ru": null,
            "name:ar": "فرقان قرطاسية تحافية"
        }
    },
    {
        "lat": 41.0258766,
        "lon": 28.8306042,
        "tags": {
            "addr:city": "Istanbul",
            "addr:district": "Bağcılar",
            "description": "",
            "opening_hours": null,
            "phone": null,
            "branch": null,
            "amenity": "stationery",
            "mobile": null,
            "addr:street": "Menderes Caddesi",
            "cuisine": null,
            "name": "Emin Kırtasiye",
            "name:en": null,
            "name:uk": null,
            "name:de": null,
            "name:tr": null,
            "name:ru": null,
            "name:ar": "قرطاسية أمين"
        }
    },
    {
        "lat": 41.0272031,
        "lon": 28.840896,
        "tags": {
            "addr:city": "Istanbul",
            "addr:district": "Bağcılar",
            "description": "",
            "opening_hours": null,
            "phone": null,
            "branch": null,
            "amenity": "stationery",
            "mobile": null,
            "addr:street": "Pazaryolu 1. sokak",
            "cuisine": null,
            "name": "Gözde kırtasiye",
            "name:en": null,
            "name:uk": null,
            "name:de": null,
            "name:tr": null,
            "name:ru": null,
            "name:ar": "قرطاسية كوزده"
        }
    },
    {
        "lat": 41.0264829,
        "lon": 28.8426345,
        "tags": {
            "addr:city": "Istanbul",
            "addr:district": "Bağcılar",
            "description": "",
            "opening_hours": null,
            "phone": null,
            "branch": null,
            "amenity": "stationery",
            "mobile": null,
            "addr:street": "1/13A. sokak",
            "cuisine": null,
            "name": "Özgür kırtasiye",
            "name:en": null,
            "name:uk": null,
            "name:de": null,
            "name:tr": null,
            "name:ru": null,
            "name:ar": "قرطاسية اوزكور"
        }
    },
    {
        "lat": 41.03136,
        "lon": 28.8266127,
        "tags": {
            "addr:city": "Istanbul",
            "addr:district": "Bağcılar",
            "description": "",
            "opening_hours": null,
            "phone": null,
            "branch": null,
            "amenity": "stationery",
            "mobile": null,
            "addr:street": "Ataturk caddesi",
            "cuisine": null,
            "name": "Aygül",
            "name:en": null,
            "name:uk": null,
            "name:de": null,
            "name:tr": null,
            "name:ru": null,
            "name:ar": "اي جول"
        }
    },
    {
        "lat": 41.026843,
        "lon": 28.8425579,
        "tags": {
            "addr:city": "Istanbul",
            "addr:district": "Bağcılar",
            "description": "",
            "opening_hours": null,
            "phone": null,
            "branch": null,
            "amenity": "stationery",
            "mobile": null,
            "addr:street": "1/13A. sokak",
            "cuisine": null,
            "name": "En-bam kırtasiye",
            "name:en": null,
            "name:uk": null,
            "name:de": null,
            "name:tr": null,
            "name:ru": null,
            "name:ar": "قرطاسية اين بام"
        }
    },
    {
        "lat": 41.0239432,
        "lon": 28.8287702,
        "tags": {
            "addr:city": "Istanbul",
            "addr:district": "Bağcılar",
            "description": "",
            "opening_hours": null,
            "phone": null,
            "branch": null,
            "amenity": "stationery",
            "mobile": null,
            "addr:street": "Atatürk Caddesi",
            "cuisine": null,
            "name": "İstanbul Ofis Malzemeleri",
            "name:en": null,
            "name:uk": null,
            "name:de": null,
            "name:tr": null,
            "name:ru": null,
            "name:ar": "لوازم مكتب اسطنبول"
        }
    },
    {
        "lat": 41.0251997,
        "lon": 28.8423733,
        "tags": {
            "addr:city": "Istanbul",
            "addr:district": "Bağcılar",
            "description": "",
            "opening_hours": null,
            "phone": null,
            "branch": null,
            "amenity": "stationery",
            "mobile": null,
            "addr:street": "Pazaryolu 1. sokak",
            "cuisine": null,
            "name": "Kırtasiye",
            "name:en": null,
            "name:uk": null,
            "name:de": null,
            "name:tr": null,
            "name:ru": null,
            "name:ar": "قرطاسية"
        }
    },
    {
        "lat": 41.0382938,
        "lon": 28.8246582,
        "tags": {
            "addr:city": "Istanbul",
            "addr:district": "Bağcılar",
            "description": "",
            "opening_hours": null,
            "phone": "6511655",
            "branch": null,
            "amenity": "stationery",
            "mobile": null,
            "addr:street": "Favziçakmak Caddesi",
            "cuisine": null,
            "name": "Öz Kırtasiye",
            "name:en": null,
            "name:uk": null,
            "name:de": null,
            "name:tr": null,
            "name:ru": null,
            "name:ar": "أوز كورتاسية"
        }
    },
    {
        "lat": 41.0328408,
        "lon": 28.8526241,
        "tags": {
            "addr:city": "Istanbul",
            "addr:district": "Bağcılar",
            "description": "",
            "opening_hours": null,
            "phone": null,
            "branch": null,
            "amenity": "stationery",
            "mobile": null,
            "addr:street": "30/6. sokak",
            "cuisine": null,
            "name": "Hilal kitap kırtasiye",
            "name:en": null,
            "name:uk": null,
            "name:de": null,
            "name:tr": null,
            "name:ru": null,
            "name:ar": "قرطاسية هلال"
        }
    },
    {
        "lat": 41.0328854,
        "lon": 28.8519607,
        "tags": {
            "addr:city": "Istanbul",
            "addr:district": "Bağcılar",
            "description": "",
            "opening_hours": null,
            "phone": null,
            "branch": null,
            "amenity": "stationery",
            "mobile": null,
            "addr:street": "26/3B. sokak",
            "cuisine": null,
            "name": "Kardelen kırtasiye",
            "name:en": null,
            "name:uk": null,
            "name:de": null,
            "name:tr": null,
            "name:ru": null,
            "name:ar": "قرطاسية كاردلين"
        }
    },
    {
        "lat": 41.042058,
        "lon": 28.8602948,
        "tags": {
            "addr:city": "Istanbul",
            "addr:district": null,
            "description": "",
            "opening_hours": null,
            "phone": null,
            "branch": null,
            "amenity": "stationery",
            "mobile": null,
            "addr:street": "1988",
            "cuisine": null,
            "name": "Kardelen Kırtasiye",
            "name:en": null,
            "name:uk": null,
            "name:de": null,
            "name:tr": null,
            "name:ru": null,
            "name:ar": null
        }
    },
    {
        "lat": 41.0300116,
        "lon": 28.8498761,
        "tags": {
            "addr:city": "Istanbul",
            "addr:district": "Bağcılar",
            "description": "",
            "opening_hours": null,
            "phone": null,
            "branch": null,
            "amenity": "stationery",
            "mobile": null,
            "addr:street": "30/11. sokak",
            "cuisine": null,
            "name": "Reyyan kırtasiye",
            "name:en": null,
            "name:uk": null,
            "name:de": null,
            "name:tr": null,
            "name:ru": null,
            "name:ar": "قرطاسية ريان"
        }
    },
    {
        "lat": 41.0289791,
        "lon": 28.8540903,
        "tags": {
            "addr:city": "Istanbul",
            "addr:district": "Bağcılar",
            "description": "",
            "opening_hours": null,
            "phone": null,
            "branch": null,
            "amenity": "stationery",
            "mobile": null,
            "addr:street": "Şehit Yılmaz Kaan Caddesi",
            "cuisine": null,
            "name": "Ilkay kırtasiye",
            "name:en": null,
            "name:uk": null,
            "name:de": null,
            "name:tr": null,
            "name:ru": null,
            "name:ar": "قرطاسية ايرول"
        }
    },
    {
        "lat": 41.0202043,
        "lon": 28.8586432,
        "tags": {
            "addr:city": "Istanbul",
            "addr:district": "Zeytinburnu",
            "description": "",
            "opening_hours": null,
            "phone": null,
            "branch": null,
            "amenity": "stationery",
            "mobile": null,
            "addr:street": null,
            "cuisine": null,
            "name": "KARDELEN KIRTASİYE",
            "name:en": null,
            "name:uk": null,
            "name:de": null,
            "name:tr": null,
            "name:ru": null,
            "name:ar": "قرطاسية"
        }
    },
    {
        "lat": 40.9238036,
        "lon": 29.1299904,
        "tags": {
            "addr:city": "İstanbul",
            "addr:district": null,
            "description": "",
            "opening_hours": null,
            "phone": null,
            "branch": null,
            "amenity": "stationery",
            "mobile": null,
            "addr:street": null,
            "cuisine": null,
            "name": null,
            "name:en": null,
            "name:uk": null,
            "name:de": null,
            "name:tr": null,
            "name:ru": null,
            "name:ar": null
        }
    },
    {
        "lat": 40.8640578,
        "lon": 29.3373379,
        "tags": {
            "addr:city": "İstanbul",
            "addr:district": null,
            "description": "",
            "opening_hours": null,
            "phone": null,
            "branch": null,
            "amenity": "stationery",
            "mobile": null,
            "addr:street": null,
            "cuisine": null,
            "name": null,
            "name:en": null,
            "name:uk": null,
            "name:de": null,
            "name:tr": null,
            "name:ru": null,
            "name:ar": null
        }
    },
    {
        "lat": 40.8679793,
        "lon": 29.3278437,
        "tags": {
            "addr:city": "İstanbul",
            "addr:district": null,
            "description": "",
            "opening_hours": null,
            "phone": null,
            "branch": null,
            "amenity": "stationery",
            "mobile": null,
            "addr:street": null,
            "cuisine": null,
            "name": null,
            "name:en": null,
            "name:uk": null,
            "name:de": null,
            "name:tr": null,
            "name:ru": null,
            "name:ar": null
        }
    },
    {
        "lat": 40.8721944,
        "lon": 29.3337967,
        "tags": {
            "addr:city": "İstanbul",
            "addr:district": null,
            "description": "",
            "opening_hours": null,
            "phone": null,
            "branch": null,
            "amenity": "stationery",
            "mobile": null,
            "addr:street": null,
            "cuisine": null,
            "name": null,
            "name:en": null,
            "name:uk": null,
            "name:de": null,
            "name:tr": null,
            "name:ru": null,
            "name:ar": null
        }
    },
    {
        "lat": 41.0863023,
        "lon": 29.0051604,
        "tags": {
            "addr:city": "İstanbul",
            "addr:district": "Kağıthane",
            "description": "",
            "opening_hours": "Mo-Su 09:00-21:00",
            "phone": null,
            "branch": null,
            "amenity": "stationery",
            "mobile": null,
            "addr:street": "Akarsu Caddesi",
            "cuisine": null,
            "name": "Hece Kırtasiye",
            "name:en": null,
            "name:uk": null,
            "name:de": null,
            "name:tr": null,
            "name:ru": null,
            "name:ar": null
        }
    },
    {
        "lat": 41.0336102,
        "lon": 28.9759923,
        "tags": {
            "addr:city": "İstanbul",
            "addr:district": null,
            "description": "",
            "opening_hours": null,
            "phone": null,
            "branch": null,
            "amenity": "stationery",
            "mobile": null,
            "addr:street": null,
            "cuisine": null,
            "name": "selale kirstasiye",
            "name:en": null,
            "name:uk": null,
            "name:de": null,
            "name:tr": null,
            "name:ru": null,
            "name:ar": null
        }
    },
    {
        "lat": 41.0001204,
        "lon": 28.7948248,
        "tags": {
            "addr:city": "İstanbul",
            "addr:district": null,
            "description": "",
            "opening_hours": null,
            "phone": null,
            "branch": null,
            "amenity": "stationery",
            "mobile": null,
            "addr:street": null,
            "cuisine": null,
            "name": "Nazay Kırtasiye",
            "name:en": null,
            "name:uk": null,
            "name:de": null,
            "name:tr": null,
            "name:ru": null,
            "name:ar": null
        }
    },
    {
        "lat": 40.9840175,
        "lon": 28.7955319,
        "tags": {
            "addr:city": "İstanbul",
            "addr:district": null,
            "description": "",
            "opening_hours": null,
            "phone": null,
            "branch": null,
            "amenity": "stationery",
            "mobile": null,
            "addr:street": null,
            "cuisine": null,
            "name": "Florya Kırtasiye",
            "name:en": "Limon Store",
            "name:uk": null,
            "name:de": null,
            "name:tr": null,
            "name:ru": null,
            "name:ar": null
        }
    },
    {
        "lat": 41.0288336,
        "lon": 29.1823747,
        "tags": {
            "addr:city": "İstanbul",
            "addr:district": null,
            "description": "",
            "opening_hours": "Mo-Su 09:00-21:00",
            "phone": null,
            "branch": null,
            "amenity": "stationery",
            "mobile": null,
            "addr:street": null,
            "cuisine": null,
            "name": "Ali Kırtasiye",
            "name:en": null,
            "name:uk": null,
            "name:de": null,
            "name:tr": null,
            "name:ru": null,
            "name:ar": null
        }
    },
    {
        "lat": 41.2360696,
        "lon": 28.9849394,
        "tags": {
            "addr:city": "İstanbul",
            "addr:district": null,
            "description": "",
            "opening_hours": null,
            "phone": null,
            "branch": null,
            "amenity": "stationery",
            "mobile": null,
            "addr:street": null,
            "cuisine": null,
            "name": "Gümüşdere Kırtasiye",
            "name:en": null,
            "name:uk": null,
            "name:de": null,
            "name:tr": null,
            "name:ru": null,
            "name:ar": null
        }
    },
    {
        "lat": 41.0859487,
        "lon": 28.8737076,
        "tags": {
            "addr:city": "İstanbul",
            "addr:district": null,
            "description": "",
            "opening_hours": null,
            "phone": null,
            "branch": null,
            "amenity": "stationery",
            "mobile": null,
            "addr:street": null,
            "cuisine": null,
            "name": "Oğuz Kırtasiye",
            "name:en": null,
            "name:uk": null,
            "name:de": null,
            "name:tr": null,
            "name:ru": null,
            "name:ar": null
        }
    },
    {
        "lat": 41.0858303,
        "lon": 28.8740527,
        "tags": {
            "addr:city": "İstanbul",
            "addr:district": null,
            "description": "",
            "opening_hours": null,
            "phone": null,
            "branch": null,
            "amenity": "stationery",
            "mobile": null,
            "addr:street": null,
            "cuisine": null,
            "name": "Sercan Kırtasiye",
            "name:en": null,
            "name:uk": null,
            "name:de": null,
            "name:tr": null,
            "name:ru": null,
            "name:ar": null
        }
    },
    {
        "lat": 40.916417,
        "lon": 29.2853681,
        "tags": {
            "addr:city": "İstanbul",
            "addr:district": null,
            "description": "",
            "opening_hours": null,
            "phone": null,
            "branch": null,
            "amenity": "stationery",
            "mobile": null,
            "addr:street": null,
            "cuisine": null,
            "name": "Kalem Kitap Kırtasiye",
            "name:en": null,
            "name:uk": null,
            "name:de": null,
            "name:tr": null,
            "name:ru": null,
            "name:ar": null
        }
    },
    {
        "lat": 40.876814,
        "lon": 29.2314859,
        "tags": {
            "addr:city": "İstanbul",
            "addr:district": null,
            "description": "",
            "opening_hours": null,
            "phone": null,
            "branch": null,
            "amenity": "stationery",
            "mobile": null,
            "addr:street": null,
            "cuisine": null,
            "name": "Hakan Kırtasiye",
            "name:en": null,
            "name:uk": null,
            "name:de": null,
            "name:tr": null,
            "name:ru": null,
            "name:ar": null
        }
    },
    {
        "lat": 40.9547996,
        "lon": 29.1673232,
        "tags": {
            "addr:city": "İstanbul",
            "addr:district": null,
            "description": "",
            "opening_hours": null,
            "phone": null,
            "branch": null,
            "amenity": "stationery",
            "mobile": null,
            "addr:street": null,
            "cuisine": null,
            "name": "Kırtasiye",
            "name:en": null,
            "name:uk": null,
            "name:de": null,
            "name:tr": null,
            "name:ru": null,
            "name:ar": null
        }
    },
    {
        "lat": 40.9799131,
        "lon": 28.8818099,
        "tags": {
            "addr:city": "İstanbul",
            "addr:district": null,
            "description": "",
            "opening_hours": null,
            "phone": null,
            "branch": null,
            "amenity": "stationery",
            "mobile": null,
            "addr:street": null,
            "cuisine": null,
            "name": "Erman Kırtasiye",
            "name:en": null,
            "name:uk": null,
            "name:de": null,
            "name:tr": null,
            "name:ru": null,
            "name:ar": null
        }
    },
    {
        "lat": 41.1250796,
        "lon": 29.1020141,
        "tags": {
            "addr:city": "İstanbul",
            "addr:district": null,
            "description": "",
            "opening_hours": null,
            "phone": null,
            "branch": null,
            "amenity": "stationery",
            "mobile": null,
            "addr:street": null,
            "cuisine": null,
            "name": null,
            "name:en": null,
            "name:uk": null,
            "name:de": null,
            "name:tr": null,
            "name:ru": null,
            "name:ar": null
        }
    },
    {
        "lat": 41.1249217,
        "lon": 29.1018991,
        "tags": {
            "addr:city": "İstanbul",
            "addr:district": null,
            "description": "",
            "opening_hours": null,
            "phone": null,
            "branch": null,
            "amenity": "stationery",
            "mobile": null,
            "addr:street": null,
            "cuisine": null,
            "name": "Gül Kırtasiye",
            "name:en": null,
            "name:uk": null,
            "name:de": null,
            "name:tr": null,
            "name:ru": null,
            "name:ar": null
        }
    },
    {
        "lat": 41.1251119,
        "lon": 29.1014984,
        "tags": {
            "addr:city": "İstanbul",
            "addr:district": null,
            "description": "",
            "opening_hours": null,
            "phone": null,
            "branch": null,
            "amenity": "stationery",
            "mobile": null,
            "addr:street": null,
            "cuisine": null,
            "name": "Sıla Kırtasiye ve Tuhafiye",
            "name:en": null,
            "name:uk": null,
            "name:de": null,
            "name:tr": null,
            "name:ru": null,
            "name:ar": null
        }
    },
    {
        "lat": 41.1376602,
        "lon": 29.0860999,
        "tags": {
            "addr:city": "İstanbul",
            "addr:district": null,
            "description": "",
            "opening_hours": null,
            "phone": null,
            "branch": null,
            "amenity": "stationery",
            "mobile": null,
            "addr:street": null,
            "cuisine": null,
            "name": "Çağrı",
            "name:en": null,
            "name:uk": null,
            "name:de": null,
            "name:tr": null,
            "name:ru": null,
            "name:ar": null
        }
    },
    {
        "lat": 41.1352881,
        "lon": 29.0893356,
        "tags": {
            "addr:city": "İstanbul",
            "addr:district": null,
            "description": "",
            "opening_hours": null,
            "phone": null,
            "branch": null,
            "amenity": "stationery",
            "mobile": null,
            "addr:street": null,
            "cuisine": null,
            "name": "Beykoz Çanta Oyuncak Kırtasiye",
            "name:en": null,
            "name:uk": null,
            "name:de": null,
            "name:tr": null,
            "name:ru": null,
            "name:ar": null
        }
    },
    {
        "lat": 41.0197762,
        "lon": 28.5860146,
        "tags": {
            "addr:city": "İstanbul",
            "addr:district": null,
            "description": "",
            "opening_hours": null,
            "phone": null,
            "branch": null,
            "amenity": "stationery",
            "mobile": null,
            "addr:street": null,
            "cuisine": null,
            "name": "Pasifik Kitap & Kırtasiye",
            "name:en": null,
            "name:uk": null,
            "name:de": null,
            "name:tr": null,
            "name:ru": null,
            "name:ar": null
        }
    },
    {
        "lat": 40.9761312,
        "lon": 29.1209318,
        "tags": {
            "addr:city": "İstanbul",
            "addr:district": null,
            "description": "",
            "opening_hours": null,
            "phone": null,
            "branch": null,
            "amenity": "stationery",
            "mobile": null,
            "addr:street": null,
            "cuisine": null,
            "name": "Özlem Kırtasiye",
            "name:en": null,
            "name:uk": null,
            "name:de": null,
            "name:tr": null,
            "name:ru": null,
            "name:ar": null
        }
    },
    {
        "lat": 41.019036,
        "lon": 28.5865,
        "tags": {
            "addr:city": "İstanbul",
            "addr:district": null,
            "description": "",
            "opening_hours": null,
            "phone": null,
            "branch": null,
            "amenity": "stationery",
            "mobile": null,
            "addr:street": null,
            "cuisine": null,
            "name": "Renk Kırtasiye",
            "name:en": null,
            "name:uk": null,
            "name:de": null,
            "name:tr": null,
            "name:ru": null,
            "name:ar": null
        }
    },
    {
        "lat": 41.1071048,
        "lon": 28.8032098,
        "tags": {
            "addr:city": "İstanbul",
            "addr:district": null,
            "description": "",
            "opening_hours": null,
            "phone": null,
            "branch": null,
            "amenity": "stationery",
            "mobile": null,
            "addr:street": null,
            "cuisine": null,
            "name": "Sema Kırtasiye",
            "name:en": null,
            "name:uk": null,
            "name:de": null,
            "name:tr": null,
            "name:ru": null,
            "name:ar": null
        }
    },
    {
        "lat": 40.9838556,
        "lon": 29.0428804,
        "tags": {
            "addr:city": "İstanbul",
            "addr:district": null,
            "description": "",
            "opening_hours": null,
            "phone": null,
            "branch": null,
            "amenity": "stationery",
            "mobile": null,
            "addr:street": "Hasan Amir Sokağı",
            "cuisine": null,
            "name": "Hacivat Kırtasiye",
            "name:en": null,
            "name:uk": null,
            "name:de": null,
            "name:tr": null,
            "name:ru": null,
            "name:ar": null
        }
    },
    {
        "lat": 40.9792607,
        "lon": 29.1078192,
        "tags": {
            "addr:city": "İstanbul",
            "addr:district": null,
            "description": "",
            "opening_hours": null,
            "phone": null,
            "branch": null,
            "amenity": "stationery",
            "mobile": null,
            "addr:street": null,
            "cuisine": null,
            "name": "Copy Center & Kırtasiye",
            "name:en": null,
            "name:uk": null,
            "name:de": null,
            "name:tr": null,
            "name:ru": null,
            "name:ar": null
        }
    },
    {
        "lat": 40.9336937,
        "lon": 29.1231103,
        "tags": {
            "addr:city": "İstanbul",
            "addr:district": null,
            "description": "",
            "opening_hours": null,
            "phone": null,
            "branch": null,
            "amenity": "stationery",
            "mobile": null,
            "addr:street": null,
            "cuisine": null,
            "name": "Ozan Kırtasiye",
            "name:en": null,
            "name:uk": null,
            "name:de": null,
            "name:tr": null,
            "name:ru": null,
            "name:ar": null
        }
    },
    {
        "lat": 40.9173347,
        "lon": 29.1942903,
        "tags": {
            "addr:city": "istanbul",
            "addr:district": null,
            "description": "",
            "opening_hours": null,
            "phone": null,
            "branch": null,
            "amenity": "stationery",
            "mobile": null,
            "addr:street": null,
            "cuisine": null,
            "name": "Emek Kırtasiye",
            "name:en": null,
            "name:uk": null,
            "name:de": null,
            "name:tr": null,
            "name:ru": null,
            "name:ar": null
        }
    },
    {
        "lat": 40.9814434,
        "lon": 29.1190222,
        "tags": {
            "addr:city": "İstanbul",
            "addr:district": null,
            "description": "",
            "opening_hours": null,
            "phone": null,
            "branch": null,
            "amenity": "stationery",
            "mobile": null,
            "addr:street": null,
            "cuisine": null,
            "name": "Pano",
            "name:en": null,
            "name:uk": null,
            "name:de": null,
            "name:tr": null,
            "name:ru": null,
            "name:ar": null
        }
    },
    {
        "lat": 40.9802416,
        "lon": 29.0797979,
        "tags": {
            "addr:city": "İstanbul",
            "addr:district": null,
            "description": "",
            "opening_hours": null,
            "phone": null,
            "branch": null,
            "amenity": "stationery",
            "mobile": null,
            "addr:street": null,
            "cuisine": null,
            "name": "Panel",
            "name:en": null,
            "name:uk": null,
            "name:de": null,
            "name:tr": null,
            "name:ru": null,
            "name:ar": null
        }
    },
    {
        "lat": 40.9843118,
        "lon": 29.1157076,
        "tags": {
            "addr:city": "İstanbul",
            "addr:district": null,
            "description": "",
            "opening_hours": null,
            "phone": null,
            "branch": null,
            "amenity": "stationery",
            "mobile": null,
            "addr:street": null,
            "cuisine": null,
            "name": "Semra Kırtasiye",
            "name:en": null,
            "name:uk": null,
            "name:de": null,
            "name:tr": null,
            "name:ru": null,
            "name:ar": null
        }
    },
    {
        "lat": 41.012178,
        "lon": 29.1368169,
        "tags": {
            "addr:city": "İstanbul",
            "addr:district": null,
            "description": "",
            "opening_hours": null,
            "phone": null,
            "branch": null,
            "amenity": "stationery",
            "mobile": null,
            "addr:street": null,
            "cuisine": null,
            "name": null,
            "name:en": null,
            "name:uk": null,
            "name:de": null,
            "name:tr": null,
            "name:ru": null,
            "name:ar": null
        }
    },
    {
        "lat": 41.0077939,
        "lon": 29.1344219,
        "tags": {
            "addr:city": "İstanbul",
            "addr:district": null,
            "description": "",
            "opening_hours": null,
            "phone": null,
            "branch": null,
            "amenity": "stationery",
            "mobile": null,
            "addr:street": null,
            "cuisine": null,
            "name": null,
            "name:en": null,
            "name:uk": null,
            "name:de": null,
            "name:tr": null,
            "name:ru": null,
            "name:ar": null
        }
    },
    {
        "lat": 41.0036248,
        "lon": 29.0443958,
        "tags": {
            "addr:city": "İstanbul",
            "addr:district": null,
            "description": "",
            "opening_hours": null,
            "phone": null,
            "branch": null,
            "amenity": "stationery",
            "mobile": null,
            "addr:street": null,
            "cuisine": null,
            "name": "Nokta Kırtasiye",
            "name:en": null,
            "name:uk": null,
            "name:de": null,
            "name:tr": null,
            "name:ru": null,
            "name:ar": null
        }
    },
    {
        "lat": 40.9993565,
        "lon": 29.0388955,
        "tags": {
            "addr:city": "İstanbul",
            "addr:district": null,
            "description": "",
            "opening_hours": null,
            "phone": null,
            "branch": null,
            "amenity": "stationery",
            "mobile": null,
            "addr:street": null,
            "cuisine": null,
            "name": "Nokta Kırtasiye",
            "name:en": null,
            "name:uk": null,
            "name:de": null,
            "name:tr": null,
            "name:ru": null,
            "name:ar": null
        }
    },
    {
        "lat": 40.9949051,
        "lon": 28.8732528,
        "tags": {
            "addr:city": "İstanbul",
            "addr:district": null,
            "description": "",
            "opening_hours": null,
            "phone": null,
            "branch": null,
            "amenity": "stationery",
            "mobile": null,
            "addr:street": null,
            "cuisine": null,
            "name": "Erdinç Kırtasiye",
            "name:en": null,
            "name:uk": null,
            "name:de": null,
            "name:tr": null,
            "name:ru": null,
            "name:ar": null
        }
    },
    {
        "lat": 41.064905,
        "lon": 28.8220973,
        "tags": {
            "addr:city": "İstanbul",
            "addr:district": null,
            "description": "",
            "opening_hours": null,
            "phone": null,
            "branch": null,
            "amenity": "stationery",
            "mobile": null,
            "addr:street": null,
            "cuisine": null,
            "name": "Südor kırtasiye",
            "name:en": null,
            "name:uk": null,
            "name:de": null,
            "name:tr": null,
            "name:ru": null,
            "name:ar": null
        }
    },
    {
        "lat": 40.9807986,
        "lon": 29.1136602,
        "tags": {
            "addr:city": "İstanbul",
            "addr:district": null,
            "description": "",
            "opening_hours": null,
            "phone": null,
            "branch": null,
            "amenity": "stationery",
            "mobile": null,
            "addr:street": "Fırın Caddesi",
            "cuisine": null,
            "name": "Yeniçağ Kırtasiye",
            "name:en": null,
            "name:uk": null,
            "name:de": null,
            "name:tr": null,
            "name:ru": null,
            "name:ar": null
        }
    },
    {
        "lat": 41.0521249,
        "lon": 28.9184476,
        "tags": {
            "addr:city": "İstanbul",
            "addr:district": "Eyüpsultan",
            "description": "",
            "opening_hours": null,
            "phone": null,
            "branch": null,
            "amenity": "stationery",
            "mobile": null,
            "addr:street": "Mazharbey Caddesi",
            "cuisine": null,
            "name": "İnci Kırtasiye",
            "name:en": null,
            "name:uk": null,
            "name:de": null,
            "name:tr": null,
            "name:ru": null,
            "name:ar": null
        }
    },
    {
        "lat": 41.0522606,
        "lon": 28.9186588,
        "tags": {
            "addr:city": "İstanbul",
            "addr:district": "Eyüpsultan",
            "description": "",
            "opening_hours": null,
            "phone": null,
            "branch": null,
            "amenity": "stationery",
            "mobile": null,
            "addr:street": "Mazharbey Caddesi",
            "cuisine": null,
            "name": "Melek Kırtasiye",
            "name:en": null,
            "name:uk": null,
            "name:de": null,
            "name:tr": null,
            "name:ru": null,
            "name:ar": null
        }
    },
    {
        "lat": 41.1345363,
        "lon": 29.0927573,
        "tags": {
            "addr:city": "İstanbul",
            "addr:district": null,
            "description": "",
            "opening_hours": null,
            "phone": null,
            "branch": null,
            "amenity": "stationery",
            "mobile": null,
            "addr:street": null,
            "cuisine": null,
            "name": "Tezcan Kırtasiye",
            "name:en": null,
            "name:uk": null,
            "name:de": null,
            "name:tr": null,
            "name:ru": null,
            "name:ar": null
        }
    },
    {
        "lat": 40.9797685,
        "lon": 29.1159795,
        "tags": {
            "addr:city": "İstanbul",
            "addr:district": null,
            "description": "",
            "opening_hours": null,
            "phone": null,
            "branch": null,
            "amenity": "stationery",
            "mobile": null,
            "addr:street": null,
            "cuisine": null,
            "name": "Cemre Kırtasiye",
            "name:en": null,
            "name:uk": null,
            "name:de": null,
            "name:tr": null,
            "name:ru": null,
            "name:ar": null
        }
    },
    {
        "lat": 41.0126385,
        "lon": 29.1990308,
        "tags": {
            "addr:city": "İstanbul",
            "addr:district": null,
            "description": "",
            "opening_hours": null,
            "phone": null,
            "branch": null,
            "amenity": "stationery",
            "mobile": null,
            "addr:street": null,
            "cuisine": null,
            "name": "Cihan Kırtasiye",
            "name:en": null,
            "name:uk": null,
            "name:de": null,
            "name:tr": null,
            "name:ru": null,
            "name:ar": null
        }
    },
    {
        "lat": 41.0515508,
        "lon": 28.9178272,
        "tags": {
            "addr:city": "İstanbul",
            "addr:district": "Eyüpsultan",
            "description": "",
            "opening_hours": null,
            "phone": null,
            "branch": null,
            "amenity": "stationery",
            "mobile": null,
            "addr:street": "Mazharbey Caddesi",
            "cuisine": null,
            "name": "Yücel Kırtasiye",
            "name:en": null,
            "name:uk": null,
            "name:de": null,
            "name:tr": null,
            "name:ru": null,
            "name:ar": null
        }
    },
    {
        "lat": 41.1330942,
        "lon": 28.7770329,
        "tags": {
            "addr:city": "İstanbul",
            "addr:district": null,
            "description": "",
            "opening_hours": null,
            "phone": null,
            "branch": null,
            "amenity": "stationery",
            "mobile": null,
            "addr:street": null,
            "cuisine": null,
            "name": "Kitap - Kirtasiye - Oyuncak",
            "name:en": null,
            "name:uk": null,
            "name:de": null,
            "name:tr": null,
            "name:ru": null,
            "name:ar": null
        }
    },
    {
        "lat": 40.9724496,
        "lon": 29.0502776,
        "tags": {
            "addr:city": "İstanbul",
            "addr:district": null,
            "description": "",
            "opening_hours": null,
            "phone": null,
            "branch": null,
            "amenity": "stationery",
            "mobile": null,
            "addr:street": null,
            "cuisine": null,
            "name": "Barker",
            "name:en": null,
            "name:uk": null,
            "name:de": null,
            "name:tr": null,
            "name:ru": null,
            "name:ar": null
        }
    },
    {
        "lat": 40.9834175,
        "lon": 28.7794854,
        "tags": {
            "addr:city": "İstanbul",
            "addr:district": null,
            "description": "",
            "opening_hours": null,
            "phone": null,
            "branch": null,
            "amenity": "stationery",
            "mobile": null,
            "addr:street": null,
            "cuisine": null,
            "name": "Basınköy Kırtasiye",
            "name:en": null,
            "name:uk": null,
            "name:de": null,
            "name:tr": null,
            "name:ru": null,
            "name:ar": null
        }
    },
    {
        "lat": 41.079225,
        "lon": 28.9234269,
        "tags": {
            "addr:city": "İstanbul",
            "addr:district": null,
            "description": "",
            "opening_hours": null,
            "phone": null,
            "branch": null,
            "amenity": "stationery",
            "mobile": null,
            "addr:street": null,
            "cuisine": null,
            "name": null,
            "name:en": null,
            "name:uk": null,
            "name:de": null,
            "name:tr": null,
            "name:ru": null,
            "name:ar": null
        }
    },
    {
        "lat": 40.9749838,
        "lon": 29.046321,
        "tags": {
            "addr:city": "İstanbul",
            "addr:district": null,
            "description": "",
            "opening_hours": null,
            "phone": null,
            "branch": null,
            "amenity": "stationery",
            "mobile": null,
            "addr:street": "Dr. Faruk Ayanoğlu Caddesi",
            "cuisine": null,
            "name": null,
            "name:en": "Color Box",
            "name:uk": null,
            "name:de": null,
            "name:tr": null,
            "name:ru": null,
            "name:ar": null
        }
    },
    {
        "lat": 40.9891402,
        "lon": 29.0235006,
        "tags": {
            "addr:city": "İstanbul",
            "addr:district": null,
            "description": "",
            "opening_hours": null,
            "phone": null,
            "branch": null,
            "amenity": "stationery",
            "mobile": null,
            "addr:street": null,
            "cuisine": null,
            "name": "Özgür",
            "name:en": null,
            "name:uk": null,
            "name:de": null,
            "name:tr": null,
            "name:ru": null,
            "name:ar": null
        }
    },
    {
        "lat": 40.9845569,
        "lon": 29.0515215,
        "tags": {
            "addr:city": "İstanbul",
            "addr:district": null,
            "description": "",
            "opening_hours": null,
            "phone": null,
            "branch": null,
            "amenity": "stationery",
            "mobile": null,
            "addr:street": null,
            "cuisine": null,
            "name": "Öz Okutur Kırtasiye",
            "name:en": null,
            "name:uk": null,
            "name:de": null,
            "name:tr": null,
            "name:ru": null,
            "name:ar": null
        }
    },
    {
        "lat": 41.1156825,
        "lon": 28.9987735,
        "tags": {
            "addr:city": "İstanbul",
            "addr:district": null,
            "description": "",
            "opening_hours": null,
            "phone": null,
            "branch": null,
            "amenity": "stationery",
            "mobile": null,
            "addr:street": null,
            "cuisine": null,
            "name": "Orion Kırtasiye",
            "name:en": null,
            "name:uk": null,
            "name:de": null,
            "name:tr": null,
            "name:ru": null,
            "name:ar": null
        }
    },
    {
        "lat": 41.1142651,
        "lon": 28.9978174,
        "tags": {
            "addr:city": "İstanbul",
            "addr:district": null,
            "description": "",
            "opening_hours": null,
            "phone": null,
            "branch": null,
            "amenity": "stationery",
            "mobile": null,
            "addr:street": null,
            "cuisine": null,
            "name": "Kırtasiye",
            "name:en": null,
            "name:uk": null,
            "name:de": null,
            "name:tr": null,
            "name:ru": null,
            "name:ar": null
        }
    },
    {
        "lat": 40.9846063,
        "lon": 29.0520705,
        "tags": {
            "addr:city": "İstanbul",
            "addr:district": null,
            "description": "",
            "opening_hours": null,
            "phone": null,
            "branch": null,
            "amenity": "stationery",
            "mobile": null,
            "addr:street": null,
            "cuisine": null,
            "name": "KSC Fotokopi Kırtasiye",
            "name:en": null,
            "name:uk": null,
            "name:de": null,
            "name:tr": null,
            "name:ru": null,
            "name:ar": null
        }
    },
    {
        "lat": 40.95055,
        "lon": 29.1168728,
        "tags": {
            "addr:city": "İstanbul",
            "addr:district": null,
            "description": "",
            "opening_hours": null,
            "phone": null,
            "branch": null,
            "amenity": "stationery",
            "mobile": null,
            "addr:street": null,
            "cuisine": null,
            "name": "Öykü Kırtasiye",
            "name:en": null,
            "name:uk": null,
            "name:de": null,
            "name:tr": null,
            "name:ru": null,
            "name:ar": null
        }
    },
    {
        "lat": 41.1684832,
        "lon": 29.5625388,
        "tags": {
            "addr:city": "İstanbul",
            "addr:district": null,
            "description": "",
            "opening_hours": null,
            "phone": null,
            "branch": null,
            "amenity": "stationery",
            "mobile": null,
            "addr:street": null,
            "cuisine": null,
            "name": "Alternatif Kırtasıye",
            "name:en": null,
            "name:uk": null,
            "name:de": null,
            "name:tr": null,
            "name:ru": null,
            "name:ar": null
        }
    },
    {
        "lat": 41.1684036,
        "lon": 29.565907,
        "tags": {
            "addr:city": "İstanbul",
            "addr:district": null,
            "description": "",
            "opening_hours": null,
            "phone": null,
            "branch": null,
            "amenity": "stationery",
            "mobile": null,
            "addr:street": null,
            "cuisine": null,
            "name": null,
            "name:en": null,
            "name:uk": null,
            "name:de": null,
            "name:tr": null,
            "name:ru": null,
            "name:ar": null
        }
    },
    {
        "lat": 40.9718323,
        "lon": 29.0975535,
        "tags": {
            "addr:city": "İstanbul",
            "addr:district": null,
            "description": "",
            "opening_hours": null,
            "phone": null,
            "branch": null,
            "amenity": "stationery",
            "mobile": null,
            "addr:street": null,
            "cuisine": null,
            "name": "Eren Ofis Kırtasiye",
            "name:en": null,
            "name:uk": null,
            "name:de": null,
            "name:tr": null,
            "name:ru": null,
            "name:ar": null
        }
    },
    {
        "lat": 41.076935,
        "lon": 28.9432048,
        "tags": {
            "addr:city": "İstanbul",
            "addr:district": null,
            "description": "",
            "opening_hours": null,
            "phone": null,
            "branch": null,
            "amenity": "stationery",
            "mobile": null,
            "addr:street": null,
            "cuisine": null,
            "name": "Simge Kırtasiye",
            "name:en": null,
            "name:uk": null,
            "name:de": null,
            "name:tr": null,
            "name:ru": null,
            "name:ar": null
        }
    },
    {
        "lat": 40.9924085,
        "lon": 28.8446645,
        "tags": {
            "addr:city": "İstanbul",
            "addr:district": null,
            "description": "",
            "opening_hours": null,
            "phone": null,
            "branch": null,
            "amenity": "stationery",
            "mobile": null,
            "addr:street": null,
            "cuisine": null,
            "name": "Kaya Kırtasiye",
            "name:en": null,
            "name:uk": null,
            "name:de": null,
            "name:tr": null,
            "name:ru": null,
            "name:ar": null
        }
    },
    {
        "lat": 40.9923999,
        "lon": 28.8447553,
        "tags": {
            "addr:city": "İstanbul",
            "addr:district": null,
            "description": "",
            "opening_hours": null,
            "phone": null,
            "branch": null,
            "amenity": "stationery",
            "mobile": null,
            "addr:street": null,
            "cuisine": null,
            "name": "Muti Kırtasiye",
            "name:en": null,
            "name:uk": null,
            "name:de": null,
            "name:tr": null,
            "name:ru": null,
            "name:ar": null
        }
    },
    {
        "lat": 41.0866064,
        "lon": 28.9234581,
        "tags": {
            "addr:city": "İstanbul",
            "addr:district": null,
            "description": "",
            "opening_hours": null,
            "phone": null,
            "branch": null,
            "amenity": "stationery",
            "mobile": null,
            "addr:street": null,
            "cuisine": null,
            "name": "Doğuş Kırtasiye",
            "name:en": null,
            "name:uk": null,
            "name:de": null,
            "name:tr": null,
            "name:ru": null,
            "name:ar": null
        }
    },
    {
        "lat": 40.9779859,
        "lon": 28.8757751,
        "tags": {
            "addr:city": "İstanbul",
            "addr:district": null,
            "description": "",
            "opening_hours": null,
            "phone": null,
            "branch": null,
            "amenity": "stationery",
            "mobile": null,
            "addr:street": null,
            "cuisine": null,
            "name": null,
            "name:en": null,
            "name:uk": null,
            "name:de": null,
            "name:tr": null,
            "name:ru": null,
            "name:ar": null
        }
    },
    {
        "lat": 40.9939716,
        "lon": 29.0299478,
        "tags": {
            "addr:city": "İstanbul",
            "addr:district": null,
            "description": "",
            "opening_hours": null,
            "phone": null,
            "branch": null,
            "amenity": "stationery",
            "mobile": null,
            "addr:street": null,
            "cuisine": null,
            "name": "Nedim Kırtasiye",
            "name:en": null,
            "name:uk": null,
            "name:de": null,
            "name:tr": null,
            "name:ru": null,
            "name:ar": null
        }
    },
    {
        "lat": 41.050612,
        "lon": 28.9032767,
        "tags": {
            "addr:city": "İstanbul",
            "addr:district": "Bayrampaşa",
            "description": "",
            "opening_hours": "Mo-Su 08:00-22:00",
            "phone": null,
            "branch": null,
            "amenity": "stationery",
            "mobile": null,
            "addr:street": null,
            "cuisine": null,
            "name": "ABC Kırtasiye",
            "name:en": null,
            "name:uk": null,
            "name:de": null,
            "name:tr": null,
            "name:ru": null,
            "name:ar": null
        }
    },
    {
        "lat": 41.1057886,
        "lon": 28.8630582,
        "tags": {
            "addr:city": "İstanbul",
            "addr:district": null,
            "description": "",
            "opening_hours": null,
            "phone": null,
            "branch": null,
            "amenity": "stationery",
            "mobile": null,
            "addr:street": null,
            "cuisine": null,
            "name": "Tuğra Kırtasiye",
            "name:en": null,
            "name:uk": null,
            "name:de": null,
            "name:tr": null,
            "name:ru": null,
            "name:ar": null
        }
    },
    {
        "lat": 41.0815626,
        "lon": 28.973825,
        "tags": {
            "addr:city": "İstanbul",
            "addr:district": null,
            "description": "",
            "opening_hours": null,
            "phone": null,
            "branch": null,
            "amenity": "stationery",
            "mobile": null,
            "addr:street": null,
            "cuisine": null,
            "name": "Zirve Kitap & Kırtasiye",
            "name:en": null,
            "name:uk": null,
            "name:de": null,
            "name:tr": null,
            "name:ru": null,
            "name:ar": null
        }
    },
    {
        "lat": 41.0817291,
        "lon": 28.9741991,
        "tags": {
            "addr:city": "İstanbul",
            "addr:district": null,
            "description": "",
            "opening_hours": null,
            "phone": null,
            "branch": null,
            "amenity": "stationery",
            "mobile": null,
            "addr:street": null,
            "cuisine": null,
            "name": "Mim Copy Center",
            "name:en": null,
            "name:uk": null,
            "name:de": null,
            "name:tr": null,
            "name:ru": null,
            "name:ar": null
        }
    },
    {
        "lat": 41.021219,
        "lon": 28.5791212,
        "tags": {
            "addr:city": "İstanbul",
            "addr:district": null,
            "description": "",
            "opening_hours": null,
            "phone": null,
            "branch": null,
            "amenity": "stationery",
            "mobile": null,
            "addr:street": null,
            "cuisine": null,
            "name": "Nur Kırtasiye",
            "name:en": null,
            "name:uk": null,
            "name:de": null,
            "name:tr": null,
            "name:ru": null,
            "name:ar": null
        }
    },
    {
        "lat": 41.1787962,
        "lon": 28.9915871,
        "tags": {
            "addr:city": "İstanbul",
            "addr:district": null,
            "description": "",
            "opening_hours": null,
            "phone": null,
            "branch": null,
            "amenity": "stationery",
            "mobile": null,
            "addr:street": null,
            "cuisine": null,
            "name": "Ormancı Kırtasiye",
            "name:en": null,
            "name:uk": null,
            "name:de": null,
            "name:tr": null,
            "name:ru": null,
            "name:ar": null
        }
    },
    {
        "lat": 41.1780977,
        "lon": 28.9917005,
        "tags": {
            "addr:city": "İstanbul",
            "addr:district": null,
            "description": "",
            "opening_hours": null,
            "phone": null,
            "branch": null,
            "amenity": "stationery",
            "mobile": null,
            "addr:street": null,
            "cuisine": null,
            "name": "Ormancı",
            "name:en": null,
            "name:uk": null,
            "name:de": null,
            "name:tr": null,
            "name:ru": null,
            "name:ar": null
        }
    },
    {
        "lat": 41.1784188,
        "lon": 28.9917768,
        "tags": {
            "addr:city": "İstanbul",
            "addr:district": null,
            "description": "",
            "opening_hours": null,
            "phone": null,
            "branch": null,
            "amenity": "stationery",
            "mobile": null,
            "addr:street": null,
            "cuisine": null,
            "name": "Cesur Kırtasiye",
            "name:en": null,
            "name:uk": null,
            "name:de": null,
            "name:tr": null,
            "name:ru": null,
            "name:ar": null
        }
    },
    {
        "lat": 41.0822732,
        "lon": 28.9144539,
        "tags": {
            "addr:city": "İstanbul",
            "addr:district": null,
            "description": "",
            "opening_hours": null,
            "phone": null,
            "branch": null,
            "amenity": "stationery",
            "mobile": null,
            "addr:street": null,
            "cuisine": null,
            "name": "Kardeşler Kırtasiye",
            "name:en": null,
            "name:uk": null,
            "name:de": null,
            "name:tr": null,
            "name:ru": null,
            "name:ar": null
        }
    },
    {
        "lat": 41.0760097,
        "lon": 28.9337747,
        "tags": {
            "addr:city": "İstanbul",
            "addr:district": null,
            "description": "",
            "opening_hours": null,
            "phone": null,
            "branch": null,
            "amenity": "stationery",
            "mobile": null,
            "addr:street": null,
            "cuisine": null,
            "name": "Kırtasiye",
            "name:en": null,
            "name:uk": null,
            "name:de": null,
            "name:tr": null,
            "name:ru": null,
            "name:ar": null
        }
    },
    {
        "lat": 41.0722743,
        "lon": 28.9393549,
        "tags": {
            "addr:city": "İstanbul",
            "addr:district": null,
            "description": "",
            "opening_hours": null,
            "phone": null,
            "branch": null,
            "amenity": "stationery",
            "mobile": null,
            "addr:street": null,
            "cuisine": null,
            "name": "Referans Kırtasiye & Oyuncak Bijuteri",
            "name:en": null,
            "name:uk": null,
            "name:de": null,
            "name:tr": null,
            "name:ru": null,
            "name:ar": null
        }
    },
    {
        "lat": 40.9835327,
        "lon": 29.060502,
        "tags": {
            "addr:city": "İstanbul",
            "addr:district": null,
            "description": "",
            "opening_hours": null,
            "phone": null,
            "branch": null,
            "amenity": "stationery",
            "mobile": null,
            "addr:street": null,
            "cuisine": null,
            "name": "Nisan Kırtasiye",
            "name:en": null,
            "name:uk": null,
            "name:de": null,
            "name:tr": null,
            "name:ru": null,
            "name:ar": null
        }
    },
    {
        "lat": 41.0810101,
        "lon": 28.9439173,
        "tags": {
            "addr:city": "İstanbul",
            "addr:district": null,
            "description": "",
            "opening_hours": null,
            "phone": null,
            "branch": null,
            "amenity": "stationery",
            "mobile": null,
            "addr:street": null,
            "cuisine": null,
            "name": "Öztürkler Kırtasiye % Oyuncak",
            "name:en": null,
            "name:uk": null,
            "name:de": null,
            "name:tr": null,
            "name:ru": null,
            "name:ar": null
        }
    },
    {
        "lat": 41.0801265,
        "lon": 28.9394045,
        "tags": {
            "addr:city": "İstanbul",
            "addr:district": null,
            "description": "",
            "opening_hours": null,
            "phone": null,
            "branch": null,
            "amenity": "stationery",
            "mobile": null,
            "addr:street": null,
            "cuisine": null,
            "name": "Nünü Kırtasiye",
            "name:en": null,
            "name:uk": null,
            "name:de": null,
            "name:tr": null,
            "name:ru": null,
            "name:ar": null
        }
    },
    {
        "lat": 40.9904383,
        "lon": 29.0262855,
        "tags": {
            "addr:city": "İstanbul",
            "addr:district": null,
            "description": "",
            "opening_hours": null,
            "phone": null,
            "branch": null,
            "amenity": "stationery",
            "mobile": null,
            "addr:street": null,
            "cuisine": null,
            "name": "Tekce Kaşe",
            "name:en": null,
            "name:uk": null,
            "name:de": null,
            "name:tr": null,
            "name:ru": null,
            "name:ar": null
        }
    },
    {
        "lat": 40.9902794,
        "lon": 29.0267199,
        "tags": {
            "addr:city": "İstanbul",
            "addr:district": null,
            "description": "",
            "opening_hours": null,
            "phone": null,
            "branch": null,
            "amenity": "stationery",
            "mobile": null,
            "addr:street": "Kırtasiyeci Sokak",
            "cuisine": null,
            "name": "Üçler Kırtasiye",
            "name:en": null,
            "name:uk": null,
            "name:de": null,
            "name:tr": null,
            "name:ru": null,
            "name:ar": null
        }
    },
    {
        "lat": 41.1055291,
        "lon": 28.861615,
        "tags": {
            "addr:city": "İstanbul",
            "addr:district": null,
            "description": "",
            "opening_hours": null,
            "phone": null,
            "branch": null,
            "amenity": "stationery",
            "mobile": null,
            "addr:street": null,
            "cuisine": null,
            "name": "Altın Kırtasiye",
            "name:en": null,
            "name:uk": null,
            "name:de": null,
            "name:tr": null,
            "name:ru": null,
            "name:ar": null
        }
    },
    {
        "lat": 41.0002349,
        "lon": 28.6971285,
        "tags": {
            "addr:city": "İstanbul",
            "addr:district": "Esenyurt",
            "description": "",
            "opening_hours": "Mo-Sa 08:00-20:00; Su 10:00-20:00",
            "phone": "0850 272 53 53",
            "branch": null,
            "amenity": "stationery",
            "mobile": null,
            "addr:street": "68. Sokak",
            "cuisine": null,
            "name": "Kırtasiye Dünyası",
            "name:en": null,
            "name:uk": null,
            "name:de": null,
            "name:tr": null,
            "name:ru": null,
            "name:ar": null
        }
    },
    {
        "lat": 41.0026313,
        "lon": 28.6946493,
        "tags": {
            "addr:city": "İstanbul",
            "addr:district": null,
            "description": "",
            "opening_hours": null,
            "phone": null,
            "branch": null,
            "amenity": "stationery",
            "mobile": null,
            "addr:street": null,
            "cuisine": null,
            "name": "Spot Kırtasiye ketapevi oyuncak",
            "name:en": null,
            "name:uk": null,
            "name:de": null,
            "name:tr": null,
            "name:ru": null,
            "name:ar": null
        }
    },
    {
        "lat": 41.0004421,
        "lon": 28.6472627,
        "tags": {
            "addr:city": "İstanbul",
            "addr:district": null,
            "description": "",
            "opening_hours": null,
            "phone": null,
            "branch": null,
            "amenity": "stationery",
            "mobile": null,
            "addr:street": null,
            "cuisine": null,
            "name": "Cansev Kırtasiye",
            "name:en": null,
            "name:uk": null,
            "name:de": null,
            "name:tr": null,
            "name:ru": null,
            "name:ar": null
        }
    },
    {
        "lat": 40.9924331,
        "lon": 29.1205319,
        "tags": {
            "addr:city": "İstanbul",
            "addr:district": null,
            "description": "",
            "opening_hours": null,
            "phone": null,
            "branch": null,
            "amenity": "stationery",
            "mobile": null,
            "addr:street": null,
            "cuisine": null,
            "name": "Elit Kırtasiye",
            "name:en": null,
            "name:uk": null,
            "name:de": null,
            "name:tr": null,
            "name:ru": null,
            "name:ar": null
        }
    },
    {
        "lat": 41.0327035,
        "lon": 28.6785508,
        "tags": {
            "addr:city": "İstanbul",
            "addr:district": null,
            "description": "",
            "opening_hours": null,
            "phone": null,
            "branch": null,
            "amenity": "stationery",
            "mobile": null,
            "addr:street": null,
            "cuisine": null,
            "name": "Serhat kitapevi",
            "name:en": null,
            "name:uk": null,
            "name:de": null,
            "name:tr": null,
            "name:ru": null,
            "name:ar": null
        }
    },
    {
        "lat": 41.0151308,
        "lon": 28.8962731,
        "tags": {
            "addr:city": "İstanbul",
            "addr:district": null,
            "description": "",
            "opening_hours": null,
            "phone": null,
            "branch": null,
            "amenity": "stationery",
            "mobile": null,
            "addr:street": null,
            "cuisine": null,
            "name": "Kardelen Kırtasiye",
            "name:en": null,
            "name:uk": null,
            "name:de": null,
            "name:tr": null,
            "name:ru": null,
            "name:ar": null
        }
    },
    {
        "lat": 40.9837946,
        "lon": 28.7079582,
        "tags": {
            "addr:city": "İstanbul",
            "addr:district": null,
            "description": "",
            "opening_hours": "Sa,Su 08:00-23:00; Mo-Fr 07:00-23:00",
            "phone": null,
            "branch": null,
            "amenity": "stationery",
            "mobile": null,
            "addr:street": null,
            "cuisine": null,
            "name": "Özseda Giyim ve Kırtasiye",
            "name:en": null,
            "name:uk": null,
            "name:de": null,
            "name:tr": null,
            "name:ru": null,
            "name:ar": null
        }
    },
    {
        "lat": 40.9185018,
        "lon": 29.1337488,
        "tags": {
            "addr:city": "İstanbul",
            "addr:district": null,
            "description": "",
            "opening_hours": null,
            "phone": null,
            "branch": null,
            "amenity": "stationery",
            "mobile": null,
            "addr:street": null,
            "cuisine": null,
            "name": "Ceren Kırtasiye",
            "name:en": null,
            "name:uk": null,
            "name:de": null,
            "name:tr": null,
            "name:ru": null,
            "name:ar": null
        }
    },
    {
        "lat": 41.0501864,
        "lon": 28.5141844,
        "tags": {
            "addr:city": "İstanbul",
            "addr:district": null,
            "description": "",
            "opening_hours": null,
            "phone": null,
            "branch": null,
            "amenity": "stationery",
            "mobile": null,
            "addr:street": null,
            "cuisine": null,
            "name": "Atlas",
            "name:en": null,
            "name:uk": null,
            "name:de": null,
            "name:tr": null,
            "name:ru": null,
            "name:ar": null
        }
    },
    {
        "lat": 40.9915564,
        "lon": 29.0284317,
        "tags": {
            "addr:city": "İstanbul",
            "addr:district": null,
            "description": "",
            "opening_hours": null,
            "phone": null,
            "branch": null,
            "amenity": "stationery",
            "mobile": null,
            "addr:street": null,
            "cuisine": null,
            "name": "Şebnem Kırtasiye",
            "name:en": null,
            "name:uk": null,
            "name:de": null,
            "name:tr": null,
            "name:ru": null,
            "name:ar": null
        }
    },
    {
        "lat": 40.9655491,
        "lon": 29.084246,
        "tags": {
            "addr:city": "İstanbul",
            "addr:district": "Kadıköy",
            "description": "",
            "opening_hours": "Mo-Sa 08:30-19:30",
            "phone": null,
            "branch": null,
            "amenity": "stationery",
            "mobile": null,
            "addr:street": "Kaptan Arif Sokağı",
            "cuisine": null,
            "name": "Birlik Store",
            "name:en": null,
            "name:uk": null,
            "name:de": null,
            "name:tr": null,
            "name:ru": null,
            "name:ar": null
        }
    },
    {
        "lat": 41.0235484,
        "lon": 28.9742207,
        "tags": {
            "addr:city": "İstanbul",
            "addr:district": null,
            "description": "",
            "opening_hours": null,
            "phone": null,
            "branch": null,
            "amenity": "stationery",
            "mobile": null,
            "addr:street": null,
            "cuisine": null,
            "name": null,
            "name:en": null,
            "name:uk": null,
            "name:de": null,
            "name:tr": null,
            "name:ru": null,
            "name:ar": null
        }
    },
    {
        "lat": 40.9750899,
        "lon": 29.053411,
        "tags": {
            "addr:city": "İstanbul",
            "addr:district": "Kadıköy",
            "description": "",
            "opening_hours": null,
            "phone": "https://www.barker.com.tr/",
            "branch": null,
            "amenity": "stationery",
            "mobile": null,
            "addr:street": "Bağdat Caddesi",
            "cuisine": null,
            "name": "Barker Oyuncak Kitap Kırtasiye",
            "name:en": null,
            "name:uk": null,
            "name:de": null,
            "name:tr": null,
            "name:ru": null,
            "name:ar": null
        }
    },
    {
        "lat": 41.1869444,
        "lon": 29.0412744,
        "tags": {
            "addr:city": "İstanbul",
            "addr:district": null,
            "description": "",
            "opening_hours": null,
            "phone": null,
            "branch": null,
            "amenity": "stationery",
            "mobile": null,
            "addr:street": null,
            "cuisine": null,
            "name": "NAR Kırtasiye",
            "name:en": null,
            "name:uk": null,
            "name:de": null,
            "name:tr": null,
            "name:ru": null,
            "name:ar": null
        }
    },
    {
        "lat": 40.9282482,
        "lon": 29.1406723,
        "tags": {
            "addr:city": "İstanbul",
            "addr:district": null,
            "description": "",
            "opening_hours": null,
            "phone": null,
            "branch": null,
            "amenity": "stationery",
            "mobile": null,
            "addr:street": null,
            "cuisine": null,
            "name": "Zeynep Kırtasiye",
            "name:en": null,
            "name:uk": null,
            "name:de": null,
            "name:tr": null,
            "name:ru": null,
            "name:ar": null
        }
    },
    {
        "lat": 40.8291021,
        "lon": 29.3219869,
        "tags": {
            "addr:city": "İstanbul",
            "addr:district": null,
            "description": "",
            "opening_hours": null,
            "phone": null,
            "branch": null,
            "amenity": "stationery",
            "mobile": null,
            "addr:street": null,
            "cuisine": null,
            "name": "Emin Kırtasiye",
            "name:en": null,
            "name:uk": null,
            "name:de": null,
            "name:tr": null,
            "name:ru": null,
            "name:ar": null
        }
    },
    {
        "lat": 41.0997263,
        "lon": 28.8991454,
        "tags": {
            "addr:city": "İstanbul",
            "addr:district": null,
            "description": "",
            "opening_hours": null,
            "phone": null,
            "branch": null,
            "amenity": "stationery",
            "mobile": null,
            "addr:street": null,
            "cuisine": null,
            "name": "Eylül Kırtasiye",
            "name:en": null,
            "name:uk": null,
            "name:de": null,
            "name:tr": null,
            "name:ru": null,
            "name:ar": null
        }
    },
    {
        "lat": 41.0359009,
        "lon": 28.9233834,
        "tags": {
            "addr:city": "İstanbul",
            "addr:district": "Eyüpsultan",
            "description": "",
            "opening_hours": null,
            "phone": "+90 212 501 53 39",
            "branch": null,
            "amenity": "stationery",
            "mobile": null,
            "addr:street": "Demirkapı Caddesi",
            "cuisine": null,
            "name": "Marmara Ofia Kırtasiye",
            "name:en": null,
            "name:uk": null,
            "name:de": null,
            "name:tr": null,
            "name:ru": null,
            "name:ar": null
        }
    },
    {
        "lat": 41.0019299,
        "lon": 29.0787154,
        "tags": {
            "addr:city": "İstanbul",
            "addr:district": null,
            "description": "",
            "opening_hours": null,
            "phone": "+90 533 681 17 28",
            "branch": null,
            "amenity": "stationery",
            "mobile": null,
            "addr:street": null,
            "cuisine": null,
            "name": "Tertip 2 Kirtasiye",
            "name:en": null,
            "name:uk": null,
            "name:de": null,
            "name:tr": null,
            "name:ru": null,
            "name:ar": null
        }
    },
    {
        "lat": 41.0497747,
        "lon": 29.2435013,
        "tags": {
            "addr:city": "İstanbul",
            "addr:district": null,
            "description": "",
            "opening_hours": "Mo-Fr 07:45-20:00; Sa-Su 09:30-20:00",
            "phone": null,
            "branch": null,
            "amenity": "stationery",
            "mobile": null,
            "addr:street": null,
            "cuisine": null,
            "name": "Ceren Kırtasiye",
            "name:en": null,
            "name:uk": null,
            "name:de": null,
            "name:tr": null,
            "name:ru": null,
            "name:ar": null
        }
    },
    {
        "lat": 41.0117568,
        "lon": 29.0781527,
        "tags": {
            "addr:city": "İstanbul",
            "addr:district": null,
            "description": "",
            "opening_hours": null,
            "phone": null,
            "branch": null,
            "amenity": "stationery",
            "mobile": null,
            "addr:street": null,
            "cuisine": null,
            "name": "Adel",
            "name:en": null,
            "name:uk": null,
            "name:de": null,
            "name:tr": null,
            "name:ru": null,
            "name:ar": null
        }
    },
    {
        "lat": 41.0114039,
        "lon": 29.0781696,
        "tags": {
            "addr:city": "İstanbul",
            "addr:district": null,
            "description": "",
            "opening_hours": null,
            "phone": null,
            "branch": null,
            "amenity": "stationery",
            "mobile": null,
            "addr:street": null,
            "cuisine": null,
            "name": "Tertip Kırtasiye",
            "name:en": null,
            "name:uk": null,
            "name:de": null,
            "name:tr": null,
            "name:ru": null,
            "name:ar": null
        }
    },
    {
        "lat": 40.9879783,
        "lon": 29.2330078,
        "tags": {
            "addr:city": "İstanbul",
            "addr:district": null,
            "description": "",
            "opening_hours": null,
            "phone": null,
            "branch": null,
            "amenity": "stationery",
            "mobile": null,
            "addr:street": null,
            "cuisine": null,
            "name": "Sinerji Kitap Kırtasiye",
            "name:en": null,
            "name:uk": null,
            "name:de": null,
            "name:tr": null,
            "name:ru": null,
            "name:ar": null
        }
    },
    {
        "lat": 41.040117,
        "lon": 28.9551103,
        "tags": {
            "addr:city": "İstanbul",
            "addr:district": null,
            "description": "",
            "opening_hours": null,
            "phone": null,
            "branch": null,
            "amenity": "stationery",
            "mobile": null,
            "addr:street": null,
            "cuisine": null,
            "name": "Septay kırtasiye",
            "name:en": null,
            "name:uk": null,
            "name:de": null,
            "name:tr": null,
            "name:ru": null,
            "name:ar": null
        }
    },
    {
        "lat": 40.978764,
        "lon": 29.1080092,
        "tags": {
            "addr:city": "İstanbul",
            "addr:district": "Ataşehir",
            "description": "",
            "opening_hours": null,
            "phone": null,
            "branch": null,
            "amenity": "stationery",
            "mobile": null,
            "addr:street": "Büyük Zafer Sokağı",
            "cuisine": null,
            "name": "HG Copy Center",
            "name:en": null,
            "name:uk": null,
            "name:de": null,
            "name:tr": null,
            "name:ru": null,
            "name:ar": null
        }
    },
    {
        "lat": 40.9254536,
        "lon": 29.1331919,
        "tags": {
            "addr:city": "İstanbul",
            "addr:district": null,
            "description": "",
            "opening_hours": null,
            "phone": "+90 216 3833467",
            "branch": null,
            "amenity": "stationery",
            "mobile": null,
            "addr:street": null,
            "cuisine": null,
            "name": "Toprak Kırtasiye",
            "name:en": null,
            "name:uk": null,
            "name:de": null,
            "name:tr": null,
            "name:ru": null,
            "name:ar": null
        }
    }
]