[
    {
        "lat": 40.9019414,
        "lon": 29.1674195,
        "tags": {
            "addr:city": "İstanbul",
            "addr:district": null,
            "description": "",
            "opening_hours": null,
            "phone": null,
            "branch": null,
            "amenity": "tailor",
            "mobile": null,
            "addr:street": null,
            "cuisine": null,
            "name": "Terzi",
            "name:en": null,
            "name:uk": null,
            "name:de": null,
            "name:tr": null,
            "name:ru": null,
            "name:ar": null
        }
    },
    {
        "lat": 41.0470105,
        "lon": 28.9859053,
        "tags": {
            "addr:city": "İstanbul",
            "addr:district": "Şişli,",
            "description": "",
            "opening_hours": null,
            "phone": "+90 534 200 95 91",
            "branch": null,
            "amenity": "tailor",
            "mobile": null,
            "addr:street": "Papa Roncalli Sokak",
            "cuisine": null,
            "name": "Bizim Terzi",
            "name:en": null,
            "name:uk": null,
            "name:de": null,
            "name:tr": null,
            "name:ru": null,
            "name:ar": null
        }
    },
    {
        "lat": 41.0348718,
        "lon": 28.9782512,
        "tags": {
            "addr:city": "İstanbul",
            "addr:district": null,
            "description": "",
            "opening_hours": null,
            "phone": null,
            "branch": null,
            "amenity": "tailor",
            "mobile": null,
            "addr:street": null,
            "cuisine": null,
            "name": "Iliya Gülersen",
            "name:en": null,
            "name:uk": null,
            "name:de": null,
            "name:tr": null,
            "name:ru": null,
            "name:ar": null
        }
    },
    {
        "lat": 41.0737626,
        "lon": 28.8879064,
        "tags": {
            "addr:city": "İstanbul",
            "addr:district": null,
            "description": "",
            "opening_hours": null,
            "phone": null,
            "branch": null,
            "amenity": "tailor",
            "mobile": null,
            "addr:street": null,
            "cuisine": null,
            "name": "Şenkal",
            "name:en": null,
            "name:uk": null,
            "name:de": null,
            "name:tr": null,
            "name:ru": null,
            "name:ar": null
        }
    },
    {
        "lat": 40.9077928,
        "lon": 29.1801969,
        "tags": {
            "addr:city": "İstanbul",
            "addr:district": null,
            "description": "",
            "opening_hours": null,
            "phone": null,
            "branch": null,
            "amenity": "tailor",
            "mobile": null,
            "addr:street": null,
            "cuisine": null,
            "name": "Celil Terzi",
            "name:en": null,
            "name:uk": null,
            "name:de": null,
            "name:tr": null,
            "name:ru": null,
            "name:ar": null
        }
    },
    {
        "lat": 41.0926937,
        "lon": 29.0852107,
        "tags": {
            "addr:city": "İstanbul",
            "addr:district": null,
            "description": "",
            "opening_hours": null,
            "phone": null,
            "branch": null,
            "amenity": "tailor",
            "mobile": null,
            "addr:street": null,
            "cuisine": null,
            "name": "şen terzi",
            "name:en": null,
            "name:uk": null,
            "name:de": null,
            "name:tr": null,
            "name:ru": null,
            "name:ar": null
        }
    },
    {
        "lat": 41.0504211,
        "lon": 28.9845138,
        "tags": {
            "addr:city": "İstanbul",
            "addr:district": null,
            "description": "",
            "opening_hours": null,
            "phone": null,
            "branch": null,
            "amenity": "tailor",
            "mobile": null,
            "addr:street": null,
            "cuisine": null,
            "name": null,
            "name:en": null,
            "name:uk": null,
            "name:de": null,
            "name:tr": null,
            "name:ru": null,
            "name:ar": null
        }
    },
    {
        "lat": 40.9964249,
        "lon": 28.9278755,
        "tags": {
            "addr:city": "Istanbul",
            "addr:district": "Fatih",
            "description": "",
            "opening_hours": null,
            "phone": null,
            "branch": null,
            "amenity": "tailor",
            "mobile": null,
            "addr:street": "Imam Asir Sokak",
            "cuisine": null,
            "name": "Terzi tayip",
            "name:en": null,
            "name:uk": null,
            "name:de": null,
            "name:tr": null,
            "name:ru": null,
            "name:ar": "الخياط طيب"
        }
    },
    {
        "lat": 40.9965844,
        "lon": 28.924824,
        "tags": {
            "addr:city": "Istanbul",
            "addr:district": "Fatih",
            "description": "",
            "opening_hours": null,
            "phone": null,
            "branch": null,
            "amenity": "tailor",
            "mobile": null,
            "addr:street": "Samancı Odalar sokağı",
            "cuisine": null,
            "name": "Kurucu tekstil",
            "name:en": null,
            "name:uk": null,
            "name:de": null,
            "name:tr": null,
            "name:ru": null,
            "name:ar": "خياط كوروجو"
        }
    },
    {
        "lat": 41.0244389,
        "lon": 28.9549199,
        "tags": {
            "addr:city": "Istanbul",
            "addr:district": "Fatih",
            "description": "",
            "opening_hours": null,
            "phone": null,
            "branch": null,
            "amenity": "tailor",
            "mobile": null,
            "addr:street": "Karadeniz Caddesi",
            "cuisine": null,
            "name": "Fatih Terzisi",
            "name:en": null,
            "name:uk": null,
            "name:de": null,
            "name:tr": null,
            "name:ru": null,
            "name:ar": "فاتح تيرزيسي"
        }
    },
    {
        "lat": 40.9978733,
        "lon": 28.929503,
        "tags": {
            "addr:city": "Istanbul",
            "addr:district": "Fatih",
            "description": "",
            "opening_hours": null,
            "phone": null,
            "branch": null,
            "amenity": "tailor",
            "mobile": null,
            "addr:street": "İmrahor ilyasbey caddesi",
            "cuisine": null,
            "name": "Ayşoda terzi",
            "name:en": null,
            "name:uk": null,
            "name:de": null,
            "name:tr": null,
            "name:ru": null,
            "name:ar": "الخياط أيشودا"
        }
    },
    {
        "lat": 40.9944094,
        "lon": 28.9251307,
        "tags": {
            "addr:city": "Istanbul",
            "addr:district": "Fatih",
            "description": "",
            "opening_hours": null,
            "phone": null,
            "branch": null,
            "amenity": "tailor",
            "mobile": null,
            "addr:street": "Yedikule Caddesi",
            "cuisine": null,
            "name": "Terzi hasan",
            "name:en": null,
            "name:uk": null,
            "name:de": null,
            "name:tr": null,
            "name:ru": null,
            "name:ar": "الخياط حسن"
        }
    },
    {
        "lat": 40.9971757,
        "lon": 28.9290501,
        "tags": {
            "addr:city": "Istanbul",
            "addr:district": "Fatih",
            "description": "",
            "opening_hours": null,
            "phone": null,
            "branch": null,
            "amenity": "tailor",
            "mobile": null,
            "addr:street": null,
            "cuisine": null,
            "name": "Gül Kuru temizleme ve terzi",
            "name:en": null,
            "name:uk": null,
            "name:de": null,
            "name:tr": null,
            "name:ru": null,
            "name:ar": "غول للكوي الجاف والخياطة"
        }
    },
    {
        "lat": 41.0014566,
        "lon": 28.9345741,
        "tags": {
            "addr:city": "Istanbul",
            "addr:district": "Fatih",
            "description": "",
            "opening_hours": null,
            "phone": null,
            "branch": null,
            "amenity": "tailor",
            "mobile": null,
            "addr:street": "Abdurrahman Nafiz Gürman Caddesi",
            "cuisine": null,
            "name": "inci tekstil",
            "name:en": null,
            "name:uk": null,
            "name:de": null,
            "name:tr": null,
            "name:ru": null,
            "name:ar": "انجي للأقمشة"
        }
    },
    {
        "lat": 41.0001343,
        "lon": 28.9311749,
        "tags": {
            "addr:city": "Istanbul",
            "addr:district": "Fatih",
            "description": "",
            "opening_hours": null,
            "phone": null,
            "branch": null,
            "amenity": "tailor",
            "mobile": null,
            "addr:street": "Sarraf Tahsin Sokak",
            "cuisine": null,
            "name": "Sizin Terzi",
            "name:en": null,
            "name:uk": null,
            "name:de": null,
            "name:tr": null,
            "name:ru": null,
            "name:ar": "سيزين للخياطة"
        }
    },
    {
        "lat": 41.0086087,
        "lon": 28.9500498,
        "tags": {
            "addr:city": "Istanbul",
            "addr:district": "Fatih",
            "description": "",
            "opening_hours": null,
            "phone": null,
            "branch": null,
            "amenity": "tailor",
            "mobile": null,
            "addr:street": "Namık kemal caddesi",
            "cuisine": null,
            "name": "Terzi",
            "name:en": null,
            "name:uk": null,
            "name:de": null,
            "name:tr": null,
            "name:ru": null,
            "name:ar": "خياط"
        }
    },
    {
        "lat": 41.0076174,
        "lon": 28.9437898,
        "tags": {
            "addr:city": "Istanbul",
            "addr:district": "Fatih",
            "description": "",
            "opening_hours": null,
            "phone": null,
            "branch": null,
            "amenity": "tailor",
            "mobile": null,
            "addr:street": "Kocamustafapaşa caddesi",
            "cuisine": null,
            "name": "Terzi sefer",
            "name:en": null,
            "name:uk": null,
            "name:de": null,
            "name:tr": null,
            "name:ru": null,
            "name:ar": "الخياط سفر"
        }
    },
    {
        "lat": 41.0184875,
        "lon": 28.932126,
        "tags": {
            "addr:city": "Istanbul",
            "addr:district": "Fatih",
            "description": "",
            "opening_hours": null,
            "phone": null,
            "branch": null,
            "amenity": "tailor",
            "mobile": null,
            "addr:street": "Tatlıpınar Caddesi",
            "cuisine": null,
            "name": "Terzi 78",
            "name:en": null,
            "name:uk": null,
            "name:de": null,
            "name:tr": null,
            "name:ru": null,
            "name:ar": "خياط 78"
        }
    },
    {
        "lat": 41.0189119,
        "lon": 28.9291248,
        "tags": {
            "addr:city": "Istanbul",
            "addr:district": "Fatih",
            "description": "",
            "opening_hours": null,
            "phone": null,
            "branch": null,
            "amenity": "tailor",
            "mobile": null,
            "addr:street": "Dr. Nasırbey Sokağı",
            "cuisine": null,
            "name": "Terzi şükrü",
            "name:en": null,
            "name:uk": null,
            "name:de": null,
            "name:tr": null,
            "name:ru": null,
            "name:ar": "الخياط شكري"
        }
    },
    {
        "lat": 41.0202445,
        "lon": 28.9279272,
        "tags": {
            "addr:city": "Istanbul",
            "addr:district": "Fatih",
            "description": "",
            "opening_hours": null,
            "phone": "02125232244",
            "branch": null,
            "amenity": "tailor",
            "mobile": null,
            "addr:street": "Topkapı caddesi",
            "cuisine": null,
            "name": "Sivas terzi",
            "name:en": null,
            "name:uk": null,
            "name:de": null,
            "name:tr": null,
            "name:ru": null,
            "name:ar": "خياط سيفاس"
        }
    },
    {
        "lat": 41.0177171,
        "lon": 28.9551116,
        "tags": {
            "addr:city": "Istanbul",
            "addr:district": "Fatih",
            "description": "",
            "opening_hours": null,
            "phone": "02125255659",
            "branch": null,
            "amenity": "tailor",
            "mobile": null,
            "addr:street": "Kırbacı Sokak",
            "cuisine": null,
            "name": "Terzi Şaban",
            "name:en": null,
            "name:uk": null,
            "name:de": null,
            "name:tr": null,
            "name:ru": null,
            "name:ar": "الخياط شعبان"
        }
    },
    {
        "lat": 41.0041651,
        "lon": 28.9279722,
        "tags": {
            "addr:city": "Istanbul",
            "addr:district": "Fatih",
            "description": "",
            "opening_hours": null,
            "phone": null,
            "branch": null,
            "amenity": "tailor",
            "mobile": null,
            "addr:street": "Meşeli Mescit Sokak",
            "cuisine": null,
            "name": "Terzi Yılmaz",
            "name:en": null,
            "name:uk": null,
            "name:de": null,
            "name:tr": null,
            "name:ru": null,
            "name:ar": "تيرزي يلماز"
        }
    },
    {
        "lat": 41.0046723,
        "lon": 28.9297618,
        "tags": {
            "addr:city": "Istanbul",
            "addr:district": "Fatih",
            "description": "",
            "opening_hours": null,
            "phone": null,
            "branch": null,
            "amenity": "tailor",
            "mobile": null,
            "addr:street": "Sebzeci Sokak",
            "cuisine": null,
            "name": "Uğur Giyim Terzi",
            "name:en": null,
            "name:uk": null,
            "name:de": null,
            "name:tr": null,
            "name:ru": null,
            "name:ar": "اوغور غييم تيرزي"
        }
    },
    {
        "lat": 41.0041983,
        "lon": 28.9296252,
        "tags": {
            "addr:city": "Istanbul",
            "addr:district": "Fatih",
            "description": "",
            "opening_hours": null,
            "phone": null,
            "branch": null,
            "amenity": "tailor",
            "mobile": null,
            "addr:street": "Sebzeci Sokak",
            "cuisine": null,
            "name": "Stil Terzi",
            "name:en": null,
            "name:uk": null,
            "name:de": null,
            "name:tr": null,
            "name:ru": null,
            "name:ar": "ستيل تيرزي"
        }
    },
    {
        "lat": 40.9992288,
        "lon": 28.9265816,
        "tags": {
            "addr:city": "Istanbul",
            "addr:district": "Fatih",
            "description": "",
            "opening_hours": null,
            "phone": null,
            "branch": null,
            "amenity": "tailor",
            "mobile": null,
            "addr:street": "Hacı Kadın Caddesi",
            "cuisine": null,
            "name": "Gönül Terzisi",
            "name:en": null,
            "name:uk": null,
            "name:de": null,
            "name:tr": null,
            "name:ru": null,
            "name:ar": "خياط غونول"
        }
    },
    {
        "lat": 41.0028887,
        "lon": 28.9255189,
        "tags": {
            "addr:city": "Istanbul",
            "addr:district": "Fatih",
            "description": "",
            "opening_hours": null,
            "phone": null,
            "branch": null,
            "amenity": "tailor",
            "mobile": null,
            "addr:street": "Ağaçkakan Sokağı",
            "cuisine": null,
            "name": "Terzi",
            "name:en": null,
            "name:uk": null,
            "name:de": null,
            "name:tr": null,
            "name:ru": null,
            "name:ar": "خياط"
        }
    },
    {
        "lat": 41.0028466,
        "lon": 28.9247071,
        "tags": {
            "addr:city": "Istanbul",
            "addr:district": "Fatih",
            "description": "",
            "opening_hours": null,
            "phone": null,
            "branch": null,
            "amenity": "tailor",
            "mobile": null,
            "addr:street": "Kadın Nine Sokağı",
            "cuisine": null,
            "name": "Selin terzi",
            "name:en": null,
            "name:uk": null,
            "name:de": null,
            "name:tr": null,
            "name:ru": null,
            "name:ar": "خياط سيلين"
        }
    },
    {
        "lat": 41.0298092,
        "lon": 28.9414252,
        "tags": {
            "addr:city": "Istanbul",
            "addr:district": "Fatih",
            "description": "",
            "opening_hours": null,
            "phone": null,
            "branch": null,
            "amenity": "tailor",
            "mobile": null,
            "addr:street": "Draman Caddesi",
            "cuisine": null,
            "name": "Terzi",
            "name:en": null,
            "name:uk": null,
            "name:de": null,
            "name:tr": null,
            "name:ru": null,
            "name:ar": "خياط"
        }
    },
    {
        "lat": 41.0037448,
        "lon": 28.9267674,
        "tags": {
            "addr:city": "Istanbul",
            "addr:district": "Fatih",
            "description": "",
            "opening_hours": null,
            "phone": null,
            "branch": null,
            "amenity": "tailor",
            "mobile": null,
            "addr:street": "Ağa Çayırı Caddesi",
            "cuisine": null,
            "name": "Terzi",
            "name:en": null,
            "name:uk": null,
            "name:de": null,
            "name:tr": null,
            "name:ru": null,
            "name:ar": "تيرزيجي"
        }
    },
    {
        "lat": 41.0214289,
        "lon": 28.9462448,
        "tags": {
            "addr:city": "Istanbul",
            "addr:district": "Fatih",
            "description": "",
            "opening_hours": null,
            "phone": null,
            "branch": null,
            "amenity": "tailor",
            "mobile": null,
            "addr:street": "Başhoca sokak",
            "cuisine": null,
            "name": "Terzi ayhan",
            "name:en": null,
            "name:uk": null,
            "name:de": null,
            "name:tr": null,
            "name:ru": null,
            "name:ar": "الخياط ايهان"
        }
    },
    {
        "lat": 41.0225187,
        "lon": 28.9471305,
        "tags": {
            "addr:city": "Istanbul",
            "addr:district": "Fatih",
            "description": "",
            "opening_hours": null,
            "phone": null,
            "branch": null,
            "amenity": "tailor",
            "mobile": null,
            "addr:street": "Fatih caddesi",
            "cuisine": null,
            "name": "Erkanlar terzi",
            "name:en": null,
            "name:uk": null,
            "name:de": null,
            "name:tr": null,
            "name:ru": null,
            "name:ar": "خياط اركانلار"
        }
    },
    {
        "lat": 41.0217441,
        "lon": 28.9484541,
        "tags": {
            "addr:city": "Istanbul",
            "addr:district": "Fatih",
            "description": "",
            "opening_hours": null,
            "phone": null,
            "branch": null,
            "amenity": "tailor",
            "mobile": null,
            "addr:street": "Başmüezzin sokak",
            "cuisine": null,
            "name": "Mihri mah",
            "name:en": null,
            "name:uk": null,
            "name:de": null,
            "name:tr": null,
            "name:ru": null,
            "name:ar": "مهري ماه"
        }
    },
    {
        "lat": 41.023063,
        "lon": 28.9480836,
        "tags": {
            "addr:city": "Istanbul",
            "addr:district": "Fatih",
            "description": "",
            "opening_hours": null,
            "phone": null,
            "branch": null,
            "amenity": "tailor",
            "mobile": null,
            "addr:street": "Musannif sokak",
            "cuisine": null,
            "name": "Mevlana terzi",
            "name:en": null,
            "name:uk": null,
            "name:de": null,
            "name:tr": null,
            "name:ru": null,
            "name:ar": "خياط مولانا"
        }
    },
    {
        "lat": 41.0235082,
        "lon": 28.9475584,
        "tags": {
            "addr:city": "Istanbul",
            "addr:district": "Fatih",
            "description": "",
            "opening_hours": null,
            "phone": null,
            "branch": null,
            "amenity": "tailor",
            "mobile": null,
            "addr:street": "Mükkerir sokak",
            "cuisine": null,
            "name": "Bay & bayan terzi",
            "name:en": null,
            "name:uk": null,
            "name:de": null,
            "name:tr": null,
            "name:ru": null,
            "name:ar": "خياط باي اند بيان"
        }
    },
    {
        "lat": 41.0209504,
        "lon": 28.9469858,
        "tags": {
            "addr:city": "Istanbul",
            "addr:district": "Fatih",
            "description": "",
            "opening_hours": null,
            "phone": null,
            "branch": null,
            "amenity": "tailor",
            "mobile": null,
            "addr:street": "Başmüezzin sokak",
            "cuisine": null,
            "name": "Türker",
            "name:en": null,
            "name:uk": null,
            "name:de": null,
            "name:tr": null,
            "name:ru": null,
            "name:ar": "توركر"
        }
    },
    {
        "lat": 41.0215278,
        "lon": 28.946488,
        "tags": {
            "addr:city": "Istanbul",
            "addr:district": "Fatih",
            "description": "",
            "opening_hours": null,
            "phone": null,
            "branch": null,
            "amenity": "tailor",
            "mobile": null,
            "addr:street": "yedi emirler sokak",
            "cuisine": null,
            "name": "Terzi ergün",
            "name:en": null,
            "name:uk": null,
            "name:de": null,
            "name:tr": null,
            "name:ru": null,
            "name:ar": "خياط ايرجون"
        }
    },
    {
        "lat": 41.0220027,
        "lon": 28.9467216,
        "tags": {
            "addr:city": "Istanbul",
            "addr:district": "Fatih",
            "description": "",
            "opening_hours": null,
            "phone": null,
            "branch": null,
            "amenity": "tailor",
            "mobile": null,
            "addr:street": "Hafiz paşa sokak",
            "cuisine": null,
            "name": "Medine terzi",
            "name:en": null,
            "name:uk": null,
            "name:de": null,
            "name:tr": null,
            "name:ru": null,
            "name:ar": "خياط المدينة"
        }
    },
    {
        "lat": 41.0142113,
        "lon": 28.9613208,
        "tags": {
            "addr:city": "Istanbul",
            "addr:district": "Fatih",
            "description": "",
            "opening_hours": null,
            "phone": null,
            "branch": null,
            "amenity": "tailor",
            "mobile": null,
            "addr:street": "Kirazlı mescit sokak",
            "cuisine": null,
            "name": "Geylani tekstil",
            "name:en": null,
            "name:uk": null,
            "name:de": null,
            "name:tr": null,
            "name:ru": null,
            "name:ar": "جيلاني تيكستيل"
        }
    },
    {
        "lat": 41.013681,
        "lon": 28.9612538,
        "tags": {
            "addr:city": "Istanbul",
            "addr:district": "Fatih",
            "description": "",
            "opening_hours": null,
            "phone": null,
            "branch": null,
            "amenity": "tailor",
            "mobile": null,
            "addr:street": "Kirazlı mescit sokak",
            "cuisine": null,
            "name": "Terzi",
            "name:en": null,
            "name:uk": null,
            "name:de": null,
            "name:tr": null,
            "name:ru": null,
            "name:ar": "خياط"
        }
    },
    {
        "lat": 41.025037,
        "lon": 28.9360973,
        "tags": {
            "addr:city": "Istanbul",
            "addr:district": "Fatih",
            "description": "",
            "opening_hours": null,
            "phone": null,
            "branch": null,
            "amenity": "tailor",
            "mobile": null,
            "addr:street": "Sofali çeşme caddesi",
            "cuisine": null,
            "name": "Terzi altan",
            "name:en": null,
            "name:uk": null,
            "name:de": null,
            "name:tr": null,
            "name:ru": null,
            "name:ar": "خياط التان"
        }
    },
    {
        "lat": 41.0080411,
        "lon": 28.9438814,
        "tags": {
            "addr:city": "Istanbul",
            "addr:district": "Fatih",
            "description": "",
            "opening_hours": null,
            "phone": "05357832704",
            "branch": null,
            "amenity": "tailor",
            "mobile": null,
            "addr:street": "Nakşi Sokak",
            "cuisine": null,
            "name": "Aile Terzi",
            "name:en": null,
            "name:uk": null,
            "name:de": null,
            "name:tr": null,
            "name:ru": null,
            "name:ar": "عائلة ترزي"
        }
    },
    {
        "lat": 41.0109818,
        "lon": 28.9421686,
        "tags": {
            "addr:city": "Istanbul",
            "addr:district": "Turkey",
            "description": "",
            "opening_hours": null,
            "phone": "09:00-23:00",
            "branch": null,
            "amenity": "tailor",
            "mobile": null,
            "addr:street": "Turgut özal millet caddesi",
            "cuisine": null,
            "name": "Bahar",
            "name:en": null,
            "name:uk": null,
            "name:de": null,
            "name:tr": null,
            "name:ru": null,
            "name:ar": "باهار"
        }
    },
    {
        "lat": 41.009719,
        "lon": 28.9408293,
        "tags": {
            "addr:city": "Istanbul",
            "addr:district": "Fatih",
            "description": "",
            "opening_hours": null,
            "phone": null,
            "branch": null,
            "amenity": "tailor",
            "mobile": null,
            "addr:street": "Özbek suleyman efendi sokak",
            "cuisine": null,
            "name": "Bay bayan terzi",
            "name:en": null,
            "name:uk": null,
            "name:de": null,
            "name:tr": null,
            "name:ru": null,
            "name:ar": "خياط رجالي ونسائي"
        }
    },
    {
        "lat": 41.0099187,
        "lon": 28.9385814,
        "tags": {
            "addr:city": "Istanbul",
            "addr:district": "Fatih",
            "description": "",
            "opening_hours": null,
            "phone": null,
            "branch": null,
            "amenity": "tailor",
            "mobile": null,
            "addr:street": "Hatip naci sokak",
            "cuisine": null,
            "name": "Terzi melek",
            "name:en": null,
            "name:uk": null,
            "name:de": null,
            "name:tr": null,
            "name:ru": null,
            "name:ar": "خياط ملك"
        }
    },
    {
        "lat": 41.0082309,
        "lon": 28.9400431,
        "tags": {
            "addr:city": "Istanbul",
            "addr:district": "Fatih",
            "description": "",
            "opening_hours": null,
            "phone": null,
            "branch": null,
            "amenity": "tailor",
            "mobile": null,
            "addr:street": "Tevfik fikret Sokak",
            "cuisine": null,
            "name": "Bay ve Bayan terzi",
            "name:en": null,
            "name:uk": null,
            "name:de": null,
            "name:tr": null,
            "name:ru": null,
            "name:ar": "خياط رجالي ونسائي"
        }
    },
    {
        "lat": 41.0083693,
        "lon": 28.9376744,
        "tags": {
            "addr:city": "Istanbul",
            "addr:district": "Fatih",
            "description": "",
            "opening_hours": null,
            "phone": null,
            "branch": null,
            "amenity": "tailor",
            "mobile": null,
            "addr:street": "Topcu eminbey sokak",
            "cuisine": null,
            "name": "Terzi",
            "name:en": null,
            "name:uk": null,
            "name:de": null,
            "name:tr": null,
            "name:ru": null,
            "name:ar": "خياط"
        }
    },
    {
        "lat": 41.0286887,
        "lon": 28.9384472,
        "tags": {
            "addr:city": "Istanbul",
            "addr:district": "Fatih",
            "description": "",
            "opening_hours": null,
            "phone": null,
            "branch": null,
            "amenity": "tailor",
            "mobile": null,
            "addr:street": "Salma tomruk caddesi",
            "cuisine": null,
            "name": "Ahmet terzi",
            "name:en": null,
            "name:uk": null,
            "name:de": null,
            "name:tr": null,
            "name:ru": null,
            "name:ar": "الخياط احمد"
        }
    },
    {
        "lat": 41.0265491,
        "lon": 28.9408194,
        "tags": {
            "addr:city": "Istanbul",
            "addr:district": "Fatih",
            "description": "",
            "opening_hours": null,
            "phone": null,
            "branch": null,
            "amenity": "tailor",
            "mobile": null,
            "addr:street": "Canfeda cami sokak",
            "cuisine": null,
            "name": "Terzi",
            "name:en": null,
            "name:uk": null,
            "name:de": null,
            "name:tr": null,
            "name:ru": null,
            "name:ar": "خياط"
        }
    },
    {
        "lat": 41.0266918,
        "lon": 28.9409842,
        "tags": {
            "addr:city": "Istanbul",
            "addr:district": "Fatih",
            "description": "",
            "opening_hours": null,
            "phone": null,
            "branch": null,
            "amenity": "tailor",
            "mobile": null,
            "addr:street": "Canfeda cami sokak",
            "cuisine": null,
            "name": "Terzi Ahmet",
            "name:en": null,
            "name:uk": null,
            "name:de": null,
            "name:tr": null,
            "name:ru": null,
            "name:ar": "الخياط أحمد"
        }
    },
    {
        "lat": 41.0299895,
        "lon": 28.9372282,
        "tags": {
            "addr:city": "Istanbul",
            "addr:district": "Fatih",
            "description": "",
            "opening_hours": null,
            "phone": null,
            "branch": null,
            "amenity": "tailor",
            "mobile": null,
            "addr:street": "Şeyh Eyüp Sokak",
            "cuisine": null,
            "name": "Güçlü terzi",
            "name:en": null,
            "name:uk": null,
            "name:de": null,
            "name:tr": null,
            "name:ru": null,
            "name:ar": "غوشلو خياط"
        }
    },
    {
        "lat": 41.0117492,
        "lon": 28.9280581,
        "tags": {
            "addr:city": "Istanbul",
            "addr:district": "Fatih",
            "description": "",
            "opening_hours": null,
            "phone": "02125899792",
            "branch": null,
            "amenity": "tailor",
            "mobile": null,
            "addr:street": "Mecit Bey Sokak",
            "cuisine": null,
            "name": "Terzi Dilek",
            "name:en": null,
            "name:uk": null,
            "name:de": null,
            "name:tr": null,
            "name:ru": null,
            "name:ar": "الحلاق ديلك"
        }
    },
    {
        "lat": 41.0090568,
        "lon": 28.9308207,
        "tags": {
            "addr:city": "Istanbul",
            "addr:district": "Fatih",
            "description": "",
            "opening_hours": null,
            "phone": null,
            "branch": null,
            "amenity": "tailor",
            "mobile": null,
            "addr:street": "Emrullah Efendi Sokak",
            "cuisine": null,
            "name": "Terzi",
            "name:en": null,
            "name:uk": null,
            "name:de": null,
            "name:tr": null,
            "name:ru": null,
            "name:ar": "خياط"
        }
    },
    {
        "lat": 41.0036822,
        "lon": 28.9338087,
        "tags": {
            "addr:city": "Istanbul",
            "addr:district": "Fatih",
            "description": "",
            "opening_hours": null,
            "phone": null,
            "branch": null,
            "amenity": "tailor",
            "mobile": null,
            "addr:street": "Marmara Caddesi",
            "cuisine": null,
            "name": "Terzi",
            "name:en": null,
            "name:uk": null,
            "name:de": null,
            "name:tr": null,
            "name:ru": null,
            "name:ar": "خياط"
        }
    },
    {
        "lat": 41.0211606,
        "lon": 28.9437003,
        "tags": {
            "addr:city": "Istanbul",
            "addr:district": "Turkey",
            "description": "",
            "opening_hours": null,
            "phone": null,
            "branch": null,
            "amenity": "tailor",
            "mobile": null,
            "addr:street": "SARIGUZEL cadde",
            "cuisine": null,
            "name": "ozen ish yorgan dikim evi",
            "name:en": null,
            "name:uk": null,
            "name:de": null,
            "name:tr": null,
            "name:ru": null,
            "name:ar": "اوزان إش"
        }
    },
    {
        "lat": 41.0196471,
        "lon": 28.9462709,
        "tags": {
            "addr:city": "Istanbul",
            "addr:district": "Turkey",
            "description": "",
            "opening_hours": null,
            "phone": null,
            "branch": null,
            "amenity": "tailor",
            "mobile": null,
            "addr:street": "ZULALI ÇESMESI sokak",
            "cuisine": null,
            "name": "Terzi Jan",
            "name:en": null,
            "name:uk": null,
            "name:de": null,
            "name:tr": null,
            "name:ru": null,
            "name:ar": "الخياط جان"
        }
    },
    {
        "lat": 41.0196781,
        "lon": 28.9465849,
        "tags": {
            "addr:city": "Istanbul",
            "addr:district": "Turkey",
            "description": "",
            "opening_hours": null,
            "phone": null,
            "branch": null,
            "amenity": "tailor",
            "mobile": null,
            "addr:street": "ZULALI ÇESMESI sokak",
            "cuisine": null,
            "name": "Terzi",
            "name:en": null,
            "name:uk": null,
            "name:de": null,
            "name:tr": null,
            "name:ru": null,
            "name:ar": "خياط"
        }
    },
    {
        "lat": 41.0210961,
        "lon": 28.9453483,
        "tags": {
            "addr:city": "Istanbul",
            "addr:district": "Turkey",
            "description": "",
            "opening_hours": null,
            "phone": null,
            "branch": null,
            "amenity": "tailor",
            "mobile": null,
            "addr:street": "surreemini sokak",
            "cuisine": null,
            "name": "Terzi teyze",
            "name:en": null,
            "name:uk": null,
            "name:de": null,
            "name:tr": null,
            "name:ru": null,
            "name:ar": "العمة الخياطة"
        }
    },
    {
        "lat": 41.0184521,
        "lon": 28.9449159,
        "tags": {
            "addr:city": "Istanbul",
            "addr:district": "Turkey",
            "description": "",
            "opening_hours": null,
            "phone": null,
            "branch": null,
            "amenity": "tailor",
            "mobile": null,
            "addr:street": "BATTALGAZI sokak",
            "cuisine": null,
            "name": "Terzi sinan",
            "name:en": null,
            "name:uk": null,
            "name:de": null,
            "name:tr": null,
            "name:ru": null,
            "name:ar": "الخياط سنان"
        }
    },
    {
        "lat": 41.0163029,
        "lon": 28.9462937,
        "tags": {
            "addr:city": "Istanbul",
            "addr:district": "Turkey",
            "description": "",
            "opening_hours": null,
            "phone": null,
            "branch": null,
            "amenity": "tailor",
            "mobile": null,
            "addr:street": "PALIPASA caddesi",
            "cuisine": null,
            "name": "Kuru temizleme terzi",
            "name:en": null,
            "name:uk": null,
            "name:de": null,
            "name:tr": null,
            "name:ru": null,
            "name:ar": "خياط كورو تاميزليمي"
        }
    },
    {
        "lat": 41.026936,
        "lon": 28.9470033,
        "tags": {
            "addr:city": "Istanbul",
            "addr:district": "Turkey",
            "description": "",
            "opening_hours": null,
            "phone": null,
            "branch": null,
            "amenity": "tailor",
            "mobile": null,
            "addr:street": "Manyasizade Caddesi",
            "cuisine": null,
            "name": "Terzi Ahmet",
            "name:en": null,
            "name:uk": null,
            "name:de": null,
            "name:tr": null,
            "name:ru": null,
            "name:ar": "الخياط احمد"
        }
    },
    {
        "lat": 41.0286135,
        "lon": 28.9456869,
        "tags": {
            "addr:city": "Istanbul",
            "addr:district": "Turkey",
            "description": "",
            "opening_hours": null,
            "phone": null,
            "branch": null,
            "amenity": "tailor",
            "mobile": null,
            "addr:street": "Fethiye Caddesi",
            "cuisine": null,
            "name": "Sebil",
            "name:en": null,
            "name:uk": null,
            "name:de": null,
            "name:tr": null,
            "name:ru": null,
            "name:ar": "سبيل"
        }
    },
    {
        "lat": 41.0157867,
        "lon": 28.9699439,
        "tags": {
            "addr:city": "Istanbul",
            "addr:district": "Fatih",
            "description": "",
            "opening_hours": null,
            "phone": null,
            "branch": null,
            "amenity": "tailor",
            "mobile": null,
            "addr:street": "Sabuncu Hanı Sokak",
            "cuisine": null,
            "name": "Meydan Makas",
            "name:en": null,
            "name:uk": null,
            "name:de": null,
            "name:tr": null,
            "name:ru": null,
            "name:ar": null
        }
    },
    {
        "lat": 41.0409039,
        "lon": 29.1813285,
        "tags": {
            "addr:city": "İstanbul",
            "addr:district": null,
            "description": "",
            "opening_hours": null,
            "phone": null,
            "branch": null,
            "amenity": "tailor",
            "mobile": null,
            "addr:street": null,
            "cuisine": null,
            "name": "Küçük Koru Terzi",
            "name:en": null,
            "name:uk": null,
            "name:de": null,
            "name:tr": null,
            "name:ru": null,
            "name:ar": null
        }
    },
    {
        "lat": 40.9546756,
        "lon": 29.0919532,
        "tags": {
            "addr:city": "İstanbul",
            "addr:district": "Kadıköy",
            "description": "",
            "opening_hours": null,
            "phone": null,
            "branch": null,
            "amenity": "tailor",
            "mobile": null,
            "addr:street": "Bağdat Caddesi",
            "cuisine": null,
            "name": "Cumali Terzi",
            "name:en": null,
            "name:uk": null,
            "name:de": null,
            "name:tr": null,
            "name:ru": null,
            "name:ar": null
        }
    },
    {
        "lat": 40.9561055,
        "lon": 29.094627,
        "tags": {
            "addr:city": "Istanbul",
            "addr:district": "Kadıköy",
            "description": "",
            "opening_hours": null,
            "phone": null,
            "branch": null,
            "amenity": "tailor",
            "mobile": null,
            "addr:street": "Vukela Caddesi",
            "cuisine": null,
            "name": "Terzi Gülden",
            "name:en": null,
            "name:uk": null,
            "name:de": null,
            "name:tr": null,
            "name:ru": null,
            "name:ar": null
        }
    },
    {
        "lat": 40.8888843,
        "lon": 29.2317186,
        "tags": {
            "addr:city": "İstanbul",
            "addr:district": null,
            "description": "",
            "opening_hours": "Mo-Su 09:00-21:00",
            "phone": null,
            "branch": null,
            "amenity": "tailor",
            "mobile": null,
            "addr:street": null,
            "cuisine": null,
            "name": "nur terzi",
            "name:en": null,
            "name:uk": null,
            "name:de": null,
            "name:tr": null,
            "name:ru": null,
            "name:ar": null
        }
    },
    {
        "lat": 40.8871032,
        "lon": 29.2311486,
        "tags": {
            "addr:city": "İstanbul",
            "addr:district": null,
            "description": "",
            "opening_hours": "Mo-Sa 08:00-18:00",
            "phone": null,
            "branch": null,
            "amenity": "tailor",
            "mobile": null,
            "addr:street": null,
            "cuisine": null,
            "name": "nisa-mert terzi",
            "name:en": null,
            "name:uk": null,
            "name:de": null,
            "name:tr": null,
            "name:ru": null,
            "name:ar": null
        }
    },
    {
        "lat": 40.9619972,
        "lon": 29.0922631,
        "tags": {
            "addr:city": "İstanbul",
            "addr:district": "Kadıköy",
            "description": "",
            "opening_hours": null,
            "phone": null,
            "branch": null,
            "amenity": "tailor",
            "mobile": null,
            "addr:street": "Şemsettin Günaltay Caddesi",
            "cuisine": null,
            "name": "Terzi",
            "name:en": null,
            "name:uk": null,
            "name:de": null,
            "name:tr": null,
            "name:ru": null,
            "name:ar": null
        }
    },
    {
        "lat": 40.9669159,
        "lon": 29.1220593,
        "tags": {
            "addr:city": "İstanbul",
            "addr:district": null,
            "description": "",
            "opening_hours": null,
            "phone": null,
            "branch": null,
            "amenity": "tailor",
            "mobile": null,
            "addr:street": null,
            "cuisine": null,
            "name": null,
            "name:en": null,
            "name:uk": null,
            "name:de": null,
            "name:tr": null,
            "name:ru": null,
            "name:ar": null
        }
    },
    {
        "lat": 41.0594231,
        "lon": 28.98435,
        "tags": {
            "addr:city": "İstanbul",
            "addr:district": null,
            "description": "",
            "opening_hours": null,
            "phone": null,
            "branch": null,
            "amenity": "tailor",
            "mobile": null,
            "addr:street": null,
            "cuisine": null,
            "name": "Terzi Gökhan",
            "name:en": null,
            "name:uk": null,
            "name:de": null,
            "name:tr": null,
            "name:ru": null,
            "name:ar": null
        }
    },
    {
        "lat": 40.9486192,
        "lon": 29.279053,
        "tags": {
            "addr:city": "Istanbul",
            "addr:district": "Sultanbeyli",
            "description": "",
            "opening_hours": "Su 09:00-02:00; Mo-Fr 07:00-13:30; Mo-Fr 17:00-20:00",
            "phone": null,
            "branch": null,
            "amenity": "tailor",
            "mobile": null,
            "addr:street": "Toros Caddesi",
            "cuisine": null,
            "name": "Terzi",
            "name:en": null,
            "name:uk": null,
            "name:de": null,
            "name:tr": null,
            "name:ru": null,
            "name:ar": "ترزيه"
        }
    },
    {
        "lat": 40.9762835,
        "lon": 29.266266,
        "tags": {
            "addr:city": "Istanbul",
            "addr:district": "Sultanbeyli",
            "description": "",
            "opening_hours": "24/7",
            "phone": null,
            "branch": null,
            "amenity": "tailor",
            "mobile": null,
            "addr:street": "Biberlik Caddesi",
            "cuisine": null,
            "name": "Şeker Piko",
            "name:en": null,
            "name:uk": null,
            "name:de": null,
            "name:tr": null,
            "name:ru": null,
            "name:ar": "شيكر بيكو(بائع برادي)"
        }
    },
    {
        "lat": 40.9719252,
        "lon": 29.2734796,
        "tags": {
            "addr:city": "Istanbul",
            "addr:district": "Sultanbeyli",
            "description": "",
            "opening_hours": "Su 09:00-02:00;Mo-Su 07:00-20:00",
            "phone": null,
            "branch": null,
            "amenity": "tailor",
            "mobile": null,
            "addr:street": "Nedve",
            "cuisine": null,
            "name": "Terzi",
            "name:en": null,
            "name:uk": null,
            "name:de": null,
            "name:tr": null,
            "name:ru": null,
            "name:ar": "ترزيه(خياط ألبسه)"
        }
    },
    {
        "lat": 40.9712565,
        "lon": 29.2691495,
        "tags": {
            "addr:city": "Istanbul",
            "addr:district": "Sultanbeyli",
            "description": "",
            "opening_hours": "Su 09:00-02:00; Mo-Fr 07:00-13:30; Mo-Fr 17:00-20:00",
            "phone": "05352195238",
            "branch": null,
            "amenity": "tailor",
            "mobile": null,
            "addr:street": "Şeyh Şamil Caddesi",
            "cuisine": null,
            "name": "Sancak Ev Tekstil",
            "name:en": null,
            "name:uk": null,
            "name:de": null,
            "name:tr": null,
            "name:ru": null,
            "name:ar": "خياط ستائر"
        }
    },
    {
        "lat": 40.9477597,
        "lon": 29.274944,
        "tags": {
            "addr:city": "Istanbul",
            "addr:district": "Sultanbeyli",
            "description": "",
            "opening_hours": "24/7",
            "phone": null,
            "branch": null,
            "amenity": "tailor",
            "mobile": null,
            "addr:street": "Eyyubi Caddesi",
            "cuisine": null,
            "name": "Akdağ Terzi",
            "name:en": null,
            "name:uk": null,
            "name:de": null,
            "name:tr": null,
            "name:ru": null,
            "name:ar": "ترزيه اكداغ"
        }
    },
    {
        "lat": 40.9494195,
        "lon": 29.2796255,
        "tags": {
            "addr:city": "Istanbul",
            "addr:district": "Sultanbeyli",
            "description": "",
            "opening_hours": "Su 09:00-02:00; Mo-Fr 07:00-13:30; Mo-Fr 17:00-20:00",
            "phone": null,
            "branch": null,
            "amenity": "tailor",
            "mobile": null,
            "addr:street": "Aziziye Caddesi",
            "cuisine": null,
            "name": "Terzi",
            "name:en": null,
            "name:uk": null,
            "name:de": null,
            "name:tr": null,
            "name:ru": null,
            "name:ar": "تيرزيه"
        }
    },
    {
        "lat": 40.9702936,
        "lon": 29.273389,
        "tags": {
            "addr:city": "Istanbul",
            "addr:district": "Sultanbeyli",
            "description": "",
            "opening_hours": "24/7",
            "phone": "05305248803",
            "branch": null,
            "amenity": "tailor",
            "mobile": null,
            "addr:street": "Kaptani Derya Caddesi",
            "cuisine": null,
            "name": "Terzi İbrahım",
            "name:en": null,
            "name:uk": null,
            "name:de": null,
            "name:tr": null,
            "name:ru": null,
            "name:ar": "تيرزة ابراهيم"
        }
    },
    {
        "lat": 40.9749288,
        "lon": 29.2720271,
        "tags": {
            "addr:city": "Istanbul",
            "addr:district": "Sultanbeyli",
            "description": "",
            "opening_hours": null,
            "phone": null,
            "branch": null,
            "amenity": "tailor",
            "mobile": null,
            "addr:street": "Hızır Reis Caddesi",
            "cuisine": null,
            "name": "Seçgin Terzi",
            "name:en": null,
            "name:uk": null,
            "name:de": null,
            "name:tr": null,
            "name:ru": null,
            "name:ar": "خياط سيتشغين"
        }
    },
    {
        "lat": 40.9526809,
        "lon": 29.2816178,
        "tags": {
            "addr:city": "Istanbul",
            "addr:district": "Sultanbeyli",
            "description": "",
            "opening_hours": "Mo-Fr 07:00-13:30; Mo-Fr 17:00-20:00",
            "phone": "05353951456",
            "branch": null,
            "amenity": "tailor",
            "mobile": null,
            "addr:street": "Eyyubi caddesi",
            "cuisine": null,
            "name": "Sezer",
            "name:en": null,
            "name:uk": null,
            "name:de": null,
            "name:tr": null,
            "name:ru": null,
            "name:ar": "سيزر"
        }
    },
    {
        "lat": 40.9539614,
        "lon": 29.2827922,
        "tags": {
            "addr:city": "Istanbul",
            "addr:district": "Sultanbeyli",
            "description": "",
            "opening_hours": "Mo-Fr 07:00-13:30; Mo-Fr 17:00-20:00",
            "phone": "05392903860",
            "branch": null,
            "amenity": "tailor",
            "mobile": null,
            "addr:street": "Eyyubi caddesi",
            "cuisine": null,
            "name": "Erdem",
            "name:en": null,
            "name:uk": null,
            "name:de": null,
            "name:tr": null,
            "name:ru": null,
            "name:ar": "ايردم للخياط"
        }
    },
    {
        "lat": 40.9506754,
        "lon": 29.2838546,
        "tags": {
            "addr:city": "Istanbul",
            "addr:district": "Sultanbeyli",
            "description": "",
            "opening_hours": null,
            "phone": "05356481983",
            "branch": null,
            "amenity": "tailor",
            "mobile": null,
            "addr:street": "Kuğulu Caddesi",
            "cuisine": null,
            "name": "Karadağ",
            "name:en": null,
            "name:uk": null,
            "name:de": null,
            "name:tr": null,
            "name:ru": null,
            "name:ar": "الجبل الأسود"
        }
    },
    {
        "lat": 40.9510499,
        "lon": 29.2900631,
        "tags": {
            "addr:city": "Istanbul",
            "addr:district": "Sultanbeyli",
            "description": "",
            "opening_hours": "Mo-Su 07:00-20:00",
            "phone": null,
            "branch": null,
            "amenity": "tailor",
            "mobile": null,
            "addr:street": "Risale Caddesi",
            "cuisine": null,
            "name": "Diyr Terzi",
            "name:en": null,
            "name:uk": null,
            "name:de": null,
            "name:tr": null,
            "name:ru": null,
            "name:ar": "ديار"
        }
    },
    {
        "lat": 40.9525188,
        "lon": 29.2811888,
        "tags": {
            "addr:city": "Istanbul",
            "addr:district": "Sultanbeyli",
            "description": "",
            "opening_hours": "Mo-Fr 07:00-13:30; Mo-Fr 17:00-20:00",
            "phone": "05435230383",
            "branch": null,
            "amenity": "tailor",
            "mobile": null,
            "addr:street": "Eyyubi caddesi",
            "cuisine": null,
            "name": "Çağdaş Terzi",
            "name:en": null,
            "name:uk": null,
            "name:de": null,
            "name:tr": null,
            "name:ru": null,
            "name:ar": "خياط الحديث"
        }
    },
    {
        "lat": 40.950752,
        "lon": 29.2919182,
        "tags": {
            "addr:city": "Istanbul",
            "addr:district": "Sultanbeyli",
            "description": "",
            "opening_hours": "Mo-Fr 07:00-13:30; Mo-Fr 17:00-20:00",
            "phone": "05352463694",
            "branch": null,
            "amenity": "tailor",
            "mobile": null,
            "addr:street": "Petrol Yolu Caddesi",
            "cuisine": null,
            "name": "Mevlana",
            "name:en": null,
            "name:uk": null,
            "name:de": null,
            "name:tr": null,
            "name:ru": null,
            "name:ar": "خياط مولانا"
        }
    },
    {
        "lat": 40.9525746,
        "lon": 29.2817696,
        "tags": {
            "addr:city": "Istanbul",
            "addr:district": "Sultanbeyli",
            "description": "",
            "opening_hours": "Mo-Fr 07:00-13:30; Mo-Fr 17:00-20:00",
            "phone": null,
            "branch": null,
            "amenity": "tailor",
            "mobile": null,
            "addr:street": "Eyyubi caddesi",
            "cuisine": null,
            "name": "terzi",
            "name:en": null,
            "name:uk": null,
            "name:de": null,
            "name:tr": null,
            "name:ru": null,
            "name:ar": "خياط"
        }
    },
    {
        "lat": 40.9816707,
        "lon": 29.2660076,
        "tags": {
            "addr:city": "Istanbul",
            "addr:district": "Sultanbeyli",
            "description": "",
            "opening_hours": null,
            "phone": "05374535622",
            "branch": null,
            "amenity": "tailor",
            "mobile": null,
            "addr:street": "Beyan Sokağı",
            "cuisine": null,
            "name": "Terzi Hanefi",
            "name:en": null,
            "name:uk": null,
            "name:de": null,
            "name:tr": null,
            "name:ru": null,
            "name:ar": "الخياط حنفي"
        }
    },
    {
        "lat": 40.9810714,
        "lon": 29.2566627,
        "tags": {
            "addr:city": "Istanbul",
            "addr:district": "Sultanbeyli",
            "description": "",
            "opening_hours": null,
            "phone": "02165926006",
            "branch": null,
            "amenity": "tailor",
            "mobile": null,
            "addr:street": "Said Nursi Caddesi",
            "cuisine": null,
            "name": "Dry moon",
            "name:en": null,
            "name:uk": null,
            "name:de": null,
            "name:tr": null,
            "name:ru": null,
            "name:ar": "الخياط دراي مون"
        }
    },
    {
        "lat": 40.964062,
        "lon": 29.2689036,
        "tags": {
            "addr:city": "Istanbul",
            "addr:district": "Sultanbeyli",
            "description": "",
            "opening_hours": "Mo-Fr 07:00-13:30; Mo-Fr 17:00-20:00",
            "phone": null,
            "branch": null,
            "amenity": "tailor",
            "mobile": null,
            "addr:street": "Gün caddesi",
            "cuisine": null,
            "name": "Aysima",
            "name:en": null,
            "name:uk": null,
            "name:de": null,
            "name:tr": null,
            "name:ru": null,
            "name:ar": "الخياطة اسيما"
        }
    },
    {
        "lat": 40.9680641,
        "lon": 29.2684316,
        "tags": {
            "addr:city": "Istanbul",
            "addr:district": "Sultanbeyli",
            "description": "",
            "opening_hours": "Mo-Fr 07:00-13:30; Mo-Fr 17:00-20:00",
            "phone": "05325832225",
            "branch": null,
            "amenity": "tailor",
            "mobile": null,
            "addr:street": "Pınarbaşı sokağı",
            "cuisine": null,
            "name": "Gençler makina",
            "name:en": null,
            "name:uk": null,
            "name:de": null,
            "name:tr": null,
            "name:ru": null,
            "name:ar": "ماكينات خياطة جينتشلار"
        }
    },
    {
        "lat": 40.9686473,
        "lon": 29.2667579,
        "tags": {
            "addr:city": "Istanbul",
            "addr:district": "Sultanbeyli",
            "description": "",
            "opening_hours": "Mo-Fr 07:00-13:30; Mo-Fr 17:00-20:00",
            "phone": null,
            "branch": null,
            "amenity": "tailor",
            "mobile": null,
            "addr:street": "Kadıköy sokağı",
            "cuisine": null,
            "name": "Salt tekstil",
            "name:en": null,
            "name:uk": null,
            "name:de": null,
            "name:tr": null,
            "name:ru": null,
            "name:ar": "خياط سالت"
        }
    },
    {
        "lat": 40.9672701,
        "lon": 29.2691182,
        "tags": {
            "addr:city": "Istanbul",
            "addr:district": "Sultanbeyli",
            "description": "",
            "opening_hours": "Mo-Fr 07:00-13:30; Mo-Fr 17:00-20:00",
            "phone": "02163983728",
            "branch": null,
            "amenity": "tailor",
            "mobile": null,
            "addr:street": "Sarıyer sokağı",
            "cuisine": null,
            "name": "Acar ilik düğme",
            "name:en": null,
            "name:uk": null,
            "name:de": null,
            "name:tr": null,
            "name:ru": null,
            "name:ar": "خياط اجار ايليك"
        }
    },
    {
        "lat": 40.9679506,
        "lon": 29.2687105,
        "tags": {
            "addr:city": "Istanbul",
            "addr:district": "Sultanbeyli",
            "description": "",
            "opening_hours": "Mo-Fr 07:00-13:30; Mo-Fr 17:00-20:00",
            "phone": "05366101357",
            "branch": null,
            "amenity": "tailor",
            "mobile": null,
            "addr:street": "Pınarbaşı sokağı",
            "cuisine": null,
            "name": "Nur makina",
            "name:en": null,
            "name:uk": null,
            "name:de": null,
            "name:tr": null,
            "name:ru": null,
            "name:ar": "نور لبيع ماكينات الخياطة"
        }
    },
    {
        "lat": 41.0467988,
        "lon": 28.8979332,
        "tags": {
            "addr:city": "İstanbul",
            "addr:district": null,
            "description": "",
            "opening_hours": "Mo-Su 10:00-22:00",
            "phone": null,
            "branch": null,
            "amenity": "tailor",
            "mobile": null,
            "addr:street": null,
            "cuisine": null,
            "name": null,
            "name:en": null,
            "name:uk": null,
            "name:de": null,
            "name:tr": null,
            "name:ru": null,
            "name:ar": null
        }
    },
    {
        "lat": 40.9480436,
        "lon": 29.298589,
        "tags": {
            "addr:city": "Istanbul",
            "addr:district": "Sultanbeyli",
            "description": "",
            "opening_hours": null,
            "phone": "05335006741",
            "branch": null,
            "amenity": "tailor",
            "mobile": null,
            "addr:street": "Petrol yolu caddsi",
            "cuisine": null,
            "name": "Doğan iş merkezi",
            "name:en": null,
            "name:uk": null,
            "name:de": null,
            "name:tr": null,
            "name:ru": null,
            "name:ar": "معمل خياطه تكستيل دغان ايش ماركزي"
        }
    },
    {
        "lat": 40.9434459,
        "lon": 29.302595,
        "tags": {
            "addr:city": "Istanbul",
            "addr:district": "Sultanbeyli",
            "description": "",
            "opening_hours": "Mo-Fr 07:00-13:30; Mo-Fr 17:00-20:00",
            "phone": null,
            "branch": null,
            "amenity": "tailor",
            "mobile": null,
            "addr:street": "Fatih bulvarı",
            "cuisine": null,
            "name": "Leather guard özöer",
            "name:en": null,
            "name:uk": null,
            "name:de": null,
            "name:tr": null,
            "name:ru": null,
            "name:ar": "متجر البضائع الجلديه"
        }
    },
    {
        "lat": 40.9412861,
        "lon": 29.2943789,
        "tags": {
            "addr:city": "Istanbul",
            "addr:district": "Sultanbeyli",
            "description": "",
            "opening_hours": null,
            "phone": "0539 519 2450",
            "branch": null,
            "amenity": "tailor",
            "mobile": null,
            "addr:street": "özgür Sokağı",
            "cuisine": null,
            "name": "çakırhan Tekstil",
            "name:en": null,
            "name:uk": null,
            "name:de": null,
            "name:tr": null,
            "name:ru": null,
            "name:ar": "(معمل خياطه) شاكيرهان"
        }
    },
    {
        "lat": 40.9457083,
        "lon": 29.2962738,
        "tags": {
            "addr:city": "Istanbul",
            "addr:district": "Sultanbeyli",
            "description": "",
            "opening_hours": null,
            "phone": "05382094512",
            "branch": null,
            "amenity": "tailor",
            "mobile": null,
            "addr:street": "Ulupınar",
            "cuisine": null,
            "name": "Ylldız dikim evi",
            "name:en": null,
            "name:uk": null,
            "name:de": null,
            "name:tr": null,
            "name:ru": null,
            "name:ar": "يادليز دكيم (خياطه)"
        }
    },
    {
        "lat": 40.9648463,
        "lon": 29.251085,
        "tags": {
            "addr:city": "Istanbul",
            "addr:district": "Sultanbeyli",
            "description": "",
            "opening_hours": "Mo-Fr 07:00-13:30; Mo-Fr 17:00-20:00",
            "phone": null,
            "branch": null,
            "amenity": "tailor",
            "mobile": null,
            "addr:street": "Hat caddesi هات جاديسي",
            "cuisine": null,
            "name": "Terzihanesi",
            "name:en": null,
            "name:uk": null,
            "name:de": null,
            "name:tr": null,
            "name:ru": null,
            "name:ar": "تيرزي هانيسي( خياط)"
        }
    },
    {
        "lat": 40.9872967,
        "lon": 29.2642919,
        "tags": {
            "addr:city": "Istanbul",
            "addr:district": "Sultanbeyli",
            "description": "",
            "opening_hours": "Mo-Fr 07:00-13:30; Mo-Fr 17:00-20:00",
            "phone": "05356624543",
            "branch": null,
            "amenity": "tailor",
            "mobile": null,
            "addr:street": "basra Caddesi",
            "cuisine": null,
            "name": "Terzi ilhan",
            "name:en": null,
            "name:uk": null,
            "name:de": null,
            "name:tr": null,
            "name:ru": null,
            "name:ar": "خياط إلهان"
        }
    },
    {
        "lat": 40.9659567,
        "lon": 29.253131,
        "tags": {
            "addr:city": "Istanbul",
            "addr:district": "Sultanbeyli",
            "description": "",
            "opening_hours": "Mo-Fr 07:00-13:30; Mo-Fr 17:00-20:00",
            "phone": null,
            "branch": null,
            "amenity": "tailor",
            "mobile": null,
            "addr:street": "Dumlupinar caddesi دوملو بينار جاديسي",
            "cuisine": null,
            "name": "bay bayan terzi",
            "name:en": null,
            "name:uk": null,
            "name:de": null,
            "name:tr": null,
            "name:ru": null,
            "name:ar": "خياط رجالي نسائي"
        }
    },
    {
        "lat": 40.9480459,
        "lon": 29.2838699,
        "tags": {
            "addr:city": "Istanbul",
            "addr:district": "Sultanbeyli",
            "description": "",
            "opening_hours": null,
            "phone": null,
            "branch": null,
            "amenity": "tailor",
            "mobile": null,
            "addr:street": "Orhangazi Caddesi",
            "cuisine": null,
            "name": "tetzi tamir",
            "name:en": null,
            "name:uk": null,
            "name:de": null,
            "name:tr": null,
            "name:ru": null,
            "name:ar": "خياطه)درزه تعمير"
        }
    },
    {
        "lat": 40.9688978,
        "lon": 29.248153,
        "tags": {
            "addr:city": "Istanbul",
            "addr:district": "Sultanbeyli",
            "description": "",
            "opening_hours": "Mo-Fr 07:00-13:30; Mo-Fr 17:00-20:00",
            "phone": "05368927033",
            "branch": null,
            "amenity": "tailor",
            "mobile": null,
            "addr:street": "Petrol yolu cadeci جادة شارع البترول",
            "cuisine": null,
            "name": "Aslan makina",
            "name:en": null,
            "name:uk": null,
            "name:de": null,
            "name:tr": null,
            "name:ru": null,
            "name:ar": "اسلان ماكينا( ماكينات خياطة)"
        }
    },
    {
        "lat": 40.9640495,
        "lon": 29.2502258,
        "tags": {
            "addr:city": "Istanbul",
            "addr:district": "Sultanbeyli",
            "description": "",
            "opening_hours": null,
            "phone": null,
            "branch": null,
            "amenity": "tailor",
            "mobile": null,
            "addr:street": "bilgin sokağı بيلغين سوكاك",
            "cuisine": null,
            "name": "Yolcu tuhafiye& terzi",
            "name:en": null,
            "name:uk": null,
            "name:de": null,
            "name:tr": null,
            "name:ru": null,
            "name:ar": "يولجو توهافيا& خياط"
        }
    },
    {
        "lat": 40.9766095,
        "lon": 29.2665052,
        "tags": {
            "addr:city": "Istanbul",
            "addr:district": "Sultanbeyli",
            "description": "",
            "opening_hours": "Mo-Fr 07:00-13:30; Mo-Fr 17:00-20:00",
            "phone": null,
            "branch": null,
            "amenity": "tailor",
            "mobile": null,
            "addr:street": "biberlik Caddesi",
            "cuisine": null,
            "name": "Şirin terzi",
            "name:en": null,
            "name:uk": null,
            "name:de": null,
            "name:tr": null,
            "name:ru": null,
            "name:ar": "خياط شيرين"
        }
    },
    {
        "lat": 40.9465597,
        "lon": 29.2979622,
        "tags": {
            "addr:city": "Istanbul",
            "addr:district": "Sultanbeyli",
            "description": "",
            "opening_hours": null,
            "phone": null,
            "branch": null,
            "amenity": "tailor",
            "mobile": null,
            "addr:street": "Alpaslan caddsi",
            "cuisine": null,
            "name": "Marka tekstil",
            "name:en": null,
            "name:uk": null,
            "name:de": null,
            "name:tr": null,
            "name:ru": null,
            "name:ar": "معمل خياطه تكستيل ماركه"
        }
    },
    {
        "lat": 40.9787317,
        "lon": 29.2694235,
        "tags": {
            "addr:city": "Istanbul",
            "addr:district": "Sultanbeyli",
            "description": "",
            "opening_hours": "Mo-Fr 07:00-13:30; Mo-Fr 17:00-20:00",
            "phone": null,
            "branch": null,
            "amenity": "tailor",
            "mobile": null,
            "addr:street": "selçukhan Caddesi",
            "cuisine": null,
            "name": "H A K",
            "name:en": null,
            "name:uk": null,
            "name:de": null,
            "name:tr": null,
            "name:ru": null,
            "name:ar": "خياط HAK"
        }
    },
    {
        "lat": 40.97947,
        "lon": 29.2656776,
        "tags": {
            "addr:city": "Istanbul",
            "addr:district": "Sultanbeyli",
            "description": "",
            "opening_hours": "Mo-Fr 07:00-13:30; Mo-Fr 17:00-20:00",
            "phone": null,
            "branch": null,
            "amenity": "tailor",
            "mobile": null,
            "addr:street": "kubbe Caddesi",
            "cuisine": null,
            "name": "Selahaddin terze",
            "name:en": null,
            "name:uk": null,
            "name:de": null,
            "name:tr": null,
            "name:ru": null,
            "name:ar": "خياط صلاح الدين"
        }
    },
    {
        "lat": 40.9384122,
        "lon": 29.2870969,
        "tags": {
            "addr:city": "Istanbul",
            "addr:district": "Sultanbeyli",
            "description": "",
            "opening_hours": null,
            "phone": "05466264521",
            "branch": null,
            "amenity": "tailor",
            "mobile": null,
            "addr:street": "Şeyh hikmet efenfi Sokağı",
            "cuisine": null,
            "name": "Diyar bay bayan terzi",
            "name:en": null,
            "name:uk": null,
            "name:de": null,
            "name:tr": null,
            "name:ru": null,
            "name:ar": "محل خياطه)ديار بيابيان تريزه"
        }
    },
    {
        "lat": 40.9675983,
        "lon": 29.2528309,
        "tags": {
            "addr:city": "Istanbul",
            "addr:district": "Sultanbeyli",
            "description": "",
            "opening_hours": "Mo-Su 07:00-20:00",
            "phone": null,
            "branch": null,
            "amenity": "tailor",
            "mobile": null,
            "addr:street": "Hasan basri caddesiجادة حسن البصري",
            "cuisine": null,
            "name": "Bayan terzi",
            "name:en": null,
            "name:uk": null,
            "name:de": null,
            "name:tr": null,
            "name:ru": null,
            "name:ar": "بايان تيرزي"
        }
    },
    {
        "lat": 40.9708422,
        "lon": 29.2480478,
        "tags": {
            "addr:city": "Istanbul",
            "addr:district": "Sultanbeyli",
            "description": "",
            "opening_hours": "Mo-Fr 07:00-13:30; Mo-Fr 17:00-20:00",
            "phone": "05412061332",
            "branch": null,
            "amenity": "tailor",
            "mobile": null,
            "addr:street": "necip fadil caddesi جادة نجيب فاضل",
            "cuisine": null,
            "name": "Mürşit",
            "name:en": null,
            "name:uk": null,
            "name:de": null,
            "name:tr": null,
            "name:ru": null,
            "name:ar": "مرشد"
        }
    },
    {
        "lat": 40.9540876,
        "lon": 29.2828327,
        "tags": {
            "addr:city": "Istanbul",
            "addr:district": "Sultanbeyli",
            "description": "",
            "opening_hours": "Mo-Fr 07:00-13:30; Mo-Fr 17:00-20:00",
            "phone": null,
            "branch": null,
            "amenity": "tailor",
            "mobile": null,
            "addr:street": "Eyyubi caddesi",
            "cuisine": null,
            "name": "Çandır",
            "name:en": null,
            "name:uk": null,
            "name:de": null,
            "name:tr": null,
            "name:ru": null,
            "name:ar": "شاندر"
        }
    },
    {
        "lat": 40.9682312,
        "lon": 29.2469336,
        "tags": {
            "addr:city": "Istanbul",
            "addr:district": "Sultanbeyli",
            "description": "",
            "opening_hours": "Mo-Su 07:00-20:00",
            "phone": null,
            "branch": null,
            "amenity": "tailor",
            "mobile": null,
            "addr:street": "necib fadil csddesi جادة نجيب فاضل",
            "cuisine": null,
            "name": "Baran terzi",
            "name:en": null,
            "name:uk": null,
            "name:de": null,
            "name:tr": null,
            "name:ru": null,
            "name:ar": "باران تيرزي( خياط)"
        }
    },
    {
        "lat": 40.9795417,
        "lon": 29.2716122,
        "tags": {
            "addr:city": "Istanbul",
            "addr:district": "Sultanbeyli",
            "description": "",
            "opening_hours": "Mo-Fr 07:00-13:30; Mo-Fr 17:00-20:00",
            "phone": "05453688857",
            "branch": null,
            "amenity": "tailor",
            "mobile": null,
            "addr:street": "selçukhan Caddesi",
            "cuisine": null,
            "name": "Osman",
            "name:en": null,
            "name:uk": null,
            "name:de": null,
            "name:tr": null,
            "name:ru": null,
            "name:ar": "خياط عثمان"
        }
    },
    {
        "lat": 40.9839228,
        "lon": 29.2795611,
        "tags": {
            "addr:city": "Istanbul",
            "addr:district": "Sultanbeyli",
            "description": "",
            "opening_hours": "Mo-Fr 07:00-13:30; Mo-Fr 17:00-20:00",
            "phone": "05353913862",
            "branch": null,
            "amenity": "tailor",
            "mobile": null,
            "addr:street": "Selçukhan Caddesi",
            "cuisine": null,
            "name": "Çalışkan Terze",
            "name:en": null,
            "name:uk": null,
            "name:de": null,
            "name:tr": null,
            "name:ru": null,
            "name:ar": "خياط تشاليشكان"
        }
    },
    {
        "lat": 41.0106142,
        "lon": 28.9107127,
        "tags": {
            "addr:city": "Istanbul",
            "addr:district": "Zeytinburnu",
            "description": "",
            "opening_hours": null,
            "phone": null,
            "branch": null,
            "amenity": "tailor",
            "mobile": null,
            "addr:street": "G-43. Sokak",
            "cuisine": null,
            "name": "Bizim Terzi",
            "name:en": null,
            "name:uk": null,
            "name:de": null,
            "name:tr": null,
            "name:ru": null,
            "name:ar": "بيزيم للخياطة"
        }
    },
    {
        "lat": 41.0089885,
        "lon": 28.9102515,
        "tags": {
            "addr:city": "Istanbul",
            "addr:district": "Zeytinburnu",
            "description": "",
            "opening_hours": null,
            "phone": null,
            "branch": null,
            "amenity": "tailor",
            "mobile": null,
            "addr:street": "Yunus Emre Caddesi",
            "cuisine": null,
            "name": "ADEM KUMAŞ",
            "name:en": null,
            "name:uk": null,
            "name:de": null,
            "name:tr": null,
            "name:ru": null,
            "name:ar": "اقمشة آدم"
        }
    },
    {
        "lat": 41.0092847,
        "lon": 28.9129292,
        "tags": {
            "addr:city": "Istanbul",
            "addr:district": "Zeytinburnu",
            "description": "",
            "opening_hours": null,
            "phone": null,
            "branch": null,
            "amenity": "tailor",
            "mobile": null,
            "addr:street": "Sabri Ülker Sokak",
            "cuisine": null,
            "name": "terzi hülay",
            "name:en": null,
            "name:uk": null,
            "name:de": null,
            "name:tr": null,
            "name:ru": null,
            "name:ar": "تيرزي هولاي"
        }
    },
    {
        "lat": 41.0054808,
        "lon": 28.9038749,
        "tags": {
            "addr:city": "Istanbul",
            "addr:district": "Zeytinburnu",
            "description": "",
            "opening_hours": null,
            "phone": null,
            "branch": null,
            "amenity": "tailor",
            "mobile": null,
            "addr:street": "g-6 sok",
            "cuisine": null,
            "name": "emre terzi",
            "name:en": null,
            "name:uk": null,
            "name:de": null,
            "name:tr": null,
            "name:ru": null,
            "name:ar": "إيمري"
        }
    },
    {
        "lat": 41.0049631,
        "lon": 28.9036005,
        "tags": {
            "addr:city": "Istanbul",
            "addr:district": "Zeytinburnu",
            "description": "",
            "opening_hours": null,
            "phone": null,
            "branch": null,
            "amenity": "tailor",
            "mobile": null,
            "addr:street": "g-5 sok",
            "cuisine": null,
            "name": "mehmet kahraman",
            "name:en": null,
            "name:uk": null,
            "name:de": null,
            "name:tr": null,
            "name:ru": null,
            "name:ar": "محمد كهرامان"
        }
    },
    {
        "lat": 41.0075639,
        "lon": 28.9070719,
        "tags": {
            "addr:city": "Istanbul",
            "addr:district": "Zeytinburnu",
            "description": "",
            "opening_hours": null,
            "phone": null,
            "branch": null,
            "amenity": "tailor",
            "mobile": null,
            "addr:street": "G-22 sk",
            "cuisine": null,
            "name": "terzi ruştu",
            "name:en": null,
            "name:uk": null,
            "name:de": null,
            "name:tr": null,
            "name:ru": null,
            "name:ar": "تيرزي روشتو"
        }
    },
    {
        "lat": 40.9984918,
        "lon": 28.8962032,
        "tags": {
            "addr:city": "Istanbul",
            "addr:district": "Zeytinburnu",
            "description": "",
            "opening_hours": null,
            "phone": null,
            "branch": null,
            "amenity": "tailor",
            "mobile": null,
            "addr:street": "Yeni karakol sokak",
            "cuisine": null,
            "name": "Zeytin terzi",
            "name:en": null,
            "name:uk": null,
            "name:de": null,
            "name:tr": null,
            "name:ru": null,
            "name:ar": "خياط"
        }
    },
    {
        "lat": 41.0048521,
        "lon": 28.9038945,
        "tags": {
            "addr:city": "Istanbul",
            "addr:district": "Zeytinburnu",
            "description": "",
            "opening_hours": null,
            "phone": null,
            "branch": null,
            "amenity": "tailor",
            "mobile": null,
            "addr:street": "g-8 sok",
            "cuisine": null,
            "name": "eren terzi",
            "name:en": null,
            "name:uk": null,
            "name:de": null,
            "name:tr": null,
            "name:ru": null,
            "name:ar": "إيرين تيرزي"
        }
    },
    {
        "lat": 40.9985355,
        "lon": 28.9114939,
        "tags": {
            "addr:city": "Istanbul",
            "addr:district": "Zeytinburnu",
            "description": "",
            "opening_hours": null,
            "phone": null,
            "branch": null,
            "amenity": "tailor",
            "mobile": null,
            "addr:street": null,
            "cuisine": null,
            "name": "TERZİ",
            "name:en": null,
            "name:uk": null,
            "name:de": null,
            "name:tr": null,
            "name:ru": null,
            "name:ar": "خياط"
        }
    },
    {
        "lat": 40.9885115,
        "lon": 28.8955223,
        "tags": {
            "addr:city": "Istanbul",
            "addr:district": "Zeytinburnu",
            "description": "",
            "opening_hours": null,
            "phone": null,
            "branch": null,
            "amenity": "tailor",
            "mobile": null,
            "addr:street": "Şht. Er Yavuz Bahar Sokak",
            "cuisine": null,
            "name": "Kevser Terzi",
            "name:en": null,
            "name:uk": null,
            "name:de": null,
            "name:tr": null,
            "name:ru": null,
            "name:ar": "الخياطة كوثر"
        }
    },
    {
        "lat": 40.9925772,
        "lon": 28.8985077,
        "tags": {
            "addr:city": "Istanbul",
            "addr:district": "Zeytinburnu",
            "description": "",
            "opening_hours": "Mo-Su 09:00-19:00",
            "phone": null,
            "branch": null,
            "amenity": "tailor",
            "mobile": null,
            "addr:street": null,
            "cuisine": null,
            "name": "Bay Bayan Terzisi",
            "name:en": null,
            "name:uk": null,
            "name:de": null,
            "name:tr": null,
            "name:ru": null,
            "name:ar": "خياط باي بيان"
        }
    },
    {
        "lat": 40.9867696,
        "lon": 28.8983171,
        "tags": {
            "addr:city": "Istanbul",
            "addr:district": "Zeytinburnu",
            "description": "",
            "opening_hours": null,
            "phone": null,
            "branch": null,
            "amenity": "tailor",
            "mobile": null,
            "addr:street": "29/2. sokak",
            "cuisine": null,
            "name": "armağan",
            "name:en": null,
            "name:uk": null,
            "name:de": null,
            "name:tr": null,
            "name:ru": null,
            "name:ar": "أرماغان"
        }
    },
    {
        "lat": 40.9886094,
        "lon": 28.9046054,
        "tags": {
            "addr:city": "Istanbul",
            "addr:district": "Zeytinburnu",
            "description": "",
            "opening_hours": null,
            "phone": null,
            "branch": null,
            "amenity": "tailor",
            "mobile": null,
            "addr:street": "50 Sokak",
            "cuisine": null,
            "name": "Titiz",
            "name:en": null,
            "name:uk": null,
            "name:de": null,
            "name:tr": null,
            "name:ru": null,
            "name:ar": "تتيز"
        }
    },
    {
        "lat": 40.9862183,
        "lon": 28.8952169,
        "tags": {
            "addr:city": "Istanbul",
            "addr:district": "Zeytinburnu",
            "description": "",
            "opening_hours": null,
            "phone": null,
            "branch": null,
            "amenity": "tailor",
            "mobile": null,
            "addr:street": "Çiçek Sokak",
            "cuisine": null,
            "name": "elmasım terzi",
            "name:en": null,
            "name:uk": null,
            "name:de": null,
            "name:tr": null,
            "name:ru": null,
            "name:ar": "ألماسم ترزي"
        }
    },
    {
        "lat": 40.9956218,
        "lon": 28.8982218,
        "tags": {
            "addr:city": "Istanbul",
            "addr:district": "Zeytinburnu",
            "description": "",
            "opening_hours": null,
            "phone": null,
            "branch": null,
            "amenity": "tailor",
            "mobile": null,
            "addr:street": "Ahmet yesevi sokak",
            "cuisine": null,
            "name": "Butik terzi",
            "name:en": null,
            "name:uk": null,
            "name:de": null,
            "name:tr": null,
            "name:ru": null,
            "name:ar": "خياط"
        }
    },
    {
        "lat": 40.9855987,
        "lon": 28.8990902,
        "tags": {
            "addr:city": "Istanbul",
            "addr:district": "Zeytinburnu",
            "description": "",
            "opening_hours": null,
            "phone": null,
            "branch": null,
            "amenity": "tailor",
            "mobile": null,
            "addr:street": "14. Sokak",
            "cuisine": null,
            "name": "Terken Terzi",
            "name:en": null,
            "name:uk": null,
            "name:de": null,
            "name:tr": null,
            "name:ru": null,
            "name:ar": "الخياط تركان"
        }
    },
    {
        "lat": 40.9952859,
        "lon": 28.9110376,
        "tags": {
            "addr:city": "Istanbul",
            "addr:district": "Zeytinburnu",
            "description": "",
            "opening_hours": null,
            "phone": null,
            "branch": null,
            "amenity": "tailor",
            "mobile": null,
            "addr:street": null,
            "cuisine": null,
            "name": "Terzi",
            "name:en": null,
            "name:uk": null,
            "name:de": null,
            "name:tr": null,
            "name:ru": null,
            "name:ar": "خياط"
        }
    },
    {
        "lat": 40.991507,
        "lon": 28.9031932,
        "tags": {
            "addr:city": "Istanbul",
            "addr:district": "Zeytinburnu",
            "description": "",
            "opening_hours": null,
            "phone": null,
            "branch": null,
            "amenity": "tailor",
            "mobile": null,
            "addr:street": "53. sokak",
            "cuisine": null,
            "name": "Sönmez",
            "name:en": null,
            "name:uk": null,
            "name:de": null,
            "name:tr": null,
            "name:ru": null,
            "name:ar": "سون ميز"
        }
    },
    {
        "lat": 41.0476034,
        "lon": 28.8210415,
        "tags": {
            "addr:city": "Istanbul",
            "addr:district": "Bağcılar",
            "description": "",
            "opening_hours": null,
            "phone": null,
            "branch": null,
            "amenity": "tailor",
            "mobile": null,
            "addr:street": "Karaoğlanoğlu caddesi",
            "cuisine": null,
            "name": "Hacıoğlu Terzi",
            "name:en": null,
            "name:uk": null,
            "name:de": null,
            "name:tr": null,
            "name:ru": null,
            "name:ar": null
        }
    },
    {
        "lat": 41.0508215,
        "lon": 28.8497654,
        "tags": {
            "addr:city": "Istanbul",
            "addr:district": "Zeytinburnu",
            "description": "",
            "opening_hours": null,
            "phone": null,
            "branch": null,
            "amenity": "tailor",
            "mobile": null,
            "addr:street": null,
            "cuisine": null,
            "name": "Çağlar terzi",
            "name:en": null,
            "name:uk": null,
            "name:de": null,
            "name:tr": null,
            "name:ru": null,
            "name:ar": "تشاغلا للخياطة"
        }
    },
    {
        "lat": 41.051307,
        "lon": 28.8497654,
        "tags": {
            "addr:city": "Istanbul",
            "addr:district": "Zeytinburnu",
            "description": "",
            "opening_hours": null,
            "phone": null,
            "branch": null,
            "amenity": "tailor",
            "mobile": null,
            "addr:street": null,
            "cuisine": null,
            "name": "Terzi",
            "name:en": null,
            "name:uk": null,
            "name:de": null,
            "name:tr": null,
            "name:ru": null,
            "name:ar": "خياط"
        }
    },
    {
        "lat": 41.0287005,
        "lon": 28.8278503,
        "tags": {
            "addr:city": "Istanbul",
            "addr:district": "Bağcılar",
            "description": "",
            "opening_hours": null,
            "phone": null,
            "branch": null,
            "amenity": "tailor",
            "mobile": null,
            "addr:street": "Cesme sokak",
            "cuisine": null,
            "name": "Memol",
            "name:en": null,
            "name:uk": null,
            "name:de": null,
            "name:tr": null,
            "name:ru": null,
            "name:ar": "ميمول"
        }
    },
    {
        "lat": 41.031556,
        "lon": 28.8397112,
        "tags": {
            "addr:city": "Istanbul",
            "addr:district": "Bağcılar",
            "description": "",
            "opening_hours": null,
            "phone": null,
            "branch": null,
            "amenity": "tailor",
            "mobile": null,
            "addr:street": "Asmalı sokak",
            "cuisine": null,
            "name": "Şener terzi",
            "name:en": null,
            "name:uk": null,
            "name:de": null,
            "name:tr": null,
            "name:ru": null,
            "name:ar": "شينير للخياطة"
        }
    },
    {
        "lat": 41.0313079,
        "lon": 28.8391268,
        "tags": {
            "addr:city": "Istanbul",
            "addr:district": "Bağcılar",
            "description": "",
            "opening_hours": null,
            "phone": null,
            "branch": null,
            "amenity": "tailor",
            "mobile": null,
            "addr:street": "Namal sokak",
            "cuisine": null,
            "name": "Terzi",
            "name:en": null,
            "name:uk": null,
            "name:de": null,
            "name:tr": null,
            "name:ru": null,
            "name:ar": "خياط"
        }
    },
    {
        "lat": 41.0344453,
        "lon": 28.8418182,
        "tags": {
            "addr:city": "Istanbul",
            "addr:district": "Bağcılar",
            "description": "",
            "opening_hours": null,
            "phone": null,
            "branch": null,
            "amenity": "tailor",
            "mobile": null,
            "addr:street": "Danış sokak",
            "cuisine": null,
            "name": "Terzi",
            "name:en": null,
            "name:uk": null,
            "name:de": null,
            "name:tr": null,
            "name:ru": null,
            "name:ar": "خياط"
        }
    },
    {
        "lat": 41.0446913,
        "lon": 28.8385498,
        "tags": {
            "addr:city": "Istanbul",
            "addr:district": "Bağcılar",
            "description": "",
            "opening_hours": null,
            "phone": null,
            "branch": null,
            "amenity": "tailor",
            "mobile": null,
            "addr:street": "Mevlana caddesi",
            "cuisine": null,
            "name": "Terzi",
            "name:en": null,
            "name:uk": null,
            "name:de": null,
            "name:tr": null,
            "name:ru": null,
            "name:ar": "خياط"
        }
    },
    {
        "lat": 41.0394361,
        "lon": 28.8403612,
        "tags": {
            "addr:city": "Istanbul",
            "addr:district": "Bağcılar",
            "description": "",
            "opening_hours": null,
            "phone": null,
            "branch": null,
            "amenity": "tailor",
            "mobile": null,
            "addr:street": "Mevlana caddesi",
            "cuisine": null,
            "name": null,
            "name:en": null,
            "name:uk": null,
            "name:de": null,
            "name:tr": null,
            "name:ru": null,
            "name:ar": null
        }
    },
    {
        "lat": 41.0387467,
        "lon": 28.8392429,
        "tags": {
            "addr:city": "Istanbul",
            "addr:district": "Bağcılar",
            "description": "",
            "opening_hours": null,
            "phone": null,
            "branch": null,
            "amenity": "tailor",
            "mobile": null,
            "addr:street": "Tavukcu kopru caddesi",
            "cuisine": null,
            "name": "Yeldiz iplik",
            "name:en": null,
            "name:uk": null,
            "name:de": null,
            "name:tr": null,
            "name:ru": null,
            "name:ar": "يلدز ابلك"
        }
    },
    {
        "lat": 41.0417468,
        "lon": 28.8586986,
        "tags": {
            "addr:city": "Istanbul",
            "addr:district": null,
            "description": "",
            "opening_hours": null,
            "phone": null,
            "branch": null,
            "amenity": "tailor",
            "mobile": null,
            "addr:street": "1993 Sokak",
            "cuisine": null,
            "name": "Altun Oğlu Terzi",
            "name:en": null,
            "name:uk": null,
            "name:de": null,
            "name:tr": null,
            "name:ru": null,
            "name:ar": "ألتون أوغلو ترزي"
        }
    },
    {
        "lat": 41.0337367,
        "lon": 28.8633463,
        "tags": {
            "addr:city": "Istanbul",
            "addr:district": "Bağcılar",
            "description": "",
            "opening_hours": null,
            "phone": null,
            "branch": null,
            "amenity": "tailor",
            "mobile": null,
            "addr:street": "824 sokak",
            "cuisine": null,
            "name": "TERZI",
            "name:en": null,
            "name:uk": null,
            "name:de": null,
            "name:tr": null,
            "name:ru": null,
            "name:ar": "خياط"
        }
    },
    {
        "lat": 41.0356458,
        "lon": 28.8649399,
        "tags": {
            "addr:city": "Istanbul",
            "addr:district": "Bağcılar",
            "description": "",
            "opening_hours": null,
            "phone": null,
            "branch": null,
            "amenity": "tailor",
            "mobile": null,
            "addr:street": "802 sokak",
            "cuisine": null,
            "name": "Terzi",
            "name:en": null,
            "name:uk": null,
            "name:de": null,
            "name:tr": null,
            "name:ru": null,
            "name:ar": "خياط"
        }
    },
    {
        "lat": 41.0348761,
        "lon": 28.8617519,
        "tags": {
            "addr:city": "Istanbul",
            "addr:district": "Bağcılar",
            "description": "",
            "opening_hours": null,
            "phone": null,
            "branch": null,
            "amenity": "tailor",
            "mobile": null,
            "addr:street": "843 sokak",
            "cuisine": null,
            "name": "EYÜP",
            "name:en": null,
            "name:uk": null,
            "name:de": null,
            "name:tr": null,
            "name:ru": null,
            "name:ar": "ايوب"
        }
    },
    {
        "lat": 41.0318163,
        "lon": 28.8498232,
        "tags": {
            "addr:city": "Istanbul",
            "addr:district": "Bağcılar",
            "description": "",
            "opening_hours": null,
            "phone": null,
            "branch": null,
            "amenity": "tailor",
            "mobile": null,
            "addr:street": "26/10-B. sokak",
            "cuisine": null,
            "name": "Milano kalıp tasarım",
            "name:en": null,
            "name:uk": null,
            "name:de": null,
            "name:tr": null,
            "name:ru": null,
            "name:ar": "خياط لتصميم القوالب"
        }
    },
    {
        "lat": 40.8665693,
        "lon": 29.3281705,
        "tags": {
            "addr:city": "İstanbul",
            "addr:district": null,
            "description": "",
            "opening_hours": null,
            "phone": null,
            "branch": null,
            "amenity": "tailor",
            "mobile": null,
            "addr:street": null,
            "cuisine": null,
            "name": "Aydınlı Terzisi",
            "name:en": null,
            "name:uk": null,
            "name:de": null,
            "name:tr": null,
            "name:ru": null,
            "name:ar": null
        }
    },
    {
        "lat": 40.8953874,
        "lon": 29.3567225,
        "tags": {
            "addr:city": "İstanbul",
            "addr:district": null,
            "description": "",
            "opening_hours": null,
            "phone": null,
            "branch": null,
            "amenity": "tailor",
            "mobile": null,
            "addr:street": null,
            "cuisine": null,
            "name": null,
            "name:en": null,
            "name:uk": null,
            "name:de": null,
            "name:tr": null,
            "name:ru": null,
            "name:ar": null
        }
    },
    {
        "lat": 40.8866953,
        "lon": 29.2218059,
        "tags": {
            "addr:city": "İstanbul",
            "addr:district": null,
            "description": "",
            "opening_hours": null,
            "phone": null,
            "branch": null,
            "amenity": "tailor",
            "mobile": null,
            "addr:street": null,
            "cuisine": null,
            "name": "Terzi",
            "name:en": null,
            "name:uk": null,
            "name:de": null,
            "name:tr": null,
            "name:ru": null,
            "name:ar": null
        }
    },
    {
        "lat": 41.017912,
        "lon": 29.101222,
        "tags": {
            "addr:city": "İstanbul",
            "addr:district": null,
            "description": "",
            "opening_hours": null,
            "phone": null,
            "branch": null,
            "amenity": "tailor",
            "mobile": null,
            "addr:street": null,
            "cuisine": null,
            "name": "Terzi",
            "name:en": null,
            "name:uk": null,
            "name:de": null,
            "name:tr": null,
            "name:ru": null,
            "name:ar": null
        }
    },
    {
        "lat": 40.8708366,
        "lon": 29.3085138,
        "tags": {
            "addr:city": "İstanbul",
            "addr:district": null,
            "description": "",
            "opening_hours": null,
            "phone": null,
            "branch": null,
            "amenity": "tailor",
            "mobile": null,
            "addr:street": null,
            "cuisine": null,
            "name": "Moda Fırat",
            "name:en": null,
            "name:uk": null,
            "name:de": null,
            "name:tr": null,
            "name:ru": null,
            "name:ar": null
        }
    },
    {
        "lat": 41.0548033,
        "lon": 28.7991156,
        "tags": {
            "addr:city": "İstanbul",
            "addr:district": null,
            "description": "",
            "opening_hours": null,
            "phone": null,
            "branch": null,
            "amenity": "tailor",
            "mobile": null,
            "addr:street": null,
            "cuisine": null,
            "name": "Asi Makina",
            "name:en": null,
            "name:uk": null,
            "name:de": null,
            "name:tr": null,
            "name:ru": null,
            "name:ar": null
        }
    },
    {
        "lat": 40.982336,
        "lon": 29.0786179,
        "tags": {
            "addr:city": "İstanbul",
            "addr:district": null,
            "description": "",
            "opening_hours": null,
            "phone": null,
            "branch": null,
            "amenity": "tailor",
            "mobile": null,
            "addr:street": null,
            "cuisine": null,
            "name": null,
            "name:en": null,
            "name:uk": null,
            "name:de": null,
            "name:tr": null,
            "name:ru": null,
            "name:ar": null
        }
    },
    {
        "lat": 40.902739,
        "lon": 29.2308489,
        "tags": {
            "addr:city": "İstanbul",
            "addr:district": null,
            "description": "",
            "opening_hours": null,
            "phone": null,
            "branch": null,
            "amenity": "tailor",
            "mobile": null,
            "addr:street": null,
            "cuisine": null,
            "name": "Terzi Muammer",
            "name:en": null,
            "name:uk": null,
            "name:de": null,
            "name:tr": null,
            "name:ru": null,
            "name:ar": null
        }
    },
    {
        "lat": 40.8258473,
        "lon": 29.3252304,
        "tags": {
            "addr:city": "İstanbul",
            "addr:district": null,
            "description": "",
            "opening_hours": null,
            "phone": null,
            "branch": null,
            "amenity": "tailor",
            "mobile": null,
            "addr:street": null,
            "cuisine": null,
            "name": "Terzi Köksal",
            "name:en": null,
            "name:uk": null,
            "name:de": null,
            "name:tr": null,
            "name:ru": null,
            "name:ar": null
        }
    },
    {
        "lat": 41.0939585,
        "lon": 28.7744298,
        "tags": {
            "addr:city": "İstanbul",
            "addr:district": null,
            "description": "",
            "opening_hours": null,
            "phone": null,
            "branch": null,
            "amenity": "tailor",
            "mobile": null,
            "addr:street": null,
            "cuisine": null,
            "name": "kuru temizlemeci",
            "name:en": null,
            "name:uk": null,
            "name:de": null,
            "name:tr": null,
            "name:ru": null,
            "name:ar": null
        }
    },
    {
        "lat": 41.0941002,
        "lon": 28.7740478,
        "tags": {
            "addr:city": "İstanbul",
            "addr:district": null,
            "description": "",
            "opening_hours": null,
            "phone": null,
            "branch": null,
            "amenity": "tailor",
            "mobile": null,
            "addr:street": null,
            "cuisine": null,
            "name": "Terzi adem",
            "name:en": null,
            "name:uk": null,
            "name:de": null,
            "name:tr": null,
            "name:ru": null,
            "name:ar": null
        }
    },
    {
        "lat": 41.0943161,
        "lon": 28.7732375,
        "tags": {
            "addr:city": "İstanbul",
            "addr:district": null,
            "description": "",
            "opening_hours": null,
            "phone": null,
            "branch": null,
            "amenity": "tailor",
            "mobile": null,
            "addr:street": null,
            "cuisine": null,
            "name": "bahçeşehir terzi",
            "name:en": null,
            "name:uk": null,
            "name:de": null,
            "name:tr": null,
            "name:ru": null,
            "name:ar": null
        }
    },
    {
        "lat": 41.0520837,
        "lon": 28.9183887,
        "tags": {
            "addr:city": "İstanbul",
            "addr:district": "Eyüpsultan",
            "description": "",
            "opening_hours": null,
            "phone": null,
            "branch": null,
            "amenity": "tailor",
            "mobile": null,
            "addr:street": "Mazharbey Caddesi",
            "cuisine": null,
            "name": "Gönenli Terzi Necati",
            "name:en": null,
            "name:uk": null,
            "name:de": null,
            "name:tr": null,
            "name:ru": null,
            "name:ar": null
        }
    },
    {
        "lat": 41.0485389,
        "lon": 28.9308569,
        "tags": {
            "addr:city": "İstanbul",
            "addr:district": null,
            "description": "",
            "opening_hours": null,
            "phone": null,
            "branch": null,
            "amenity": "tailor",
            "mobile": null,
            "addr:street": null,
            "cuisine": null,
            "name": "Nurettin Cansız",
            "name:en": null,
            "name:uk": null,
            "name:de": null,
            "name:tr": null,
            "name:ru": null,
            "name:ar": null
        }
    },
    {
        "lat": 41.0534282,
        "lon": 28.9162594,
        "tags": {
            "addr:city": "İstanbul",
            "addr:district": "Eyüpsultan",
            "description": "",
            "opening_hours": null,
            "phone": null,
            "branch": null,
            "amenity": "tailor",
            "mobile": null,
            "addr:street": "Boşnak Hıdırbey Sokağı",
            "cuisine": null,
            "name": null,
            "name:en": null,
            "name:uk": null,
            "name:de": null,
            "name:tr": null,
            "name:ru": null,
            "name:ar": null
        }
    },
    {
        "lat": 40.9030741,
        "lon": 29.2328696,
        "tags": {
            "addr:city": "İstanbul",
            "addr:district": "Kartal",
            "description": "",
            "opening_hours": null,
            "phone": "+905426606862",
            "branch": null,
            "amenity": "tailor",
            "mobile": null,
            "addr:street": "Abdi İpekçi Caddesi",
            "cuisine": null,
            "name": "Munzur Terzi ve Kurutemizleme",
            "name:en": null,
            "name:uk": null,
            "name:de": null,
            "name:tr": null,
            "name:ru": null,
            "name:ar": null
        }
    },
    {
        "lat": 41.1457004,
        "lon": 29.0821452,
        "tags": {
            "addr:city": "İstanbul",
            "addr:district": null,
            "description": "",
            "opening_hours": null,
            "phone": null,
            "branch": null,
            "amenity": "tailor",
            "mobile": null,
            "addr:street": null,
            "cuisine": null,
            "name": null,
            "name:en": null,
            "name:uk": null,
            "name:de": null,
            "name:tr": null,
            "name:ru": null,
            "name:ar": null
        }
    },
    {
        "lat": 41.063217,
        "lon": 28.9945105,
        "tags": {
            "addr:city": "İstanbul",
            "addr:district": "Şişli",
            "description": "",
            "opening_hours": "Mo-Su 08:30-20:00",
            "phone": null,
            "branch": null,
            "amenity": "tailor",
            "mobile": null,
            "addr:street": "Bozova Sokağı",
            "cuisine": null,
            "name": "Nur Terzi",
            "name:en": null,
            "name:uk": null,
            "name:de": null,
            "name:tr": null,
            "name:ru": null,
            "name:ar": null
        }
    },
    {
        "lat": 40.9768956,
        "lon": 28.8736842,
        "tags": {
            "addr:city": "İstanbul",
            "addr:district": null,
            "description": "",
            "opening_hours": null,
            "phone": null,
            "branch": null,
            "amenity": "tailor",
            "mobile": null,
            "addr:street": null,
            "cuisine": null,
            "name": null,
            "name:en": null,
            "name:uk": null,
            "name:de": null,
            "name:tr": null,
            "name:ru": null,
            "name:ar": null
        }
    },
    {
        "lat": 40.9771475,
        "lon": 28.8743486,
        "tags": {
            "addr:city": "İstanbul",
            "addr:district": null,
            "description": "",
            "opening_hours": null,
            "phone": null,
            "branch": null,
            "amenity": "tailor",
            "mobile": null,
            "addr:street": null,
            "cuisine": null,
            "name": null,
            "name:en": null,
            "name:uk": null,
            "name:de": null,
            "name:tr": null,
            "name:ru": null,
            "name:ar": null
        }
    },
    {
        "lat": 41.0210798,
        "lon": 28.579447,
        "tags": {
            "addr:city": "İstanbul",
            "addr:district": null,
            "description": "",
            "opening_hours": null,
            "phone": null,
            "branch": null,
            "amenity": "tailor",
            "mobile": null,
            "addr:street": null,
            "cuisine": null,
            "name": "Terzi Recep",
            "name:en": null,
            "name:uk": null,
            "name:de": null,
            "name:tr": null,
            "name:ru": null,
            "name:ar": null
        }
    },
    {
        "lat": 41.0380717,
        "lon": 28.9017442,
        "tags": {
            "addr:city": "İstanbul",
            "addr:district": null,
            "description": "",
            "opening_hours": null,
            "phone": null,
            "branch": null,
            "amenity": "tailor",
            "mobile": null,
            "addr:street": null,
            "cuisine": null,
            "name": "Filiz Terzi",
            "name:en": null,
            "name:uk": null,
            "name:de": null,
            "name:tr": null,
            "name:ru": null,
            "name:ar": null
        }
    },
    {
        "lat": 41.074601,
        "lon": 28.9343584,
        "tags": {
            "addr:city": "İstanbul",
            "addr:district": null,
            "description": "",
            "opening_hours": null,
            "phone": null,
            "branch": null,
            "amenity": "tailor",
            "mobile": "+905352419528",
            "addr:street": null,
            "cuisine": null,
            "name": "Elit Terzi",
            "name:en": null,
            "name:uk": null,
            "name:de": null,
            "name:tr": null,
            "name:ru": null,
            "name:ar": null
        }
    },
    {
        "lat": 40.9637023,
        "lon": 29.0878908,
        "tags": {
            "addr:city": "İstanbul",
            "addr:district": null,
            "description": "",
            "opening_hours": null,
            "phone": null,
            "branch": null,
            "amenity": "tailor",
            "mobile": null,
            "addr:street": null,
            "cuisine": null,
            "name": "Suadiye Terzi",
            "name:en": null,
            "name:uk": null,
            "name:de": null,
            "name:tr": null,
            "name:ru": null,
            "name:ar": null
        }
    },
    {
        "lat": 40.9282147,
        "lon": 29.1416402,
        "tags": {
            "addr:city": "İstanbul",
            "addr:district": null,
            "description": "",
            "opening_hours": null,
            "phone": null,
            "branch": null,
            "amenity": "tailor",
            "mobile": null,
            "addr:street": null,
            "cuisine": null,
            "name": "Canan Terzi",
            "name:en": null,
            "name:uk": null,
            "name:de": null,
            "name:tr": null,
            "name:ru": null,
            "name:ar": null
        }
    },
    {
        "lat": 40.8285344,
        "lon": 29.3213286,
        "tags": {
            "addr:city": "İstanbul",
            "addr:district": null,
            "description": "",
            "opening_hours": null,
            "phone": null,
            "branch": null,
            "amenity": "tailor",
            "mobile": null,
            "addr:street": null,
            "cuisine": null,
            "name": "Terzi Ramazan",
            "name:en": null,
            "name:uk": null,
            "name:de": null,
            "name:tr": null,
            "name:ru": null,
            "name:ar": null
        }
    },
    {
        "lat": 41.0561132,
        "lon": 28.9828574,
        "tags": {
            "addr:city": "İstanbul",
            "addr:district": null,
            "description": "",
            "opening_hours": null,
            "phone": null,
            "branch": null,
            "amenity": "tailor",
            "mobile": null,
            "addr:street": null,
            "cuisine": null,
            "name": null,
            "name:en": null,
            "name:uk": null,
            "name:de": null,
            "name:tr": null,
            "name:ru": null,
            "name:ar": null
        }
    },
    {
        "lat": 40.87572,
        "lon": 29.2692538,
        "tags": {
            "addr:city": "İstanbul",
            "addr:district": null,
            "description": "",
            "opening_hours": null,
            "phone": null,
            "branch": null,
            "amenity": "tailor",
            "mobile": null,
            "addr:street": null,
            "cuisine": null,
            "name": "Terzi Murat",
            "name:en": null,
            "name:uk": null,
            "name:de": null,
            "name:tr": null,
            "name:ru": null,
            "name:ar": null
        }
    },
    {
        "lat": 41.0334801,
        "lon": 28.8299223,
        "tags": {
            "addr:city": "İstanbul",
            "addr:district": null,
            "description": "",
            "opening_hours": null,
            "phone": null,
            "branch": null,
            "amenity": "tailor",
            "mobile": null,
            "addr:street": null,
            "cuisine": null,
            "name": null,
            "name:en": null,
            "name:uk": null,
            "name:de": null,
            "name:tr": null,
            "name:ru": null,
            "name:ar": null
        }
    },
    {
        "lat": 40.9294145,
        "lon": 29.1392361,
        "tags": {
            "addr:city": "İstanbul",
            "addr:district": null,
            "description": "",
            "opening_hours": null,
            "phone": null,
            "branch": null,
            "amenity": "tailor",
            "mobile": null,
            "addr:street": null,
            "cuisine": null,
            "name": "Terzi Mikail",
            "name:en": null,
            "name:uk": null,
            "name:de": null,
            "name:tr": null,
            "name:ru": null,
            "name:ar": null
        }
    },
    {
        "lat": 41.0095648,
        "lon": 29.0800499,
        "tags": {
            "addr:city": "İstanbul",
            "addr:district": null,
            "description": "",
            "opening_hours": null,
            "phone": null,
            "branch": null,
            "amenity": "tailor",
            "mobile": null,
            "addr:street": null,
            "cuisine": null,
            "name": "Terzi Bay Bayan Tadilat",
            "name:en": null,
            "name:uk": null,
            "name:de": null,
            "name:tr": null,
            "name:ru": null,
            "name:ar": null
        }
    },
    {
        "lat": 40.9829259,
        "lon": 28.8764502,
        "tags": {
            "addr:city": "İstanbul",
            "addr:district": null,
            "description": "",
            "opening_hours": null,
            "phone": null,
            "branch": null,
            "amenity": "tailor",
            "mobile": null,
            "addr:street": null,
            "cuisine": null,
            "name": null,
            "name:en": null,
            "name:uk": null,
            "name:de": null,
            "name:tr": null,
            "name:ru": null,
            "name:ar": null
        }
    },
    {
        "lat": 41.0187373,
        "lon": 29.0705874,
        "tags": {
            "addr:city": "İstanbul",
            "addr:district": null,
            "description": "",
            "opening_hours": "Mo-Sa 09:30-21:00; Su 13:00-21:00",
            "phone": null,
            "branch": null,
            "amenity": "tailor",
            "mobile": null,
            "addr:street": null,
            "cuisine": null,
            "name": "Koska Terzi",
            "name:en": null,
            "name:uk": null,
            "name:de": null,
            "name:tr": null,
            "name:ru": null,
            "name:ar": null
        }
    },
    {
        "lat": 40.9101331,
        "lon": 29.389075,
        "tags": {
            "addr:city": "İstanbul",
            "addr:district": null,
            "description": "",
            "opening_hours": null,
            "phone": null,
            "branch": null,
            "amenity": "tailor",
            "mobile": null,
            "addr:street": null,
            "cuisine": null,
            "name": null,
            "name:en": null,
            "name:uk": null,
            "name:de": null,
            "name:tr": null,
            "name:ru": null,
            "name:ar": null
        }
    },
    {
        "lat": 40.909425,
        "lon": 29.3902172,
        "tags": {
            "addr:city": "İstanbul",
            "addr:district": null,
            "description": "",
            "opening_hours": null,
            "phone": null,
            "branch": null,
            "amenity": "tailor",
            "mobile": null,
            "addr:street": null,
            "cuisine": null,
            "name": null,
            "name:en": null,
            "name:uk": null,
            "name:de": null,
            "name:tr": null,
            "name:ru": null,
            "name:ar": null
        }
    },
    {
        "lat": 41.0930651,
        "lon": 28.8766954,
        "tags": {
            "addr:city": "İstanbul",
            "addr:district": null,
            "description": "",
            "opening_hours": null,
            "phone": null,
            "branch": null,
            "amenity": "tailor",
            "mobile": null,
            "addr:street": null,
            "cuisine": null,
            "name": "Terzi Ege",
            "name:en": null,
            "name:uk": null,
            "name:de": null,
            "name:tr": null,
            "name:ru": null,
            "name:ar": null
        }
    },
    {
        "lat": 41.0129474,
        "lon": 29.1988948,
        "tags": {
            "addr:city": "İstanbul",
            "addr:district": null,
            "description": "",
            "opening_hours": null,
            "phone": null,
            "branch": null,
            "amenity": "tailor",
            "mobile": null,
            "addr:street": null,
            "cuisine": null,
            "name": "Klas Terzi",
            "name:en": null,
            "name:uk": null,
            "name:de": null,
            "name:tr": null,
            "name:ru": null,
            "name:ar": null
        }
    },
    {
        "lat": 41.0176018,
        "lon": 29.0721905,
        "tags": {
            "addr:city": "İstanbul",
            "addr:district": "Üsküdar",
            "description": "",
            "opening_hours": null,
            "phone": null,
            "branch": null,
            "amenity": "tailor",
            "mobile": null,
            "addr:street": "Bulgurlu Caddesi",
            "cuisine": null,
            "name": "Elif Yorgan Dikim Evi",
            "name:en": null,
            "name:uk": null,
            "name:de": null,
            "name:tr": null,
            "name:ru": null,
            "name:ar": null
        }
    },
    {
        "lat": 41.0638571,
        "lon": 29.0054432,
        "tags": {
            "addr:city": "İstanbul",
            "addr:district": null,
            "description": "",
            "opening_hours": null,
            "phone": "+90 538 784 86 13",
            "branch": null,
            "amenity": "tailor",
            "mobile": null,
            "addr:street": "Süleymanbey Sokak",
            "cuisine": null,
            "name": "Bizim Terzi",
            "name:en": null,
            "name:uk": null,
            "name:de": null,
            "name:tr": null,
            "name:ru": null,
            "name:ar": null
        }
    },
    {
        "lat": 41.0172038,
        "lon": 29.0807755,
        "tags": {
            "addr:city": "İstanbul",
            "addr:district": null,
            "description": "",
            "opening_hours": null,
            "phone": null,
            "branch": null,
            "amenity": "tailor",
            "mobile": null,
            "addr:street": null,
            "cuisine": null,
            "name": null,
            "name:en": null,
            "name:uk": null,
            "name:de": null,
            "name:tr": null,
            "name:ru": null,
            "name:ar": null
        }
    },
    {
        "lat": 41.2802948,
        "lon": 28.1438774,
        "tags": {
            "addr:city": "İstanbul",
            "addr:district": null,
            "description": "",
            "opening_hours": null,
            "phone": null,
            "branch": null,
            "amenity": "tailor",
            "mobile": null,
            "addr:street": null,
            "cuisine": null,
            "name": "Terzi",
            "name:en": null,
            "name:uk": null,
            "name:de": null,
            "name:tr": null,
            "name:ru": null,
            "name:ar": null
        }
    }
]