[
    {
        "lat": 40.9648867,
        "lon": 29.2766531,
        "tags": {
            "addr:city": "Istanbul",
            "addr:district": "Sultanbeyli",
            "description": "",
            "opening_hours": "24/7",
            "phone": null,
            "branch": null,
            "amenity": "tiles",
            "mobile": null,
            "addr:street": "özdemlr sokğı",
            "cuisine": null,
            "name": "Seramiksan",
            "name:en": null,
            "name:uk": null,
            "name:de": null,
            "name:tr": null,
            "name:ru": null,
            "name:ar": "محل للسيراميك"
        }
    },
    {
        "lat": 40.9586763,
        "lon": 29.2836853,
        "tags": {
            "addr:city": "Istanbul",
            "addr:district": "Sultanbeyli",
            "description": "",
            "opening_hours": null,
            "phone": "05378719007",
            "branch": null,
            "amenity": "tiles",
            "mobile": null,
            "addr:street": "Eyyubi caddesi",
            "cuisine": null,
            "name": "Uzun mermer",
            "name:en": null,
            "name:uk": null,
            "name:de": null,
            "name:tr": null,
            "name:ru": null,
            "name:ar": "مرمر اوزون"
        }
    },
    {
        "lat": 40.9639841,
        "lon": 29.2813407,
        "tags": {
            "addr:city": "Istanbul",
            "addr:district": "Sultanbeyli",
            "description": "",
            "opening_hours": "Mo-Fr 07:00-13:30; Mo-Fr 17:00-20:00",
            "phone": null,
            "branch": null,
            "amenity": "tiles",
            "mobile": null,
            "addr:street": "Fatih Bulvarı Caddesi",
            "cuisine": null,
            "name": "seramikpark",
            "name:en": null,
            "name:uk": null,
            "name:de": null,
            "name:tr": null,
            "name:ru": null,
            "name:ar": "محل سيراميك بارك"
        }
    },
    {
        "lat": 40.9646647,
        "lon": 29.278033,
        "tags": {
            "addr:city": "Istanbul",
            "addr:district": "Sultanbeyli",
            "description": "",
            "opening_hours": "Mo-Fr 07:00-13:30; Mo-Fr 17:00-20:00",
            "phone": "02164194021",
            "branch": null,
            "amenity": "tiles",
            "mobile": null,
            "addr:street": "Fatih Bulvarı",
            "cuisine": null,
            "name": "ÖZ Keskin Çanakkale Seramik",
            "name:en": null,
            "name:uk": null,
            "name:de": null,
            "name:tr": null,
            "name:ru": null,
            "name:ar": "محل أزوم كسكين للسيراميك"
        }
    },
    {
        "lat": 40.9647053,
        "lon": 29.2777799,
        "tags": {
            "addr:city": "Istanbul",
            "addr:district": "Sultanbeyli",
            "description": "",
            "opening_hours": "Mo-Fr 07:00-13:30; Mo-Fr 17:00-20:00",
            "phone": "02163982426",
            "branch": null,
            "amenity": "tiles",
            "mobile": null,
            "addr:street": "Fatih Bulvarı Caddesi",
            "cuisine": null,
            "name": "NG Kütahya Seramik",
            "name:en": null,
            "name:uk": null,
            "name:de": null,
            "name:tr": null,
            "name:ru": null,
            "name:ar": "نيكيتاهايا للسيراميك"
        }
    },
    {
        "lat": 40.9716266,
        "lon": 29.2494672,
        "tags": {
            "addr:city": "Istanbul",
            "addr:district": "Sultanbeyli",
            "description": "",
            "opening_hours": "Mo-Fr 07:00-13:30; Mo-Fr 17:00-20:00",
            "phone": null,
            "branch": null,
            "amenity": "tiles",
            "mobile": null,
            "addr:street": "fatih bulvarı",
            "cuisine": null,
            "name": "Graniser seramik",
            "name:en": null,
            "name:uk": null,
            "name:de": null,
            "name:tr": null,
            "name:ru": null,
            "name:ar": "غرانيسار سيراميك( تجيهيزات حمام وبانيو)"
        }
    },
    {
        "lat": 41.0262552,
        "lon": 28.9099303,
        "tags": {
            "addr:city": "Istanbul",
            "addr:district": "Zeytinburnu",
            "description": "",
            "opening_hours": "Mo-Fr 08:00-17:00; Mo-Sa 07:30-15:00",
            "phone": "02125137060",
            "branch": null,
            "amenity": "tiles",
            "mobile": null,
            "addr:street": "Gümüşsuyu Caddesi",
            "cuisine": null,
            "name": "Poltab Taban Sanayi",
            "name:en": null,
            "name:uk": null,
            "name:de": null,
            "name:tr": null,
            "name:ru": null,
            "name:ar": "مجمع امينتاش الصناعي-محل بولتاب"
        }
    },
    {
        "lat": 40.9903734,
        "lon": 28.8936975,
        "tags": {
            "addr:city": "Istanbul",
            "addr:district": "Zeytinburnu",
            "description": "",
            "opening_hours": null,
            "phone": null,
            "branch": null,
            "amenity": "tiles",
            "mobile": null,
            "addr:street": "Turan Güneş Caddesi",
            "cuisine": null,
            "name": "ege seramik",
            "name:en": null,
            "name:uk": null,
            "name:de": null,
            "name:tr": null,
            "name:ru": null,
            "name:ar": "سيراميك إيجي"
        }
    },
    {
        "lat": 40.9875259,
        "lon": 28.8962503,
        "tags": {
            "addr:city": "Istanbul",
            "addr:district": "Zeytinburnu",
            "description": "",
            "opening_hours": null,
            "phone": null,
            "branch": null,
            "amenity": "tiles",
            "mobile": null,
            "addr:street": "Merv Caddesi",
            "cuisine": null,
            "name": "peli",
            "name:en": null,
            "name:uk": null,
            "name:de": null,
            "name:tr": null,
            "name:ru": null,
            "name:ar": "بيلي"
        }
    },
    {
        "lat": 41.048218,
        "lon": 28.8493345,
        "tags": {
            "addr:city": "Istanbul",
            "addr:district": "Zeytinburnu",
            "description": "",
            "opening_hours": null,
            "phone": null,
            "branch": null,
            "amenity": "tiles",
            "mobile": null,
            "addr:street": null,
            "cuisine": null,
            "name": "ÖZ TİTİZ PARKE",
            "name:en": null,
            "name:uk": null,
            "name:de": null,
            "name:tr": null,
            "name:ru": null,
            "name:ar": "سيراميك"
        }
    },
    {
        "lat": 40.9846953,
        "lon": 29.1161514,
        "tags": {
            "addr:city": "İstanbul",
            "addr:district": null,
            "description": "",
            "opening_hours": null,
            "phone": null,
            "branch": null,
            "amenity": "tiles",
            "mobile": null,
            "addr:street": null,
            "cuisine": null,
            "name": "Kenan Ocak Döşemeci",
            "name:en": null,
            "name:uk": null,
            "name:de": null,
            "name:tr": null,
            "name:ru": null,
            "name:ar": null
        }
    },
    {
        "lat": 40.9763082,
        "lon": 29.097433,
        "tags": {
            "addr:city": "İstanbul",
            "addr:district": null,
            "description": "",
            "opening_hours": null,
            "phone": null,
            "branch": null,
            "amenity": "tiles",
            "mobile": null,
            "addr:street": null,
            "cuisine": null,
            "name": "Cybele Tile",
            "name:en": null,
            "name:uk": null,
            "name:de": null,
            "name:tr": null,
            "name:ru": null,
            "name:ar": null
        }
    },
    {
        "lat": 41.1372508,
        "lon": 28.812196,
        "tags": {
            "addr:city": "İstanbul",
            "addr:district": null,
            "description": "",
            "opening_hours": null,
            "phone": null,
            "branch": null,
            "amenity": "tiles",
            "mobile": null,
            "addr:street": null,
            "cuisine": null,
            "name": null,
            "name:en": null,
            "name:uk": null,
            "name:de": null,
            "name:tr": null,
            "name:ru": null,
            "name:ar": null
        }
    }
]