[
    {
        "lat": 41.0167038,
        "lon": 29.1305669,
        "tags": {
            "addr:city": "İstanbul",
            "addr:district": null,
            "description": "",
            "opening_hours": null,
            "phone": null,
            "branch": null,
            "amenity": "toys",
            "mobile": null,
            "addr:street": null,
            "cuisine": null,
            "name": "Akyol Ucuzluk",
            "name:en": null,
            "name:uk": null,
            "name:de": null,
            "name:tr": null,
            "name:ru": null,
            "name:ar": null
        }
    },
    {
        "lat": 41.0328651,
        "lon": 29.1758337,
        "tags": {
            "addr:city": "İstanbul Çekmeköy",
            "addr:district": null,
            "description": "",
            "opening_hours": null,
            "phone": null,
            "branch": null,
            "amenity": "toys",
            "mobile": null,
            "addr:street": "Mimar Sinan Caddesi",
            "cuisine": null,
            "name": "Engin Oyuncak",
            "name:en": null,
            "name:uk": null,
            "name:de": null,
            "name:tr": null,
            "name:ru": null,
            "name:ar": null
        }
    },
    {
        "lat": 41.0090802,
        "lon": 28.5359983,
        "tags": {
            "addr:city": "İstanbul",
            "addr:district": null,
            "description": "",
            "opening_hours": null,
            "phone": null,
            "branch": null,
            "amenity": "toys",
            "mobile": null,
            "addr:street": null,
            "cuisine": null,
            "name": "Ceren Oyuncak",
            "name:en": null,
            "name:uk": null,
            "name:de": null,
            "name:tr": null,
            "name:ru": null,
            "name:ar": null
        }
    },
    {
        "lat": 41.0637659,
        "lon": 28.8066832,
        "tags": {
            "addr:city": "İstanbul",
            "addr:district": null,
            "description": "",
            "opening_hours": null,
            "phone": null,
            "branch": "Mall Of İstanbul",
            "amenity": "toys",
            "mobile": null,
            "addr:street": null,
            "cuisine": null,
            "name": "Toyzz Shop",
            "name:en": null,
            "name:uk": null,
            "name:de": null,
            "name:tr": null,
            "name:ru": null,
            "name:ar": null
        }
    },
    {
        "lat": 41.0770117,
        "lon": 29.0109386,
        "tags": {
            "addr:city": "İstanbul",
            "addr:district": null,
            "description": "oyuncak dükkanı",
            "opening_hours": null,
            "phone": null,
            "branch": null,
            "amenity": "toys",
            "mobile": null,
            "addr:street": null,
            "cuisine": null,
            "name": "Toyzz Shop",
            "name:en": null,
            "name:uk": null,
            "name:de": null,
            "name:tr": null,
            "name:ru": null,
            "name:ar": null
        }
    },
    {
        "lat": 41.0164168,
        "lon": 28.8780213,
        "tags": {
            "addr:city": "İstanbul",
            "addr:district": null,
            "description": "",
            "opening_hours": null,
            "phone": null,
            "branch": null,
            "amenity": "toys",
            "mobile": null,
            "addr:street": null,
            "cuisine": null,
            "name": null,
            "name:en": null,
            "name:uk": null,
            "name:de": null,
            "name:tr": null,
            "name:ru": null,
            "name:ar": null
        }
    },
    {
        "lat": 41.0148262,
        "lon": 28.9665482,
        "tags": {
            "addr:city": "Istanbul",
            "addr:district": "Fatih",
            "description": "",
            "opening_hours": null,
            "phone": null,
            "branch": null,
            "amenity": "toys",
            "mobile": null,
            "addr:street": "Tacirhane Sokağı",
            "cuisine": null,
            "name": "Ufuk Şaka Oyunları Merkezi",
            "name:en": null,
            "name:uk": null,
            "name:de": null,
            "name:tr": null,
            "name:ru": null,
            "name:ar": "أوفوك شاكا أويونلاري ميركيزي للألعاب"
        }
    },
    {
        "lat": 41.0158306,
        "lon": 28.9668719,
        "tags": {
            "addr:city": "Istanbul",
            "addr:district": "Fatih",
            "description": "",
            "opening_hours": null,
            "phone": null,
            "branch": null,
            "amenity": "toys",
            "mobile": null,
            "addr:street": "Şahande sokak",
            "cuisine": null,
            "name": "Aydın oyuncak",
            "name:en": null,
            "name:uk": null,
            "name:de": null,
            "name:tr": null,
            "name:ru": null,
            "name:ar": "ايدن اويونجاك"
        }
    },
    {
        "lat": 41.0159369,
        "lon": 28.9667014,
        "tags": {
            "addr:city": "Istanbul",
            "addr:district": "Fatih",
            "description": "",
            "opening_hours": null,
            "phone": null,
            "branch": null,
            "amenity": "toys",
            "mobile": null,
            "addr:street": "Şahande Sokağı",
            "cuisine": null,
            "name": "Übü toys",
            "name:en": null,
            "name:uk": null,
            "name:de": null,
            "name:tr": null,
            "name:ru": null,
            "name:ar": "اوبو تويز"
        }
    },
    {
        "lat": 41.0159937,
        "lon": 28.9668303,
        "tags": {
            "addr:city": "Istanbul",
            "addr:district": "Fatih",
            "description": "",
            "opening_hours": null,
            "phone": null,
            "branch": null,
            "amenity": "toys",
            "mobile": null,
            "addr:street": "Şahande Sokağı",
            "cuisine": null,
            "name": "Selay",
            "name:en": null,
            "name:uk": null,
            "name:de": null,
            "name:tr": null,
            "name:ru": null,
            "name:ar": "سلاي"
        }
    },
    {
        "lat": 41.016017,
        "lon": 28.967237,
        "tags": {
            "addr:city": "Istanbul",
            "addr:district": "Fatih",
            "description": "",
            "opening_hours": null,
            "phone": null,
            "branch": null,
            "amenity": "toys",
            "mobile": null,
            "addr:street": "Ord. prof. dr. cemil birsel caddesi",
            "cuisine": null,
            "name": "Emre toys",
            "name:en": null,
            "name:uk": null,
            "name:de": null,
            "name:tr": null,
            "name:ru": null,
            "name:ar": "ايمرى تويز"
        }
    },
    {
        "lat": 41.0161943,
        "lon": 28.9662006,
        "tags": {
            "addr:city": "Istanbul",
            "addr:district": "Fatih",
            "description": "",
            "opening_hours": null,
            "phone": null,
            "branch": null,
            "amenity": "toys",
            "mobile": null,
            "addr:street": "Siyavuş paşa caddesi",
            "cuisine": null,
            "name": "varlik oyuncak",
            "name:en": null,
            "name:uk": null,
            "name:de": null,
            "name:tr": null,
            "name:ru": null,
            "name:ar": "فارليك"
        }
    },
    {
        "lat": 41.0205942,
        "lon": 28.9460564,
        "tags": {
            "addr:city": "Istanbul",
            "addr:district": "Turkey",
            "description": "",
            "opening_hours": null,
            "phone": null,
            "branch": null,
            "amenity": "toys",
            "mobile": null,
            "addr:street": "KINALIZADE sokak",
            "cuisine": null,
            "name": "Toys shop",
            "name:en": null,
            "name:uk": null,
            "name:de": null,
            "name:tr": null,
            "name:ru": null,
            "name:ar": "متجر ألعاب"
        }
    },
    {
        "lat": 41.0209011,
        "lon": 28.9449006,
        "tags": {
            "addr:city": "Istanbul",
            "addr:district": "Turkey",
            "description": "",
            "opening_hours": null,
            "phone": null,
            "branch": null,
            "amenity": "toys",
            "mobile": null,
            "addr:street": "BAB NAIBI sok.",
            "cuisine": null,
            "name": "mavi kale oyuncak",
            "name:en": null,
            "name:uk": null,
            "name:de": null,
            "name:tr": null,
            "name:ru": null,
            "name:ar": "القلعة الزرقاء للألعاب"
        }
    },
    {
        "lat": 41.017115,
        "lon": 28.9681692,
        "tags": {
            "addr:city": "Istanbul",
            "addr:district": "Fatih",
            "description": "",
            "opening_hours": null,
            "phone": null,
            "branch": null,
            "amenity": "toys",
            "mobile": null,
            "addr:street": "Tahtakale Karakol Sokak",
            "cuisine": null,
            "name": "Oyuncak Borsası",
            "name:en": null,
            "name:uk": null,
            "name:de": null,
            "name:tr": null,
            "name:ru": null,
            "name:ar": "اوينجالك بورساسو"
        }
    },
    {
        "lat": 41.0164061,
        "lon": 28.967786,
        "tags": {
            "addr:city": "Istanbul",
            "addr:district": "Fatih",
            "description": "",
            "opening_hours": null,
            "phone": null,
            "branch": null,
            "amenity": "toys",
            "mobile": null,
            "addr:street": "Uzun Çarşı Caddesi",
            "cuisine": null,
            "name": "Sedef Okey",
            "name:en": null,
            "name:uk": null,
            "name:de": null,
            "name:tr": null,
            "name:ru": null,
            "name:ar": "سيديف اوكي"
        }
    },
    {
        "lat": 41.0159065,
        "lon": 28.9675467,
        "tags": {
            "addr:city": "İstanbul",
            "addr:district": null,
            "description": "",
            "opening_hours": null,
            "phone": null,
            "branch": null,
            "amenity": "toys",
            "mobile": null,
            "addr:street": null,
            "cuisine": null,
            "name": "Toysturka",
            "name:en": null,
            "name:uk": null,
            "name:de": null,
            "name:tr": null,
            "name:ru": null,
            "name:ar": null
        }
    },
    {
        "lat": 41.066914,
        "lon": 29.0165762,
        "tags": {
            "addr:city": "İstanbul",
            "addr:district": null,
            "description": "",
            "opening_hours": null,
            "phone": null,
            "branch": null,
            "amenity": "toys",
            "mobile": null,
            "addr:street": null,
            "cuisine": null,
            "name": "Imaginarium",
            "name:en": null,
            "name:uk": null,
            "name:de": null,
            "name:tr": null,
            "name:ru": null,
            "name:ar": null
        }
    },
    {
        "lat": 41.0091869,
        "lon": 28.9107751,
        "tags": {
            "addr:city": "Istanbul",
            "addr:district": "Zeytinburnu",
            "description": "",
            "opening_hours": null,
            "phone": null,
            "branch": null,
            "amenity": "toys",
            "mobile": null,
            "addr:street": "Yeni Çiftlik Caddesi",
            "cuisine": null,
            "name": "Yücekayalar Alışveriş Merkezi",
            "name:en": null,
            "name:uk": null,
            "name:de": null,
            "name:tr": null,
            "name:ru": null,
            "name:ar": "مخزن يوجيك ايلار"
        }
    },
    {
        "lat": 41.0098594,
        "lon": 28.8997335,
        "tags": {
            "addr:city": "Istanbul",
            "addr:district": "Zeytinburnu",
            "description": "",
            "opening_hours": "Mo-Su 07:00-20:00",
            "phone": "02124815716",
            "branch": null,
            "amenity": "toys",
            "mobile": null,
            "addr:street": "Çırpıcı Çıkmazı",
            "cuisine": null,
            "name": "Vardem Oyuncak",
            "name:en": null,
            "name:uk": null,
            "name:de": null,
            "name:tr": null,
            "name:ru": null,
            "name:ar": "محل فاردم لألعاب الأطفال"
        }
    },
    {
        "lat": 40.9944218,
        "lon": 28.9098503,
        "tags": {
            "addr:city": "Istanbul",
            "addr:district": "Zeytinburnu",
            "description": "",
            "opening_hours": null,
            "phone": null,
            "branch": null,
            "amenity": "toys",
            "mobile": null,
            "addr:street": "pro. Muammer Aksoy Cd",
            "cuisine": null,
            "name": "Engin Oyuncak",
            "name:en": null,
            "name:uk": null,
            "name:de": null,
            "name:tr": null,
            "name:ru": null,
            "name:ar": "العاب انجين"
        }
    },
    {
        "lat": 40.9906166,
        "lon": 28.9039378,
        "tags": {
            "addr:city": "Istanbul",
            "addr:district": "Zeytinburnu",
            "description": "",
            "opening_hours": null,
            "phone": null,
            "branch": null,
            "amenity": "toys",
            "mobile": null,
            "addr:street": "58/3. sokak;58/3 Sokak",
            "cuisine": null,
            "name": "HAPPY TOYS MARKET;Happy toys",
            "name:en": null,
            "name:uk": null,
            "name:de": null,
            "name:tr": null,
            "name:ru": null,
            "name:ar": "العاب اطفال;هابي تويز"
        }
    },
    {
        "lat": 41.0673953,
        "lon": 28.8311175,
        "tags": {
            "addr:city": "Istanbul",
            "addr:district": "Bağcılar",
            "description": "",
            "opening_hours": null,
            "phone": null,
            "branch": null,
            "amenity": "toys",
            "mobile": null,
            "addr:street": "42.Yol sokak",
            "cuisine": null,
            "name": "Bebenet",
            "name:en": null,
            "name:uk": null,
            "name:de": null,
            "name:tr": null,
            "name:ru": null,
            "name:ar": "بيبى نت"
        }
    },
    {
        "lat": 41.0667093,
        "lon": 28.8269588,
        "tags": {
            "addr:city": "Istanbul",
            "addr:district": "Bağcılar",
            "description": "",
            "opening_hours": null,
            "phone": null,
            "branch": null,
            "amenity": "toys",
            "mobile": null,
            "addr:street": "3.Yol sokak",
            "cuisine": null,
            "name": "Aşarlar",
            "name:en": null,
            "name:uk": null,
            "name:de": null,
            "name:tr": null,
            "name:ru": null,
            "name:ar": "اشارلار"
        }
    },
    {
        "lat": 41.0653358,
        "lon": 28.8293389,
        "tags": {
            "addr:city": "Istanbul",
            "addr:district": "Bağcılar",
            "description": "",
            "opening_hours": null,
            "phone": null,
            "branch": null,
            "amenity": "toys",
            "mobile": null,
            "addr:street": "4.Yol sokak",
            "cuisine": null,
            "name": "Pasifik toys",
            "name:en": null,
            "name:uk": null,
            "name:de": null,
            "name:tr": null,
            "name:ru": null,
            "name:ar": "باسيفيك"
        }
    },
    {
        "lat": 41.0654088,
        "lon": 28.8285453,
        "tags": {
            "addr:city": "Istanbul",
            "addr:district": "Bağcılar",
            "description": "",
            "opening_hours": null,
            "phone": null,
            "branch": null,
            "amenity": "toys",
            "mobile": null,
            "addr:street": "3.Yol sokak",
            "cuisine": null,
            "name": "Hobi eğtim dünyası",
            "name:en": null,
            "name:uk": null,
            "name:de": null,
            "name:tr": null,
            "name:ru": null,
            "name:ar": "هوبي"
        }
    },
    {
        "lat": 41.0654795,
        "lon": 28.8284344,
        "tags": {
            "addr:city": "Istanbul",
            "addr:district": "Bağcılar",
            "description": "",
            "opening_hours": null,
            "phone": null,
            "branch": null,
            "amenity": "toys",
            "mobile": null,
            "addr:street": "3.Yol sokak",
            "cuisine": null,
            "name": "Ceren",
            "name:en": null,
            "name:uk": null,
            "name:de": null,
            "name:tr": null,
            "name:ru": null,
            "name:ar": "جيرين"
        }
    },
    {
        "lat": 41.0662168,
        "lon": 28.8276896,
        "tags": {
            "addr:city": "Istanbul",
            "addr:district": "Bağcılar",
            "description": "",
            "opening_hours": null,
            "phone": null,
            "branch": null,
            "amenity": "toys",
            "mobile": null,
            "addr:street": "3.Yol sokak",
            "cuisine": null,
            "name": "Moroğlu",
            "name:en": null,
            "name:uk": null,
            "name:de": null,
            "name:tr": null,
            "name:ru": null,
            "name:ar": "مورو اوغلو"
        }
    },
    {
        "lat": 41.0671599,
        "lon": 28.8264636,
        "tags": {
            "addr:city": "Istanbul",
            "addr:district": "Bağcılar",
            "description": "",
            "opening_hours": null,
            "phone": null,
            "branch": null,
            "amenity": "toys",
            "mobile": null,
            "addr:street": "3.Yol sokak",
            "cuisine": null,
            "name": "Torutoys",
            "name:en": null,
            "name:uk": null,
            "name:de": null,
            "name:tr": null,
            "name:ru": null,
            "name:ar": "توروتويس"
        }
    },
    {
        "lat": 41.0663524,
        "lon": 28.8281509,
        "tags": {
            "addr:city": "Istanbul",
            "addr:district": "Bağcılar",
            "description": "",
            "opening_hours": null,
            "phone": null,
            "branch": null,
            "amenity": "toys",
            "mobile": null,
            "addr:street": "3.Yol sokak",
            "cuisine": null,
            "name": "Berin",
            "name:en": null,
            "name:uk": null,
            "name:de": null,
            "name:tr": null,
            "name:ru": null,
            "name:ar": "بيرين"
        }
    },
    {
        "lat": 41.066399,
        "lon": 28.8279625,
        "tags": {
            "addr:city": "Istanbul",
            "addr:district": "Bağcılar",
            "description": "",
            "opening_hours": null,
            "phone": null,
            "branch": null,
            "amenity": "toys",
            "mobile": null,
            "addr:street": "3.Yol sokak",
            "cuisine": null,
            "name": "Yakut",
            "name:en": null,
            "name:uk": null,
            "name:de": null,
            "name:tr": null,
            "name:ru": null,
            "name:ar": "ياقوت"
        }
    },
    {
        "lat": 41.0657689,
        "lon": 28.8288723,
        "tags": {
            "addr:city": "Istanbul",
            "addr:district": "Bağcılar",
            "description": "",
            "opening_hours": null,
            "phone": null,
            "branch": null,
            "amenity": "toys",
            "mobile": null,
            "addr:street": "3.Yol sokak",
            "cuisine": null,
            "name": "Yasemin",
            "name:en": null,
            "name:uk": null,
            "name:de": null,
            "name:tr": null,
            "name:ru": null,
            "name:ar": "ياسمين"
        }
    },
    {
        "lat": 41.0652888,
        "lon": 28.8294167,
        "tags": {
            "addr:city": "Istanbul",
            "addr:district": "Bağcılar",
            "description": "",
            "opening_hours": null,
            "phone": null,
            "branch": null,
            "amenity": "toys",
            "mobile": null,
            "addr:street": "4.Yol sokak",
            "cuisine": null,
            "name": "Asaf ouncak",
            "name:en": null,
            "name:uk": null,
            "name:de": null,
            "name:tr": null,
            "name:ru": null,
            "name:ar": "اساف"
        }
    },
    {
        "lat": 41.0680905,
        "lon": 28.8293576,
        "tags": {
            "addr:city": "Istanbul",
            "addr:district": "Bağcılar",
            "description": "",
            "opening_hours": null,
            "phone": null,
            "branch": null,
            "amenity": "toys",
            "mobile": null,
            "addr:street": "1.Yol sokak",
            "cuisine": null,
            "name": "Peluşcu baba",
            "name:en": null,
            "name:uk": null,
            "name:de": null,
            "name:tr": null,
            "name:ru": null,
            "name:ar": "بابا"
        }
    },
    {
        "lat": 41.0534402,
        "lon": 28.8326599,
        "tags": {
            "addr:city": "Istanbul",
            "addr:district": "Bağcılar",
            "description": "",
            "opening_hours": null,
            "phone": null,
            "branch": null,
            "amenity": "toys",
            "mobile": null,
            "addr:street": "Maslak caddesi",
            "cuisine": null,
            "name": "Güven Oyuncak",
            "name:en": null,
            "name:uk": null,
            "name:de": null,
            "name:tr": null,
            "name:ru": null,
            "name:ar": "كوفين اويونجاك"
        }
    },
    {
        "lat": 41.0311664,
        "lon": 28.8294348,
        "tags": {
            "addr:city": "Istanbul",
            "addr:district": "Bağcılar",
            "description": "",
            "opening_hours": null,
            "phone": null,
            "branch": null,
            "amenity": "toys",
            "mobile": null,
            "addr:street": "Cumhuriyet Caddesi",
            "cuisine": null,
            "name": "OYUNCAK GO",
            "name:en": null,
            "name:uk": null,
            "name:de": null,
            "name:tr": null,
            "name:ru": null,
            "name:ar": "أويونجاك كو"
        }
    },
    {
        "lat": 41.0374692,
        "lon": 28.8588937,
        "tags": {
            "addr:city": "Istanbul",
            "addr:district": "Bağcılar",
            "description": "",
            "opening_hours": null,
            "phone": null,
            "branch": null,
            "amenity": "toys",
            "mobile": null,
            "addr:street": "Osmangazi Caddesi",
            "cuisine": null,
            "name": "Sepet",
            "name:en": null,
            "name:uk": null,
            "name:de": null,
            "name:tr": null,
            "name:ru": null,
            "name:ar": "سيبيت"
        }
    },
    {
        "lat": 41.0032731,
        "lon": 29.0853568,
        "tags": {
            "addr:city": "istanbul",
            "addr:district": "ataşehir",
            "description": "",
            "opening_hours": null,
            "phone": null,
            "branch": null,
            "amenity": "toys",
            "mobile": null,
            "addr:street": "ziyapaşa",
            "cuisine": null,
            "name": "esatpaşa oyuncakçı",
            "name:en": null,
            "name:uk": null,
            "name:de": null,
            "name:tr": null,
            "name:ru": null,
            "name:ar": null
        }
    },
    {
        "lat": 40.9347779,
        "lon": 29.1256285,
        "tags": {
            "addr:city": "İstanbul",
            "addr:district": null,
            "description": "",
            "opening_hours": null,
            "phone": null,
            "branch": null,
            "amenity": "toys",
            "mobile": null,
            "addr:street": null,
            "cuisine": null,
            "name": null,
            "name:en": null,
            "name:uk": null,
            "name:de": null,
            "name:tr": null,
            "name:ru": null,
            "name:ar": null
        }
    },
    {
        "lat": 41.0249432,
        "lon": 28.9750049,
        "tags": {
            "addr:city": "İstanbul",
            "addr:district": null,
            "description": "",
            "opening_hours": null,
            "phone": null,
            "branch": null,
            "amenity": "toys",
            "mobile": null,
            "addr:street": null,
            "cuisine": null,
            "name": "galata toys",
            "name:en": null,
            "name:uk": null,
            "name:de": null,
            "name:tr": null,
            "name:ru": null,
            "name:ar": null
        }
    },
    {
        "lat": 40.9922211,
        "lon": 28.8471455,
        "tags": {
            "addr:city": "İstanbul",
            "addr:district": null,
            "description": "",
            "opening_hours": null,
            "phone": null,
            "branch": null,
            "amenity": "toys",
            "mobile": null,
            "addr:street": null,
            "cuisine": null,
            "name": "Armağan",
            "name:en": null,
            "name:uk": null,
            "name:de": null,
            "name:tr": null,
            "name:ru": null,
            "name:ar": null
        }
    },
    {
        "lat": 40.8788417,
        "lon": 29.2347026,
        "tags": {
            "addr:city": "İstanbul",
            "addr:district": null,
            "description": "",
            "opening_hours": null,
            "phone": null,
            "branch": null,
            "amenity": "toys",
            "mobile": null,
            "addr:street": null,
            "cuisine": null,
            "name": "Yıldız Oyuncak",
            "name:en": null,
            "name:uk": null,
            "name:de": null,
            "name:tr": null,
            "name:ru": null,
            "name:ar": null
        }
    },
    {
        "lat": 41.0091961,
        "lon": 28.9713694,
        "tags": {
            "addr:city": "İstanbul",
            "addr:district": null,
            "description": "",
            "opening_hours": null,
            "phone": null,
            "branch": null,
            "amenity": "toys",
            "mobile": null,
            "addr:street": null,
            "cuisine": null,
            "name": "cat",
            "name:en": null,
            "name:uk": null,
            "name:de": null,
            "name:tr": null,
            "name:ru": null,
            "name:ar": null
        }
    },
    {
        "lat": 41.261595,
        "lon": 28.7404367,
        "tags": {
            "addr:city": "İstanbul",
            "addr:district": null,
            "description": "",
            "opening_hours": null,
            "phone": null,
            "branch": null,
            "amenity": "toys",
            "mobile": null,
            "addr:street": null,
            "cuisine": null,
            "name": "Lego",
            "name:en": null,
            "name:uk": null,
            "name:de": null,
            "name:tr": null,
            "name:ru": null,
            "name:ar": null
        }
    },
    {
        "lat": 41.0355894,
        "lon": 28.9203958,
        "tags": {
            "addr:city": "İstanbul",
            "addr:district": null,
            "description": "",
            "opening_hours": null,
            "phone": null,
            "branch": null,
            "amenity": "toys",
            "mobile": null,
            "addr:street": null,
            "cuisine": null,
            "name": "Armağan Oyuncak",
            "name:en": null,
            "name:uk": null,
            "name:de": null,
            "name:tr": null,
            "name:ru": null,
            "name:ar": null
        }
    },
    {
        "lat": 41.0035001,
        "lon": 29.1361631,
        "tags": {
            "addr:city": "İstanbul",
            "addr:district": null,
            "description": "",
            "opening_hours": null,
            "phone": null,
            "branch": null,
            "amenity": "toys",
            "mobile": null,
            "addr:street": null,
            "cuisine": null,
            "name": "Wonder Park",
            "name:en": null,
            "name:uk": null,
            "name:de": null,
            "name:tr": null,
            "name:ru": null,
            "name:ar": null
        }
    },
    {
        "lat": 41.0652023,
        "lon": 28.8240016,
        "tags": {
            "addr:city": "İstanbul",
            "addr:district": null,
            "description": "",
            "opening_hours": null,
            "phone": null,
            "branch": null,
            "amenity": "toys",
            "mobile": null,
            "addr:street": null,
            "cuisine": null,
            "name": "Erkol oyuncakçılık",
            "name:en": null,
            "name:uk": null,
            "name:de": null,
            "name:tr": null,
            "name:ru": null,
            "name:ar": null
        }
    },
    {
        "lat": 41.0057852,
        "lon": 29.1332129,
        "tags": {
            "addr:city": "İstanbul",
            "addr:district": null,
            "description": "",
            "opening_hours": null,
            "phone": null,
            "branch": null,
            "amenity": "toys",
            "mobile": null,
            "addr:street": null,
            "cuisine": null,
            "name": "Kirpi Oyuncak",
            "name:en": null,
            "name:uk": null,
            "name:de": null,
            "name:tr": null,
            "name:ru": null,
            "name:ar": null
        }
    },
    {
        "lat": 41.0158641,
        "lon": 28.9662742,
        "tags": {
            "addr:city": "İstanbul",
            "addr:district": null,
            "description": "",
            "opening_hours": null,
            "phone": null,
            "branch": null,
            "amenity": "toys",
            "mobile": null,
            "addr:street": null,
            "cuisine": null,
            "name": null,
            "name:en": "Dilek Hediyelik Kaligrafi",
            "name:uk": null,
            "name:de": null,
            "name:tr": null,
            "name:ru": null,
            "name:ar": null
        }
    },
    {
        "lat": 40.9666899,
        "lon": 29.0681958,
        "tags": {
            "addr:city": "İstanbul",
            "addr:district": null,
            "description": "",
            "opening_hours": null,
            "phone": null,
            "branch": null,
            "amenity": "toys",
            "mobile": null,
            "addr:street": null,
            "cuisine": null,
            "name": "Adore Oyuncak",
            "name:en": null,
            "name:uk": null,
            "name:de": null,
            "name:tr": null,
            "name:ru": null,
            "name:ar": null
        }
    },
    {
        "lat": 40.9684658,
        "lon": 29.0649136,
        "tags": {
            "addr:city": "İstanbul",
            "addr:district": null,
            "description": "",
            "opening_hours": null,
            "phone": null,
            "branch": null,
            "amenity": "toys",
            "mobile": null,
            "addr:street": null,
            "cuisine": null,
            "name": "Toyzz Shop",
            "name:en": null,
            "name:uk": null,
            "name:de": null,
            "name:tr": null,
            "name:ru": null,
            "name:ar": null
        }
    },
    {
        "lat": 40.9817878,
        "lon": 29.1316807,
        "tags": {
            "addr:city": "İstanbul",
            "addr:district": null,
            "description": "",
            "opening_hours": null,
            "phone": null,
            "branch": null,
            "amenity": "toys",
            "mobile": null,
            "addr:street": null,
            "cuisine": null,
            "name": "Armağan Oyuncak",
            "name:en": null,
            "name:uk": null,
            "name:de": null,
            "name:tr": null,
            "name:ru": null,
            "name:ar": null
        }
    },
    {
        "lat": 40.9819799,
        "lon": 29.1316422,
        "tags": {
            "addr:city": "İstanbul",
            "addr:district": null,
            "description": "",
            "opening_hours": null,
            "phone": null,
            "branch": null,
            "amenity": "toys",
            "mobile": null,
            "addr:street": null,
            "cuisine": null,
            "name": "Toyzz Shop",
            "name:en": null,
            "name:uk": null,
            "name:de": null,
            "name:tr": null,
            "name:ru": null,
            "name:ar": null
        }
    },
    {
        "lat": 40.8178629,
        "lon": 29.2996315,
        "tags": {
            "addr:city": "İstanbul",
            "addr:district": null,
            "description": "",
            "opening_hours": null,
            "phone": null,
            "branch": null,
            "amenity": "toys",
            "mobile": null,
            "addr:street": null,
            "cuisine": null,
            "name": "Toyzz Shop",
            "name:en": null,
            "name:uk": null,
            "name:de": null,
            "name:tr": null,
            "name:ru": null,
            "name:ar": null
        }
    },
    {
        "lat": 40.816211,
        "lon": 29.3163431,
        "tags": {
            "addr:city": "İstanbul",
            "addr:district": null,
            "description": "",
            "opening_hours": null,
            "phone": null,
            "branch": null,
            "amenity": "toys",
            "mobile": null,
            "addr:street": null,
            "cuisine": null,
            "name": "Toyzz Shop",
            "name:en": null,
            "name:uk": null,
            "name:de": null,
            "name:tr": null,
            "name:ru": null,
            "name:ar": null
        }
    },
    {
        "lat": 41.0643346,
        "lon": 28.9931975,
        "tags": {
            "addr:city": "İstanbul",
            "addr:district": null,
            "description": "",
            "opening_hours": null,
            "phone": null,
            "branch": null,
            "amenity": "toys",
            "mobile": null,
            "addr:street": null,
            "cuisine": null,
            "name": "Tufy Toys",
            "name:en": null,
            "name:uk": null,
            "name:de": null,
            "name:tr": null,
            "name:ru": null,
            "name:ar": null
        }
    },
    {
        "lat": 40.9079327,
        "lon": 29.3166318,
        "tags": {
            "addr:city": "İstanbul",
            "addr:district": null,
            "description": "",
            "opening_hours": null,
            "phone": null,
            "branch": null,
            "amenity": "toys",
            "mobile": null,
            "addr:street": null,
            "cuisine": null,
            "name": "Toyzz Shop",
            "name:en": null,
            "name:uk": null,
            "name:de": null,
            "name:tr": null,
            "name:ru": null,
            "name:ar": null
        }
    },
    {
        "lat": 40.9551015,
        "lon": 29.0911354,
        "tags": {
            "addr:city": "İstanbul",
            "addr:district": null,
            "description": "",
            "opening_hours": null,
            "phone": null,
            "branch": null,
            "amenity": "toys",
            "mobile": null,
            "addr:street": null,
            "cuisine": null,
            "name": "Tavsiye Evi",
            "name:en": null,
            "name:uk": null,
            "name:de": null,
            "name:tr": null,
            "name:ru": null,
            "name:ar": null
        }
    },
    {
        "lat": 40.9651807,
        "lon": 29.0727586,
        "tags": {
            "addr:city": "İstanbul",
            "addr:district": "Kadıköy",
            "description": "",
            "opening_hours": "10:00 - 20:00",
            "phone": null,
            "branch": null,
            "amenity": "toys",
            "mobile": null,
            "addr:street": "Kantarcı Rıza Sokağı",
            "cuisine": null,
            "name": "Isabel Abbey",
            "name:en": null,
            "name:uk": null,
            "name:de": null,
            "name:tr": null,
            "name:ru": null,
            "name:ar": null
        }
    },
    {
        "lat": 40.9820352,
        "lon": 29.0670322,
        "tags": {
            "addr:city": "İstanbul",
            "addr:district": null,
            "description": "",
            "opening_hours": null,
            "phone": null,
            "branch": null,
            "amenity": "toys",
            "mobile": null,
            "addr:street": null,
            "cuisine": null,
            "name": "Oyuncak Dünyası",
            "name:en": null,
            "name:uk": null,
            "name:de": null,
            "name:tr": null,
            "name:ru": null,
            "name:ar": null
        }
    },
    {
        "lat": 40.9614525,
        "lon": 29.0776964,
        "tags": {
            "addr:city": "İstanbul",
            "addr:district": "Kadıköy",
            "description": "",
            "opening_hours": null,
            "phone": null,
            "branch": null,
            "amenity": "toys",
            "mobile": null,
            "addr:street": "Bağdat Caddesi",
            "cuisine": null,
            "name": "Toyzz Shop",
            "name:en": null,
            "name:uk": null,
            "name:de": null,
            "name:tr": null,
            "name:ru": null,
            "name:ar": null
        }
    },
    {
        "lat": 41.0267347,
        "lon": 29.2434329,
        "tags": {
            "addr:city": "İstanbul",
            "addr:district": null,
            "description": "",
            "opening_hours": null,
            "phone": null,
            "branch": null,
            "amenity": "toys",
            "mobile": null,
            "addr:street": null,
            "cuisine": null,
            "name": "Halley Oyuncak Fabrikası Fabrika Satış Mağazası",
            "name:en": null,
            "name:uk": null,
            "name:de": null,
            "name:tr": null,
            "name:ru": null,
            "name:ar": null
        }
    },
    {
        "lat": 40.8715828,
        "lon": 29.3273376,
        "tags": {
            "addr:city": "İstanbul",
            "addr:district": null,
            "description": "",
            "opening_hours": null,
            "phone": null,
            "branch": null,
            "amenity": "toys",
            "mobile": null,
            "addr:street": null,
            "cuisine": null,
            "name": "Toyzz Shop",
            "name:en": null,
            "name:uk": null,
            "name:de": null,
            "name:tr": null,
            "name:ru": null,
            "name:ar": null
        }
    },
    {
        "lat": 41.025135,
        "lon": 29.016001,
        "tags": {
            "addr:city": "İstanbul",
            "addr:district": null,
            "description": "",
            "opening_hours": null,
            "phone": null,
            "branch": null,
            "amenity": "toys",
            "mobile": null,
            "addr:street": null,
            "cuisine": null,
            "name": "Natural Same Perfume",
            "name:en": null,
            "name:uk": null,
            "name:de": null,
            "name:tr": null,
            "name:ru": null,
            "name:ar": null
        }
    },
    {
        "lat": 40.9873208,
        "lon": 29.0253385,
        "tags": {
            "addr:city": "İstanbul",
            "addr:district": null,
            "description": "",
            "opening_hours": null,
            "phone": null,
            "branch": null,
            "amenity": "toys",
            "mobile": null,
            "addr:street": null,
            "cuisine": null,
            "name": "The Dreamers Figure",
            "name:en": null,
            "name:uk": null,
            "name:de": null,
            "name:tr": null,
            "name:ru": null,
            "name:ar": null
        }
    },
    {
        "lat": 41.028027,
        "lon": 28.9771123,
        "tags": {
            "addr:city": "İstanbul",
            "addr:district": null,
            "description": "",
            "opening_hours": null,
            "phone": null,
            "branch": null,
            "amenity": "toys",
            "mobile": null,
            "addr:street": null,
            "cuisine": null,
            "name": "Utoy",
            "name:en": null,
            "name:uk": null,
            "name:de": null,
            "name:tr": null,
            "name:ru": null,
            "name:ar": null
        }
    },
    {
        "lat": 40.9625695,
        "lon": 29.079407,
        "tags": {
            "addr:city": "İstanbul",
            "addr:district": "Kadıköy",
            "description": "",
            "opening_hours": null,
            "phone": null,
            "branch": null,
            "amenity": "toys",
            "mobile": null,
            "addr:street": "Suadiye Camii Sokağı",
            "cuisine": null,
            "name": "Zeytin Çekirdeği Oyuncak",
            "name:en": null,
            "name:uk": null,
            "name:de": null,
            "name:tr": null,
            "name:ru": null,
            "name:ar": null
        }
    },
    {
        "lat": 40.9877601,
        "lon": 29.0263511,
        "tags": {
            "addr:city": "İstanbul",
            "addr:district": null,
            "description": "",
            "opening_hours": null,
            "phone": null,
            "branch": null,
            "amenity": "toys",
            "mobile": null,
            "addr:street": null,
            "cuisine": null,
            "name": "Calimera Toys",
            "name:en": null,
            "name:uk": null,
            "name:de": null,
            "name:tr": null,
            "name:ru": null,
            "name:ar": null
        }
    },
    {
        "lat": 41.0567361,
        "lon": 28.986706,
        "tags": {
            "addr:city": "İstanbul",
            "addr:district": "Şişli",
            "description": "",
            "opening_hours": "10:00-21:00",
            "phone": "+90 212 522 6220",
            "branch": "Osmanbey",
            "amenity": "toys",
            "mobile": null,
            "addr:street": "Halaskargazi Caddesi",
            "cuisine": null,
            "name": "Toys e Toys",
            "name:en": null,
            "name:uk": null,
            "name:de": null,
            "name:tr": null,
            "name:ru": null,
            "name:ar": null
        }
    },
    {
        "lat": 40.9227431,
        "lon": 29.1341913,
        "tags": {
            "addr:city": "İstanbul",
            "addr:district": null,
            "description": "",
            "opening_hours": null,
            "phone": null,
            "branch": null,
            "amenity": "toys",
            "mobile": null,
            "addr:street": null,
            "cuisine": null,
            "name": "Ece Toys",
            "name:en": null,
            "name:uk": null,
            "name:de": null,
            "name:tr": null,
            "name:ru": null,
            "name:ar": null
        }
    },
    {
        "lat": 40.9604822,
        "lon": 29.0795215,
        "tags": {
            "addr:city": "İstanbul",
            "addr:district": "Kadıköy",
            "description": "",
            "opening_hours": null,
            "phone": null,
            "branch": null,
            "amenity": "toys",
            "mobile": null,
            "addr:street": "Bağdat Caddesi",
            "cuisine": null,
            "name": "İmaginarium",
            "name:en": null,
            "name:uk": null,
            "name:de": null,
            "name:tr": null,
            "name:ru": null,
            "name:ar": null
        }
    },
    {
        "lat": 41.0238321,
        "lon": 29.0885375,
        "tags": {
            "addr:city": "İstanbul",
            "addr:district": null,
            "description": "",
            "opening_hours": null,
            "phone": null,
            "branch": null,
            "amenity": "toys",
            "mobile": null,
            "addr:street": null,
            "cuisine": null,
            "name": "YeniBirOyuncak.com",
            "name:en": null,
            "name:uk": null,
            "name:de": null,
            "name:tr": "YeniBirOyuncak.com",
            "name:ru": null,
            "name:ar": null
        }
    },
    {
        "lat": 40.9817587,
        "lon": 28.8836116,
        "tags": {
            "addr:city": "İstanbul",
            "addr:district": "Bakırköy",
            "description": "",
            "opening_hours": "Mo-Fr 09:00-19:00; Sa 10:00-17:00",
            "phone": "+90 212 993 01 50",
            "branch": null,
            "amenity": "toys",
            "mobile": null,
            "addr:street": "10 Temmuz Caddesi",
            "cuisine": null,
            "name": "Toyküp Oyuncak",
            "name:en": null,
            "name:uk": null,
            "name:de": null,
            "name:tr": null,
            "name:ru": null,
            "name:ar": null
        }
    },
    {
        "lat": 40.9659682,
        "lon": 29.0816871,
        "tags": {
            "addr:city": "İstanbul",
            "addr:district": null,
            "description": "",
            "opening_hours": null,
            "phone": null,
            "branch": null,
            "amenity": "toys",
            "mobile": null,
            "addr:street": null,
            "cuisine": null,
            "name": "My Kid Concept",
            "name:en": null,
            "name:uk": null,
            "name:de": null,
            "name:tr": null,
            "name:ru": null,
            "name:ar": null
        }
    },
    {
        "lat": 40.9998249,
        "lon": 29.0318018,
        "tags": {
            "addr:city": "İstanbul",
            "addr:district": null,
            "description": "",
            "opening_hours": null,
            "phone": null,
            "branch": null,
            "amenity": "toys",
            "mobile": null,
            "addr:street": "Fatih Sokak",
            "cuisine": null,
            "name": "Toyzz Shop",
            "name:en": null,
            "name:uk": null,
            "name:de": null,
            "name:tr": null,
            "name:ru": null,
            "name:ar": null
        }
    },
    {
        "lat": 41.0314053,
        "lon": 28.9760705,
        "tags": {
            "addr:city": "İstanbul",
            "addr:district": null,
            "description": "",
            "opening_hours": null,
            "phone": null,
            "branch": null,
            "amenity": "toys",
            "mobile": null,
            "addr:street": "İstiklal Caddesi",
            "cuisine": null,
            "name": "Toyzz Shop",
            "name:en": null,
            "name:uk": null,
            "name:de": null,
            "name:tr": null,
            "name:ru": null,
            "name:ar": null
        }
    }
]