[
    {
        "lat": 41.0410941,
        "lon": 28.8959018,
        "tags": {
            "addr:city": "İstanbul",
            "addr:district": null,
            "description": "",
            "opening_hours": null,
            "phone": null,
            "branch": null,
            "amenity": "travel_agency",
            "mobile": null,
            "addr:street": null,
            "cuisine": null,
            "name": "İstanbul Seyahat",
            "name:en": null,
            "name:uk": null,
            "name:de": null,
            "name:tr": "İstanbul Seyahat",
            "name:ru": null,
            "name:ar": null
        }
    },
    {
        "lat": 40.9845409,
        "lon": 29.0391132,
        "tags": {
            "addr:city": "İstanbul",
            "addr:district": null,
            "description": "",
            "opening_hours": null,
            "phone": null,
            "branch": null,
            "amenity": "travel_agency",
            "mobile": null,
            "addr:street": null,
            "cuisine": null,
            "name": "Türk Hava Yolları Bilet Satış Ofisi",
            "name:en": null,
            "name:uk": null,
            "name:de": null,
            "name:tr": null,
            "name:ru": null,
            "name:ar": null
        }
    },
    {
        "lat": 40.9942543,
        "lon": 29.025043,
        "tags": {
            "addr:city": "İstanbul",
            "addr:district": null,
            "description": "",
            "opening_hours": null,
            "phone": null,
            "branch": null,
            "amenity": "travel_agency",
            "mobile": null,
            "addr:street": null,
            "cuisine": null,
            "name": "Kamil Koç",
            "name:en": null,
            "name:uk": null,
            "name:de": null,
            "name:tr": null,
            "name:ru": null,
            "name:ar": null
        }
    },
    {
        "lat": 40.9949269,
        "lon": 29.0249316,
        "tags": {
            "addr:city": "İstanbul",
            "addr:district": null,
            "description": "",
            "opening_hours": null,
            "phone": null,
            "branch": null,
            "amenity": "fast_food",
            "mobile": null,
            "addr:street": null,
            "cuisine": null,
            "name": "Meşhur Kokoreççi Adem Usta",
            "name:en": null,
            "name:uk": null,
            "name:de": null,
            "name:tr": null,
            "name:ru": null,
            "name:ar": null
        }
    },
    {
        "lat": 40.9943468,
        "lon": 29.0250593,
        "tags": {
            "addr:city": "İstanbul",
            "addr:district": null,
            "description": "",
            "opening_hours": null,
            "phone": null,
            "branch": null,
            "amenity": "travel_agency",
            "mobile": null,
            "addr:street": null,
            "cuisine": null,
            "name": "Ulusoy",
            "name:en": null,
            "name:uk": null,
            "name:de": null,
            "name:tr": null,
            "name:ru": null,
            "name:ar": null
        }
    },
    {
        "lat": 41.1704917,
        "lon": 29.0582704,
        "tags": {
            "addr:city": "İstanbul",
            "addr:district": null,
            "description": "",
            "opening_hours": null,
            "phone": "+902123460700",
            "branch": null,
            "amenity": "travel_agency",
            "mobile": null,
            "addr:street": "Kocayemiş Sokak",
            "cuisine": null,
            "name": "Poseidon Tekne Turları",
            "name:en": null,
            "name:uk": null,
            "name:de": null,
            "name:tr": null,
            "name:ru": null,
            "name:ar": null
        }
    },
    {
        "lat": 41.014077,
        "lon": 28.9768067,
        "tags": {
            "addr:city": "İstanbul",
            "addr:district": null,
            "description": "",
            "opening_hours": null,
            "phone": null,
            "branch": null,
            "amenity": "travel_agency",
            "mobile": null,
            "addr:street": null,
            "cuisine": null,
            "name": "Turkish Airlines",
            "name:en": null,
            "name:uk": null,
            "name:de": null,
            "name:tr": null,
            "name:ru": null,
            "name:ar": null
        }
    },
    {
        "lat": 41.1109555,
        "lon": 29.0004633,
        "tags": {
            "addr:city": "İstanbul",
            "addr:district": null,
            "description": "",
            "opening_hours": null,
            "phone": null,
            "branch": null,
            "amenity": "travel_agency",
            "mobile": null,
            "addr:street": "Huzur Mah. Maslak Ayazağa Cad.",
            "cuisine": null,
            "name": "Antur",
            "name:en": null,
            "name:uk": null,
            "name:de": null,
            "name:tr": null,
            "name:ru": null,
            "name:ar": null
        }
    },
    {
        "lat": 41.036818,
        "lon": 28.6325563,
        "tags": {
            "addr:city": "İstanbul",
            "addr:district": null,
            "description": "",
            "opening_hours": null,
            "phone": null,
            "branch": null,
            "amenity": "travel_agency",
            "mobile": null,
            "addr:street": null,
            "cuisine": null,
            "name": "Hür turizm acentesi",
            "name:en": null,
            "name:uk": null,
            "name:de": null,
            "name:tr": null,
            "name:ru": null,
            "name:ar": null
        }
    },
    {
        "lat": 41.0249495,
        "lon": 29.0119819,
        "tags": {
            "addr:city": "İstanbul",
            "addr:district": null,
            "description": "",
            "opening_hours": null,
            "phone": null,
            "branch": null,
            "amenity": "travel_agency",
            "mobile": null,
            "addr:street": null,
            "cuisine": null,
            "name": "Şile Ağva Bilet Gişesi",
            "name:en": null,
            "name:uk": null,
            "name:de": null,
            "name:tr": null,
            "name:ru": null,
            "name:ar": null
        }
    },
    {
        "lat": 40.9778504,
        "lon": 28.8733835,
        "tags": {
            "addr:city": "İstanbul",
            "addr:district": null,
            "description": "",
            "opening_hours": null,
            "phone": "2126603636",
            "branch": null,
            "amenity": "travel_agency",
            "mobile": null,
            "addr:street": "Halit Ziya Uşaklıgil Cad. Carousel Alışveriş ve Yaşam Merkezi",
            "cuisine": null,
            "name": "Jolly Tours - Gör Gez Turizm",
            "name:en": null,
            "name:uk": null,
            "name:de": null,
            "name:tr": null,
            "name:ru": null,
            "name:ar": null
        }
    },
    {
        "lat": 41.0869022,
        "lon": 29.009195,
        "tags": {
            "addr:city": "İstanbul",
            "addr:district": null,
            "description": "",
            "opening_hours": null,
            "phone": "2122834371",
            "branch": null,
            "amenity": "travel_agency",
            "mobile": null,
            "addr:street": "Akçam Sok. 11. Blok",
            "cuisine": null,
            "name": "Jolly Tours - Tiyada Turizm",
            "name:en": null,
            "name:uk": null,
            "name:de": null,
            "name:tr": null,
            "name:ru": null,
            "name:ar": null
        }
    },
    {
        "lat": 41.0022423,
        "lon": 28.8709163,
        "tags": {
            "addr:city": "İstanbul",
            "addr:district": null,
            "description": "",
            "opening_hours": null,
            "phone": "2125562683",
            "branch": null,
            "amenity": "travel_agency",
            "mobile": null,
            "addr:street": "İzzettin Çalışkanlar Cad. Venüs Apt.",
            "cuisine": null,
            "name": "Jolly Tours - Elf Tur",
            "name:en": null,
            "name:uk": null,
            "name:de": null,
            "name:tr": null,
            "name:ru": null,
            "name:ar": null
        }
    },
    {
        "lat": 40.9762727,
        "lon": 29.0505114,
        "tags": {
            "addr:city": "İstanbul",
            "addr:district": "Kadıköy",
            "description": "",
            "opening_hours": null,
            "phone": "2165419719",
            "branch": null,
            "amenity": "travel_agency",
            "mobile": null,
            "addr:street": "Bağdat Caddesi",
            "cuisine": null,
            "name": "Jolly Tours - Sono Tur",
            "name:en": null,
            "name:uk": null,
            "name:de": null,
            "name:tr": null,
            "name:ru": null,
            "name:ar": null
        }
    },
    {
        "lat": 40.8893722,
        "lon": 29.1877367,
        "tags": {
            "addr:city": "İstanbul",
            "addr:district": null,
            "description": "",
            "opening_hours": null,
            "phone": "2166405225",
            "branch": null,
            "amenity": "travel_agency",
            "mobile": null,
            "addr:street": "Merkez Mah. Çavuşbaşı Cad.",
            "cuisine": null,
            "name": "Jolly Tours - Azmihan Turizm",
            "name:en": null,
            "name:uk": null,
            "name:de": null,
            "name:tr": null,
            "name:ru": null,
            "name:ar": null
        }
    },
    {
        "lat": 41.0626431,
        "lon": 28.9932045,
        "tags": {
            "addr:city": "İstanbul",
            "addr:district": null,
            "description": "",
            "opening_hours": null,
            "phone": "2123801398",
            "branch": null,
            "amenity": "travel_agency",
            "mobile": null,
            "addr:street": "Büyükdere Cad. İstanbul Cevahir Alışveriş ve Eğlence Merkezi",
            "cuisine": null,
            "name": "Jolly Tours - Cevahir Turizm",
            "name:en": null,
            "name:uk": null,
            "name:de": null,
            "name:tr": null,
            "name:ru": null,
            "name:ar": null
        }
    },
    {
        "lat": 40.9626891,
        "lon": 29.076034,
        "tags": {
            "addr:city": "İstanbul",
            "addr:district": null,
            "description": "",
            "opening_hours": null,
            "phone": "2164782000",
            "branch": null,
            "amenity": "travel_agency",
            "mobile": null,
            "addr:street": "Bağdat Cad. Kazım Kulan Apt. A Blok",
            "cuisine": null,
            "name": "Jolly Tours - Merkez Ofis",
            "name:en": null,
            "name:uk": null,
            "name:de": null,
            "name:tr": null,
            "name:ru": null,
            "name:ar": null
        }
    },
    {
        "lat": 41.0584912,
        "lon": 28.9133317,
        "tags": {
            "addr:city": "İstanbul",
            "addr:district": null,
            "description": "",
            "opening_hours": null,
            "phone": "2125459799",
            "branch": null,
            "amenity": "travel_agency",
            "mobile": null,
            "addr:street": "Küçükköy Yolu Cad. Ersoy Haşhaşlar İş Merkezi",
            "cuisine": null,
            "name": "Jolly Tours - Susis Travel",
            "name:en": null,
            "name:uk": null,
            "name:de": null,
            "name:tr": null,
            "name:ru": null,
            "name:ar": null
        }
    },
    {
        "lat": 41.0317383,
        "lon": 29.1094886,
        "tags": {
            "addr:city": "İstanbul",
            "addr:district": null,
            "description": "",
            "opening_hours": null,
            "phone": "2164862500",
            "branch": null,
            "amenity": "travel_agency",
            "mobile": null,
            "addr:street": "Küçüksu Cad.",
            "cuisine": null,
            "name": "Jolly Tours - Hayal Turizm",
            "name:en": null,
            "name:uk": null,
            "name:de": null,
            "name:tr": null,
            "name:ru": null,
            "name:ar": null
        }
    },
    {
        "lat": 40.8933679,
        "lon": 29.2445281,
        "tags": {
            "addr:city": "İstanbul",
            "addr:district": null,
            "description": "",
            "opening_hours": null,
            "phone": "2163543059",
            "branch": null,
            "amenity": "travel_agency",
            "mobile": null,
            "addr:street": "Ankara Cad.",
            "cuisine": null,
            "name": "Jolly Tours - Carnival Turizm",
            "name:en": null,
            "name:uk": null,
            "name:de": null,
            "name:tr": null,
            "name:ru": null,
            "name:ar": null
        }
    },
    {
        "lat": 41.056321,
        "lon": 28.9871956,
        "tags": {
            "addr:city": "İstanbul",
            "addr:district": null,
            "description": "",
            "opening_hours": null,
            "phone": "2123438140",
            "branch": null,
            "amenity": "travel_agency",
            "mobile": null,
            "addr:street": "Halaskargazi Cad. İlbay Apt.",
            "cuisine": null,
            "name": "Jolly Tours - Rönesans Turizm",
            "name:en": null,
            "name:uk": null,
            "name:de": null,
            "name:tr": null,
            "name:ru": null,
            "name:ar": null
        }
    },
    {
        "lat": 41.0445043,
        "lon": 29.0069619,
        "tags": {
            "addr:city": "İstanbul",
            "addr:district": null,
            "description": "",
            "opening_hours": null,
            "phone": "2122590704",
            "branch": null,
            "amenity": "travel_agency",
            "mobile": null,
            "addr:street": "Barbaros Bulv. Teknik Apt.",
            "cuisine": null,
            "name": "Jolly Tours - Caribbean Turizm",
            "name:en": null,
            "name:uk": null,
            "name:de": null,
            "name:tr": null,
            "name:ru": null,
            "name:ar": null
        }
    },
    {
        "lat": 41.0128712,
        "lon": 29.0540606,
        "tags": {
            "addr:city": "İstanbul",
            "addr:district": null,
            "description": "",
            "opening_hours": null,
            "phone": "2163277427",
            "branch": null,
            "amenity": "travel_agency",
            "mobile": null,
            "addr:street": "Acıbadem Cad.",
            "cuisine": null,
            "name": "Jolly Tours - İmparator Tur",
            "name:en": null,
            "name:uk": null,
            "name:de": null,
            "name:tr": null,
            "name:ru": null,
            "name:ar": null
        }
    },
    {
        "lat": 40.9587792,
        "lon": 28.8235367,
        "tags": {
            "addr:city": "İstanbul",
            "addr:district": null,
            "description": "",
            "opening_hours": null,
            "phone": "2126620608",
            "branch": null,
            "amenity": "travel_agency",
            "mobile": null,
            "addr:street": "Yeşilyalı Sok.",
            "cuisine": null,
            "name": "Jolly Tours - Yeşilköy Mk Turizm",
            "name:en": null,
            "name:uk": null,
            "name:de": null,
            "name:tr": null,
            "name:ru": null,
            "name:ar": null
        }
    },
    {
        "lat": 41.1101457,
        "lon": 29.0325929,
        "tags": {
            "addr:city": "İstanbul",
            "addr:district": null,
            "description": "",
            "opening_hours": null,
            "phone": "2123457100",
            "branch": null,
            "amenity": "travel_agency",
            "mobile": null,
            "addr:street": "İstinye Bayırı Cad. İstinyePark Alışveriş Merkezi",
            "cuisine": null,
            "name": "Jolly Tours - Merkez Ofis",
            "name:en": null,
            "name:uk": null,
            "name:de": null,
            "name:tr": null,
            "name:ru": null,
            "name:ar": null
        }
    },
    {
        "lat": 40.9206107,
        "lon": 29.1378641,
        "tags": {
            "addr:city": "İstanbul",
            "addr:district": null,
            "description": "",
            "opening_hours": null,
            "phone": "2163717125",
            "branch": null,
            "amenity": "travel_agency",
            "mobile": null,
            "addr:street": "Bağdat Cad.",
            "cuisine": null,
            "name": "Karaca Turizm",
            "name:en": null,
            "name:uk": null,
            "name:de": null,
            "name:tr": null,
            "name:ru": null,
            "name:ar": null
        }
    },
    {
        "lat": 40.9777831,
        "lon": 28.8716627,
        "tags": {
            "addr:city": "İstanbul",
            "addr:district": null,
            "description": "",
            "opening_hours": null,
            "phone": "2125608008",
            "branch": null,
            "amenity": "travel_agency",
            "mobile": null,
            "addr:street": "Fişekhane Cad. Capacity Alışveriş Merkezi",
            "cuisine": null,
            "name": "Jolly Tours - Meridien Tur",
            "name:en": null,
            "name:uk": null,
            "name:de": null,
            "name:tr": null,
            "name:ru": null,
            "name:ar": null
        }
    },
    {
        "lat": 41.0057193,
        "lon": 28.9309984,
        "tags": {
            "addr:city": "İstanbul",
            "addr:district": null,
            "description": "",
            "opening_hours": null,
            "phone": "2126447085",
            "branch": null,
            "amenity": "travel_agency",
            "mobile": null,
            "addr:street": "Kuvayi Milliye Cad.",
            "cuisine": null,
            "name": "Jolly Tours - Temmuz Turizm",
            "name:en": null,
            "name:uk": null,
            "name:de": null,
            "name:tr": null,
            "name:ru": null,
            "name:ar": null
        }
    },
    {
        "lat": 40.9814227,
        "lon": 29.0817588,
        "tags": {
            "addr:city": "İstanbul",
            "addr:district": null,
            "description": "",
            "opening_hours": null,
            "phone": "2164783300",
            "branch": null,
            "amenity": "travel_agency",
            "mobile": null,
            "addr:street": "Atatürk Cad. Osmanlı Apt.",
            "cuisine": null,
            "name": "Jolly Tours - HDTur",
            "name:en": null,
            "name:uk": null,
            "name:de": null,
            "name:tr": null,
            "name:ru": null,
            "name:ar": null
        }
    },
    {
        "lat": 40.9882238,
        "lon": 28.9066424,
        "tags": {
            "addr:city": "Zeytinburnu",
            "addr:district": null,
            "description": "",
            "opening_hours": null,
            "phone": null,
            "branch": null,
            "amenity": "travel_agency",
            "mobile": null,
            "addr:street": "45/3. Sok.",
            "cuisine": null,
            "name": "Jolly Tours - Toscana Tur",
            "name:en": null,
            "name:uk": null,
            "name:de": null,
            "name:tr": null,
            "name:ru": null,
            "name:ar": null
        }
    },
    {
        "lat": 41.0562119,
        "lon": 28.6674244,
        "tags": {
            "addr:city": "İstanbul",
            "addr:district": null,
            "description": "",
            "opening_hours": null,
            "phone": "2123970017",
            "branch": null,
            "amenity": "travel_agency",
            "mobile": null,
            "addr:street": "Esenkent Mevki 1655. Sok. Akbatı Alışveriş ve Yaşam Merkezi",
            "cuisine": null,
            "name": "Jolly Tours - Merkez Ofis",
            "name:en": null,
            "name:uk": null,
            "name:de": null,
            "name:tr": null,
            "name:ru": null,
            "name:ar": null
        }
    },
    {
        "lat": 41.0773496,
        "lon": 29.0126287,
        "tags": {
            "addr:city": "İstanbul",
            "addr:district": null,
            "description": "",
            "opening_hours": null,
            "phone": "2122788288",
            "branch": null,
            "amenity": "travel_agency",
            "mobile": null,
            "addr:street": "Büyükdere Cad. ÖzdilekPark İstanbul",
            "cuisine": null,
            "name": "Jolly Tours - Denistanbul",
            "name:en": null,
            "name:uk": null,
            "name:de": null,
            "name:tr": null,
            "name:ru": null,
            "name:ar": null
        }
    },
    {
        "lat": 41.0016935,
        "lon": 29.054586,
        "tags": {
            "addr:city": "İstanbul",
            "addr:district": null,
            "description": "",
            "opening_hours": null,
            "phone": "2165101356",
            "branch": null,
            "amenity": "travel_agency",
            "mobile": null,
            "addr:street": "Ankara Devlet Yolu Haydarpaşa Yönü 4. Km. Çeçen Sok. Akasya Acıbadem",
            "cuisine": null,
            "name": "Jolly Tours - İmparator Turizm",
            "name:en": null,
            "name:uk": null,
            "name:de": null,
            "name:tr": null,
            "name:ru": null,
            "name:ar": null
        }
    },
    {
        "lat": 41.0017694,
        "lon": 29.053965,
        "tags": {
            "addr:city": "İstanbul",
            "addr:district": null,
            "description": "",
            "opening_hours": null,
            "phone": null,
            "branch": null,
            "amenity": "travel_agency",
            "mobile": null,
            "addr:street": null,
            "cuisine": null,
            "name": null,
            "name:en": null,
            "name:uk": null,
            "name:de": null,
            "name:tr": null,
            "name:ru": null,
            "name:ar": null
        }
    },
    {
        "lat": 41.1108994,
        "lon": 29.1318906,
        "tags": {
            "addr:city": "İstanbul",
            "addr:district": null,
            "description": "",
            "opening_hours": null,
            "phone": "2124854950",
            "branch": null,
            "amenity": "travel_agency",
            "mobile": null,
            "addr:street": "9. Cad.",
            "cuisine": null,
            "name": "Jolly Tours - Acarkent Turizm",
            "name:en": null,
            "name:uk": null,
            "name:de": null,
            "name:tr": null,
            "name:ru": null,
            "name:ar": null
        }
    },
    {
        "lat": 40.9788965,
        "lon": 28.8499143,
        "tags": {
            "addr:city": "İstanbul",
            "addr:district": null,
            "description": "",
            "opening_hours": null,
            "phone": "2126613023",
            "branch": null,
            "amenity": "travel_agency",
            "mobile": null,
            "addr:street": "Adnan Kahveci Bulv. Ataköy A Plus AVM",
            "cuisine": null,
            "name": "Jolly Tours - Önemli Turizm",
            "name:en": null,
            "name:uk": null,
            "name:de": null,
            "name:tr": null,
            "name:ru": null,
            "name:ar": null
        }
    },
    {
        "lat": 41.0318087,
        "lon": 28.8275861,
        "tags": {
            "addr:city": "İstanbul",
            "addr:district": null,
            "description": "",
            "opening_hours": null,
            "phone": null,
            "branch": null,
            "amenity": "travel_agency",
            "mobile": null,
            "addr:street": null,
            "cuisine": null,
            "name": null,
            "name:en": null,
            "name:uk": null,
            "name:de": null,
            "name:tr": null,
            "name:ru": null,
            "name:ar": null
        }
    },
    {
        "lat": 41.0311947,
        "lon": 28.8281171,
        "tags": {
            "addr:city": "İstanbul",
            "addr:district": null,
            "description": "",
            "opening_hours": null,
            "phone": "2125155578",
            "branch": null,
            "amenity": "travel_agency",
            "mobile": null,
            "addr:street": "Cumhuriyet Cad.",
            "cuisine": null,
            "name": "Jolly Tours - Mega Yazıcılar Turizm",
            "name:en": null,
            "name:uk": null,
            "name:de": null,
            "name:tr": null,
            "name:ru": null,
            "name:ar": null
        }
    },
    {
        "lat": 41.0472518,
        "lon": 28.9868686,
        "tags": {
            "addr:city": "İstanbul",
            "addr:district": null,
            "description": "",
            "opening_hours": null,
            "phone": "2122967060",
            "branch": null,
            "amenity": "travel_agency",
            "mobile": null,
            "addr:street": "Cumhuriyet Cad.",
            "cuisine": null,
            "name": "Jolly Tours - Merkez Ofis",
            "name:en": null,
            "name:uk": null,
            "name:de": null,
            "name:tr": null,
            "name:ru": null,
            "name:ar": null
        }
    },
    {
        "lat": 40.9526195,
        "lon": 29.1009097,
        "tags": {
            "addr:city": "İstanbul",
            "addr:district": null,
            "description": "",
            "opening_hours": null,
            "phone": "2124891140",
            "branch": null,
            "amenity": "travel_agency",
            "mobile": null,
            "addr:street": "Galipbey Cad. Hüseyin Bey Apt.",
            "cuisine": null,
            "name": "Jolly Tours - Mişa Turizm",
            "name:en": null,
            "name:uk": null,
            "name:de": null,
            "name:tr": null,
            "name:ru": null,
            "name:ar": null
        }
    },
    {
        "lat": 40.9903997,
        "lon": 29.0288519,
        "tags": {
            "addr:city": "İstanbul",
            "addr:district": null,
            "description": "",
            "opening_hours": null,
            "phone": "2165410200",
            "branch": null,
            "amenity": "travel_agency",
            "mobile": null,
            "addr:street": "Söğütlüçeşme Caddesi",
            "cuisine": null,
            "name": "Jolly Tours - Beauty Turizm",
            "name:en": null,
            "name:uk": null,
            "name:de": null,
            "name:tr": null,
            "name:ru": null,
            "name:ar": null
        }
    },
    {
        "lat": 41.0662827,
        "lon": 29.0165008,
        "tags": {
            "addr:city": "İstanbul",
            "addr:district": null,
            "description": "",
            "opening_hours": null,
            "phone": "2123536704",
            "branch": null,
            "amenity": "travel_agency",
            "mobile": null,
            "addr:street": "Koru Sokağı",
            "cuisine": null,
            "name": "Jolly Tours - Denistanbul",
            "name:en": null,
            "name:uk": null,
            "name:de": null,
            "name:tr": null,
            "name:ru": null,
            "name:ar": null
        }
    },
    {
        "lat": 41.0694554,
        "lon": 29.0073725,
        "tags": {
            "addr:city": "İstanbul",
            "addr:district": null,
            "description": "",
            "opening_hours": null,
            "phone": "2122967060",
            "branch": null,
            "amenity": "travel_agency",
            "mobile": null,
            "addr:street": "Esentepe Mah. Hikaye Sok.",
            "cuisine": null,
            "name": "Jolly Tours - Merkez Ofis",
            "name:en": null,
            "name:uk": null,
            "name:de": null,
            "name:tr": null,
            "name:ru": null,
            "name:ar": null
        }
    },
    {
        "lat": 41.08688,
        "lon": 29.0245634,
        "tags": {
            "addr:city": "İstanbul",
            "addr:district": null,
            "description": "",
            "opening_hours": null,
            "phone": "2122780207",
            "branch": null,
            "amenity": "travel_agency",
            "mobile": null,
            "addr:street": "Cumhuriyet Cad. Etiler Club Sporium",
            "cuisine": null,
            "name": "Jolly Tours - Merkez Ofis",
            "name:en": null,
            "name:uk": null,
            "name:de": null,
            "name:tr": null,
            "name:ru": null,
            "name:ar": null
        }
    },
    {
        "lat": 40.9193734,
        "lon": 29.1636126,
        "tags": {
            "addr:city": "İstanbul",
            "addr:district": null,
            "description": "",
            "opening_hours": null,
            "phone": "2165151633",
            "branch": null,
            "amenity": "travel_agency",
            "mobile": null,
            "addr:street": "Cevizli Mah. Turgay Yolu Cad. Maltepe Park AVM",
            "cuisine": null,
            "name": "Jolly Tours - Denistanbul",
            "name:en": null,
            "name:uk": null,
            "name:de": null,
            "name:tr": null,
            "name:ru": null,
            "name:ar": null
        }
    },
    {
        "lat": 40.9887835,
        "lon": 28.8457548,
        "tags": {
            "addr:city": "İstanbul",
            "addr:district": null,
            "description": "",
            "opening_hours": null,
            "phone": "2125151633",
            "branch": null,
            "amenity": "travel_agency",
            "mobile": null,
            "addr:street": "Ataköy 7-8-9-10. Mah. Nilüfer Sok. Atrium Alışveriş Merkezi",
            "cuisine": null,
            "name": "Jolly Tours - Gökbora Turizm",
            "name:en": null,
            "name:uk": null,
            "name:de": null,
            "name:tr": null,
            "name:ru": null,
            "name:ar": null
        }
    },
    {
        "lat": 41.075001,
        "lon": 28.2440529,
        "tags": {
            "addr:city": "İstanbul",
            "addr:district": null,
            "description": "",
            "opening_hours": null,
            "phone": "2127270644",
            "branch": null,
            "amenity": "travel_agency",
            "mobile": null,
            "addr:street": "Piri Mehmet Paşa Mah. Başkomutan Cad.",
            "cuisine": null,
            "name": "Jolly Tours - Guzel Hisar Turizm",
            "name:en": null,
            "name:uk": null,
            "name:de": null,
            "name:tr": null,
            "name:ru": null,
            "name:ar": null
        }
    },
    {
        "lat": 41.0404289,
        "lon": 28.7904789,
        "tags": {
            "addr:city": "İstanbul",
            "addr:district": null,
            "description": "",
            "opening_hours": null,
            "phone": "2124704477",
            "branch": null,
            "amenity": "travel_agency",
            "mobile": null,
            "addr:street": "Halkalı Merkez Mah. Halkalı Cad. Ihlamur AVM",
            "cuisine": null,
            "name": "Jolly Tours - Gökbora Turizm",
            "name:en": null,
            "name:uk": null,
            "name:de": null,
            "name:tr": null,
            "name:ru": null,
            "name:ar": null
        }
    },
    {
        "lat": 41.0377899,
        "lon": 28.9842088,
        "tags": {
            "addr:city": "İstanbul",
            "addr:district": null,
            "description": "",
            "opening_hours": null,
            "phone": "2122979725",
            "branch": null,
            "amenity": "travel_agency",
            "mobile": null,
            "addr:street": "Kocatepe Mah. Abdulhak Hamit Cad.",
            "cuisine": null,
            "name": "Jolly Tours - Section Turizm",
            "name:en": null,
            "name:uk": null,
            "name:de": null,
            "name:tr": null,
            "name:ru": null,
            "name:ar": null
        }
    },
    {
        "lat": 40.9958767,
        "lon": 28.8649627,
        "tags": {
            "addr:city": "İstanbul",
            "addr:district": null,
            "description": "",
            "opening_hours": null,
            "phone": "2124422144",
            "branch": null,
            "amenity": "travel_agency",
            "mobile": null,
            "addr:street": "Bahçelievler Mah. Mehmetçik Sok. Kadir Has Alışveriş Merkezi",
            "cuisine": null,
            "name": "Jolly Tours - Tiar Turizm",
            "name:en": null,
            "name:uk": null,
            "name:de": null,
            "name:tr": null,
            "name:ru": null,
            "name:ar": null
        }
    },
    {
        "lat": 41.0205701,
        "lon": 29.129212,
        "tags": {
            "addr:city": "İstanbul",
            "addr:district": null,
            "description": "",
            "opening_hours": null,
            "phone": null,
            "branch": null,
            "amenity": "travel_agency",
            "mobile": null,
            "addr:street": null,
            "cuisine": null,
            "name": "Metro Turizm",
            "name:en": null,
            "name:uk": null,
            "name:de": null,
            "name:tr": null,
            "name:ru": null,
            "name:ar": null
        }
    },
    {
        "lat": 41.020691,
        "lon": 29.1290795,
        "tags": {
            "addr:city": "İstanbul",
            "addr:district": null,
            "description": "",
            "opening_hours": null,
            "phone": null,
            "branch": null,
            "amenity": "travel_agency",
            "mobile": null,
            "addr:street": null,
            "cuisine": null,
            "name": "Pamukkale Turizm",
            "name:en": null,
            "name:uk": null,
            "name:de": null,
            "name:tr": null,
            "name:ru": null,
            "name:ar": null
        }
    },
    {
        "lat": 41.0209188,
        "lon": 29.1279056,
        "tags": {
            "addr:city": "İstanbul",
            "addr:district": null,
            "description": "",
            "opening_hours": null,
            "phone": null,
            "branch": null,
            "amenity": "travel_agency",
            "mobile": null,
            "addr:street": null,
            "cuisine": null,
            "name": "Nilüfer Turizm",
            "name:en": null,
            "name:uk": null,
            "name:de": null,
            "name:tr": null,
            "name:ru": null,
            "name:ar": null
        }
    },
    {
        "lat": 41.058223,
        "lon": 28.9131139,
        "tags": {
            "addr:city": "İstanbul",
            "addr:district": null,
            "description": "",
            "opening_hours": null,
            "phone": null,
            "branch": null,
            "amenity": "travel_agency",
            "mobile": null,
            "addr:street": null,
            "cuisine": null,
            "name": "Mika Tur",
            "name:en": null,
            "name:uk": null,
            "name:de": null,
            "name:tr": null,
            "name:ru": null,
            "name:ar": null
        }
    },
    {
        "lat": 41.0582624,
        "lon": 28.9131515,
        "tags": {
            "addr:city": "İstanbul",
            "addr:district": null,
            "description": "",
            "opening_hours": null,
            "phone": null,
            "branch": null,
            "amenity": "travel_agency",
            "mobile": null,
            "addr:street": null,
            "cuisine": null,
            "name": "Anı Tur",
            "name:en": null,
            "name:uk": null,
            "name:de": null,
            "name:tr": null,
            "name:ru": null,
            "name:ar": null
        }
    },
    {
        "lat": 40.9837392,
        "lon": 29.0394267,
        "tags": {
            "addr:city": "İstanbul",
            "addr:district": null,
            "description": "",
            "opening_hours": null,
            "phone": null,
            "branch": null,
            "amenity": "travel_agency",
            "mobile": null,
            "addr:street": null,
            "cuisine": null,
            "name": "Hira Tour",
            "name:en": null,
            "name:uk": null,
            "name:de": null,
            "name:tr": null,
            "name:ru": null,
            "name:ar": null
        }
    },
    {
        "lat": 41.0013779,
        "lon": 28.7996751,
        "tags": {
            "addr:city": "İstanbul",
            "addr:district": null,
            "description": "",
            "opening_hours": null,
            "phone": null,
            "branch": null,
            "amenity": "travel_agency",
            "mobile": null,
            "addr:street": null,
            "cuisine": null,
            "name": "Turk Havayollar",
            "name:en": null,
            "name:uk": null,
            "name:de": null,
            "name:tr": null,
            "name:ru": null,
            "name:ar": null
        }
    },
    {
        "lat": 41.0441125,
        "lon": 28.9861601,
        "tags": {
            "addr:city": "Istanbul",
            "addr:district": "Şişli",
            "description": "",
            "opening_hours": null,
            "phone": "+90 212 219 83 83",
            "branch": null,
            "amenity": "travel_agency",
            "mobile": null,
            "addr:street": "Babil Sokak",
            "cuisine": null,
            "name": "Travezone",
            "name:en": "Travelzone",
            "name:uk": null,
            "name:de": null,
            "name:tr": "Travezone",
            "name:ru": null,
            "name:ar": null
        }
    },
    {
        "lat": 40.9924929,
        "lon": 28.9050224,
        "tags": {
            "addr:city": "İstanbul",
            "addr:district": null,
            "description": "",
            "opening_hours": null,
            "phone": null,
            "branch": null,
            "amenity": "travel_agency",
            "mobile": null,
            "addr:street": null,
            "cuisine": null,
            "name": null,
            "name:en": null,
            "name:uk": null,
            "name:de": null,
            "name:tr": null,
            "name:ru": null,
            "name:ar": null
        }
    },
    {
        "lat": 40.9940366,
        "lon": 28.9016797,
        "tags": {
            "addr:city": "İstanbul",
            "addr:district": null,
            "description": "",
            "opening_hours": null,
            "phone": null,
            "branch": null,
            "amenity": "travel_agency",
            "mobile": null,
            "addr:street": null,
            "cuisine": null,
            "name": "نوسیگەی گەشتیاری",
            "name:en": null,
            "name:uk": null,
            "name:de": null,
            "name:tr": "نوسیگەی گەشتیاری",
            "name:ru": null,
            "name:ar": null
        }
    },
    {
        "lat": 41.0017112,
        "lon": 28.7994681,
        "tags": {
            "addr:city": "İstanbul",
            "addr:district": null,
            "description": "",
            "opening_hours": null,
            "phone": null,
            "branch": null,
            "amenity": "travel_agency",
            "mobile": null,
            "addr:street": null,
            "cuisine": null,
            "name": "Nilufer",
            "name:en": null,
            "name:uk": null,
            "name:de": null,
            "name:tr": null,
            "name:ru": null,
            "name:ar": null
        }
    },
    {
        "lat": 41.0016338,
        "lon": 28.7994509,
        "tags": {
            "addr:city": "İstanbul",
            "addr:district": null,
            "description": "",
            "opening_hours": null,
            "phone": null,
            "branch": null,
            "amenity": "travel_agency",
            "mobile": null,
            "addr:street": null,
            "cuisine": null,
            "name": "Pamukkale",
            "name:en": null,
            "name:uk": null,
            "name:de": null,
            "name:tr": null,
            "name:ru": null,
            "name:ar": null
        }
    },
    {
        "lat": 41.001564,
        "lon": 28.7994423,
        "tags": {
            "addr:city": "İstanbul",
            "addr:district": null,
            "description": "",
            "opening_hours": null,
            "phone": null,
            "branch": null,
            "amenity": "travel_agency",
            "mobile": null,
            "addr:street": null,
            "cuisine": null,
            "name": "Tatilstil",
            "name:en": null,
            "name:uk": null,
            "name:de": null,
            "name:tr": null,
            "name:ru": null,
            "name:ar": null
        }
    },
    {
        "lat": 41.0015105,
        "lon": 28.7994222,
        "tags": {
            "addr:city": "İstanbul",
            "addr:district": null,
            "description": "",
            "opening_hours": null,
            "phone": null,
            "branch": null,
            "amenity": "travel_agency",
            "mobile": null,
            "addr:street": null,
            "cuisine": null,
            "name": "Kamilkoc",
            "name:en": null,
            "name:uk": null,
            "name:de": null,
            "name:tr": null,
            "name:ru": null,
            "name:ar": null
        }
    },
    {
        "lat": 41.0642747,
        "lon": 28.6866919,
        "tags": {
            "addr:city": "İstanbul",
            "addr:district": "Başakşehir",
            "description": "",
            "opening_hours": "Mo-Fr 09:00-19:00",
            "phone": null,
            "branch": null,
            "amenity": "travel_agency",
            "mobile": null,
            "addr:street": "Ebabil Sok.",
            "cuisine": null,
            "name": "Jolly Tur Yetkili Satış Ofisi - Dream Holidays Tur",
            "name:en": null,
            "name:uk": null,
            "name:de": null,
            "name:tr": null,
            "name:ru": null,
            "name:ar": null
        }
    },
    {
        "lat": 41.0403961,
        "lon": 28.8933907,
        "tags": {
            "addr:city": "İstanbul",
            "addr:district": null,
            "description": "",
            "opening_hours": null,
            "phone": null,
            "branch": null,
            "amenity": "travel_agency",
            "mobile": null,
            "addr:street": "Kazım Karabekir Cd.",
            "cuisine": null,
            "name": "Metro",
            "name:en": "Metro",
            "name:uk": null,
            "name:de": null,
            "name:tr": null,
            "name:ru": null,
            "name:ar": null
        }
    },
    {
        "lat": 41.0136961,
        "lon": 28.9465616,
        "tags": {
            "addr:city": "Istanbul",
            "addr:district": "Fatih",
            "description": "",
            "opening_hours": "mo-sa 09:00-17:00",
            "phone": "05387656171",
            "branch": null,
            "amenity": "travel_agency",
            "mobile": null,
            "addr:street": "Havlucu sokak",
            "cuisine": null,
            "name": "HHS international",
            "name:en": null,
            "name:uk": null,
            "name:de": null,
            "name:tr": null,
            "name:ru": null,
            "name:ar": "شركة الأمير والسلطان للسياحة والسفر"
        }
    },
    {
        "lat": 41.0141754,
        "lon": 28.9489374,
        "tags": {
            "addr:city": "Istanbul",
            "addr:district": "Fatih",
            "description": "",
            "opening_hours": "mo-sa 09:00-17:00",
            "phone": "02125341561",
            "branch": null,
            "amenity": "travel_agency",
            "mobile": null,
            "addr:street": "Sofular caddesi",
            "cuisine": null,
            "name": "Esma diş ticaret",
            "name:en": null,
            "name:uk": null,
            "name:de": null,
            "name:tr": null,
            "name:ru": null,
            "name:ar": "شركة اسما للتجارة"
        }
    },
    {
        "lat": 41.0132755,
        "lon": 28.9467228,
        "tags": {
            "addr:city": "Istanbul",
            "addr:district": "Fatih",
            "description": "",
            "opening_hours": "Mo-Sa 09:00-19:00",
            "phone": "02125343211",
            "branch": null,
            "amenity": "travel_agency",
            "mobile": null,
            "addr:street": "Ahmediye Caddesi",
            "cuisine": null,
            "name": "Almubarak turizm",
            "name:en": null,
            "name:uk": null,
            "name:de": null,
            "name:tr": null,
            "name:ru": null,
            "name:ar": "المبارك للسياحة والسفر"
        }
    },
    {
        "lat": 41.0135881,
        "lon": 28.9461903,
        "tags": {
            "addr:city": "Istanbul",
            "addr:district": "Fatih",
            "description": "",
            "opening_hours": "Mo-Sa 09:00-22:00",
            "phone": "05413417313",
            "branch": null,
            "amenity": "travel_agency",
            "mobile": null,
            "addr:street": "Ahmediye caddesi",
            "cuisine": null,
            "name": "Ozlem Cizre Nuh Turizm",
            "name:en": null,
            "name:uk": null,
            "name:de": null,
            "name:tr": null,
            "name:ru": null,
            "name:ar": "مجموعة الضيافة للسفر والسياحة"
        }
    },
    {
        "lat": 41.0137158,
        "lon": 28.9459083,
        "tags": {
            "addr:city": "Istanbul",
            "addr:district": "Fatih",
            "description": "",
            "opening_hours": "Mo-Su 09:00-22:00",
            "phone": "05302245050",
            "branch": null,
            "amenity": "travel_agency",
            "mobile": null,
            "addr:street": "Ahmediye caddesi",
            "cuisine": null,
            "name": "Best Van Turizm",
            "name:en": null,
            "name:uk": null,
            "name:de": null,
            "name:tr": null,
            "name:ru": null,
            "name:ar": "بيست ون للسياحة والسفر - العراق وإيران"
        }
    },
    {
        "lat": 41.0117381,
        "lon": 28.9466357,
        "tags": {
            "addr:city": "Istanbul",
            "addr:district": "Fatih",
            "description": "",
            "opening_hours": null,
            "phone": "4443455",
            "branch": null,
            "amenity": "travel_agency",
            "mobile": null,
            "addr:street": "Şht Pilot Mahmut Nedim Sokak",
            "cuisine": null,
            "name": "Metro",
            "name:en": null,
            "name:uk": null,
            "name:de": null,
            "name:tr": null,
            "name:ru": null,
            "name:ar": "شكر مترو للنقل"
        }
    },
    {
        "lat": 41.014133,
        "lon": 28.9425147,
        "tags": {
            "addr:city": "Istanbul",
            "addr:district": "Fatih",
            "description": "",
            "opening_hours": null,
            "phone": null,
            "branch": null,
            "amenity": "travel_agency",
            "mobile": null,
            "addr:street": "Molla Gürani caddesi",
            "cuisine": null,
            "name": "Suleymaniye tourizm",
            "name:en": null,
            "name:uk": null,
            "name:de": null,
            "name:tr": null,
            "name:ru": null,
            "name:ar": "السليمانية للنقل والسياحة"
        }
    },
    {
        "lat": 41.014034,
        "lon": 28.9428721,
        "tags": {
            "addr:city": "Istanbul",
            "addr:district": "Fatih",
            "description": "",
            "opening_hours": null,
            "phone": null,
            "branch": null,
            "amenity": "travel_agency",
            "mobile": null,
            "addr:street": "Molla Gürani caddesi",
            "cuisine": null,
            "name": "Alhaliç tourizm",
            "name:en": null,
            "name:uk": null,
            "name:de": null,
            "name:tr": null,
            "name:ru": null,
            "name:ar": "شركة الخليج للنقل والسياحة"
        }
    },
    {
        "lat": 41.0265885,
        "lon": 28.954121,
        "tags": {
            "addr:city": "Istanbul",
            "addr:district": "Fatih",
            "description": "",
            "opening_hours": null,
            "phone": null,
            "branch": null,
            "amenity": "travel_agency",
            "mobile": null,
            "addr:street": "Haliç Caddesi",
            "cuisine": null,
            "name": "Ameda Turizm",
            "name:en": null,
            "name:uk": null,
            "name:de": null,
            "name:tr": null,
            "name:ru": null,
            "name:ar": "اميدا توريزم"
        }
    },
    {
        "lat": 41.0248092,
        "lon": 28.9524747,
        "tags": {
            "addr:city": "Istanbul",
            "addr:district": "Fatih",
            "description": "",
            "opening_hours": null,
            "phone": "0532 243 53 47",
            "branch": null,
            "amenity": "travel_agency",
            "mobile": null,
            "addr:street": "Haliç Caddesi",
            "cuisine": null,
            "name": "Korkut Turizm",
            "name:en": null,
            "name:uk": null,
            "name:de": null,
            "name:tr": null,
            "name:ru": null,
            "name:ar": "كوركوت توريزم"
        }
    },
    {
        "lat": 41.0265939,
        "lon": 28.9555805,
        "tags": {
            "addr:city": "Istanbul",
            "addr:district": "Fatih",
            "description": "",
            "opening_hours": null,
            "phone": null,
            "branch": null,
            "amenity": "travel_agency",
            "mobile": null,
            "addr:street": "Küçük Mustafa Paşa Caddesi",
            "cuisine": null,
            "name": "Metro",
            "name:en": null,
            "name:uk": null,
            "name:de": null,
            "name:tr": null,
            "name:ru": null,
            "name:ar": "ميترو"
        }
    },
    {
        "lat": 40.9993446,
        "lon": 28.9310921,
        "tags": {
            "addr:city": "Istanbul",
            "addr:district": "Fatih",
            "description": "",
            "opening_hours": null,
            "phone": "02125892828",
            "branch": null,
            "amenity": "travel_agency",
            "mobile": null,
            "addr:street": "Abdurrahman Nafiz Gürman Caddesi",
            "cuisine": null,
            "name": "Mika tur",
            "name:en": null,
            "name:uk": null,
            "name:de": null,
            "name:tr": null,
            "name:ru": null,
            "name:ar": "ميكا للسياحة"
        }
    },
    {
        "lat": 41.003388,
        "lon": 28.931332,
        "tags": {
            "addr:city": "Istanbul",
            "addr:district": "Fatih",
            "description": "",
            "opening_hours": null,
            "phone": null,
            "branch": null,
            "amenity": "travel_agency",
            "mobile": null,
            "addr:street": "Berber Şefik Sokak",
            "cuisine": null,
            "name": "Hama tur",
            "name:en": null,
            "name:uk": null,
            "name:de": null,
            "name:tr": null,
            "name:ru": null,
            "name:ar": "حماة للسياحة"
        }
    },
    {
        "lat": 41.0068553,
        "lon": 28.9495511,
        "tags": {
            "addr:city": "Istanbul",
            "addr:district": "Fatih",
            "description": "",
            "opening_hours": null,
            "phone": null,
            "branch": null,
            "amenity": "travel_agency",
            "mobile": null,
            "addr:street": "Küçük Langa Caddesi",
            "cuisine": null,
            "name": "Golden turizm",
            "name:en": null,
            "name:uk": null,
            "name:de": null,
            "name:tr": null,
            "name:ru": null,
            "name:ar": "غولدن للسياحة و السفر"
        }
    },
    {
        "lat": 41.0081794,
        "lon": 28.9512106,
        "tags": {
            "addr:city": "Istanbul",
            "addr:district": "Fatih",
            "description": "",
            "opening_hours": null,
            "phone": "02125850712",
            "branch": null,
            "amenity": "travel_agency",
            "mobile": null,
            "addr:street": "İnkilap caddesi",
            "cuisine": null,
            "name": "Ahmet mardin turizm",
            "name:en": null,
            "name:uk": null,
            "name:de": null,
            "name:tr": null,
            "name:ru": null,
            "name:ar": "أحمد ماردين للسياحة"
        }
    },
    {
        "lat": 41.0081996,
        "lon": 28.9505525,
        "tags": {
            "addr:city": "Istanbul",
            "addr:district": "Fatih",
            "description": "",
            "opening_hours": null,
            "phone": "02125875051",
            "branch": null,
            "amenity": "travel_agency",
            "mobile": null,
            "addr:street": "İnkilap caddesi",
            "cuisine": null,
            "name": "Beş yıldız turizm",
            "name:en": null,
            "name:uk": null,
            "name:de": null,
            "name:tr": null,
            "name:ru": null,
            "name:ar": "بيش يلدز للسياحة"
        }
    },
    {
        "lat": 41.0123088,
        "lon": 28.9574128,
        "tags": {
            "addr:city": "Istanbul",
            "addr:district": "Turkey",
            "description": "",
            "opening_hours": "mo-sa 10:00-22:00",
            "phone": null,
            "branch": null,
            "amenity": "travel_agency",
            "mobile": null,
            "addr:street": "Fevziye Caddesi",
            "cuisine": null,
            "name": "Iraqi airways",
            "name:en": null,
            "name:uk": null,
            "name:de": null,
            "name:tr": null,
            "name:ru": null,
            "name:ar": "الخطوط الجوية العراقية"
        }
    },
    {
        "lat": 41.0127015,
        "lon": 28.9560986,
        "tags": {
            "addr:city": "Istanbul",
            "addr:district": "Turkey",
            "description": "",
            "opening_hours": "mo-fr 09:00-17:00",
            "phone": "02124652748",
            "branch": null,
            "amenity": "travel_agency",
            "mobile": null,
            "addr:street": "Gençtürk Caddesi",
            "cuisine": null,
            "name": "Afriqiyah Airways",
            "name:en": null,
            "name:uk": null,
            "name:de": null,
            "name:tr": null,
            "name:ru": null,
            "name:ar": "الخطوط الجوية الأفريقية"
        }
    },
    {
        "lat": 41.0115762,
        "lon": 28.9540601,
        "tags": {
            "addr:city": "Istanbul",
            "addr:district": "Turkey",
            "description": "",
            "opening_hours": "mo-sa 09:00-17:00",
            "phone": "02125261151",
            "branch": null,
            "amenity": "travel_agency",
            "mobile": null,
            "addr:street": "Selimpaşa Sokak",
            "cuisine": null,
            "name": "Türkmenistan Kargo",
            "name:en": null,
            "name:uk": null,
            "name:de": null,
            "name:tr": null,
            "name:ru": null,
            "name:ar": "تركمانستان كارغو"
        }
    },
    {
        "lat": 41.0098295,
        "lon": 28.9540528,
        "tags": {
            "addr:city": "Istanbul",
            "addr:district": "Turkey",
            "description": "",
            "opening_hours": "mo-sa 09:00-22:00",
            "phone": null,
            "branch": null,
            "amenity": "travel_agency",
            "mobile": null,
            "addr:street": "Selimpaşa Sokak",
            "cuisine": null,
            "name": "Seyr O Sefer",
            "name:en": null,
            "name:uk": null,
            "name:de": null,
            "name:tr": null,
            "name:ru": null,
            "name:ar": "سير او سفر للسياحة"
        }
    },
    {
        "lat": 41.02418,
        "lon": 28.9424703,
        "tags": {
            "addr:city": "Istanbul",
            "addr:district": "Turkey",
            "description": "",
            "opening_hours": "mo-su 09:00-21:00",
            "phone": "08502223455",
            "branch": null,
            "amenity": "travel_agency",
            "mobile": null,
            "addr:street": "Fevzi Paşa Caddesi",
            "cuisine": null,
            "name": "Metro",
            "name:en": null,
            "name:uk": null,
            "name:de": null,
            "name:tr": null,
            "name:ru": null,
            "name:ar": "ميترو"
        }
    },
    {
        "lat": 41.004871,
        "lon": 28.96539,
        "tags": {
            "addr:city": "İstanbul",
            "addr:district": null,
            "description": "",
            "opening_hours": null,
            "phone": null,
            "branch": null,
            "amenity": "travel_agency",
            "mobile": null,
            "addr:street": null,
            "cuisine": null,
            "name": "Emin",
            "name:en": null,
            "name:uk": null,
            "name:de": null,
            "name:tr": null,
            "name:ru": null,
            "name:ar": null
        }
    },
    {
        "lat": 41.0069402,
        "lon": 28.9309245,
        "tags": {
            "addr:city": "Istanbul",
            "addr:district": "Fatih",
            "description": "",
            "opening_hours": null,
            "phone": null,
            "branch": null,
            "amenity": "travel_agency",
            "mobile": null,
            "addr:street": "Çevre Tiyatrosu Sokak",
            "cuisine": null,
            "name": "Pamukkale",
            "name:en": null,
            "name:uk": null,
            "name:de": null,
            "name:tr": null,
            "name:ru": null,
            "name:ar": "باموك كالي"
        }
    },
    {
        "lat": 41.0083549,
        "lon": 28.9494555,
        "tags": {
            "addr:city": "Istanbul",
            "addr:district": "Fatih",
            "description": "",
            "opening_hours": null,
            "phone": null,
            "branch": null,
            "amenity": "travel_agency",
            "mobile": null,
            "addr:street": "Abdüllatif Paşa Sokağı",
            "cuisine": null,
            "name": "Ranya travel turizm",
            "name:en": null,
            "name:uk": null,
            "name:de": null,
            "name:tr": null,
            "name:ru": null,
            "name:ar": "مكتب رانيا للسياحة و السفر"
        }
    },
    {
        "lat": 41.0122147,
        "lon": 28.978194,
        "tags": {
            "addr:city": "Istanbul",
            "addr:district": "Fatih",
            "description": "",
            "opening_hours": null,
            "phone": "+90 212 512 44 41",
            "branch": null,
            "amenity": "travel_agency",
            "mobile": null,
            "addr:street": "Alemdar Caddesi",
            "cuisine": null,
            "name": "Midday Travel Turkey",
            "name:en": null,
            "name:uk": null,
            "name:de": null,
            "name:tr": null,
            "name:ru": null,
            "name:ar": null
        }
    },
    {
        "lat": 41.0127302,
        "lon": 28.9777872,
        "tags": {
            "addr:city": "Istanbul",
            "addr:district": "Fatih",
            "description": "",
            "opening_hours": null,
            "phone": "+90 530 170 06 82",
            "branch": null,
            "amenity": "travel_agency",
            "mobile": null,
            "addr:street": "Mehmet Murat Sokak",
            "cuisine": null,
            "name": "Bosforo Turizm",
            "name:en": null,
            "name:uk": null,
            "name:de": null,
            "name:tr": null,
            "name:ru": null,
            "name:ar": null
        }
    },
    {
        "lat": 41.0127465,
        "lon": 28.9775774,
        "tags": {
            "addr:city": "Istanbul",
            "addr:district": "Fatih",
            "description": "",
            "opening_hours": null,
            "phone": "+90 212 514 15 60",
            "branch": null,
            "amenity": "travel_agency",
            "mobile": null,
            "addr:street": "Hüdavendigar Caddesi",
            "cuisine": null,
            "name": "Ucan Travel",
            "name:en": null,
            "name:uk": null,
            "name:de": null,
            "name:tr": null,
            "name:ru": null,
            "name:ar": null
        }
    },
    {
        "lat": 41.0081697,
        "lon": 28.9757172,
        "tags": {
            "addr:city": "Istanbul",
            "addr:district": "Fatih",
            "description": "",
            "opening_hours": null,
            "phone": null,
            "branch": null,
            "amenity": "travel_agency",
            "mobile": null,
            "addr:street": "Divan Yolu Caddesi",
            "cuisine": null,
            "name": "Four Seasons",
            "name:en": null,
            "name:uk": null,
            "name:de": null,
            "name:tr": null,
            "name:ru": null,
            "name:ar": null
        }
    },
    {
        "lat": 41.0081545,
        "lon": 28.9756494,
        "tags": {
            "addr:city": "Istanbul",
            "addr:district": "Fatih",
            "description": "",
            "opening_hours": null,
            "phone": null,
            "branch": null,
            "amenity": "travel_agency",
            "mobile": null,
            "addr:street": "Divan Yolu Caddesi",
            "cuisine": null,
            "name": "Bosphorus Tours",
            "name:en": null,
            "name:uk": null,
            "name:de": null,
            "name:tr": null,
            "name:ru": null,
            "name:ar": null
        }
    },
    {
        "lat": 41.0081211,
        "lon": 28.9758821,
        "tags": {
            "addr:city": "Istanbul",
            "addr:district": "Fatih",
            "description": "",
            "opening_hours": null,
            "phone": "0530 294 68 00",
            "branch": null,
            "amenity": "travel_agency",
            "mobile": null,
            "addr:street": "Divan Yolu Caddesi",
            "cuisine": null,
            "name": "İBO CRUISE and TOURS",
            "name:en": null,
            "name:uk": null,
            "name:de": null,
            "name:tr": null,
            "name:ru": null,
            "name:ar": null
        }
    },
    {
        "lat": 41.0082629,
        "lon": 28.9772302,
        "tags": {
            "addr:city": "Istanbul",
            "addr:district": "Fatih",
            "description": "",
            "opening_hours": null,
            "phone": "0539 989 67 92",
            "branch": null,
            "amenity": "travel_agency",
            "mobile": null,
            "addr:street": "İncili Çavuş Sokak",
            "cuisine": null,
            "name": "Pride Travel Istanbul",
            "name:en": null,
            "name:uk": null,
            "name:de": null,
            "name:tr": null,
            "name:ru": null,
            "name:ar": null
        }
    },
    {
        "lat": 41.0081067,
        "lon": 28.9764255,
        "tags": {
            "addr:city": "Istanbul",
            "addr:district": "Fatih",
            "description": "",
            "opening_hours": null,
            "phone": "0212 513 71 19",
            "branch": null,
            "amenity": "travel_agency",
            "mobile": null,
            "addr:street": "Divan Yolu Caddesi",
            "cuisine": null,
            "name": "Turista Travel Agency",
            "name:en": null,
            "name:uk": null,
            "name:de": null,
            "name:tr": null,
            "name:ru": null,
            "name:ar": null
        }
    },
    {
        "lat": 41.0080819,
        "lon": 28.9764157,
        "tags": {
            "addr:city": "Istanbul",
            "addr:district": "Fatih",
            "description": "",
            "opening_hours": null,
            "phone": "0212 513 71 19",
            "branch": null,
            "amenity": "travel_agency",
            "mobile": null,
            "addr:street": "Divan Yolu Caddesi",
            "cuisine": null,
            "name": "Sultanahmet Travel",
            "name:en": null,
            "name:uk": null,
            "name:de": null,
            "name:tr": null,
            "name:ru": null,
            "name:ar": null
        }
    },
    {
        "lat": 41.0095966,
        "lon": 28.9765531,
        "tags": {
            "addr:city": "Istanbul",
            "addr:district": "Fatih",
            "description": "",
            "opening_hours": null,
            "phone": "0212 528 75 61",
            "branch": null,
            "amenity": "travel_agency",
            "mobile": null,
            "addr:street": "Yerebatan Caddesi",
            "cuisine": null,
            "name": "Onur Turizm",
            "name:en": null,
            "name:uk": null,
            "name:de": null,
            "name:tr": null,
            "name:ru": null,
            "name:ar": "أونور توريسم للسفر"
        }
    },
    {
        "lat": 41.0096081,
        "lon": 28.976769,
        "tags": {
            "addr:city": "Istanbul",
            "addr:district": "Fatih",
            "description": "",
            "opening_hours": null,
            "phone": "HOTEL 511 73 00",
            "branch": null,
            "amenity": "travel_agency",
            "mobile": null,
            "addr:street": "Yerebatan Caddesi",
            "cuisine": null,
            "name": "Anas crecca Travel",
            "name:en": null,
            "name:uk": null,
            "name:de": null,
            "name:tr": null,
            "name:ru": null,
            "name:ar": "أنس كريسا للسفر"
        }
    },
    {
        "lat": 41.0100097,
        "lon": 28.9776519,
        "tags": {
            "addr:city": "Istanbul",
            "addr:district": "Fatih",
            "description": "",
            "opening_hours": null,
            "phone": "0212 511 68 03",
            "branch": null,
            "amenity": "travel_agency",
            "mobile": null,
            "addr:street": "Salkım Söğüt Sokak",
            "cuisine": null,
            "name": "Chora Travel- Estambul Tour",
            "name:en": null,
            "name:uk": null,
            "name:de": null,
            "name:tr": null,
            "name:ru": null,
            "name:ar": null
        }
    },
    {
        "lat": 41.0092102,
        "lon": 28.9782128,
        "tags": {
            "addr:city": "Istanbul",
            "addr:district": "Fatih",
            "description": "",
            "opening_hours": null,
            "phone": "0212 528 98 10",
            "branch": null,
            "amenity": "travel_agency",
            "mobile": null,
            "addr:street": "Alemdar Caddesi",
            "cuisine": null,
            "name": "Walkabout Travel",
            "name:en": null,
            "name:uk": null,
            "name:de": null,
            "name:tr": null,
            "name:ru": null,
            "name:ar": null
        }
    },
    {
        "lat": 41.0095031,
        "lon": 28.9785366,
        "tags": {
            "addr:city": "Istanbul",
            "addr:district": "Fatih",
            "description": "",
            "opening_hours": null,
            "phone": "0212 511 24 14",
            "branch": null,
            "amenity": "travel_agency",
            "mobile": null,
            "addr:street": "Alemdar Caddesi",
            "cuisine": null,
            "name": "Hannaro Travel",
            "name:en": null,
            "name:uk": null,
            "name:de": null,
            "name:tr": null,
            "name:ru": null,
            "name:ar": null
        }
    },
    {
        "lat": 41.0082391,
        "lon": 28.9747449,
        "tags": {
            "addr:city": "Istanbul",
            "addr:district": "Fatih",
            "description": "",
            "opening_hours": null,
            "phone": "0212 519 33 06",
            "branch": null,
            "amenity": "travel_agency",
            "mobile": null,
            "addr:street": "Divan Yolu Caddesi",
            "cuisine": null,
            "name": "Marco Polo Tourism and Travel Agency",
            "name:en": null,
            "name:uk": null,
            "name:de": null,
            "name:tr": null,
            "name:ru": null,
            "name:ar": null
        }
    },
    {
        "lat": 41.0083409,
        "lon": 28.974899,
        "tags": {
            "addr:city": "Istanbul",
            "addr:district": "Fatih",
            "description": "",
            "opening_hours": null,
            "phone": "0536 960 85 04",
            "branch": null,
            "amenity": "travel_agency",
            "mobile": null,
            "addr:street": "Hacı Tahsin Bey Sokak",
            "cuisine": null,
            "name": "Vialand Office Sultan Ahmad",
            "name:en": null,
            "name:uk": null,
            "name:de": null,
            "name:tr": null,
            "name:ru": null,
            "name:ar": null
        }
    },
    {
        "lat": 41.0081922,
        "lon": 28.975144,
        "tags": {
            "addr:city": "Istanbul",
            "addr:district": "Fatih",
            "description": "",
            "opening_hours": null,
            "phone": null,
            "branch": null,
            "amenity": "travel_agency",
            "mobile": null,
            "addr:street": "Divan Yolu Caddesi",
            "cuisine": null,
            "name": "Hop On Hop Off",
            "name:en": null,
            "name:uk": null,
            "name:de": null,
            "name:tr": null,
            "name:ru": null,
            "name:ar": null
        }
    },
    {
        "lat": 41.0097857,
        "lon": 28.9762398,
        "tags": {
            "addr:city": "Istanbul",
            "addr:district": "Fatih",
            "description": "",
            "opening_hours": "Mo-Su 09:00-19:45",
            "phone": "0212 514 02 02",
            "branch": null,
            "amenity": "travel_agency",
            "mobile": null,
            "addr:street": "Çatalçeşme Sokak",
            "cuisine": null,
            "name": "Istanbul Voyage Travel",
            "name:en": null,
            "name:uk": null,
            "name:de": null,
            "name:tr": null,
            "name:ru": null,
            "name:ar": null
        }
    },
    {
        "lat": 41.0097625,
        "lon": 28.9762038,
        "tags": {
            "addr:city": "Istanbul",
            "addr:district": "Fatih",
            "description": "",
            "opening_hours": null,
            "phone": "0212 522 23 30",
            "branch": null,
            "amenity": "travel_agency",
            "mobile": null,
            "addr:street": "Profesör Kazım İsmail Gürkan Caddesi",
            "cuisine": null,
            "name": "ASLYTRAVEL",
            "name:en": null,
            "name:uk": null,
            "name:de": null,
            "name:tr": null,
            "name:ru": null,
            "name:ar": "أصلي ترفل للسفر"
        }
    },
    {
        "lat": 41.0097359,
        "lon": 28.9760735,
        "tags": {
            "addr:city": "Istanbul",
            "addr:district": "Fatih",
            "description": "",
            "opening_hours": null,
            "phone": "0212 296 04 40",
            "branch": null,
            "amenity": "travel_agency",
            "mobile": null,
            "addr:street": "Çatalçeşme Sokak",
            "cuisine": null,
            "name": "Turkey City Tours",
            "name:en": null,
            "name:uk": null,
            "name:de": null,
            "name:tr": null,
            "name:ru": null,
            "name:ar": "توركي سيتي تورز للسياحة و السفر"
        }
    },
    {
        "lat": 41.009633,
        "lon": 28.9761388,
        "tags": {
            "addr:city": "Istanbul",
            "addr:district": "Fatih",
            "description": "",
            "opening_hours": null,
            "phone": "0212 514 02 02",
            "branch": null,
            "amenity": "travel_agency",
            "mobile": null,
            "addr:street": "Çatalçeşme Sokak",
            "cuisine": null,
            "name": "istanbul sightseeing Tours",
            "name:en": null,
            "name:uk": null,
            "name:de": null,
            "name:tr": null,
            "name:ru": null,
            "name:ar": "اسطنبول سايت سينغ تورز للسياحة والسفر"
        }
    },
    {
        "lat": 41.0087629,
        "lon": 28.9743704,
        "tags": {
            "addr:city": "Istanbul",
            "addr:district": "Fatih",
            "description": "",
            "opening_hours": null,
            "phone": "+61 1800 761 192",
            "branch": null,
            "amenity": "travel_agency",
            "mobile": null,
            "addr:street": "Çatalçeşme Sokak",
            "cuisine": null,
            "name": "Turkey Travel Centre",
            "name:en": null,
            "name:uk": null,
            "name:de": null,
            "name:tr": null,
            "name:ru": null,
            "name:ar": null
        }
    },
    {
        "lat": 41.0154883,
        "lon": 28.9320365,
        "tags": {
            "addr:city": "Istanbul",
            "addr:district": "Turkey",
            "description": "",
            "opening_hours": "Mo-sa 09:00-21:00",
            "phone": null,
            "branch": null,
            "amenity": "travel_agency",
            "mobile": null,
            "addr:street": "Börekçi Veli Sokağı",
            "cuisine": null,
            "name": "Metro",
            "name:en": null,
            "name:uk": null,
            "name:de": null,
            "name:tr": null,
            "name:ru": null,
            "name:ar": "ميترو للسياحة"
        }
    },
    {
        "lat": 41.0155996,
        "lon": 28.9316797,
        "tags": {
            "addr:city": "Istanbul",
            "addr:district": "Turkey",
            "description": "",
            "opening_hours": "Mo-sa 09:00-21:00",
            "phone": null,
            "branch": null,
            "amenity": "travel_agency",
            "mobile": null,
            "addr:street": "Börekçi Veli Sokağı",
            "cuisine": null,
            "name": "Pamukkale",
            "name:en": null,
            "name:uk": null,
            "name:de": null,
            "name:tr": null,
            "name:ru": null,
            "name:ar": "باموك كالة للسياحة والسفر"
        }
    },
    {
        "lat": 41.015111,
        "lon": 28.9756707,
        "tags": {
            "addr:city": "Istanbul",
            "addr:district": "Fatih",
            "description": "",
            "opening_hours": null,
            "phone": null,
            "branch": null,
            "amenity": "travel_agency",
            "mobile": null,
            "addr:street": "Ankara caddesi",
            "cuisine": null,
            "name": "Turkish Airlines",
            "name:en": null,
            "name:uk": null,
            "name:de": null,
            "name:tr": null,
            "name:ru": null,
            "name:ar": null
        }
    },
    {
        "lat": 41.0048685,
        "lon": 28.9353168,
        "tags": {
            "addr:city": "Istanbul",
            "addr:district": "Fatih",
            "description": "",
            "opening_hours": null,
            "phone": null,
            "branch": null,
            "amenity": "travel_agency",
            "mobile": null,
            "addr:street": "koca mustafapasa caddesi",
            "cuisine": null,
            "name": "Mng kargo",
            "name:en": null,
            "name:uk": null,
            "name:de": null,
            "name:tr": null,
            "name:ru": null,
            "name:ar": "امج كارجو"
        }
    },
    {
        "lat": 41.0089288,
        "lon": 28.9655828,
        "tags": {
            "addr:city": "Istanbul",
            "addr:district": "Fatih",
            "description": "",
            "opening_hours": null,
            "phone": null,
            "branch": null,
            "amenity": "travel_agency",
            "mobile": null,
            "addr:street": "Biyazit karakol sokak",
            "cuisine": null,
            "name": "Golden bridge",
            "name:en": null,
            "name:uk": null,
            "name:de": null,
            "name:tr": null,
            "name:ru": null,
            "name:ar": "جولدن بريدج"
        }
    },
    {
        "lat": 41.0115529,
        "lon": 28.9592221,
        "tags": {
            "addr:city": "Istanbul",
            "addr:district": "Fatih",
            "description": "",
            "opening_hours": null,
            "phone": null,
            "branch": null,
            "amenity": "travel_agency",
            "mobile": null,
            "addr:street": "Büyük Reşitpaşa Caddesi",
            "cuisine": null,
            "name": "Yazıcılar Turizm",
            "name:en": null,
            "name:uk": null,
            "name:de": null,
            "name:tr": null,
            "name:ru": null,
            "name:ar": null
        }
    },
    {
        "lat": 41.0114883,
        "lon": 28.9584736,
        "tags": {
            "addr:city": "Istanbul",
            "addr:district": "Fatih",
            "description": "",
            "opening_hours": null,
            "phone": null,
            "branch": null,
            "amenity": "travel_agency",
            "mobile": null,
            "addr:street": "Harikzedeler Sokağı",
            "cuisine": null,
            "name": "Celeste Turizm",
            "name:en": null,
            "name:uk": null,
            "name:de": null,
            "name:tr": null,
            "name:ru": null,
            "name:ar": "سيليستا للسياحة والسفر"
        }
    },
    {
        "lat": 41.0111334,
        "lon": 28.9592493,
        "tags": {
            "addr:city": "Istanbul",
            "addr:district": "Fatih",
            "description": "",
            "opening_hours": null,
            "phone": null,
            "branch": null,
            "amenity": "travel_agency",
            "mobile": null,
            "addr:street": "Zeynep Kamil Sokağı",
            "cuisine": null,
            "name": "Güneş Tur",
            "name:en": null,
            "name:uk": null,
            "name:de": null,
            "name:tr": null,
            "name:ru": null,
            "name:ar": "غونيش توريزم للسياحة والسفر"
        }
    },
    {
        "lat": 41.0338473,
        "lon": 28.9464959,
        "tags": {
            "addr:city": "Istanbul",
            "addr:district": "Fatih",
            "description": "",
            "opening_hours": null,
            "phone": null,
            "branch": null,
            "amenity": "travel_agency",
            "mobile": null,
            "addr:street": "Leblebiciler Sokağı",
            "cuisine": null,
            "name": "Inebolu Aksakal Seyahat",
            "name:en": null,
            "name:uk": null,
            "name:de": null,
            "name:tr": null,
            "name:ru": null,
            "name:ar": "انيبولو أكساكال للسياحة"
        }
    },
    {
        "lat": 41.0075599,
        "lon": 28.9517469,
        "tags": {
            "addr:city": "Istanbul",
            "addr:district": "Fatih",
            "description": "",
            "opening_hours": null,
            "phone": null,
            "branch": null,
            "amenity": "travel_agency",
            "mobile": null,
            "addr:street": "Tiryaki hasanpaşa sokağı",
            "cuisine": null,
            "name": "Demir turizm",
            "name:en": null,
            "name:uk": null,
            "name:de": null,
            "name:tr": null,
            "name:ru": null,
            "name:ar": "ديمير للسياحة"
        }
    },
    {
        "lat": 41.008654,
        "lon": 28.9531302,
        "tags": {
            "addr:city": "Istanbul",
            "addr:district": "Fatih",
            "description": "",
            "opening_hours": null,
            "phone": null,
            "branch": null,
            "amenity": "travel_agency",
            "mobile": null,
            "addr:street": "Gazi kemalpaşa caddesi",
            "cuisine": null,
            "name": "travel agency",
            "name:en": null,
            "name:uk": null,
            "name:de": null,
            "name:tr": null,
            "name:ru": null,
            "name:ar": "مكتب سياحة و سفر"
        }
    },
    {
        "lat": 41.0089669,
        "lon": 28.9523842,
        "tags": {
            "addr:city": "Istanbul",
            "addr:district": "Fatih",
            "description": "",
            "opening_hours": null,
            "phone": "02126334940",
            "branch": null,
            "amenity": "travel_agency",
            "mobile": null,
            "addr:street": "Teceddüt sokağı",
            "cuisine": null,
            "name": "Leon turizm",
            "name:en": null,
            "name:uk": null,
            "name:de": null,
            "name:tr": null,
            "name:ru": null,
            "name:ar": "ليون للسياحة"
        }
    },
    {
        "lat": 41.0089801,
        "lon": 28.9521892,
        "tags": {
            "addr:city": "Istanbul",
            "addr:district": "Fatih",
            "description": "",
            "opening_hours": null,
            "phone": "02125300419",
            "branch": null,
            "amenity": "travel_agency",
            "mobile": null,
            "addr:street": "Teceddüt sokağı",
            "cuisine": null,
            "name": "Marina turizm",
            "name:en": null,
            "name:uk": null,
            "name:de": null,
            "name:tr": null,
            "name:ru": null,
            "name:ar": "مارينا للسياحة"
        }
    },
    {
        "lat": 41.0055798,
        "lon": 28.9314271,
        "tags": {
            "addr:city": "Istanbul",
            "addr:district": "Fatih",
            "description": "",
            "opening_hours": null,
            "phone": null,
            "branch": null,
            "amenity": "travel_agency",
            "mobile": null,
            "addr:street": "Kuvayi Milliye Caddesi",
            "cuisine": null,
            "name": "Kamil Koç",
            "name:en": null,
            "name:uk": null,
            "name:de": null,
            "name:tr": null,
            "name:ru": null,
            "name:ar": "كاميل كوتش"
        }
    },
    {
        "lat": 41.0056027,
        "lon": 28.9314716,
        "tags": {
            "addr:city": "Istanbul",
            "addr:district": "Fatih",
            "description": "",
            "opening_hours": null,
            "phone": null,
            "branch": null,
            "amenity": "travel_agency",
            "mobile": null,
            "addr:street": "Kuvayi Milliye Caddesi",
            "cuisine": null,
            "name": "Metro",
            "name:en": null,
            "name:uk": null,
            "name:de": null,
            "name:tr": null,
            "name:ru": null,
            "name:ar": "ميترو"
        }
    },
    {
        "lat": 41.0057237,
        "lon": 28.9309625,
        "tags": {
            "addr:city": "Istanbul",
            "addr:district": "Fatih",
            "description": "",
            "opening_hours": null,
            "phone": null,
            "branch": null,
            "amenity": "travel_agency",
            "mobile": null,
            "addr:street": "Kuvayi Milliye Caddesi",
            "cuisine": null,
            "name": "Jolly Tur",
            "name:en": null,
            "name:uk": null,
            "name:de": null,
            "name:tr": null,
            "name:ru": null,
            "name:ar": "جولي تور"
        }
    },
    {
        "lat": 41.0092038,
        "lon": 28.9540892,
        "tags": {
            "addr:city": "Istanbul",
            "addr:district": "Fatih",
            "description": "",
            "opening_hours": null,
            "phone": null,
            "branch": null,
            "amenity": "travel_agency",
            "mobile": null,
            "addr:street": "Ceylan Sokak",
            "cuisine": null,
            "name": "Aksa Turizm",
            "name:en": null,
            "name:uk": null,
            "name:de": null,
            "name:tr": null,
            "name:ru": null,
            "name:ar": "اكسا توريزم"
        }
    },
    {
        "lat": 41.0090925,
        "lon": 28.9537828,
        "tags": {
            "addr:city": "Istanbul",
            "addr:district": "Fatih",
            "description": "",
            "opening_hours": null,
            "phone": null,
            "branch": null,
            "amenity": "travel_agency",
            "mobile": null,
            "addr:street": "Ceylan Sokak",
            "cuisine": null,
            "name": "Elit Havacılık",
            "name:en": null,
            "name:uk": null,
            "name:de": null,
            "name:tr": null,
            "name:ru": null,
            "name:ar": "ايليت هاواجيليك"
        }
    },
    {
        "lat": 41.0090536,
        "lon": 28.9537985,
        "tags": {
            "addr:city": "Istanbul",
            "addr:district": "Fatih",
            "description": "",
            "opening_hours": null,
            "phone": null,
            "branch": null,
            "amenity": "travel_agency",
            "mobile": null,
            "addr:street": "Gazi Mustafa Kemal Paşa Caddesi",
            "cuisine": null,
            "name": "Turkish Airlines",
            "name:en": null,
            "name:uk": null,
            "name:de": null,
            "name:tr": null,
            "name:ru": null,
            "name:ar": "توركيش ايرلاينز"
        }
    },
    {
        "lat": 41.0081481,
        "lon": 28.9537341,
        "tags": {
            "addr:city": "Istanbul",
            "addr:district": "Fatih",
            "description": "",
            "opening_hours": null,
            "phone": null,
            "branch": null,
            "amenity": "travel_agency",
            "mobile": null,
            "addr:street": "Gazi Mustafa Kemal Paşa Caddesi",
            "cuisine": null,
            "name": "Aldea Tour",
            "name:en": null,
            "name:uk": null,
            "name:de": null,
            "name:tr": null,
            "name:ru": null,
            "name:ar": "الديا تور"
        }
    },
    {
        "lat": 41.0079786,
        "lon": 28.9537387,
        "tags": {
            "addr:city": "Istanbul",
            "addr:district": "Fatih",
            "description": "",
            "opening_hours": null,
            "phone": null,
            "branch": null,
            "amenity": "travel_agency",
            "mobile": null,
            "addr:street": "Gazi Mustafa Kemal Paşa Caddesi",
            "cuisine": null,
            "name": "Abaylar Turizm",
            "name:en": null,
            "name:uk": null,
            "name:de": null,
            "name:tr": null,
            "name:ru": null,
            "name:ar": "ابايلار توريزم"
        }
    },
    {
        "lat": 41.0080192,
        "lon": 28.9537406,
        "tags": {
            "addr:city": "Istanbul",
            "addr:district": "Fatih",
            "description": "",
            "opening_hours": null,
            "phone": null,
            "branch": null,
            "amenity": "travel_agency",
            "mobile": null,
            "addr:street": "Gazi Mustafa Kemal Paşa Caddesi",
            "cuisine": null,
            "name": "Best Paradise Turizm",
            "name:en": null,
            "name:uk": null,
            "name:de": null,
            "name:tr": null,
            "name:ru": null,
            "name:ar": "بيست براديس توريزم"
        }
    },
    {
        "lat": 41.0079444,
        "lon": 28.9537262,
        "tags": {
            "addr:city": "Istanbul",
            "addr:district": "Fatih",
            "description": "",
            "opening_hours": null,
            "phone": null,
            "branch": null,
            "amenity": "travel_agency",
            "mobile": null,
            "addr:street": "Gazi Mustafa Kemal Paşa Caddesi",
            "cuisine": null,
            "name": "Gurbet Turizm",
            "name:en": null,
            "name:uk": null,
            "name:de": null,
            "name:tr": null,
            "name:ru": null,
            "name:ar": "غوربت توريزم"
        }
    },
    {
        "lat": 41.0079655,
        "lon": 28.9537489,
        "tags": {
            "addr:city": "Istanbul",
            "addr:district": "Fatih",
            "description": "",
            "opening_hours": null,
            "phone": null,
            "branch": null,
            "amenity": "travel_agency",
            "mobile": null,
            "addr:street": "Gazi Mustafa Kemal Paşa Caddesi",
            "cuisine": null,
            "name": "UAG United Arab Group",
            "name:en": null,
            "name:uk": null,
            "name:de": null,
            "name:tr": null,
            "name:ru": null,
            "name:ar": "يو آ جي اراب غروب"
        }
    },
    {
        "lat": 41.0078197,
        "lon": 28.9537319,
        "tags": {
            "addr:city": "Istanbul",
            "addr:district": "Fatih",
            "description": "",
            "opening_hours": null,
            "phone": null,
            "branch": null,
            "amenity": "travel_agency",
            "mobile": null,
            "addr:street": "Gazi Mustafa Kemal Paşa Caddesi",
            "cuisine": null,
            "name": "Nart Tour",
            "name:en": null,
            "name:uk": null,
            "name:de": null,
            "name:tr": null,
            "name:ru": null,
            "name:ar": "نارت تور"
        }
    },
    {
        "lat": 41.0074467,
        "lon": 28.9538243,
        "tags": {
            "addr:city": "Istanbul",
            "addr:district": "Fatih",
            "description": "",
            "opening_hours": null,
            "phone": null,
            "branch": null,
            "amenity": "travel_agency",
            "mobile": null,
            "addr:street": "Gazi Mustafa Kemal Paşa Caddesi",
            "cuisine": null,
            "name": "Aeroflot",
            "name:en": null,
            "name:uk": null,
            "name:de": null,
            "name:tr": null,
            "name:ru": null,
            "name:ar": "ايروفلوت"
        }
    },
    {
        "lat": 41.0269211,
        "lon": 28.9327967,
        "tags": {
            "addr:city": "Istanbul",
            "addr:district": "Fatih",
            "description": "",
            "opening_hours": null,
            "phone": null,
            "branch": null,
            "amenity": "travel_agency",
            "mobile": null,
            "addr:street": "Sarmaşık sokak",
            "cuisine": null,
            "name": "Agr tur",
            "name:en": null,
            "name:uk": null,
            "name:de": null,
            "name:tr": null,
            "name:ru": null,
            "name:ar": "Agr tur"
        }
    },
    {
        "lat": 41.0063656,
        "lon": 28.9712056,
        "tags": {
            "addr:city": "Istanbul",
            "addr:district": "Fatih",
            "description": "",
            "opening_hours": null,
            "phone": null,
            "branch": null,
            "amenity": "travel_agency",
            "mobile": null,
            "addr:street": "Göktaş sokak",
            "cuisine": null,
            "name": "The history",
            "name:en": null,
            "name:uk": null,
            "name:de": null,
            "name:tr": null,
            "name:ru": null,
            "name:ar": "ثي هيستوري"
        }
    },
    {
        "lat": 41.0080956,
        "lon": 28.9742459,
        "tags": {
            "addr:city": "Istanbul",
            "addr:district": "Fatih",
            "description": "",
            "opening_hours": null,
            "phone": null,
            "branch": null,
            "amenity": "travel_agency",
            "mobile": null,
            "addr:street": "Işık sokak",
            "cuisine": null,
            "name": "Independent Travel",
            "name:en": null,
            "name:uk": null,
            "name:de": null,
            "name:tr": null,
            "name:ru": null,
            "name:ar": null
        }
    },
    {
        "lat": 41.0070526,
        "lon": 28.9732796,
        "tags": {
            "addr:city": "Istanbul",
            "addr:district": "Fatih",
            "description": "",
            "opening_hours": null,
            "phone": null,
            "branch": null,
            "amenity": "travel_agency",
            "mobile": null,
            "addr:street": "Klodfarer caddesi",
            "cuisine": null,
            "name": "Route",
            "name:en": null,
            "name:uk": null,
            "name:de": null,
            "name:tr": null,
            "name:ru": null,
            "name:ar": "روت"
        }
    },
    {
        "lat": 41.0078444,
        "lon": 28.9735074,
        "tags": {
            "addr:city": "Istanbul",
            "addr:district": "Fatih",
            "description": "Travel Tips Turkey is focused on offering travel managements of the most outstanding quality, consolidating our vitality and excitement, with our years of involvement in the business.",
            "opening_hours": "Mo-Su 09:00-22:00",
            "phone": "+90 212 458 0811",
            "branch": null,
            "amenity": "travel_agency",
            "mobile": null,
            "addr:street": "Klod Farer Caddesi",
            "cuisine": null,
            "name": "Travel Tips Turkey",
            "name:en": null,
            "name:uk": null,
            "name:de": null,
            "name:tr": null,
            "name:ru": null,
            "name:ar": null
        }
    },
    {
        "lat": 41.0069864,
        "lon": 28.9731265,
        "tags": {
            "addr:city": "Istanbul",
            "addr:district": "Fatih",
            "description": "",
            "opening_hours": null,
            "phone": null,
            "branch": null,
            "amenity": "travel_agency",
            "mobile": null,
            "addr:street": "Dostluk yurdu sokak",
            "cuisine": null,
            "name": "İnsider travel",
            "name:en": null,
            "name:uk": null,
            "name:de": null,
            "name:tr": null,
            "name:ru": null,
            "name:ar": "انسايدر ترافيل"
        }
    },
    {
        "lat": 41.0057494,
        "lon": 28.9735709,
        "tags": {
            "addr:city": "Istanbul",
            "addr:district": "Fatih",
            "description": "",
            "opening_hours": null,
            "phone": null,
            "branch": null,
            "amenity": "travel_agency",
            "mobile": null,
            "addr:street": "Üçler sokak",
            "cuisine": null,
            "name": "İstanbul vip travel",
            "name:en": null,
            "name:uk": null,
            "name:de": null,
            "name:tr": null,
            "name:ru": null,
            "name:ar": "اسطانبول ترافل"
        }
    },
    {
        "lat": 41.0056233,
        "lon": 28.9737293,
        "tags": {
            "addr:city": "Istanbul",
            "addr:district": "Fatih",
            "description": "",
            "opening_hours": null,
            "phone": null,
            "branch": null,
            "amenity": "travel_agency",
            "mobile": null,
            "addr:street": "Üçler sokak",
            "cuisine": null,
            "name": "Cnr world",
            "name:en": null,
            "name:uk": null,
            "name:de": null,
            "name:tr": null,
            "name:ru": null,
            "name:ar": "Cnr ورلد"
        }
    },
    {
        "lat": 41.0053595,
        "lon": 28.9744894,
        "tags": {
            "addr:city": "Istanbul",
            "addr:district": "Fatih",
            "description": "",
            "opening_hours": null,
            "phone": null,
            "branch": null,
            "amenity": "travel_agency",
            "mobile": null,
            "addr:street": "Atmeydanı caddesi",
            "cuisine": null,
            "name": "Opos",
            "name:en": null,
            "name:uk": null,
            "name:de": null,
            "name:tr": null,
            "name:ru": null,
            "name:ar": "اوبوس"
        }
    },
    {
        "lat": 41.0095961,
        "lon": 28.9470071,
        "tags": {
            "addr:city": "Istanbul",
            "addr:district": "Fatih",
            "description": "",
            "opening_hours": null,
            "phone": null,
            "branch": null,
            "amenity": "travel_agency",
            "mobile": null,
            "addr:street": "Haseki caddesi",
            "cuisine": null,
            "name": "Jolly",
            "name:en": null,
            "name:uk": null,
            "name:de": null,
            "name:tr": null,
            "name:ru": null,
            "name:ar": "جوللي"
        }
    },
    {
        "lat": 41.0089593,
        "lon": 28.9477173,
        "tags": {
            "addr:city": "Istanbul",
            "addr:district": "Fatih",
            "description": "",
            "opening_hours": null,
            "phone": "02124443119",
            "branch": null,
            "amenity": "travel_agency",
            "mobile": null,
            "addr:street": "Cerrah Paşa Caddesi",
            "cuisine": null,
            "name": "Turkish Airlines",
            "name:en": null,
            "name:uk": null,
            "name:de": null,
            "name:tr": null,
            "name:ru": null,
            "name:ar": "الخطوط الجوية التركية"
        }
    },
    {
        "lat": 41.0110045,
        "lon": 28.9419073,
        "tags": {
            "addr:city": "Istanbul",
            "addr:district": "Turkey",
            "description": "",
            "opening_hours": "08:00-18:00",
            "phone": null,
            "branch": null,
            "amenity": "travel_agency",
            "mobile": null,
            "addr:street": "Turgut özal millet caddesi",
            "cuisine": null,
            "name": "Turk Hava Yolları",
            "name:en": null,
            "name:uk": null,
            "name:de": null,
            "name:tr": null,
            "name:ru": null,
            "name:ar": "الخطوط الجوية التركية"
        }
    },
    {
        "lat": 41.0088705,
        "lon": 28.9377433,
        "tags": {
            "addr:city": "Istanbul",
            "addr:district": "Fatih",
            "description": "",
            "opening_hours": null,
            "phone": "02125861352",
            "branch": null,
            "amenity": "travel_agency",
            "mobile": null,
            "addr:street": "Ahmet hikmet Sokak",
            "cuisine": null,
            "name": "Tek kardeşler",
            "name:en": null,
            "name:uk": null,
            "name:de": null,
            "name:tr": null,
            "name:ru": null,
            "name:ar": "تيك كارديشلار"
        }
    },
    {
        "lat": 41.0289018,
        "lon": 28.9373706,
        "tags": {
            "addr:city": "Istanbul",
            "addr:district": "Fatih",
            "description": "",
            "opening_hours": null,
            "phone": null,
            "branch": null,
            "amenity": "travel_agency",
            "mobile": null,
            "addr:street": "Fevzi paşa Caddesi",
            "cuisine": null,
            "name": "Kıble Turizm",
            "name:en": null,
            "name:uk": null,
            "name:de": null,
            "name:tr": null,
            "name:ru": null,
            "name:ar": "قبلة سياحة"
        }
    },
    {
        "lat": 41.029539,
        "lon": 28.9372805,
        "tags": {
            "addr:city": "Istanbul",
            "addr:district": "Fatih",
            "description": "",
            "opening_hours": null,
            "phone": null,
            "branch": null,
            "amenity": "travel_agency",
            "mobile": null,
            "addr:street": "Fevzi paşa Caddesi",
            "cuisine": null,
            "name": "HFD turizm",
            "name:en": null,
            "name:uk": null,
            "name:de": null,
            "name:tr": null,
            "name:ru": null,
            "name:ar": "ه ف د سياحة"
        }
    },
    {
        "lat": 41.0096109,
        "lon": 28.9788303,
        "tags": {
            "addr:city": "Istanbul",
            "addr:district": "Turkey",
            "description": "",
            "opening_hours": null,
            "phone": null,
            "branch": null,
            "amenity": "travel_agency",
            "mobile": null,
            "addr:street": "Alemdar Caddesi",
            "cuisine": null,
            "name": "Overseas",
            "name:en": null,
            "name:uk": null,
            "name:de": null,
            "name:tr": null,
            "name:ru": null,
            "name:ar": null
        }
    },
    {
        "lat": 41.0133474,
        "lon": 28.9748549,
        "tags": {
            "addr:city": "Istanbul",
            "addr:district": "Turkey",
            "description": "Travel Agency, Tour Operator, Private Tours, Private Guides, Local Experiences, Agencia de Viajes",
            "opening_hours": "Mo-Su 08:30-20:30",
            "phone": "+905447444881",
            "branch": null,
            "amenity": "travel_agency",
            "mobile": null,
            "addr:street": "Ankara Caddesi",
            "cuisine": null,
            "name": "Bonita Tour Travel Agency",
            "name:en": null,
            "name:uk": null,
            "name:de": null,
            "name:tr": null,
            "name:ru": null,
            "name:ar": null
        }
    },
    {
        "lat": 41.0059251,
        "lon": 28.9806032,
        "tags": {
            "addr:city": "Istanbul",
            "addr:district": "Turkey",
            "description": "",
            "opening_hours": null,
            "phone": "02126386344",
            "branch": null,
            "amenity": "travel_agency",
            "mobile": null,
            "addr:street": "Akbıyık Caddesi",
            "cuisine": null,
            "name": "Efendi travel agency",
            "name:en": null,
            "name:uk": null,
            "name:de": null,
            "name:tr": null,
            "name:ru": null,
            "name:ar": null
        }
    },
    {
        "lat": 41.0062622,
        "lon": 28.9810436,
        "tags": {
            "addr:city": "Istanbul",
            "addr:district": "Turkey",
            "description": "",
            "opening_hours": null,
            "phone": null,
            "branch": null,
            "amenity": "travel_agency",
            "mobile": null,
            "addr:street": "Akbıyık Caddesi",
            "cuisine": null,
            "name": "Magic Valley",
            "name:en": null,
            "name:uk": null,
            "name:de": null,
            "name:tr": null,
            "name:ru": null,
            "name:ar": null
        }
    },
    {
        "lat": 41.0049343,
        "lon": 28.9796484,
        "tags": {
            "addr:city": "Istanbul",
            "addr:district": "Turkey",
            "description": "",
            "opening_hours": null,
            "phone": null,
            "branch": null,
            "amenity": "travel_agency",
            "mobile": null,
            "addr:street": "Akbıyık Caddesi",
            "cuisine": null,
            "name": "Denizen Travel",
            "name:en": null,
            "name:uk": null,
            "name:de": null,
            "name:tr": null,
            "name:ru": null,
            "name:ar": null
        }
    },
    {
        "lat": 41.0049374,
        "lon": 28.9793171,
        "tags": {
            "addr:city": "Istanbul",
            "addr:district": "Turkey",
            "description": "",
            "opening_hours": null,
            "phone": null,
            "branch": null,
            "amenity": "travel_agency",
            "mobile": null,
            "addr:street": "Mimar mehmet ağa Caddesi",
            "cuisine": null,
            "name": "Turkish Airlines",
            "name:en": null,
            "name:uk": null,
            "name:de": null,
            "name:tr": null,
            "name:ru": null,
            "name:ar": null
        }
    },
    {
        "lat": 41.0086951,
        "lon": 28.9787176,
        "tags": {
            "addr:city": "Istanbul",
            "addr:district": "Turkey",
            "description": "",
            "opening_hours": null,
            "phone": null,
            "branch": null,
            "amenity": "travel_agency",
            "mobile": null,
            "addr:street": "Alemdar Caddesi",
            "cuisine": null,
            "name": "Road Runner",
            "name:en": null,
            "name:uk": null,
            "name:de": null,
            "name:tr": null,
            "name:ru": null,
            "name:ar": null
        }
    },
    {
        "lat": 41.0061336,
        "lon": 28.9795974,
        "tags": {
            "addr:city": "Istanbul",
            "addr:district": "Fatih",
            "description": "",
            "opening_hours": null,
            "phone": null,
            "branch": null,
            "amenity": "travel_agency",
            "mobile": null,
            "addr:street": "Utangaç Sokak",
            "cuisine": null,
            "name": "Ready travel",
            "name:en": null,
            "name:uk": null,
            "name:de": null,
            "name:tr": null,
            "name:ru": null,
            "name:ar": null
        }
    },
    {
        "lat": 41.0068076,
        "lon": 28.9811423,
        "tags": {
            "addr:city": "Istanbul",
            "addr:district": "Fatih",
            "description": "",
            "opening_hours": null,
            "phone": null,
            "branch": null,
            "amenity": "travel_agency",
            "mobile": null,
            "addr:street": "Kutlugun sokak",
            "cuisine": null,
            "name": "Sky Blue",
            "name:en": null,
            "name:uk": null,
            "name:de": null,
            "name:tr": null,
            "name:ru": null,
            "name:ar": null
        }
    },
    {
        "lat": 41.0068991,
        "lon": 28.9336463,
        "tags": {
            "addr:city": "Istanbul",
            "addr:district": "Fatih",
            "description": "",
            "opening_hours": null,
            "phone": "4440387",
            "branch": null,
            "amenity": "travel_agency",
            "mobile": null,
            "addr:street": "Hekimoğlu Alipaşa Caddesi",
            "cuisine": null,
            "name": "Ets tur",
            "name:en": null,
            "name:uk": null,
            "name:de": null,
            "name:tr": null,
            "name:ru": null,
            "name:ar": "إي تي سي للسياحة"
        }
    },
    {
        "lat": 41.0018016,
        "lon": 28.93237,
        "tags": {
            "addr:city": "Istanbul",
            "addr:district": "Fatih",
            "description": "",
            "opening_hours": null,
            "phone": "05354578525",
            "branch": null,
            "amenity": "travel_agency",
            "mobile": null,
            "addr:street": "Marmara Caddesi",
            "cuisine": null,
            "name": "Mardin Dilmenler",
            "name:en": null,
            "name:uk": null,
            "name:de": null,
            "name:tr": null,
            "name:ru": null,
            "name:ar": "ماردين ديلمنلار"
        }
    },
    {
        "lat": 41.0169599,
        "lon": 28.6276359,
        "tags": {
            "addr:city": "İstanbul",
            "addr:district": "Beylikdüzü",
            "description": "",
            "opening_hours": null,
            "phone": "212 855 33 55",
            "branch": null,
            "amenity": "travel_agency",
            "mobile": null,
            "addr:street": "Beyzade Cad. Keleş Plaza",
            "cuisine": null,
            "name": "Jolly Tur Yetkili Satış Ofisi - Efege Turizm",
            "name:en": null,
            "name:uk": null,
            "name:de": null,
            "name:tr": null,
            "name:ru": null,
            "name:ar": null
        }
    },
    {
        "lat": 41.0211096,
        "lon": 28.9437566,
        "tags": {
            "addr:city": "Istanbul",
            "addr:district": "Turkey",
            "description": "",
            "opening_hours": null,
            "phone": null,
            "branch": null,
            "amenity": "travel_agency",
            "mobile": null,
            "addr:street": "SARIGUZEL cadde",
            "cuisine": null,
            "name": "chanakkale truva",
            "name:en": null,
            "name:uk": null,
            "name:de": null,
            "name:tr": null,
            "name:ru": null,
            "name:ar": "تشاناكالي تروفا"
        }
    },
    {
        "lat": 41.021386,
        "lon": 28.9444253,
        "tags": {
            "addr:city": "Istanbul",
            "addr:district": "Turkey",
            "description": "",
            "opening_hours": null,
            "phone": null,
            "branch": null,
            "amenity": "travel_agency",
            "mobile": null,
            "addr:street": "muhsir sk.",
            "cuisine": null,
            "name": "Louver",
            "name:en": null,
            "name:uk": null,
            "name:de": null,
            "name:tr": null,
            "name:ru": null,
            "name:ar": "اللوفر"
        }
    },
    {
        "lat": 41.0163899,
        "lon": 28.946448,
        "tags": {
            "addr:city": "Istanbul",
            "addr:district": "Turkey",
            "description": "",
            "opening_hours": null,
            "phone": null,
            "branch": null,
            "amenity": "travel_agency",
            "mobile": null,
            "addr:street": "PALIPASA caddesi",
            "cuisine": null,
            "name": "Aljamal health tourism",
            "name:en": null,
            "name:uk": null,
            "name:de": null,
            "name:tr": null,
            "name:ru": null,
            "name:ar": "الجمل للسياحة الطبية"
        }
    },
    {
        "lat": 41.0171863,
        "lon": 28.9496827,
        "tags": {
            "addr:city": "Istanbul",
            "addr:district": "Turkey",
            "description": "",
            "opening_hours": null,
            "phone": null,
            "branch": null,
            "amenity": "travel_agency",
            "mobile": null,
            "addr:street": "FEYZULLAH EFENDI sokak",
            "cuisine": null,
            "name": "Hennes",
            "name:en": null,
            "name:uk": null,
            "name:de": null,
            "name:tr": null,
            "name:ru": null,
            "name:ar": "هنس للحج والعمرة"
        }
    },
    {
        "lat": 41.0190228,
        "lon": 28.9433525,
        "tags": {
            "addr:city": "Istanbul",
            "addr:district": "Turkey",
            "description": "",
            "opening_hours": null,
            "phone": null,
            "branch": null,
            "amenity": "travel_agency",
            "mobile": null,
            "addr:street": "PALIPASA caddesi",
            "cuisine": null,
            "name": "Al Hatim",
            "name:en": null,
            "name:uk": null,
            "name:de": null,
            "name:tr": null,
            "name:ru": null,
            "name:ar": "الحاتم للسياحة والسفر"
        }
    },
    {
        "lat": 41.0154138,
        "lon": 28.9432347,
        "tags": {
            "addr:city": "İstanbul",
            "addr:district": "Fatih",
            "description": "",
            "opening_hours": null,
            "phone": null,
            "branch": null,
            "amenity": "travel_agency",
            "mobile": null,
            "addr:street": "Adnan Menderes Vatan Bulvarı",
            "cuisine": null,
            "name": "Akay Turizm",
            "name:en": null,
            "name:uk": null,
            "name:de": null,
            "name:tr": null,
            "name:ru": null,
            "name:ar": "أكاي للسياحة"
        }
    },
    {
        "lat": 41.0036484,
        "lon": 28.9757963,
        "tags": {
            "addr:city": "Istanbul",
            "addr:district": "Fatih",
            "description": "",
            "opening_hours": null,
            "phone": null,
            "branch": null,
            "amenity": "travel_agency",
            "mobile": null,
            "addr:street": "Kapıağası Sokak",
            "cuisine": null,
            "name": "Sultanahmet Tours",
            "name:en": null,
            "name:uk": null,
            "name:de": null,
            "name:tr": null,
            "name:ru": null,
            "name:ar": "سلتان اهمت تورز"
        }
    },
    {
        "lat": 41.0039391,
        "lon": 28.975506,
        "tags": {
            "addr:city": "Istanbul",
            "addr:district": "Fatih",
            "description": "",
            "opening_hours": null,
            "phone": null,
            "branch": null,
            "amenity": "travel_agency",
            "mobile": null,
            "addr:street": "Şifa Hamamı Sokak",
            "cuisine": null,
            "name": "Tenedos Travel",
            "name:en": null,
            "name:uk": null,
            "name:de": null,
            "name:tr": null,
            "name:ru": null,
            "name:ar": "تينيدوس ترافيل"
        }
    },
    {
        "lat": 41.0038986,
        "lon": 28.9754952,
        "tags": {
            "addr:city": "Istanbul",
            "addr:district": "Fatih",
            "description": "",
            "opening_hours": null,
            "phone": null,
            "branch": null,
            "amenity": "travel_agency",
            "mobile": null,
            "addr:street": "Şifa Hamamı Sokak",
            "cuisine": null,
            "name": "Istanbul Walks",
            "name:en": null,
            "name:uk": null,
            "name:de": null,
            "name:tr": null,
            "name:ru": null,
            "name:ar": "استنبول وولكس"
        }
    },
    {
        "lat": 41.0038779,
        "lon": 28.9692738,
        "tags": {
            "addr:city": "Istanbul",
            "addr:district": "Fatih",
            "description": "",
            "opening_hours": null,
            "phone": null,
            "branch": null,
            "amenity": "travel_agency",
            "mobile": null,
            "addr:street": "Dönüş Sokak",
            "cuisine": null,
            "name": "Jasminne Tour",
            "name:en": null,
            "name:uk": null,
            "name:de": null,
            "name:tr": null,
            "name:ru": null,
            "name:ar": "جاسمين تور"
        }
    },
    {
        "lat": 41.0037542,
        "lon": 28.9733392,
        "tags": {
            "addr:city": "Istanbul",
            "addr:district": "Fatih",
            "description": "",
            "opening_hours": null,
            "phone": null,
            "branch": null,
            "amenity": "travel_agency",
            "mobile": null,
            "addr:street": "Kasap Osman Sokak",
            "cuisine": null,
            "name": "Koçlar Turizm",
            "name:en": null,
            "name:uk": null,
            "name:de": null,
            "name:tr": null,
            "name:ru": null,
            "name:ar": "كوجلار توريزم"
        }
    },
    {
        "lat": 41.0038395,
        "lon": 28.9746683,
        "tags": {
            "addr:city": "Istanbul",
            "addr:district": "Fatih",
            "description": "",
            "opening_hours": null,
            "phone": null,
            "branch": null,
            "amenity": "travel_agency",
            "mobile": null,
            "addr:street": "Gelinlik Sokak",
            "cuisine": null,
            "name": "Led Travel",
            "name:en": null,
            "name:uk": null,
            "name:de": null,
            "name:tr": null,
            "name:ru": null,
            "name:ar": "ليد ترافيل"
        }
    },
    {
        "lat": 41.0030165,
        "lon": 28.9749372,
        "tags": {
            "addr:city": "Istanbul",
            "addr:district": "Fatih",
            "description": "",
            "opening_hours": null,
            "phone": null,
            "branch": null,
            "amenity": "travel_agency",
            "mobile": null,
            "addr:street": "Mustafa Paşa Sokak",
            "cuisine": null,
            "name": "Istanbul Package Tours",
            "name:en": null,
            "name:uk": null,
            "name:de": null,
            "name:tr": null,
            "name:ru": null,
            "name:ar": "اسطنبول باكج تورز"
        }
    },
    {
        "lat": 41.0029527,
        "lon": 28.973879,
        "tags": {
            "addr:city": "Istanbul",
            "addr:district": "Fatih",
            "description": "",
            "opening_hours": null,
            "phone": null,
            "branch": null,
            "amenity": "travel_agency",
            "mobile": null,
            "addr:street": "Aksakal Sokağı",
            "cuisine": null,
            "name": "Ekol Travel",
            "name:en": null,
            "name:uk": null,
            "name:de": null,
            "name:tr": null,
            "name:ru": null,
            "name:ar": "ايكول ترافيل"
        }
    },
    {
        "lat": 41.0036376,
        "lon": 28.9731317,
        "tags": {
            "addr:city": "Istanbul",
            "addr:district": "Fatih",
            "description": "",
            "opening_hours": null,
            "phone": null,
            "branch": null,
            "amenity": "travel_agency",
            "mobile": null,
            "addr:street": "Kaleci Sokağı",
            "cuisine": null,
            "name": "ByCoach Travel",
            "name:en": null,
            "name:uk": null,
            "name:de": null,
            "name:tr": null,
            "name:ru": null,
            "name:ar": "باي كوتش ترافيل"
        }
    },
    {
        "lat": 41.0046173,
        "lon": 28.9711267,
        "tags": {
            "addr:city": "Istanbul",
            "addr:district": "Fatih",
            "description": "",
            "opening_hours": null,
            "phone": null,
            "branch": null,
            "amenity": "travel_agency",
            "mobile": null,
            "addr:street": "Kadırga Limanı Caddesi",
            "cuisine": null,
            "name": "YDN Turizm",
            "name:en": null,
            "name:uk": null,
            "name:de": null,
            "name:tr": null,
            "name:ru": null,
            "name:ar": "يدن توريزم"
        }
    },
    {
        "lat": 41.0048682,
        "lon": 28.9706896,
        "tags": {
            "addr:city": "Istanbul",
            "addr:district": "Fatih",
            "description": "",
            "opening_hours": null,
            "phone": null,
            "branch": null,
            "amenity": "travel_agency",
            "mobile": null,
            "addr:street": "Kadırga Limanı Caddesi",
            "cuisine": null,
            "name": "Allstar Travel",
            "name:en": null,
            "name:uk": null,
            "name:de": null,
            "name:tr": null,
            "name:ru": null,
            "name:ar": "اول ستار ترافيل"
        }
    },
    {
        "lat": 41.0049867,
        "lon": 28.970699,
        "tags": {
            "addr:city": "Istanbul",
            "addr:district": "Fatih",
            "description": "",
            "opening_hours": null,
            "phone": null,
            "branch": null,
            "amenity": "travel_agency",
            "mobile": null,
            "addr:street": "Kadırga Limanı Caddesi",
            "cuisine": null,
            "name": "New Way Travel",
            "name:en": null,
            "name:uk": null,
            "name:de": null,
            "name:tr": null,
            "name:ru": null,
            "name:ar": "نيو واي ترافيل"
        }
    },
    {
        "lat": 41.0096026,
        "lon": 28.9737188,
        "tags": {
            "addr:city": "Istanbul",
            "addr:district": "Fatih",
            "description": "",
            "opening_hours": null,
            "phone": null,
            "branch": null,
            "amenity": "travel_agency",
            "mobile": null,
            "addr:street": "Bab-ı Ali Caddesi",
            "cuisine": null,
            "name": "Doraku Tours",
            "name:en": null,
            "name:uk": null,
            "name:de": null,
            "name:tr": null,
            "name:ru": null,
            "name:ar": "دوراكو تورز"
        }
    },
    {
        "lat": 41.0051867,
        "lon": 28.9645293,
        "tags": {
            "addr:city": "Istanbul",
            "addr:district": "Fatih",
            "description": "",
            "opening_hours": null,
            "phone": null,
            "branch": null,
            "amenity": "travel_agency",
            "mobile": null,
            "addr:street": "Tiyatro Caddesi",
            "cuisine": null,
            "name": "Cristo Turizm",
            "name:en": null,
            "name:uk": null,
            "name:de": null,
            "name:tr": null,
            "name:ru": null,
            "name:ar": "كريستو توريزم"
        }
    },
    {
        "lat": 41.0191303,
        "lon": 28.9681979,
        "tags": {
            "addr:city": "Istanbul",
            "addr:district": "Fatih",
            "description": "",
            "opening_hours": null,
            "phone": null,
            "branch": null,
            "amenity": "travel_agency",
            "mobile": null,
            "addr:street": "Park İçi Yolu",
            "cuisine": null,
            "name": "Masal Gemisi",
            "name:en": null,
            "name:uk": null,
            "name:de": null,
            "name:tr": null,
            "name:ru": null,
            "name:ar": "ماسال غيميسي"
        }
    },
    {
        "lat": 41.0194188,
        "lon": 28.9645363,
        "tags": {
            "addr:city": "Istanbul",
            "addr:district": "Fatih",
            "description": "",
            "opening_hours": null,
            "phone": null,
            "branch": null,
            "amenity": "travel_agency",
            "mobile": null,
            "addr:street": "Ragıp Gümüşpala Caddesi",
            "cuisine": null,
            "name": "Boğaziçi Yatçılık",
            "name:en": null,
            "name:uk": null,
            "name:de": null,
            "name:tr": null,
            "name:ru": null,
            "name:ar": "بوازيجي ياتشيلك"
        }
    },
    {
        "lat": 40.9591761,
        "lon": 29.0947645,
        "tags": {
            "addr:city": "İstanbul",
            "addr:district": "Kadıköy",
            "description": "",
            "opening_hours": null,
            "phone": null,
            "branch": null,
            "amenity": "travel_agency",
            "mobile": null,
            "addr:street": "Şemsettin Günaltay Caddesi",
            "cuisine": null,
            "name": "Ets Tur",
            "name:en": null,
            "name:uk": null,
            "name:de": null,
            "name:tr": null,
            "name:ru": null,
            "name:ar": null
        }
    },
    {
        "lat": 40.9551509,
        "lon": 29.0925949,
        "tags": {
            "addr:city": "İstanbul",
            "addr:district": "Kadıköy",
            "description": "",
            "opening_hours": null,
            "phone": null,
            "branch": null,
            "amenity": "travel_agency",
            "mobile": null,
            "addr:street": "Kasadar Sokak",
            "cuisine": null,
            "name": "Jolly Tur",
            "name:en": null,
            "name:uk": null,
            "name:de": null,
            "name:tr": null,
            "name:ru": null,
            "name:ar": null
        }
    },
    {
        "lat": 40.9554012,
        "lon": 29.0913465,
        "tags": {
            "addr:city": "İstanbul",
            "addr:district": "Kadıköy",
            "description": "",
            "opening_hours": null,
            "phone": null,
            "branch": null,
            "amenity": "travel_agency",
            "mobile": null,
            "addr:street": "Bağdat Caddesi",
            "cuisine": null,
            "name": "Sezon Tur",
            "name:en": null,
            "name:uk": null,
            "name:de": null,
            "name:tr": null,
            "name:ru": null,
            "name:ar": null
        }
    },
    {
        "lat": 40.9620164,
        "lon": 29.0766938,
        "tags": {
            "addr:city": "İstanbul",
            "addr:district": "Kadıköy",
            "description": "",
            "opening_hours": null,
            "phone": null,
            "branch": null,
            "amenity": "travel_agency",
            "mobile": null,
            "addr:street": "Bağdat Caddesi",
            "cuisine": null,
            "name": "ETS Tur",
            "name:en": null,
            "name:uk": null,
            "name:de": null,
            "name:tr": null,
            "name:ru": null,
            "name:ar": null
        }
    },
    {
        "lat": 40.9533275,
        "lon": 29.2824525,
        "tags": {
            "addr:city": "Istanbul",
            "addr:district": "Sultanbeyli",
            "description": "",
            "opening_hours": "Mo-Fr 07:00-13:30; Mo-Fr 17:00-20:00",
            "phone": "05334491158",
            "branch": null,
            "amenity": "travel_agency",
            "mobile": null,
            "addr:street": "Eyyubi caddesi",
            "cuisine": null,
            "name": "Hlsar",
            "name:en": null,
            "name:uk": null,
            "name:de": null,
            "name:tr": null,
            "name:ru": null,
            "name:ar": "هل سار"
        }
    },
    {
        "lat": 40.9734903,
        "lon": 29.2622399,
        "tags": {
            "addr:city": "Istanbul",
            "addr:district": "Sultanbeyli",
            "description": "",
            "opening_hours": "Mo-Fr 07:00-13:30; Mo-Fr 17:00-20:00",
            "phone": null,
            "branch": null,
            "amenity": "travel_agency",
            "mobile": null,
            "addr:street": "Taşkesen Sokağı",
            "cuisine": null,
            "name": "Sultanbeyli NAKLİYAT",
            "name:en": null,
            "name:uk": null,
            "name:de": null,
            "name:tr": null,
            "name:ru": null,
            "name:ar": "سلطان بيلي نقليات"
        }
    },
    {
        "lat": 40.9655284,
        "lon": 29.2718863,
        "tags": {
            "addr:city": "Istanbul",
            "addr:district": "Sultanbeyli",
            "description": "",
            "opening_hours": "Su 09:00-02:00; Mo-Fr 07:00-13:30; Mo-Fr 17:00-20:00",
            "phone": "02164194141",
            "branch": null,
            "amenity": "travel_agency",
            "mobile": null,
            "addr:street": "Erdoğan caddesi",
            "cuisine": null,
            "name": "Sakarya university service",
            "name:en": null,
            "name:uk": null,
            "name:de": null,
            "name:tr": null,
            "name:ru": null,
            "name:ar": "شركة نقل سقاريا"
        }
    },
    {
        "lat": 40.9677562,
        "lon": 29.2654275,
        "tags": {
            "addr:city": "Istanbul",
            "addr:district": "Sultanbeyli",
            "description": "",
            "opening_hours": "24/7",
            "phone": null,
            "branch": null,
            "amenity": "travel_agency",
            "mobile": null,
            "addr:street": "Fatih bulvarı",
            "cuisine": null,
            "name": "Metro turizm",
            "name:en": null,
            "name:uk": null,
            "name:de": null,
            "name:tr": null,
            "name:ru": null,
            "name:ar": "شركة ميترو للنقل"
        }
    },
    {
        "lat": 40.9701616,
        "lon": 29.2601323,
        "tags": {
            "addr:city": "Istanbul",
            "addr:district": "Sultanbeyli",
            "description": "",
            "opening_hours": "Mo-Fr 07:00-13:30; Mo-Fr 17:00-20:00",
            "phone": "02164197440",
            "branch": null,
            "amenity": "travel_agency",
            "mobile": null,
            "addr:street": "emir Caddesi",
            "cuisine": null,
            "name": "Likapa turizm seyahat acentasi",
            "name:en": null,
            "name:uk": null,
            "name:de": null,
            "name:tr": null,
            "name:ru": null,
            "name:ar": "مكتب سياحة وسفر ليكاب"
        }
    },
    {
        "lat": 40.9711225,
        "lon": 29.2579903,
        "tags": {
            "addr:city": "Istanbul",
            "addr:district": "Sultanbeyli",
            "description": "",
            "opening_hours": "Mo-Fr 07:00-13:30; Mo-Fr 17:00-20:00",
            "phone": "05497818664",
            "branch": null,
            "amenity": "travel_agency",
            "mobile": null,
            "addr:street": "Atatürk Caddesi",
            "cuisine": null,
            "name": "Aras kargo",
            "name:en": null,
            "name:uk": null,
            "name:de": null,
            "name:tr": null,
            "name:ru": null,
            "name:ar": "شركة شحن اراس"
        }
    },
    {
        "lat": 40.9396503,
        "lon": 29.2936815,
        "tags": {
            "addr:city": "Istanbul",
            "addr:district": "Sultanbeyli",
            "description": "",
            "opening_hours": null,
            "phone": "05303495599",
            "branch": null,
            "amenity": "travel_agency",
            "mobile": null,
            "addr:street": "Saruhan Sokağı",
            "cuisine": null,
            "name": "Ergüler",
            "name:en": null,
            "name:uk": null,
            "name:de": null,
            "name:tr": null,
            "name:ru": null,
            "name:ar": "(مكتب ليساحه وسفر)ايركولار"
        }
    },
    {
        "lat": 41.0078369,
        "lon": 28.973497,
        "tags": {
            "addr:city": "Istanbul",
            "addr:district": "Fatih",
            "description": "As Turkey & Tours Travel, we mostly provide private Turkey tours, Turkey tour packages, tailor-made Turkey tour options to our customers for them to discover Turkey.",
            "opening_hours": "24/7",
            "phone": "+90 532 261 5265",
            "branch": null,
            "amenity": "travel_agency",
            "mobile": null,
            "addr:street": "Klod Farer Caddesi",
            "cuisine": null,
            "name": "Turkey Tours and Travel",
            "name:en": null,
            "name:uk": null,
            "name:de": null,
            "name:tr": "Türkiye Turları ve Seyahat",
            "name:ru": null,
            "name:ar": null
        }
    },
    {
        "lat": 41.035826,
        "lon": 28.9834233,
        "tags": {
            "addr:city": "İstanbul",
            "addr:district": null,
            "description": "",
            "opening_hours": null,
            "phone": null,
            "branch": null,
            "amenity": "bureau_de_change",
            "mobile": null,
            "addr:street": null,
            "cuisine": null,
            "name": "King Travel",
            "name:en": null,
            "name:uk": null,
            "name:de": null,
            "name:tr": null,
            "name:ru": null,
            "name:ar": null
        }
    },
    {
        "lat": 40.9984236,
        "lon": 28.9048158,
        "tags": {
            "addr:city": "Istanbul",
            "addr:district": "Zeytinburnu",
            "description": "",
            "opening_hours": "Mo-Sa 09:00-18:00",
            "phone": null,
            "branch": null,
            "amenity": "travel_agency",
            "mobile": null,
            "addr:street": null,
            "cuisine": null,
            "name": "İstanbul seyahat",
            "name:en": null,
            "name:uk": null,
            "name:de": null,
            "name:tr": null,
            "name:ru": null,
            "name:ar": "وكالة سفريات اسطنبول سياحات"
        }
    },
    {
        "lat": 40.999253,
        "lon": 28.9115511,
        "tags": {
            "addr:city": "Istanbul",
            "addr:district": "Zeytinburnu",
            "description": "",
            "opening_hours": null,
            "phone": null,
            "branch": null,
            "amenity": "travel_agency",
            "mobile": null,
            "addr:street": null,
            "cuisine": null,
            "name": "BİLY TURİZİM",
            "name:en": null,
            "name:uk": null,
            "name:de": null,
            "name:tr": null,
            "name:ru": null,
            "name:ar": "شركة سياحية"
        }
    },
    {
        "lat": 40.9911479,
        "lon": 28.9033718,
        "tags": {
            "addr:city": "Istanbul",
            "addr:district": "Zeytinburnu",
            "description": "",
            "opening_hours": "Mo-Su 09:00-20:00",
            "phone": null,
            "branch": null,
            "amenity": "travel_agency",
            "mobile": null,
            "addr:street": null,
            "cuisine": null,
            "name": "Uludağ Travel Agency",
            "name:en": null,
            "name:uk": null,
            "name:de": null,
            "name:tr": null,
            "name:ru": null,
            "name:ar": "وكالة سفريات اولوداغ"
        }
    },
    {
        "lat": 40.9911499,
        "lon": 28.9034689,
        "tags": {
            "addr:city": "Istanbul",
            "addr:district": "Zeytinburnu",
            "description": "",
            "opening_hours": "Mo-Su 09:00-19:00",
            "phone": null,
            "branch": null,
            "amenity": "travel_agency",
            "mobile": null,
            "addr:street": null,
            "cuisine": null,
            "name": "Server Turizm",
            "name:en": null,
            "name:uk": null,
            "name:de": null,
            "name:tr": null,
            "name:ru": null,
            "name:ar": "وكالة سفريات سيرفر توريزم"
        }
    },
    {
        "lat": 40.9882525,
        "lon": 28.9070905,
        "tags": {
            "addr:city": "Istanbul",
            "addr:district": "Zeytinburnu",
            "description": "",
            "opening_hours": null,
            "phone": null,
            "branch": null,
            "amenity": "travel_agency",
            "mobile": null,
            "addr:street": "45/2 Sokak",
            "cuisine": null,
            "name": "Jolly",
            "name:en": null,
            "name:uk": null,
            "name:de": null,
            "name:tr": null,
            "name:ru": null,
            "name:ar": "جولي"
        }
    },
    {
        "lat": 40.9964161,
        "lon": 28.897073,
        "tags": {
            "addr:city": "Istanbul",
            "addr:district": "Zeytinburnu",
            "description": "",
            "opening_hours": null,
            "phone": null,
            "branch": null,
            "amenity": "travel_agency",
            "mobile": null,
            "addr:street": "Ahmet yesevi sokak",
            "cuisine": null,
            "name": "Metro",
            "name:en": null,
            "name:uk": null,
            "name:de": null,
            "name:tr": null,
            "name:ru": null,
            "name:ar": "مكتب سياحة وسفر"
        }
    },
    {
        "lat": 40.9940137,
        "lon": 28.8982739,
        "tags": {
            "addr:city": "Istanbul",
            "addr:district": "Zeytinburnu",
            "description": "",
            "opening_hours": null,
            "phone": null,
            "branch": null,
            "amenity": "travel_agency",
            "mobile": null,
            "addr:street": "74. sok.",
            "cuisine": null,
            "name": "Türk hava yolları",
            "name:en": null,
            "name:uk": null,
            "name:de": null,
            "name:tr": null,
            "name:ru": null,
            "name:ar": "خطوط الطيران التركية"
        }
    },
    {
        "lat": 40.9949458,
        "lon": 28.8953528,
        "tags": {
            "addr:city": "Istanbul",
            "addr:district": "Zeytinburnu",
            "description": "",
            "opening_hours": null,
            "phone": null,
            "branch": null,
            "amenity": "travel_agency",
            "mobile": null,
            "addr:street": "Prof. Dr.turan Güneş Caddesi",
            "cuisine": null,
            "name": "Baha turizm",
            "name:en": null,
            "name:uk": null,
            "name:de": null,
            "name:tr": null,
            "name:ru": null,
            "name:ar": "باها للسياحة والسفر"
        }
    },
    {
        "lat": 40.9908462,
        "lon": 28.903535,
        "tags": {
            "addr:city": "Istanbul",
            "addr:district": "Zeytinburnu",
            "description": "",
            "opening_hours": "Mo-Su 09:00-18:00",
            "phone": "546 20 06",
            "branch": null,
            "amenity": "travel_agency",
            "mobile": null,
            "addr:street": null,
            "cuisine": null,
            "name": "Tatil Keyfi",
            "name:en": null,
            "name:uk": null,
            "name:de": null,
            "name:tr": null,
            "name:ru": null,
            "name:ar": "تعطيل على كيفك"
        }
    },
    {
        "lat": 40.9958748,
        "lon": 28.9025612,
        "tags": {
            "addr:city": "Istanbul",
            "addr:district": "Zeytinburnu",
            "description": "",
            "opening_hours": null,
            "phone": null,
            "branch": null,
            "amenity": "travel_agency",
            "mobile": null,
            "addr:street": "Semiha şakir caddesi",
            "cuisine": null,
            "name": "Türk hava yolları ofisi",
            "name:en": null,
            "name:uk": null,
            "name:de": null,
            "name:tr": null,
            "name:ru": null,
            "name:ar": "مكتب الخطوط التركية"
        }
    },
    {
        "lat": 40.9883956,
        "lon": 28.9046054,
        "tags": {
            "addr:city": "Istanbul",
            "addr:district": "Zeytinburnu",
            "description": "",
            "opening_hours": null,
            "phone": null,
            "branch": null,
            "amenity": "travel_agency",
            "mobile": null,
            "addr:street": "50 Sokak",
            "cuisine": null,
            "name": "Turkish Airlines",
            "name:en": null,
            "name:uk": null,
            "name:de": null,
            "name:tr": null,
            "name:ru": null,
            "name:ar": "تركش اير لاينز"
        }
    },
    {
        "lat": 41.0476387,
        "lon": 28.8456505,
        "tags": {
            "addr:city": "Istanbul",
            "addr:district": "Bağcılar",
            "description": "",
            "opening_hours": null,
            "phone": null,
            "branch": null,
            "amenity": "travel_agency",
            "mobile": null,
            "addr:street": "Velioğlu caddesi",
            "cuisine": null,
            "name": "Bekiran",
            "name:en": null,
            "name:uk": null,
            "name:de": null,
            "name:tr": null,
            "name:ru": null,
            "name:ar": "بيكيران"
        }
    },
    {
        "lat": 41.0539121,
        "lon": 28.8495426,
        "tags": {
            "addr:city": "Istanbul",
            "addr:district": "Zeytinburnu",
            "description": "",
            "opening_hours": null,
            "phone": null,
            "branch": null,
            "amenity": "travel_agency",
            "mobile": null,
            "addr:street": null,
            "cuisine": null,
            "name": "Metro",
            "name:en": null,
            "name:uk": null,
            "name:de": null,
            "name:tr": null,
            "name:ru": null,
            "name:ar": "ميترو"
        }
    },
    {
        "lat": 41.0531158,
        "lon": 28.8494177,
        "tags": {
            "addr:city": "Istanbul",
            "addr:district": "Zeytinburnu",
            "description": "",
            "opening_hours": null,
            "phone": null,
            "branch": null,
            "amenity": "travel_agency",
            "mobile": null,
            "addr:street": null,
            "cuisine": null,
            "name": "İSTANBUL SEYAHAT",
            "name:en": null,
            "name:uk": null,
            "name:de": null,
            "name:tr": null,
            "name:ru": null,
            "name:ar": "شركة سياحية"
        }
    },
    {
        "lat": 41.0222517,
        "lon": 28.8233685,
        "tags": {
            "addr:city": "Istanbul",
            "addr:district": "Bağcılar",
            "description": "",
            "opening_hours": null,
            "phone": null,
            "branch": null,
            "amenity": "travel_agency",
            "mobile": null,
            "addr:street": "Mimar sinan caddesi",
            "cuisine": null,
            "name": "Hisar",
            "name:en": null,
            "name:uk": null,
            "name:de": null,
            "name:tr": null,
            "name:ru": null,
            "name:ar": "هسار"
        }
    },
    {
        "lat": 41.0314932,
        "lon": 28.823228,
        "tags": {
            "addr:city": "Istanbul",
            "addr:district": "Bağcılar",
            "description": "",
            "opening_hours": null,
            "phone": null,
            "branch": null,
            "amenity": "travel_agency",
            "mobile": null,
            "addr:street": "Koçman Caddesi",
            "cuisine": null,
            "name": "Alper",
            "name:en": null,
            "name:uk": null,
            "name:de": null,
            "name:tr": null,
            "name:ru": null,
            "name:ar": "البر"
        }
    },
    {
        "lat": 41.0431822,
        "lon": 28.8440904,
        "tags": {
            "addr:city": "Istanbul",
            "addr:district": "Bağcılar",
            "description": "",
            "opening_hours": null,
            "phone": null,
            "branch": null,
            "amenity": "travel_agency",
            "mobile": null,
            "addr:street": "Bagcilar Asf caddesi",
            "cuisine": null,
            "name": "Ani tur",
            "name:en": null,
            "name:uk": null,
            "name:de": null,
            "name:tr": null,
            "name:ru": null,
            "name:ar": "اني تور"
        }
    },
    {
        "lat": 41.031379,
        "lon": 28.8561825,
        "tags": {
            "addr:city": "Istanbul",
            "addr:district": "Bağcılar",
            "description": "",
            "opening_hours": null,
            "phone": null,
            "branch": null,
            "amenity": "travel_agency",
            "mobile": null,
            "addr:street": "Bağcılar caddesi",
            "cuisine": null,
            "name": "Tatilidir.com",
            "name:en": null,
            "name:uk": null,
            "name:de": null,
            "name:tr": null,
            "name:ru": null,
            "name:ar": "وكالة سياحة وسفر"
        }
    },
    {
        "lat": 41.0256497,
        "lon": 28.8499302,
        "tags": {
            "addr:city": "Istanbul",
            "addr:district": "Bağcılar",
            "description": "",
            "opening_hours": null,
            "phone": null,
            "branch": null,
            "amenity": "travel_agency",
            "mobile": null,
            "addr:street": "Şehit Yılmaz Kaan Caddesi",
            "cuisine": null,
            "name": "Pehlivan oğlu seyahat",
            "name:en": null,
            "name:uk": null,
            "name:de": null,
            "name:tr": null,
            "name:ru": null,
            "name:ar": "بهلوان أوغلو للسياحة والسفر"
        }
    },
    {
        "lat": 41.0317788,
        "lon": 28.8559865,
        "tags": {
            "addr:city": "Istanbul",
            "addr:district": "Bağcılar",
            "description": "",
            "opening_hours": null,
            "phone": null,
            "branch": null,
            "amenity": "travel_agency",
            "mobile": null,
            "addr:street": "29. sokak",
            "cuisine": null,
            "name": "Türk hava yolları",
            "name:en": null,
            "name:uk": null,
            "name:de": null,
            "name:tr": null,
            "name:ru": null,
            "name:ar": "مكتب خطوط الطيران التركية"
        }
    },
    {
        "lat": 41.0351521,
        "lon": 28.9810504,
        "tags": {
            "addr:city": "İstanbul",
            "addr:district": null,
            "description": "",
            "opening_hours": null,
            "phone": null,
            "branch": null,
            "amenity": "travel_agency",
            "mobile": null,
            "addr:street": null,
            "cuisine": null,
            "name": "Iyi tour",
            "name:en": null,
            "name:uk": null,
            "name:de": null,
            "name:tr": null,
            "name:ru": null,
            "name:ar": null
        }
    },
    {
        "lat": 41.041457,
        "lon": 28.8940636,
        "tags": {
            "addr:city": "İstanbul",
            "addr:district": null,
            "description": "",
            "opening_hours": null,
            "phone": null,
            "branch": null,
            "amenity": "travel_agency",
            "mobile": null,
            "addr:street": null,
            "cuisine": null,
            "name": "Kamil Koç",
            "name:en": null,
            "name:uk": null,
            "name:de": null,
            "name:tr": "Kamil Koç",
            "name:ru": null,
            "name:ar": null
        }
    },
    {
        "lat": 41.0732427,
        "lon": 28.9047287,
        "tags": {
            "addr:city": "İstanbul",
            "addr:district": null,
            "description": "",
            "opening_hours": null,
            "phone": null,
            "branch": null,
            "amenity": "travel_agency",
            "mobile": null,
            "addr:street": null,
            "cuisine": null,
            "name": "Inebolu Aksakal Seyahat",
            "name:en": null,
            "name:uk": null,
            "name:de": null,
            "name:tr": null,
            "name:ru": null,
            "name:ar": null
        }
    },
    {
        "lat": 41.0005921,
        "lon": 28.797404,
        "tags": {
            "addr:city": "İstanbul",
            "addr:district": null,
            "description": "",
            "opening_hours": null,
            "phone": null,
            "branch": null,
            "amenity": "travel_agency",
            "mobile": null,
            "addr:street": null,
            "cuisine": null,
            "name": "Efetur",
            "name:en": null,
            "name:uk": null,
            "name:de": null,
            "name:tr": null,
            "name:ru": null,
            "name:ar": null
        }
    },
    {
        "lat": 40.9784131,
        "lon": 29.046511,
        "tags": {
            "addr:city": "İstanbul",
            "addr:district": null,
            "description": "",
            "opening_hours": null,
            "phone": null,
            "branch": null,
            "amenity": "travel_agency",
            "mobile": null,
            "addr:street": null,
            "cuisine": null,
            "name": "Kappa Tur",
            "name:en": null,
            "name:uk": null,
            "name:de": null,
            "name:tr": null,
            "name:ru": null,
            "name:ar": null
        }
    },
    {
        "lat": 41.0004303,
        "lon": 28.7985905,
        "tags": {
            "addr:city": "İstanbul",
            "addr:district": null,
            "description": "",
            "opening_hours": null,
            "phone": null,
            "branch": null,
            "amenity": "travel_agency",
            "mobile": null,
            "addr:street": null,
            "cuisine": null,
            "name": "İstanbul Seyahat",
            "name:en": null,
            "name:uk": null,
            "name:de": null,
            "name:tr": null,
            "name:ru": null,
            "name:ar": null
        }
    },
    {
        "lat": 41.038187,
        "lon": 28.9835382,
        "tags": {
            "addr:city": "İstanbul",
            "addr:district": null,
            "description": "",
            "opening_hours": null,
            "phone": null,
            "branch": null,
            "amenity": "travel_agency",
            "mobile": null,
            "addr:street": null,
            "cuisine": null,
            "name": "Bas si tours",
            "name:en": null,
            "name:uk": null,
            "name:de": null,
            "name:tr": null,
            "name:ru": null,
            "name:ar": null
        }
    },
    {
        "lat": 41.0064532,
        "lon": 28.9472521,
        "tags": {
            "addr:city": "İstanbul",
            "addr:district": null,
            "description": "",
            "opening_hours": null,
            "phone": "+902125869908",
            "branch": null,
            "amenity": "travel_agency",
            "mobile": null,
            "addr:street": null,
            "cuisine": null,
            "name": "Perla turizm",
            "name:en": null,
            "name:uk": null,
            "name:de": null,
            "name:tr": null,
            "name:ru": null,
            "name:ar": null
        }
    },
    {
        "lat": 40.8820311,
        "lon": 29.2339913,
        "tags": {
            "addr:city": "İstanbul",
            "addr:district": null,
            "description": "",
            "opening_hours": null,
            "phone": null,
            "branch": null,
            "amenity": "travel_agency",
            "mobile": null,
            "addr:street": null,
            "cuisine": null,
            "name": "Çakıroğlu Mertcan Turizm",
            "name:en": null,
            "name:uk": null,
            "name:de": null,
            "name:tr": null,
            "name:ru": null,
            "name:ar": null
        }
    },
    {
        "lat": 40.8824398,
        "lon": 29.2340673,
        "tags": {
            "addr:city": "İstanbul",
            "addr:district": null,
            "description": "",
            "opening_hours": null,
            "phone": null,
            "branch": null,
            "amenity": "travel_agency",
            "mobile": null,
            "addr:street": null,
            "cuisine": null,
            "name": "Söztur Turizm",
            "name:en": null,
            "name:uk": null,
            "name:de": null,
            "name:tr": null,
            "name:ru": null,
            "name:ar": null
        }
    },
    {
        "lat": 41.0350397,
        "lon": 28.9880618,
        "tags": {
            "addr:city": "İstanbul",
            "addr:district": null,
            "description": "",
            "opening_hours": null,
            "phone": null,
            "branch": null,
            "amenity": "travel_agency",
            "mobile": null,
            "addr:street": null,
            "cuisine": null,
            "name": "Pamukkale Turizm",
            "name:en": null,
            "name:uk": null,
            "name:de": null,
            "name:tr": null,
            "name:ru": null,
            "name:ar": null
        }
    },
    {
        "lat": 41.1406463,
        "lon": 29.0871473,
        "tags": {
            "addr:city": "İstanbul",
            "addr:district": null,
            "description": "",
            "opening_hours": null,
            "phone": null,
            "branch": null,
            "amenity": "travel_agency",
            "mobile": null,
            "addr:street": null,
            "cuisine": null,
            "name": "Metro",
            "name:en": null,
            "name:uk": null,
            "name:de": null,
            "name:tr": null,
            "name:ru": null,
            "name:ar": null
        }
    },
    {
        "lat": 41.0496792,
        "lon": 28.9882262,
        "tags": {
            "addr:city": "İstanbul",
            "addr:district": null,
            "description": "",
            "opening_hours": null,
            "phone": null,
            "branch": null,
            "amenity": "travel_agency",
            "mobile": null,
            "addr:street": null,
            "cuisine": null,
            "name": null,
            "name:en": null,
            "name:uk": null,
            "name:de": null,
            "name:tr": null,
            "name:ru": null,
            "name:ar": null
        }
    },
    {
        "lat": 41.0414979,
        "lon": 28.9869891,
        "tags": {
            "addr:city": "İstanbul",
            "addr:district": null,
            "description": "",
            "opening_hours": null,
            "phone": null,
            "branch": null,
            "amenity": "travel_agency",
            "mobile": null,
            "addr:street": null,
            "cuisine": null,
            "name": "Lady Travel",
            "name:en": null,
            "name:uk": null,
            "name:de": null,
            "name:tr": null,
            "name:ru": null,
            "name:ar": null
        }
    },
    {
        "lat": 41.0428451,
        "lon": 28.9868347,
        "tags": {
            "addr:city": "İstanbul",
            "addr:district": null,
            "description": "",
            "opening_hours": null,
            "phone": null,
            "branch": null,
            "amenity": "travel_agency",
            "mobile": null,
            "addr:street": null,
            "cuisine": null,
            "name": "Turkish Airlines",
            "name:en": null,
            "name:uk": null,
            "name:de": null,
            "name:tr": null,
            "name:ru": null,
            "name:ar": null
        }
    },
    {
        "lat": 41.0477048,
        "lon": 28.9869966,
        "tags": {
            "addr:city": "İstanbul",
            "addr:district": null,
            "description": "",
            "opening_hours": null,
            "phone": null,
            "branch": null,
            "amenity": "travel_agency",
            "mobile": null,
            "addr:street": null,
            "cuisine": null,
            "name": "Travelzone",
            "name:en": null,
            "name:uk": null,
            "name:de": null,
            "name:tr": null,
            "name:ru": null,
            "name:ar": null
        }
    },
    {
        "lat": 41.0474603,
        "lon": 28.9869275,
        "tags": {
            "addr:city": "İstanbul",
            "addr:district": null,
            "description": "",
            "opening_hours": null,
            "phone": null,
            "branch": null,
            "amenity": "travel_agency",
            "mobile": null,
            "addr:street": null,
            "cuisine": null,
            "name": "Coraltravel",
            "name:en": null,
            "name:uk": null,
            "name:de": null,
            "name:tr": null,
            "name:ru": null,
            "name:ar": null
        }
    },
    {
        "lat": 41.047353,
        "lon": 28.9869001,
        "tags": {
            "addr:city": "İstanbul",
            "addr:district": null,
            "description": "",
            "opening_hours": null,
            "phone": null,
            "branch": null,
            "amenity": "travel_agency",
            "mobile": null,
            "addr:street": null,
            "cuisine": null,
            "name": "Ets tur",
            "name:en": null,
            "name:uk": null,
            "name:de": null,
            "name:tr": null,
            "name:ru": null,
            "name:ar": null
        }
    },
    {
        "lat": 40.974242,
        "lon": 29.0369404,
        "tags": {
            "addr:city": "İstanbul",
            "addr:district": null,
            "description": "",
            "opening_hours": "Mo-Su 08:00-23:00",
            "phone": "+905309767646",
            "branch": null,
            "amenity": "travel_agency",
            "mobile": null,
            "addr:street": "Münir Nürettin Selçuk Caddesi",
            "cuisine": null,
            "name": "Lotus Yat Kiralama",
            "name:en": "Lotus Yacht Rental",
            "name:uk": null,
            "name:de": null,
            "name:tr": null,
            "name:ru": null,
            "name:ar": null
        }
    },
    {
        "lat": 41.0250604,
        "lon": 29.0191857,
        "tags": {
            "addr:city": "Istanbul",
            "addr:district": "Üsküdar",
            "description": "Avrupa Rüyası, Türsab üyesi A sınıfı seyahat acentedir. Otobüsle Avrupa turu, Kuzey Avrupa turu, Büyük Britanya turu, Balkan turu seçenekleri mevcuttur. Detaylı bilgi için www.avruparuyasi.com.tr ve 0850 840 1806 nolu telefondan bilgi alabilirsiniz.",
            "opening_hours": "Mo-Sa 09:30-18:30",
            "phone": "+9008508401806",
            "branch": null,
            "amenity": "travel_agency",
            "mobile": null,
            "addr:street": "Selmani Pak Caddesi",
            "cuisine": null,
            "name": "Avrupa Rüyası",
            "name:en": null,
            "name:uk": null,
            "name:de": null,
            "name:tr": null,
            "name:ru": null,
            "name:ar": null
        }
    },
    {
        "lat": 41.0638444,
        "lon": 28.6874182,
        "tags": {
            "addr:city": "İstanbul",
            "addr:district": null,
            "description": "",
            "opening_hours": null,
            "phone": null,
            "branch": null,
            "amenity": "travel_agency",
            "mobile": null,
            "addr:street": null,
            "cuisine": null,
            "name": "Turkish Airlines",
            "name:en": null,
            "name:uk": null,
            "name:de": null,
            "name:tr": null,
            "name:ru": null,
            "name:ar": null
        }
    },
    {
        "lat": 41.1156892,
        "lon": 28.9982157,
        "tags": {
            "addr:city": "İstanbul",
            "addr:district": null,
            "description": "",
            "opening_hours": null,
            "phone": null,
            "branch": null,
            "amenity": "travel_agency",
            "mobile": null,
            "addr:street": null,
            "cuisine": null,
            "name": "Öz Günaylar Turizm",
            "name:en": null,
            "name:uk": null,
            "name:de": null,
            "name:tr": null,
            "name:ru": null,
            "name:ar": null
        }
    },
    {
        "lat": 40.9921629,
        "lon": 28.8449887,
        "tags": {
            "addr:city": "İstanbul",
            "addr:district": null,
            "description": "",
            "opening_hours": null,
            "phone": null,
            "branch": null,
            "amenity": "travel_agency",
            "mobile": null,
            "addr:street": null,
            "cuisine": null,
            "name": "Aydın Sarı Turizm",
            "name:en": null,
            "name:uk": null,
            "name:de": null,
            "name:tr": null,
            "name:ru": null,
            "name:ar": null
        }
    },
    {
        "lat": 41.0377783,
        "lon": 28.9839519,
        "tags": {
            "addr:city": "İstanbul",
            "addr:district": null,
            "description": "",
            "opening_hours": "Mo-Sa 09:00-19:00",
            "phone": null,
            "branch": null,
            "amenity": "travel_agency",
            "mobile": null,
            "addr:street": null,
            "cuisine": null,
            "name": "Pegasus Airlines Ticket Sales & Change Office",
            "name:en": null,
            "name:uk": null,
            "name:de": null,
            "name:tr": null,
            "name:ru": null,
            "name:ar": null
        }
    },
    {
        "lat": 41.0140782,
        "lon": 28.9783517,
        "tags": {
            "addr:city": "Istanbul",
            "addr:district": "Fatih",
            "description": "",
            "opening_hours": null,
            "phone": "+905356101001",
            "branch": null,
            "amenity": "travel_agency",
            "mobile": null,
            "addr:street": "Darüssade Sokağı",
            "cuisine": null,
            "name": "Rock Town Travel",
            "name:en": null,
            "name:uk": null,
            "name:de": null,
            "name:tr": null,
            "name:ru": null,
            "name:ar": null
        }
    },
    {
        "lat": 41.0086407,
        "lon": 29.2138937,
        "tags": {
            "addr:city": "İstanbul",
            "addr:district": null,
            "description": "",
            "opening_hours": null,
            "phone": null,
            "branch": null,
            "amenity": "travel_agency",
            "mobile": null,
            "addr:street": null,
            "cuisine": null,
            "name": "Turkish Airlines",
            "name:en": null,
            "name:uk": null,
            "name:de": null,
            "name:tr": null,
            "name:ru": null,
            "name:ar": null
        }
    },
    {
        "lat": 41.0156306,
        "lon": 28.9724456,
        "tags": {
            "addr:city": "İstanbul",
            "addr:district": null,
            "description": "",
            "opening_hours": "24/7",
            "phone": "05353856447",
            "branch": null,
            "amenity": "travel_agency",
            "mobile": null,
            "addr:street": "Rahvancı Sokağı",
            "cuisine": null,
            "name": "Havalimanı Transferi VIP ve Taksi",
            "name:en": "Airport Transfer VIP and Taxi",
            "name:uk": null,
            "name:de": "Flughafentransfer VIP und Taxi",
            "name:tr": null,
            "name:ru": "Transfer lotniskowy VIP i taksówka",
            "name:ar": "نقل المطار VIP وسيارات الأجرة"
        }
    },
    {
        "lat": 41.0849257,
        "lon": 28.9070866,
        "tags": {
            "addr:city": "İstanbul",
            "addr:district": null,
            "description": "",
            "opening_hours": null,
            "phone": null,
            "branch": null,
            "amenity": "travel_agency",
            "mobile": null,
            "addr:street": null,
            "cuisine": null,
            "name": "Baltur",
            "name:en": null,
            "name:uk": null,
            "name:de": null,
            "name:tr": null,
            "name:ru": null,
            "name:ar": null
        }
    },
    {
        "lat": 41.0764401,
        "lon": 28.9387036,
        "tags": {
            "addr:city": "İstanbul",
            "addr:district": null,
            "description": "",
            "opening_hours": null,
            "phone": null,
            "branch": null,
            "amenity": "travel_agency",
            "mobile": null,
            "addr:street": null,
            "cuisine": null,
            "name": "Aksoy Travel",
            "name:en": null,
            "name:uk": null,
            "name:de": null,
            "name:tr": null,
            "name:ru": null,
            "name:ar": null
        }
    },
    {
        "lat": 41.0770897,
        "lon": 28.9349601,
        "tags": {
            "addr:city": "İstanbul",
            "addr:district": null,
            "description": "",
            "opening_hours": null,
            "phone": null,
            "branch": null,
            "amenity": "travel_agency",
            "mobile": null,
            "addr:street": null,
            "cuisine": null,
            "name": "Birlik Turizm",
            "name:en": null,
            "name:uk": null,
            "name:de": null,
            "name:tr": null,
            "name:ru": null,
            "name:ar": null
        }
    },
    {
        "lat": 40.9902524,
        "lon": 29.0289105,
        "tags": {
            "addr:city": "İstanbul",
            "addr:district": "Kadıköy",
            "description": "",
            "opening_hours": null,
            "phone": null,
            "branch": null,
            "amenity": "travel_agency",
            "mobile": null,
            "addr:street": "General Asım Gündüz Caddesi",
            "cuisine": null,
            "name": "Touristica",
            "name:en": null,
            "name:uk": null,
            "name:de": null,
            "name:tr": null,
            "name:ru": null,
            "name:ar": null
        }
    },
    {
        "lat": 40.9814724,
        "lon": 28.8747277,
        "tags": {
            "addr:city": "Bakırköy/İstanbul",
            "addr:district": "Bakırköy",
            "description": "",
            "opening_hours": "Mo-Su 08:00-20:00",
            "phone": "+90 850 304 03 58",
            "branch": null,
            "amenity": "travel_agency",
            "mobile": null,
            "addr:street": "Belediye Hekimi Sokağı",
            "cuisine": null,
            "name": "Traveland Turizm | Seyahat Acentası",
            "name:en": null,
            "name:uk": null,
            "name:de": null,
            "name:tr": null,
            "name:ru": null,
            "name:ar": null
        }
    },
    {
        "lat": 41.0058511,
        "lon": 28.9706911,
        "tags": {
            "addr:city": "İstanbul",
            "addr:district": null,
            "description": "",
            "opening_hours": null,
            "phone": null,
            "branch": null,
            "amenity": "travel_agency",
            "mobile": null,
            "addr:street": "Katip Sinan Sokağı",
            "cuisine": null,
            "name": "Eureka Travel",
            "name:en": null,
            "name:uk": null,
            "name:de": null,
            "name:tr": null,
            "name:ru": null,
            "name:ar": null
        }
    },
    {
        "lat": 41.1153365,
        "lon": 29.0522465,
        "tags": {
            "addr:city": "İstanbul",
            "addr:district": "Sarıyer",
            "description": "",
            "opening_hours": "24/7",
            "phone": "+90 533 211 3390",
            "branch": null,
            "amenity": "travel_agency",
            "mobile": null,
            "addr:street": "Çayır Caddesi",
            "cuisine": null,
            "name": "Boğazda Gezi",
            "name:en": null,
            "name:uk": null,
            "name:de": null,
            "name:tr": null,
            "name:ru": null,
            "name:ar": null
        }
    },
    {
        "lat": 41.0614856,
        "lon": 29.0384797,
        "tags": {
            "addr:city": "İstanbul",
            "addr:district": "Beşiktaş",
            "description": "",
            "opening_hours": "24/7",
            "phone": "+90 537 973 8664",
            "branch": "Yat Kiralama",
            "amenity": "travel_agency",
            "mobile": null,
            "addr:street": "Arnavutköy Kuruçeşme Caddesi",
            "cuisine": null,
            "name": "Bella Yacht Tour",
            "name:en": null,
            "name:uk": null,
            "name:de": null,
            "name:tr": null,
            "name:ru": null,
            "name:ar": null
        }
    },
    {
        "lat": 40.9237777,
        "lon": 29.1313938,
        "tags": {
            "addr:city": "İstanbul",
            "addr:district": null,
            "description": "",
            "opening_hours": null,
            "phone": "5324605370",
            "branch": null,
            "amenity": "travel_agency",
            "mobile": null,
            "addr:street": null,
            "cuisine": null,
            "name": "Rota Bizden",
            "name:en": null,
            "name:uk": null,
            "name:de": null,
            "name:tr": null,
            "name:ru": null,
            "name:ar": null
        }
    },
    {
        "lat": 41.0154176,
        "lon": 28.9078545,
        "tags": {
            "addr:city": "İstanbul",
            "addr:district": null,
            "description": "",
            "opening_hours": null,
            "phone": null,
            "branch": null,
            "amenity": "travel_agency",
            "mobile": null,
            "addr:street": null,
            "cuisine": null,
            "name": null,
            "name:en": null,
            "name:uk": null,
            "name:de": null,
            "name:tr": null,
            "name:ru": null,
            "name:ar": null
        }
    },
    {
        "lat": 41.01277,
        "lon": 28.9773407,
        "tags": {
            "addr:city": "İstanbul",
            "addr:district": null,
            "description": "",
            "opening_hours": null,
            "phone": null,
            "branch": null,
            "amenity": "travel_agency",
            "mobile": null,
            "addr:street": "Ibn-I-Kemal Caddesi",
            "cuisine": null,
            "name": "Let's Go Tourism",
            "name:en": null,
            "name:uk": null,
            "name:de": null,
            "name:tr": null,
            "name:ru": null,
            "name:ar": null
        }
    },
    {
        "lat": 41.012802,
        "lon": 28.9772888,
        "tags": {
            "addr:city": "İstanbul",
            "addr:district": null,
            "description": "",
            "opening_hours": null,
            "phone": null,
            "branch": null,
            "amenity": "travel_agency",
            "mobile": null,
            "addr:street": "Ibn-I-Kemal Caddesi",
            "cuisine": null,
            "name": "Horas",
            "name:en": null,
            "name:uk": null,
            "name:de": null,
            "name:tr": null,
            "name:ru": null,
            "name:ar": null
        }
    },
    {
        "lat": 41.0142677,
        "lon": 28.9763959,
        "tags": {
            "addr:city": "İstanbul",
            "addr:district": null,
            "description": "",
            "opening_hours": null,
            "phone": null,
            "branch": null,
            "amenity": "travel_agency",
            "mobile": null,
            "addr:street": null,
            "cuisine": null,
            "name": "Sea & Land Travel Agency",
            "name:en": null,
            "name:uk": null,
            "name:de": null,
            "name:tr": null,
            "name:ru": null,
            "name:ar": null
        }
    },
    {
        "lat": 41.038053,
        "lon": 28.9840531,
        "tags": {
            "addr:city": "İstanbul",
            "addr:district": null,
            "description": "",
            "opening_hours": null,
            "phone": null,
            "branch": null,
            "amenity": "travel_agency",
            "mobile": null,
            "addr:street": "Abdülhak Hamit Caddesi",
            "cuisine": null,
            "name": "Volare Tour",
            "name:en": null,
            "name:uk": null,
            "name:de": null,
            "name:tr": null,
            "name:ru": null,
            "name:ar": null
        }
    },
    {
        "lat": 41.0385753,
        "lon": 28.9847454,
        "tags": {
            "addr:city": "İstanbul",
            "addr:district": null,
            "description": "",
            "opening_hours": null,
            "phone": null,
            "branch": null,
            "amenity": "travel_agency",
            "mobile": null,
            "addr:street": "Şehit Muhtar Bey Caddesi",
            "cuisine": null,
            "name": "Etvefik Travel",
            "name:en": null,
            "name:uk": null,
            "name:de": null,
            "name:tr": null,
            "name:ru": null,
            "name:ar": null
        }
    }
]