[
    {
        "lat": 41.0106199,
        "lon": 28.9757215,
        "tags": {
            "addr:city": "Istanbul",
            "addr:district": "Fatih",
            "description": "",
            "opening_hours": null,
            "phone": null,
            "branch": null,
            "amenity": "turkish_bath",
            "mobile": null,
            "addr:street": "Cağaloğlu Hamamı Sokak",
            "cuisine": null,
            "name": "Cagaloglu Hamami",
            "name:en": null,
            "name:uk": null,
            "name:de": null,
            "name:tr": null,
            "name:ru": null,
            "name:ar": "حمام جاغال أوغلو هامامي"
        }
    },
    {
        "lat": 41.0103559,
        "lon": 28.9770599,
        "tags": {
            "addr:city": "Istanbul",
            "addr:district": "Fatih",
            "description": "",
            "opening_hours": null,
            "phone": null,
            "branch": null,
            "amenity": "turkish_bath",
            "mobile": null,
            "addr:street": "Alayköşkü Caddesi",
            "cuisine": null,
            "name": "Old Turkish Hamamı",
            "name:en": null,
            "name:uk": null,
            "name:de": null,
            "name:tr": null,
            "name:ru": null,
            "name:ar": "حمام أولد توركيش هامامي"
        }
    },
    {
        "lat": 41.0360453,
        "lon": 28.9424945,
        "tags": {
            "addr:city": "Istanbul",
            "addr:district": "Fatih",
            "description": "",
            "opening_hours": null,
            "phone": null,
            "branch": null,
            "amenity": "turkish_bath",
            "mobile": null,
            "addr:street": "Yatağan Hamamı Sokağı",
            "cuisine": null,
            "name": "Arabacılar Hamamı Kadınlar Kısmı",
            "name:en": null,
            "name:uk": null,
            "name:de": null,
            "name:tr": null,
            "name:ru": null,
            "name:ar": "حمام تركي أرابيجيلار القسم النسائي"
        }
    }
]