[
    {
        "lat": 41.0393532,
        "lon": 28.9220164,
        "tags": {
            "addr:city": "İstanbul",
            "addr:district": null,
            "description": "Lastik atığı haftada ortalama 30-40 adet",
            "opening_hours": null,
            "phone": null,
            "branch": null,
            "amenity": "tyres",
            "mobile": null,
            "addr:street": null,
            "cuisine": null,
            "name": "Oto Lastik ve Sanayi",
            "name:en": null,
            "name:uk": null,
            "name:de": null,
            "name:tr": null,
            "name:ru": null,
            "name:ar": null
        }
    },
    {
        "lat": 40.9998569,
        "lon": 28.8605206,
        "tags": {
            "addr:city": "Bahçelievler/İstanbul",
            "addr:district": null,
            "description": "",
            "opening_hours": null,
            "phone": "0212 441 41 01",
            "branch": null,
            "amenity": "tyres",
            "mobile": null,
            "addr:street": "Adnan Kahveci Bulvarı",
            "cuisine": null,
            "name": "Ünsallar Oto Lastik",
            "name:en": null,
            "name:uk": null,
            "name:de": null,
            "name:tr": null,
            "name:ru": null,
            "name:ar": null
        }
    },
    {
        "lat": 40.9807198,
        "lon": 29.0787763,
        "tags": {
            "addr:city": "İstanbul",
            "addr:district": "Kadıkoy",
            "description": "",
            "opening_hours": null,
            "phone": "+90 2163852734",
            "branch": null,
            "amenity": "tyres",
            "mobile": null,
            "addr:street": "Atatürk Cad.",
            "cuisine": null,
            "name": "Continental İstanbul Kadıköy Lastik Bayi - Mert Otomotiv",
            "name:en": null,
            "name:uk": null,
            "name:de": null,
            "name:tr": null,
            "name:ru": null,
            "name:ar": null
        }
    },
    {
        "lat": 41.074068,
        "lon": 28.809797,
        "tags": {
            "addr:city": "İstanbul",
            "addr:district": "Başakşehir",
            "description": "",
            "opening_hours": null,
            "phone": "+90 2126568767",
            "branch": null,
            "amenity": "tyres",
            "mobile": null,
            "addr:street": null,
            "cuisine": null,
            "name": "Continental İstanbul Küçükçekmece Lastik Bayi - Ekip Otomotiv",
            "name:en": null,
            "name:uk": null,
            "name:de": null,
            "name:tr": null,
            "name:ru": null,
            "name:ar": null
        }
    },
    {
        "lat": 40.9745579,
        "lon": 28.874323,
        "tags": {
            "addr:city": "İstanbul",
            "addr:district": "Bakırkoy",
            "description": "",
            "opening_hours": null,
            "phone": "+90 2125715850",
            "branch": null,
            "amenity": "tyres",
            "mobile": null,
            "addr:street": "Mor Menekşe Sok.",
            "cuisine": null,
            "name": "Continental İstanbul Bakırköy Lastik Bayi - Akseki Göktepe",
            "name:en": null,
            "name:uk": null,
            "name:de": null,
            "name:tr": null,
            "name:ru": null,
            "name:ar": null
        }
    },
    {
        "lat": 40.96212,
        "lon": 29.103157,
        "tags": {
            "addr:city": "İstanbul",
            "addr:district": "Kadıkoy",
            "description": "",
            "opening_hours": null,
            "phone": "+90 2163720072",
            "branch": null,
            "amenity": "tyres",
            "mobile": null,
            "addr:street": "Prof.Dr.Ali Nihat Tarlan Sok.",
            "cuisine": null,
            "name": "Continental İstanbul Bostancı Lastik Bayi - Cem Otomotiv",
            "name:en": null,
            "name:uk": null,
            "name:de": null,
            "name:tr": null,
            "name:ru": null,
            "name:ar": null
        }
    },
    {
        "lat": 41.0181622,
        "lon": 29.0325434,
        "tags": {
            "addr:city": "İstanbul",
            "addr:district": "Üskudar",
            "description": "",
            "opening_hours": null,
            "phone": "+90 2169691246",
            "branch": null,
            "amenity": "tyres",
            "mobile": null,
            "addr:street": "Nuh Kuyusu Cad.",
            "cuisine": null,
            "name": "Continental İstanbul Üsküdar Lastik Bayi - Batujen Nuh Kuyusu Şubesi",
            "name:en": null,
            "name:uk": null,
            "name:de": null,
            "name:tr": null,
            "name:ru": null,
            "name:ar": null
        }
    },
    {
        "lat": 41.0876771,
        "lon": 29.0355931,
        "tags": {
            "addr:city": "İstanbul",
            "addr:district": "Beşiktaş",
            "description": "",
            "opening_hours": null,
            "phone": "+90 2122637788",
            "branch": null,
            "amenity": "tyres",
            "mobile": null,
            "addr:street": "Cengiz Topel Cad.",
            "cuisine": null,
            "name": "Continental İstanbul Etiler Lastik Bayi - Royal Lastik",
            "name:en": null,
            "name:uk": null,
            "name:de": null,
            "name:tr": null,
            "name:ru": null,
            "name:ar": null
        }
    },
    {
        "lat": 41.095688,
        "lon": 29.00537,
        "tags": {
            "addr:city": "İstanbul",
            "addr:district": "Beşiktaş",
            "description": "",
            "opening_hours": null,
            "phone": "+90 2122709400",
            "branch": null,
            "amenity": "tyres",
            "mobile": null,
            "addr:street": "Fatih Cad.",
            "cuisine": null,
            "name": "Continental İstanbul Levent Lastik Bayi - Keskin Otomotiv",
            "name:en": null,
            "name:uk": null,
            "name:de": null,
            "name:tr": null,
            "name:ru": null,
            "name:ar": null
        }
    },
    {
        "lat": 41.006907,
        "lon": 28.657102,
        "tags": {
            "addr:city": "İstanbul",
            "addr:district": "Beylikdüzü",
            "description": "",
            "opening_hours": null,
            "phone": "+90 2128520303",
            "branch": null,
            "amenity": "tyres",
            "mobile": null,
            "addr:street": "Sakarya Cad.",
            "cuisine": null,
            "name": "Continental İstanbul Beylikdüzü Lastik Bayi - Deniz Ticaret",
            "name:en": null,
            "name:uk": null,
            "name:de": null,
            "name:tr": null,
            "name:ru": null,
            "name:ar": null
        }
    },
    {
        "lat": 41.146539,
        "lon": 28.462765,
        "tags": {
            "addr:city": "İstanbul",
            "addr:district": "Çatalca",
            "description": "",
            "opening_hours": null,
            "phone": "+90 2127894040",
            "branch": null,
            "amenity": "tyres",
            "mobile": null,
            "addr:street": "Ülkü Sok.",
            "cuisine": null,
            "name": "Continental İstanbul Çatalca Lastik Bayi - Akbulut Kardeşler",
            "name:en": null,
            "name:uk": null,
            "name:de": null,
            "name:tr": null,
            "name:ru": null,
            "name:ar": null
        }
    },
    {
        "lat": 41.0024958,
        "lon": 29.0323826,
        "tags": {
            "addr:city": "İstanbul",
            "addr:district": "Kadıkoy",
            "description": "",
            "opening_hours": null,
            "phone": "+90 2163391401",
            "branch": null,
            "amenity": "tyres",
            "mobile": null,
            "addr:street": "Dinlenç Sok.",
            "cuisine": null,
            "name": "Continental İstanbul Kadıköy Lastik Bayi",
            "name:en": null,
            "name:uk": null,
            "name:de": null,
            "name:tr": null,
            "name:ru": null,
            "name:ar": null
        }
    },
    {
        "lat": 40.893009,
        "lon": 29.195812,
        "tags": {
            "addr:city": "İstanbul",
            "addr:district": "Kartal",
            "description": "",
            "opening_hours": null,
            "phone": "+90 2163890367",
            "branch": null,
            "amenity": "tyres",
            "mobile": null,
            "addr:street": "Çay Sok.",
            "cuisine": null,
            "name": "Continental İstanbul Kartal Lastik Bayi - Ekşioğlu Otomotiv (Çavuşoğlu)",
            "name:en": null,
            "name:uk": null,
            "name:de": null,
            "name:tr": null,
            "name:ru": null,
            "name:ar": null
        }
    },
    {
        "lat": 41.117737,
        "lon": 29.02101,
        "tags": {
            "addr:city": "İstanbul",
            "addr:district": "Sarıyer",
            "description": "",
            "opening_hours": null,
            "phone": "+90 2123463515",
            "branch": null,
            "amenity": "tyres",
            "mobile": null,
            "addr:street": "44 Sok.",
            "cuisine": null,
            "name": "Continental İstanbul Maslak Lastik Bayi - Avrupa Motor Lastik",
            "name:en": null,
            "name:uk": null,
            "name:de": null,
            "name:tr": null,
            "name:ru": null,
            "name:ar": null
        }
    },
    {
        "lat": 40.9173675,
        "lon": 29.1445892,
        "tags": {
            "addr:city": "İstanbul",
            "addr:district": "Maltepe",
            "description": "",
            "opening_hours": null,
            "phone": "+90 2163836955",
            "branch": null,
            "amenity": "tyres",
            "mobile": null,
            "addr:street": "Bağdat Cad.",
            "cuisine": null,
            "name": "Continental İstanbul Maltepe Lastik Bayi - Baydemirler Ticaret",
            "name:en": null,
            "name:uk": null,
            "name:de": null,
            "name:tr": null,
            "name:ru": null,
            "name:ar": null
        }
    },
    {
        "lat": 41.023013,
        "lon": 29.11797,
        "tags": {
            "addr:city": "İstanbul",
            "addr:district": "Ümraniye",
            "description": "",
            "opening_hours": null,
            "phone": "+90 2166329699",
            "branch": null,
            "amenity": "tyres",
            "mobile": null,
            "addr:street": "Alemdağ Cad.",
            "cuisine": null,
            "name": "Continental İstanbul Ümraniye Lastik Bayi - Güven Rot Balans",
            "name:en": null,
            "name:uk": null,
            "name:de": null,
            "name:tr": null,
            "name:ru": null,
            "name:ar": null
        }
    },
    {
        "lat": 41.1195291,
        "lon": 29.0223247,
        "tags": {
            "addr:city": "İstanbul",
            "addr:district": "Sarıyer",
            "description": "",
            "opening_hours": null,
            "phone": "+90 2122762371",
            "branch": null,
            "amenity": "tyres",
            "mobile": null,
            "addr:street": "36. Sok.",
            "cuisine": null,
            "name": "Continental İstanbul Maslak Lastik Bayi - Simetri Rot Balans",
            "name:en": null,
            "name:uk": null,
            "name:de": null,
            "name:tr": null,
            "name:ru": null,
            "name:ar": null
        }
    },
    {
        "lat": 40.9091118,
        "lon": 29.1938438,
        "tags": {
            "addr:city": "İstanbul",
            "addr:district": "Kartal",
            "description": "",
            "opening_hours": null,
            "phone": "+90 2163061546",
            "branch": null,
            "amenity": "tyres",
            "mobile": null,
            "addr:street": "İnönü Cad.",
            "cuisine": null,
            "name": "Continental İstanbul Kartal Lastik Bayi - Ekşioğlu Otomotiv (Esentepe)",
            "name:en": null,
            "name:uk": null,
            "name:de": null,
            "name:tr": null,
            "name:ru": null,
            "name:ar": null
        }
    },
    {
        "lat": 41.040572,
        "lon": 29.176527,
        "tags": {
            "addr:city": "İstanbul",
            "addr:district": "Çekmekoy",
            "description": "",
            "opening_hours": null,
            "phone": "+90 2166428440",
            "branch": null,
            "amenity": "tyres",
            "mobile": null,
            "addr:street": "Köroğlu Cad. Bilge Sok.",
            "cuisine": null,
            "name": "Continental İstanbul Çekmeköy Lastik Bayi - Batujen",
            "name:en": null,
            "name:uk": null,
            "name:de": null,
            "name:tr": null,
            "name:ru": null,
            "name:ar": null
        }
    },
    {
        "lat": 41.0239125,
        "lon": 29.1098168,
        "tags": {
            "addr:city": "İstanbul",
            "addr:district": "Ümraniye",
            "description": "",
            "opening_hours": null,
            "phone": "+90 2163288650",
            "branch": null,
            "amenity": "tyres",
            "mobile": null,
            "addr:street": "Reşitpaşa Cad.",
            "cuisine": null,
            "name": "Continental İstanbul Ümraniye Lastik Bayi - As Otomotiv",
            "name:en": null,
            "name:uk": null,
            "name:de": null,
            "name:tr": null,
            "name:ru": null,
            "name:ar": null
        }
    },
    {
        "lat": 40.9155744,
        "lon": 29.1433332,
        "tags": {
            "addr:city": "İstanbul",
            "addr:district": null,
            "description": "",
            "opening_hours": null,
            "phone": null,
            "branch": null,
            "amenity": "tyres",
            "mobile": null,
            "addr:street": null,
            "cuisine": null,
            "name": null,
            "name:en": null,
            "name:uk": null,
            "name:de": null,
            "name:tr": null,
            "name:ru": null,
            "name:ar": null
        }
    },
    {
        "lat": 41.0276136,
        "lon": 28.9551751,
        "tags": {
            "addr:city": "Istanbul",
            "addr:district": "Fatih",
            "description": "",
            "opening_hours": null,
            "phone": null,
            "branch": null,
            "amenity": "tyres",
            "mobile": null,
            "addr:street": "Miralay Nazımbey Caddesi",
            "cuisine": null,
            "name": "Seyyit Baba Oto Lastik",
            "name:en": null,
            "name:uk": null,
            "name:de": null,
            "name:tr": null,
            "name:ru": null,
            "name:ar": "سيت بابا اوتو لاستيك"
        }
    },
    {
        "lat": 41.0175642,
        "lon": 28.9293985,
        "tags": {
            "addr:city": "Istanbul",
            "addr:district": "Fatih",
            "description": "",
            "opening_hours": null,
            "phone": "02125230805",
            "branch": null,
            "amenity": "tyres",
            "mobile": null,
            "addr:street": "Turgut özal millet caddesi",
            "cuisine": null,
            "name": "Erdinç Oto Lastik",
            "name:en": null,
            "name:uk": null,
            "name:de": null,
            "name:tr": null,
            "name:ru": null,
            "name:ar": "أردينج لإطارات السيارات"
        }
    },
    {
        "lat": 41.0237547,
        "lon": 28.9514968,
        "tags": {
            "addr:city": "Istanbul",
            "addr:district": "Fatih",
            "description": "",
            "opening_hours": null,
            "phone": null,
            "branch": null,
            "amenity": "tyres",
            "mobile": null,
            "addr:street": "Haliç caddesi",
            "cuisine": null,
            "name": "Bridgestone",
            "name:en": null,
            "name:uk": null,
            "name:de": null,
            "name:tr": null,
            "name:ru": null,
            "name:ar": "بريدكيستون"
        }
    },
    {
        "lat": 41.0302198,
        "lon": 28.9372131,
        "tags": {
            "addr:city": "Istanbul",
            "addr:district": "Fatih",
            "description": "",
            "opening_hours": null,
            "phone": null,
            "branch": null,
            "amenity": "tyres",
            "mobile": null,
            "addr:street": "Fevzi paşa Caddesi",
            "cuisine": null,
            "name": "Bridgestone",
            "name:en": null,
            "name:uk": null,
            "name:de": null,
            "name:tr": null,
            "name:ru": null,
            "name:ar": "بريدج ستون دواليب"
        }
    },
    {
        "lat": 41.0297535,
        "lon": 28.9394224,
        "tags": {
            "addr:city": "Istanbul",
            "addr:district": "Fatih",
            "description": "",
            "opening_hours": null,
            "phone": null,
            "branch": null,
            "amenity": "tyres",
            "mobile": null,
            "addr:street": "Slama tomruk Caddesi",
            "cuisine": null,
            "name": "Selami Lastik Tamiri",
            "name:en": null,
            "name:uk": null,
            "name:de": null,
            "name:tr": null,
            "name:ru": null,
            "name:ar": "سلامي لتبديل الدواليب"
        }
    },
    {
        "lat": 41.0164609,
        "lon": 28.9424946,
        "tags": {
            "addr:city": "Istanbul",
            "addr:district": "Fatih",
            "description": "",
            "opening_hours": null,
            "phone": null,
            "branch": null,
            "amenity": "tyres",
            "mobile": null,
            "addr:street": "Akdeniz Caddesi",
            "cuisine": null,
            "name": "Bridgestone",
            "name:en": null,
            "name:uk": null,
            "name:de": null,
            "name:tr": null,
            "name:ru": null,
            "name:ar": "بريدج ستون"
        }
    },
    {
        "lat": 41.0162579,
        "lon": 28.9423948,
        "tags": {
            "addr:city": "Istanbul",
            "addr:district": "Turkey",
            "description": "",
            "opening_hours": null,
            "phone": null,
            "branch": null,
            "amenity": "tyres",
            "mobile": null,
            "addr:street": "Akdeniz Caddesi",
            "cuisine": null,
            "name": "Michelin",
            "name:en": null,
            "name:uk": null,
            "name:de": null,
            "name:tr": null,
            "name:ru": null,
            "name:ar": "ميكالين"
        }
    },
    {
        "lat": 41.0200923,
        "lon": 28.9425373,
        "tags": {
            "addr:city": "Istanbul",
            "addr:district": "Turkey",
            "description": "",
            "opening_hours": null,
            "phone": null,
            "branch": null,
            "amenity": "tyres",
            "mobile": null,
            "addr:street": "PALIPASA caddesi",
            "cuisine": null,
            "name": "Tekdir motor",
            "name:en": null,
            "name:uk": null,
            "name:de": null,
            "name:tr": null,
            "name:ru": null,
            "name:ar": "تكدر موتور"
        }
    },
    {
        "lat": 41.0159457,
        "lon": 28.9426178,
        "tags": {
            "addr:city": "Istanbul",
            "addr:district": "Turkey",
            "description": "",
            "opening_hours": null,
            "phone": null,
            "branch": null,
            "amenity": "tyres",
            "mobile": null,
            "addr:street": "VATAN caddesi",
            "cuisine": null,
            "name": "Petlas",
            "name:en": null,
            "name:uk": null,
            "name:de": null,
            "name:tr": null,
            "name:ru": null,
            "name:ar": "بتلاس"
        }
    },
    {
        "lat": 41.0158911,
        "lon": 28.942701,
        "tags": {
            "addr:city": "Istanbul",
            "addr:district": "Fatih",
            "description": "",
            "opening_hours": null,
            "phone": null,
            "branch": null,
            "amenity": "tyres",
            "mobile": null,
            "addr:street": null,
            "cuisine": null,
            "name": "Pirelli",
            "name:en": null,
            "name:uk": null,
            "name:de": null,
            "name:tr": null,
            "name:ru": null,
            "name:ar": "بيريلي"
        }
    },
    {
        "lat": 40.9896097,
        "lon": 29.0632588,
        "tags": {
            "addr:city": "İstanbul",
            "addr:district": null,
            "description": "",
            "opening_hours": null,
            "phone": null,
            "branch": null,
            "amenity": "tyres",
            "mobile": null,
            "addr:street": null,
            "cuisine": null,
            "name": null,
            "name:en": null,
            "name:uk": null,
            "name:de": null,
            "name:tr": null,
            "name:ru": null,
            "name:ar": null
        }
    },
    {
        "lat": 40.8776453,
        "lon": 29.2438518,
        "tags": {
            "addr:city": "İstanbul",
            "addr:district": null,
            "description": "",
            "opening_hours": null,
            "phone": null,
            "branch": null,
            "amenity": "tyres",
            "mobile": null,
            "addr:street": null,
            "cuisine": null,
            "name": "Lasmax",
            "name:en": null,
            "name:uk": null,
            "name:de": null,
            "name:tr": null,
            "name:ru": null,
            "name:ar": null
        }
    },
    {
        "lat": 40.9655068,
        "lon": 29.0879788,
        "tags": {
            "addr:city": "İstanbul",
            "addr:district": "Kadıköy",
            "description": "",
            "opening_hours": null,
            "phone": null,
            "branch": null,
            "amenity": "tyres",
            "mobile": null,
            "addr:street": "Şemsettin Günaltay Caddesi",
            "cuisine": null,
            "name": "Michelin",
            "name:en": null,
            "name:uk": null,
            "name:de": null,
            "name:tr": null,
            "name:ru": null,
            "name:ar": null
        }
    },
    {
        "lat": 41.1324462,
        "lon": 28.8348537,
        "tags": {
            "addr:city": "İstanbul",
            "addr:district": null,
            "description": "",
            "opening_hours": null,
            "phone": null,
            "branch": null,
            "amenity": "tyres",
            "mobile": null,
            "addr:street": null,
            "cuisine": null,
            "name": "Lastiğim",
            "name:en": null,
            "name:uk": null,
            "name:de": null,
            "name:tr": null,
            "name:ru": null,
            "name:ar": null
        }
    },
    {
        "lat": 40.9070491,
        "lon": 29.2259272,
        "tags": {
            "addr:city": "İstanbul",
            "addr:district": null,
            "description": "",
            "opening_hours": null,
            "phone": null,
            "branch": null,
            "amenity": "tyres",
            "mobile": null,
            "addr:street": null,
            "cuisine": null,
            "name": "RED&BLACK Lastik",
            "name:en": null,
            "name:uk": null,
            "name:de": null,
            "name:tr": null,
            "name:ru": null,
            "name:ar": null
        }
    },
    {
        "lat": 40.9823703,
        "lon": 29.2664412,
        "tags": {
            "addr:city": "Istanbul",
            "addr:district": "Sultanbeyli",
            "description": "",
            "opening_hours": null,
            "phone": null,
            "branch": null,
            "amenity": "tyres",
            "mobile": null,
            "addr:street": "Bosna Bulvarı",
            "cuisine": null,
            "name": "Isot / Bey Oto Lastik",
            "name:en": null,
            "name:uk": null,
            "name:de": null,
            "name:tr": null,
            "name:ru": null,
            "name:ar": "بيع إطارات استوبيه"
        }
    },
    {
        "lat": 40.9655693,
        "lon": 29.2747192,
        "tags": {
            "addr:city": "Istanbul",
            "addr:district": "Sultanbeyli",
            "description": "",
            "opening_hours": "24/7",
            "phone": "02163980859",
            "branch": null,
            "amenity": "tyres",
            "mobile": null,
            "addr:street": "Demokrasi Caddesi",
            "cuisine": null,
            "name": "Michelin",
            "name:en": null,
            "name:uk": null,
            "name:de": null,
            "name:tr": null,
            "name:ru": null,
            "name:ar": "ميشلان للإطارات"
        }
    },
    {
        "lat": 40.9634792,
        "lon": 29.2845903,
        "tags": {
            "addr:city": "Istanbul",
            "addr:district": "Sultanbeyli",
            "description": "",
            "opening_hours": "24/7",
            "phone": null,
            "branch": null,
            "amenity": "tyres",
            "mobile": null,
            "addr:street": "02165771011",
            "cuisine": null,
            "name": "Goodyear Koplas Lastik",
            "name:en": null,
            "name:uk": null,
            "name:de": null,
            "name:tr": null,
            "name:ru": null,
            "name:ar": null
        }
    },
    {
        "lat": 40.9696969,
        "lon": 29.26233,
        "tags": {
            "addr:city": "Istanbul",
            "addr:district": "Sultanbeyli",
            "description": "",
            "opening_hours": "Mo-Fr 07:00-13:30; Mo-Fr 17:00-20:00",
            "phone": "02163981085",
            "branch": null,
            "amenity": "tyres",
            "mobile": null,
            "addr:street": "bosna blv",
            "cuisine": null,
            "name": "Liderlas",
            "name:en": null,
            "name:uk": null,
            "name:de": null,
            "name:tr": null,
            "name:ru": null,
            "name:ar": "متجر اطارات ليديرلاس"
        }
    },
    {
        "lat": 41.0169375,
        "lon": 28.9057182,
        "tags": {
            "addr:city": "Istanbul",
            "addr:district": "Zeytinburnu",
            "description": "",
            "opening_hours": "Mo-Su 07:00-20:00",
            "phone": "02124818686",
            "branch": null,
            "amenity": "tyres",
            "mobile": null,
            "addr:street": "Mevlevihane Yolu Caddesi",
            "cuisine": null,
            "name": "Bridgestone",
            "name:en": null,
            "name:uk": null,
            "name:de": null,
            "name:tr": null,
            "name:ru": null,
            "name:ar": "مجمع جمال سيرتل الصناعي-محل بريجستون لإصلاح السيارات"
        }
    },
    {
        "lat": 41.0288628,
        "lon": 28.9096652,
        "tags": {
            "addr:city": "Istanbul",
            "addr:district": "Zeytinburnu",
            "description": "",
            "opening_hours": "Mo-Fr 08:00-17:00; Mo-Sa 07:30-15:00",
            "phone": "05375868756",
            "branch": null,
            "amenity": "tyres",
            "mobile": null,
            "addr:street": "Gümüşsuyu Caddesi",
            "cuisine": null,
            "name": "Lastiğim Oto",
            "name:en": null,
            "name:uk": null,
            "name:de": null,
            "name:tr": null,
            "name:ru": null,
            "name:ar": "محل لاستيغيم لاصلاح السيارات"
        }
    },
    {
        "lat": 41.0293106,
        "lon": 28.9105637,
        "tags": {
            "addr:city": "Istanbul",
            "addr:district": "Zeytinburnu",
            "description": "",
            "opening_hours": "Mo-Fr 08:00-17:00; Mo-Sa 07:30-15:00",
            "phone": null,
            "branch": null,
            "amenity": "tyres",
            "mobile": null,
            "addr:street": "Gümüşsuyu Cd.",
            "cuisine": null,
            "name": "Michelin",
            "name:en": null,
            "name:uk": null,
            "name:de": null,
            "name:tr": null,
            "name:ru": null,
            "name:ar": "محل ميشلن لاصلاح السيارات"
        }
    },
    {
        "lat": 41.0042138,
        "lon": 28.9017594,
        "tags": {
            "addr:city": "Istanbul",
            "addr:district": "Zeytinburnu",
            "description": "",
            "opening_hours": null,
            "phone": null,
            "branch": null,
            "amenity": "tyres",
            "mobile": null,
            "addr:street": "Demirciler sitesi 1 Cd",
            "cuisine": null,
            "name": "lastigim",
            "name:en": null,
            "name:uk": null,
            "name:de": null,
            "name:tr": null,
            "name:ru": null,
            "name:ar": "لاس تيجيم لاطارات السيارات"
        }
    },
    {
        "lat": 40.9999016,
        "lon": 28.9144986,
        "tags": {
            "addr:city": "Istanbul",
            "addr:district": "Zeytinburnu",
            "description": "",
            "opening_hours": null,
            "phone": null,
            "branch": null,
            "amenity": "tyres",
            "mobile": null,
            "addr:street": null,
            "cuisine": null,
            "name": "PETLAS LASTİK",
            "name:en": null,
            "name:uk": null,
            "name:de": null,
            "name:tr": null,
            "name:ru": null,
            "name:ar": "اطارات"
        }
    },
    {
        "lat": 40.9847721,
        "lon": 28.8932625,
        "tags": {
            "addr:city": "Istanbul",
            "addr:district": "Zeytinburnu",
            "description": "",
            "opening_hours": null,
            "phone": null,
            "branch": null,
            "amenity": "tyres",
            "mobile": null,
            "addr:street": "Turan Güneş Caddesi",
            "cuisine": null,
            "name": "Sümer Oto Lastik",
            "name:en": null,
            "name:uk": null,
            "name:de": null,
            "name:tr": null,
            "name:ru": null,
            "name:ar": "سومر أوتو لاستيك"
        }
    },
    {
        "lat": 41.0465406,
        "lon": 28.8268647,
        "tags": {
            "addr:city": "Istanbul",
            "addr:district": "Bağcılar",
            "description": "",
            "opening_hours": null,
            "phone": null,
            "branch": null,
            "amenity": "tyres",
            "mobile": null,
            "addr:street": "Halkalı caddesi",
            "cuisine": null,
            "name": "Brigestone",
            "name:en": null,
            "name:uk": null,
            "name:de": null,
            "name:tr": null,
            "name:ru": null,
            "name:ar": "بريدج ستون"
        }
    },
    {
        "lat": 41.0308878,
        "lon": 28.8374731,
        "tags": {
            "addr:city": "Istanbul",
            "addr:district": "Bağcılar",
            "description": "",
            "opening_hours": null,
            "phone": null,
            "branch": null,
            "amenity": "tyres",
            "mobile": null,
            "addr:street": "Mahmutbey caddesi",
            "cuisine": null,
            "name": "Dadaş oto lastik",
            "name:en": null,
            "name:uk": null,
            "name:de": null,
            "name:tr": null,
            "name:ru": null,
            "name:ar": "داداش للدواليب"
        }
    },
    {
        "lat": 41.0435608,
        "lon": 28.8473744,
        "tags": {
            "addr:city": "Istanbul",
            "addr:district": null,
            "description": "",
            "opening_hours": null,
            "phone": "05363850859",
            "branch": null,
            "amenity": "tyres",
            "mobile": null,
            "addr:street": "1745 Sokak",
            "cuisine": null,
            "name": "Oto Lastikçi",
            "name:en": null,
            "name:uk": null,
            "name:de": null,
            "name:tr": null,
            "name:ru": null,
            "name:ar": "أوتو لاستيكجي"
        }
    },
    {
        "lat": 41.037993,
        "lon": 28.8345544,
        "tags": {
            "addr:city": "Istanbul",
            "addr:district": "Bağcılar",
            "description": "",
            "opening_hours": null,
            "phone": null,
            "branch": null,
            "amenity": "tyres",
            "mobile": null,
            "addr:street": "Tavukcu kopru caddesi",
            "cuisine": null,
            "name": "Oto lastik",
            "name:en": null,
            "name:uk": null,
            "name:de": null,
            "name:tr": null,
            "name:ru": null,
            "name:ar": "اوتو لاستيك"
        }
    },
    {
        "lat": 41.0383209,
        "lon": 28.8246762,
        "tags": {
            "addr:city": "Istanbul",
            "addr:district": "Bağcılar",
            "description": "",
            "opening_hours": null,
            "phone": "6574514",
            "branch": null,
            "amenity": "tyres",
            "mobile": null,
            "addr:street": "Favziçakmak Caddesi",
            "cuisine": null,
            "name": "Gülap Lastik Tamiri",
            "name:en": null,
            "name:uk": null,
            "name:de": null,
            "name:tr": null,
            "name:ru": null,
            "name:ar": "كولاب لاستيك تاميري"
        }
    },
    {
        "lat": 41.0388605,
        "lon": 28.8673304,
        "tags": {
            "addr:city": "Istanbul",
            "addr:district": "Bağcılar",
            "description": "",
            "opening_hours": null,
            "phone": null,
            "branch": null,
            "amenity": "tyres",
            "mobile": null,
            "addr:street": "fatih Caddesi",
            "cuisine": null,
            "name": "Star Max",
            "name:en": null,
            "name:uk": null,
            "name:de": null,
            "name:tr": null,
            "name:ru": null,
            "name:ar": "ستار ماكس"
        }
    },
    {
        "lat": 41.0299264,
        "lon": 28.8671928,
        "tags": {
            "addr:city": "Istanbul",
            "addr:district": "Bağcılar",
            "description": "",
            "opening_hours": null,
            "phone": null,
            "branch": null,
            "amenity": "tyres",
            "mobile": null,
            "addr:street": "5/.1 sokak",
            "cuisine": null,
            "name": "Firat oto lastik",
            "name:en": null,
            "name:uk": null,
            "name:de": null,
            "name:tr": null,
            "name:ru": null,
            "name:ar": "فرات اوتو لاستيك"
        }
    },
    {
        "lat": 41.030551,
        "lon": 28.8633229,
        "tags": {
            "addr:city": "Istanbul",
            "addr:district": "Bağcılar",
            "description": "",
            "opening_hours": null,
            "phone": null,
            "branch": null,
            "amenity": "tyres",
            "mobile": null,
            "addr:street": "Güngören caddesi",
            "cuisine": null,
            "name": "Petlas",
            "name:en": null,
            "name:uk": null,
            "name:de": null,
            "name:tr": null,
            "name:ru": null,
            "name:ar": "بيتلاس"
        }
    },
    {
        "lat": 40.969053,
        "lon": 29.2511436,
        "tags": {
            "addr:city": "İstanbul",
            "addr:district": null,
            "description": "",
            "opening_hours": null,
            "phone": null,
            "branch": null,
            "amenity": "tyres",
            "mobile": null,
            "addr:street": null,
            "cuisine": null,
            "name": "Liderlas",
            "name:en": null,
            "name:uk": null,
            "name:de": null,
            "name:tr": null,
            "name:ru": null,
            "name:ar": null
        }
    },
    {
        "lat": 40.87122,
        "lon": 29.3309591,
        "tags": {
            "addr:city": "İstanbul",
            "addr:district": null,
            "description": "",
            "opening_hours": null,
            "phone": null,
            "branch": null,
            "amenity": "tyres",
            "mobile": null,
            "addr:street": null,
            "cuisine": null,
            "name": "Lastik Park",
            "name:en": null,
            "name:uk": null,
            "name:de": null,
            "name:tr": null,
            "name:ru": null,
            "name:ar": null
        }
    },
    {
        "lat": 40.9193782,
        "lon": 29.2233755,
        "tags": {
            "addr:city": "İstanbul",
            "addr:district": null,
            "description": "",
            "opening_hours": null,
            "phone": null,
            "branch": null,
            "amenity": "tyres",
            "mobile": null,
            "addr:street": null,
            "cuisine": null,
            "name": "LastikTak",
            "name:en": null,
            "name:uk": null,
            "name:de": null,
            "name:tr": null,
            "name:ru": null,
            "name:ar": null
        }
    },
    {
        "lat": 40.9830925,
        "lon": 29.0972222,
        "tags": {
            "addr:city": "İstanbul",
            "addr:district": null,
            "description": "",
            "opening_hours": null,
            "phone": null,
            "branch": null,
            "amenity": "tyres",
            "mobile": null,
            "addr:street": "yavuzlar sokak",
            "cuisine": null,
            "name": "Michelin",
            "name:en": null,
            "name:uk": null,
            "name:de": null,
            "name:tr": null,
            "name:ru": null,
            "name:ar": null
        }
    },
    {
        "lat": 41.2375443,
        "lon": 28.9840975,
        "tags": {
            "addr:city": "İstanbul",
            "addr:district": null,
            "description": "",
            "opening_hours": null,
            "phone": null,
            "branch": null,
            "amenity": "tyres",
            "mobile": null,
            "addr:street": null,
            "cuisine": null,
            "name": "Lastikçi",
            "name:en": null,
            "name:uk": null,
            "name:de": null,
            "name:tr": null,
            "name:ru": null,
            "name:ar": null
        }
    },
    {
        "lat": 41.1094698,
        "lon": 28.1122555,
        "tags": {
            "addr:city": "İstanbul",
            "addr:district": null,
            "description": "",
            "opening_hours": null,
            "phone": null,
            "branch": null,
            "amenity": "tyres",
            "mobile": null,
            "addr:street": null,
            "cuisine": null,
            "name": "Hakan Oto Lastik",
            "name:en": null,
            "name:uk": null,
            "name:de": null,
            "name:tr": null,
            "name:ru": null,
            "name:ar": null
        }
    },
    {
        "lat": 40.8996368,
        "lon": 29.255555,
        "tags": {
            "addr:city": "İstanbul",
            "addr:district": null,
            "description": "",
            "opening_hours": null,
            "phone": null,
            "branch": null,
            "amenity": "tyres",
            "mobile": null,
            "addr:street": null,
            "cuisine": null,
            "name": "Hanlas Oto Jant Lastik",
            "name:en": null,
            "name:uk": null,
            "name:de": null,
            "name:tr": null,
            "name:ru": null,
            "name:ar": null
        }
    },
    {
        "lat": 40.9121999,
        "lon": 29.298845,
        "tags": {
            "addr:city": "İstanbul",
            "addr:district": null,
            "description": "",
            "opening_hours": null,
            "phone": null,
            "branch": null,
            "amenity": "tyres",
            "mobile": null,
            "addr:street": null,
            "cuisine": null,
            "name": "Michelin",
            "name:en": null,
            "name:uk": null,
            "name:de": null,
            "name:tr": null,
            "name:ru": null,
            "name:ar": null
        }
    },
    {
        "lat": 40.9686133,
        "lon": 29.1393444,
        "tags": {
            "addr:city": "İstanbul",
            "addr:district": null,
            "description": "",
            "opening_hours": null,
            "phone": null,
            "branch": null,
            "amenity": "tyres",
            "mobile": null,
            "addr:street": null,
            "cuisine": null,
            "name": null,
            "name:en": null,
            "name:uk": null,
            "name:de": null,
            "name:tr": null,
            "name:ru": null,
            "name:ar": null
        }
    },
    {
        "lat": 40.9817053,
        "lon": 28.8834831,
        "tags": {
            "addr:city": "İstanbul",
            "addr:district": null,
            "description": "",
            "opening_hours": null,
            "phone": null,
            "branch": null,
            "amenity": "tyres",
            "mobile": null,
            "addr:street": null,
            "cuisine": null,
            "name": "Cumali",
            "name:en": null,
            "name:uk": null,
            "name:de": null,
            "name:tr": null,
            "name:ru": null,
            "name:ar": null
        }
    },
    {
        "lat": 41.0756543,
        "lon": 28.9698054,
        "tags": {
            "addr:city": "Gürsel Mahallesi",
            "addr:district": "Kağıthane",
            "description": "",
            "opening_hours": null,
            "phone": null,
            "branch": null,
            "amenity": "tyres",
            "mobile": null,
            "addr:street": "İmrahor Caddesi",
            "cuisine": null,
            "name": "DLR Jant Oto Lastik & Rot Balans",
            "name:en": null,
            "name:uk": null,
            "name:de": null,
            "name:tr": null,
            "name:ru": null,
            "name:ar": null
        }
    },
    {
        "lat": 41.0022204,
        "lon": 29.1419825,
        "tags": {
            "addr:city": "İstanbul",
            "addr:district": null,
            "description": "",
            "opening_hours": null,
            "phone": null,
            "branch": null,
            "amenity": "tyres",
            "mobile": null,
            "addr:street": null,
            "cuisine": null,
            "name": null,
            "name:en": null,
            "name:uk": null,
            "name:de": null,
            "name:tr": null,
            "name:ru": null,
            "name:ar": null
        }
    },
    {
        "lat": 41.0553364,
        "lon": 28.8638487,
        "tags": {
            "addr:city": "İstanbul",
            "addr:district": null,
            "description": "",
            "opening_hours": null,
            "phone": "05302844797",
            "branch": null,
            "amenity": "tyres",
            "mobile": null,
            "addr:street": "Anadolu Caddesi",
            "cuisine": null,
            "name": "Alıç Otomotiv Lastik",
            "name:en": null,
            "name:uk": null,
            "name:de": null,
            "name:tr": null,
            "name:ru": null,
            "name:ar": null
        }
    },
    {
        "lat": 41.0103555,
        "lon": 28.6640814,
        "tags": {
            "addr:city": "İstanbul",
            "addr:district": "Esenyurt",
            "description": "",
            "opening_hours": "Mo-Su 08:30-21:00",
            "phone": "+902129312692",
            "branch": null,
            "amenity": "tyres",
            "mobile": null,
            "addr:street": "2102. Sokak",
            "cuisine": null,
            "name": "Lastik Park Önder Oto Lastik",
            "name:en": null,
            "name:uk": null,
            "name:de": null,
            "name:tr": null,
            "name:ru": null,
            "name:ar": null
        }
    },
    {
        "lat": 40.9906241,
        "lon": 28.8709127,
        "tags": {
            "addr:city": "İstanbul",
            "addr:district": null,
            "description": "",
            "opening_hours": null,
            "phone": null,
            "branch": null,
            "amenity": "tyres",
            "mobile": null,
            "addr:street": null,
            "cuisine": null,
            "name": "Candar Ticaret",
            "name:en": null,
            "name:uk": null,
            "name:de": null,
            "name:tr": null,
            "name:ru": null,
            "name:ar": null
        }
    },
    {
        "lat": 41.2233509,
        "lon": 28.4647004,
        "tags": {
            "addr:city": "İstanbul",
            "addr:district": null,
            "description": "",
            "opening_hours": null,
            "phone": null,
            "branch": null,
            "amenity": "tyres",
            "mobile": null,
            "addr:street": null,
            "cuisine": null,
            "name": "Çatalca Oto Lastik",
            "name:en": null,
            "name:uk": null,
            "name:de": null,
            "name:tr": null,
            "name:ru": null,
            "name:ar": null
        }
    },
    {
        "lat": 40.9696553,
        "lon": 29.1098135,
        "tags": {
            "addr:city": "İstanbul",
            "addr:district": null,
            "description": "",
            "opening_hours": null,
            "phone": null,
            "branch": null,
            "amenity": "tyres",
            "mobile": null,
            "addr:street": null,
            "cuisine": null,
            "name": "Levent Lastik",
            "name:en": null,
            "name:uk": null,
            "name:de": null,
            "name:tr": null,
            "name:ru": null,
            "name:ar": null
        }
    },
    {
        "lat": 40.9807819,
        "lon": 29.113353,
        "tags": {
            "addr:city": "İstanbul",
            "addr:district": null,
            "description": "",
            "opening_hours": null,
            "phone": null,
            "branch": null,
            "amenity": "tyres",
            "mobile": null,
            "addr:street": null,
            "cuisine": null,
            "name": "Kardeşler Oto Lastik",
            "name:en": null,
            "name:uk": null,
            "name:de": null,
            "name:tr": null,
            "name:ru": null,
            "name:ar": null
        }
    },
    {
        "lat": 40.9966229,
        "lon": 28.7807867,
        "tags": {
            "addr:city": "İstanbul",
            "addr:district": null,
            "description": "",
            "opening_hours": null,
            "phone": "+905383333207",
            "branch": null,
            "amenity": "tyres",
            "mobile": null,
            "addr:street": "Şehit Şenol Ergün Sokak",
            "cuisine": null,
            "name": "Uzman Lastik Güven Oto Lastik",
            "name:en": null,
            "name:uk": null,
            "name:de": null,
            "name:tr": null,
            "name:ru": null,
            "name:ar": null
        }
    },
    {
        "lat": 40.9851719,
        "lon": 28.7666602,
        "tags": {
            "addr:city": "İstanbul",
            "addr:district": null,
            "description": "",
            "opening_hours": null,
            "phone": null,
            "branch": null,
            "amenity": "tyres",
            "mobile": null,
            "addr:street": null,
            "cuisine": null,
            "name": "Yörkan Lastik",
            "name:en": null,
            "name:uk": null,
            "name:de": null,
            "name:tr": null,
            "name:ru": null,
            "name:ar": null
        }
    },
    {
        "lat": 40.9821872,
        "lon": 29.1104397,
        "tags": {
            "addr:city": "İstanbul",
            "addr:district": null,
            "description": "",
            "opening_hours": null,
            "phone": null,
            "branch": null,
            "amenity": "tyres",
            "mobile": null,
            "addr:street": null,
            "cuisine": null,
            "name": "Lastik Oteli",
            "name:en": null,
            "name:uk": null,
            "name:de": null,
            "name:tr": null,
            "name:ru": null,
            "name:ar": null
        }
    },
    {
        "lat": 40.9701353,
        "lon": 29.1172748,
        "tags": {
            "addr:city": "İstanbul",
            "addr:district": null,
            "description": "",
            "opening_hours": null,
            "phone": null,
            "branch": null,
            "amenity": "tyres",
            "mobile": null,
            "addr:street": null,
            "cuisine": null,
            "name": "Öztürk Oto Lastik & Jant",
            "name:en": null,
            "name:uk": null,
            "name:de": null,
            "name:tr": null,
            "name:ru": null,
            "name:ar": null
        }
    },
    {
        "lat": 41.0819653,
        "lon": 28.9697745,
        "tags": {
            "addr:city": "İstanbul",
            "addr:district": null,
            "description": "",
            "opening_hours": null,
            "phone": null,
            "branch": null,
            "amenity": "tyres",
            "mobile": null,
            "addr:street": null,
            "cuisine": null,
            "name": "Nur Oto Lastik",
            "name:en": null,
            "name:uk": null,
            "name:de": null,
            "name:tr": null,
            "name:ru": null,
            "name:ar": null
        }
    },
    {
        "lat": 40.9922921,
        "lon": 29.2354369,
        "tags": {
            "addr:city": "İstanbul",
            "addr:district": null,
            "description": "",
            "opening_hours": null,
            "phone": null,
            "branch": null,
            "amenity": "tyres",
            "mobile": null,
            "addr:street": null,
            "cuisine": null,
            "name": "Her Lastik",
            "name:en": null,
            "name:uk": null,
            "name:de": null,
            "name:tr": null,
            "name:ru": null,
            "name:ar": null
        }
    },
    {
        "lat": 40.9921774,
        "lon": 29.2339376,
        "tags": {
            "addr:city": "İstanbul",
            "addr:district": null,
            "description": "",
            "opening_hours": null,
            "phone": null,
            "branch": null,
            "amenity": "tyres",
            "mobile": null,
            "addr:street": null,
            "cuisine": null,
            "name": "Adalar Lastik Bank",
            "name:en": null,
            "name:uk": null,
            "name:de": null,
            "name:tr": null,
            "name:ru": null,
            "name:ar": null
        }
    },
    {
        "lat": 41.0463245,
        "lon": 28.9015844,
        "tags": {
            "addr:city": "İstanbul",
            "addr:district": null,
            "description": "",
            "opening_hours": null,
            "phone": null,
            "branch": null,
            "amenity": "tyres",
            "mobile": null,
            "addr:street": null,
            "cuisine": null,
            "name": "İstanbul Oto Lastik",
            "name:en": null,
            "name:uk": null,
            "name:de": null,
            "name:tr": null,
            "name:ru": null,
            "name:ar": null
        }
    },
    {
        "lat": 41.0767581,
        "lon": 28.9332911,
        "tags": {
            "addr:city": "İstanbul",
            "addr:district": null,
            "description": "",
            "opening_hours": null,
            "phone": null,
            "branch": null,
            "amenity": "tyres",
            "mobile": null,
            "addr:street": null,
            "cuisine": null,
            "name": "Black Garage Jant & Lastik",
            "name:en": null,
            "name:uk": null,
            "name:de": null,
            "name:tr": null,
            "name:ru": null,
            "name:ar": null
        }
    },
    {
        "lat": 41.078415,
        "lon": 28.9339797,
        "tags": {
            "addr:city": "İstanbul",
            "addr:district": null,
            "description": "",
            "opening_hours": null,
            "phone": null,
            "branch": null,
            "amenity": "tyres",
            "mobile": null,
            "addr:street": null,
            "cuisine": null,
            "name": "Eren Jant Lastik Premium",
            "name:en": null,
            "name:uk": null,
            "name:de": null,
            "name:tr": null,
            "name:ru": null,
            "name:ar": null
        }
    },
    {
        "lat": 41.0725225,
        "lon": 28.9411761,
        "tags": {
            "addr:city": "İstanbul",
            "addr:district": null,
            "description": "",
            "opening_hours": null,
            "phone": null,
            "branch": null,
            "amenity": "tyres",
            "mobile": null,
            "addr:street": null,
            "cuisine": null,
            "name": "Safran Oto",
            "name:en": null,
            "name:uk": null,
            "name:de": null,
            "name:tr": null,
            "name:ru": null,
            "name:ar": null
        }
    },
    {
        "lat": 41.0763557,
        "lon": 28.9391282,
        "tags": {
            "addr:city": "İstanbul",
            "addr:district": null,
            "description": "",
            "opening_hours": null,
            "phone": null,
            "branch": null,
            "amenity": "tyres",
            "mobile": null,
            "addr:street": null,
            "cuisine": null,
            "name": "Uzman Lastik",
            "name:en": null,
            "name:uk": null,
            "name:de": null,
            "name:tr": null,
            "name:ru": null,
            "name:ar": null
        }
    },
    {
        "lat": 41.0768743,
        "lon": 28.9371722,
        "tags": {
            "addr:city": "İstanbul",
            "addr:district": null,
            "description": "",
            "opening_hours": null,
            "phone": null,
            "branch": null,
            "amenity": "tyres",
            "mobile": null,
            "addr:street": null,
            "cuisine": null,
            "name": "Jant Lastik",
            "name:en": null,
            "name:uk": null,
            "name:de": null,
            "name:tr": null,
            "name:ru": null,
            "name:ar": null
        }
    },
    {
        "lat": 41.0769486,
        "lon": 28.9354154,
        "tags": {
            "addr:city": "İstanbul",
            "addr:district": null,
            "description": "",
            "opening_hours": null,
            "phone": null,
            "branch": null,
            "amenity": "tyres",
            "mobile": null,
            "addr:street": null,
            "cuisine": null,
            "name": "Lastikçi",
            "name:en": null,
            "name:uk": null,
            "name:de": null,
            "name:tr": null,
            "name:ru": null,
            "name:ar": null
        }
    },
    {
        "lat": 41.0715302,
        "lon": 28.1143253,
        "tags": {
            "addr:city": "İstanbul",
            "addr:district": null,
            "description": "",
            "opening_hours": null,
            "phone": null,
            "branch": null,
            "amenity": "tyres",
            "mobile": null,
            "addr:street": null,
            "cuisine": null,
            "name": "Lastikçi",
            "name:en": null,
            "name:uk": null,
            "name:de": null,
            "name:tr": null,
            "name:ru": null,
            "name:ar": null
        }
    },
    {
        "lat": 40.98101,
        "lon": 29.0421413,
        "tags": {
            "addr:city": "İstanbul",
            "addr:district": "Kadıköy",
            "description": "",
            "opening_hours": null,
            "phone": null,
            "branch": "Bridgestone Gök Oto Lastik",
            "amenity": "tyres",
            "mobile": null,
            "addr:street": "Bağdat Caddesi",
            "cuisine": null,
            "name": "Michelin",
            "name:en": null,
            "name:uk": null,
            "name:de": null,
            "name:tr": null,
            "name:ru": null,
            "name:ar": null
        }
    },
    {
        "lat": 41.0212982,
        "lon": 29.1185685,
        "tags": {
            "addr:city": "İstanbul",
            "addr:district": null,
            "description": "",
            "opening_hours": null,
            "phone": null,
            "branch": null,
            "amenity": "tyres",
            "mobile": null,
            "addr:street": null,
            "cuisine": null,
            "name": "Michelin",
            "name:en": null,
            "name:uk": null,
            "name:de": null,
            "name:tr": "Michelin Vatan Lastik",
            "name:ru": null,
            "name:ar": null
        }
    },
    {
        "lat": 41.0108972,
        "lon": 29.2800276,
        "tags": {
            "addr:city": "İstanbul",
            "addr:district": null,
            "description": "",
            "opening_hours": null,
            "phone": null,
            "branch": null,
            "amenity": "tyres",
            "mobile": null,
            "addr:street": null,
            "cuisine": null,
            "name": "Oto Lastik",
            "name:en": null,
            "name:uk": null,
            "name:de": null,
            "name:tr": null,
            "name:ru": null,
            "name:ar": null
        }
    },
    {
        "lat": 41.0460783,
        "lon": 28.9031297,
        "tags": {
            "addr:city": "İstanbul",
            "addr:district": "Bayrampaşa",
            "description": "",
            "opening_hours": null,
            "phone": "+90 543 527 1820",
            "branch": null,
            "amenity": "tyres",
            "mobile": null,
            "addr:street": "Tuna Caddesi",
            "cuisine": null,
            "name": "Berat Jant & Lastik",
            "name:en": null,
            "name:uk": null,
            "name:de": null,
            "name:tr": null,
            "name:ru": null,
            "name:ar": null
        }
    },
    {
        "lat": 41.0736606,
        "lon": 29.0704765,
        "tags": {
            "addr:city": "İstanbul",
            "addr:district": null,
            "description": "",
            "opening_hours": null,
            "phone": null,
            "branch": null,
            "amenity": "tyres",
            "mobile": null,
            "addr:street": null,
            "cuisine": null,
            "name": "Boğaziçi Oto Lastik",
            "name:en": null,
            "name:uk": null,
            "name:de": null,
            "name:tr": null,
            "name:ru": null,
            "name:ar": null
        }
    },
    {
        "lat": 40.9779351,
        "lon": 29.1137203,
        "tags": {
            "addr:city": "İstanbul",
            "addr:district": null,
            "description": "",
            "opening_hours": null,
            "phone": null,
            "branch": null,
            "amenity": "tyres",
            "mobile": null,
            "addr:street": null,
            "cuisine": null,
            "name": "Otorad Oto Lastik",
            "name:en": null,
            "name:uk": null,
            "name:de": null,
            "name:tr": null,
            "name:ru": null,
            "name:ar": null
        }
    },
    {
        "lat": 40.9857299,
        "lon": 29.0972825,
        "tags": {
            "addr:city": "İstanbul",
            "addr:district": "Ataşehir",
            "description": "",
            "opening_hours": null,
            "phone": null,
            "branch": "Sgs Otomotiv",
            "amenity": "tyres",
            "mobile": null,
            "addr:street": "Sütçü Yolu Caddesi",
            "cuisine": null,
            "name": "Lastik Park",
            "name:en": null,
            "name:uk": null,
            "name:de": null,
            "name:tr": null,
            "name:ru": null,
            "name:ar": null
        }
    },
    {
        "lat": 41.1812935,
        "lon": 28.7321046,
        "tags": {
            "addr:city": "İstanbul",
            "addr:district": null,
            "description": "",
            "opening_hours": null,
            "phone": null,
            "branch": null,
            "amenity": "tyres",
            "mobile": null,
            "addr:street": null,
            "cuisine": null,
            "name": "Eymen Oto Lastik Aksesuar",
            "name:en": null,
            "name:uk": null,
            "name:de": null,
            "name:tr": null,
            "name:ru": null,
            "name:ar": null
        }
    },
    {
        "lat": 40.9326298,
        "lon": 29.1369795,
        "tags": {
            "addr:city": "İstanbul",
            "addr:district": null,
            "description": "",
            "opening_hours": null,
            "phone": null,
            "branch": null,
            "amenity": "tyres",
            "mobile": null,
            "addr:street": null,
            "cuisine": null,
            "name": "Çelebi Oto Lastik",
            "name:en": null,
            "name:uk": null,
            "name:de": null,
            "name:tr": null,
            "name:ru": null,
            "name:ar": null
        }
    },
    {
        "lat": 41.0010846,
        "lon": 28.6181088,
        "tags": {
            "addr:city": "İstanbul",
            "addr:district": "Büyükçekmece",
            "description": "Toptan ve Perakende Oto Lastik ve Jant Mağazası",
            "opening_hours": "Mo-Su 08:00-20:00",
            "phone": null,
            "branch": null,
            "amenity": "tyres",
            "mobile": null,
            "addr:street": "Avrupa Caddesi",
            "cuisine": null,
            "name": "Yusuf Güney - Lastik Time",
            "name:en": null,
            "name:uk": null,
            "name:de": null,
            "name:tr": null,
            "name:ru": null,
            "name:ar": null
        }
    },
    {
        "lat": 41.0696759,
        "lon": 28.7478894,
        "tags": {
            "addr:city": "İstanbul",
            "addr:district": "Altınşehir",
            "description": "",
            "opening_hours": null,
            "phone": null,
            "branch": null,
            "amenity": "tyres",
            "mobile": "+90 537 997 05 78",
            "addr:street": "Barbaros Caddesi",
            "cuisine": null,
            "name": "2M Oto Lastik Deposu",
            "name:en": null,
            "name:uk": null,
            "name:de": null,
            "name:tr": null,
            "name:ru": null,
            "name:ar": null
        }
    },
    {
        "lat": 41.0981705,
        "lon": 28.7917211,
        "tags": {
            "addr:city": "İstanbul",
            "addr:district": null,
            "description": "",
            "opening_hours": null,
            "phone": "+905323250459",
            "branch": null,
            "amenity": "tyres",
            "mobile": null,
            "addr:street": null,
            "cuisine": null,
            "name": "Alper Oto Lastik 7/24 Yol Yardım",
            "name:en": null,
            "name:uk": null,
            "name:de": null,
            "name:tr": null,
            "name:ru": null,
            "name:ar": null
        }
    },
    {
        "lat": 41.0997309,
        "lon": 28.8992477,
        "tags": {
            "addr:city": "İstanbul",
            "addr:district": null,
            "description": "",
            "opening_hours": null,
            "phone": null,
            "branch": null,
            "amenity": "tyres",
            "mobile": null,
            "addr:street": null,
            "cuisine": null,
            "name": null,
            "name:en": null,
            "name:uk": null,
            "name:de": null,
            "name:tr": null,
            "name:ru": null,
            "name:ar": null
        }
    },
    {
        "lat": 41.0141659,
        "lon": 28.7980553,
        "tags": {
            "addr:city": "İstanbul",
            "addr:district": null,
            "description": "",
            "opening_hours": null,
            "phone": "+90 212 541 07 87",
            "branch": null,
            "amenity": "tyres",
            "mobile": null,
            "addr:street": "Halkalı Caddesi",
            "cuisine": null,
            "name": "Aloğlu Otomotiv Continental Lastik Jant Akü",
            "name:en": null,
            "name:uk": null,
            "name:de": null,
            "name:tr": null,
            "name:ru": null,
            "name:ar": null
        }
    },
    {
        "lat": 41.0404788,
        "lon": 29.0918472,
        "tags": {
            "addr:city": "İstanbul",
            "addr:district": null,
            "description": "",
            "opening_hours": null,
            "phone": null,
            "branch": null,
            "amenity": "tyres",
            "mobile": null,
            "addr:street": null,
            "cuisine": null,
            "name": null,
            "name:en": null,
            "name:uk": null,
            "name:de": null,
            "name:tr": null,
            "name:ru": null,
            "name:ar": null
        }
    },
    {
        "lat": 41.0378116,
        "lon": 29.0903502,
        "tags": {
            "addr:city": "İstanbul",
            "addr:district": null,
            "description": "",
            "opening_hours": null,
            "phone": null,
            "branch": null,
            "amenity": "tyres",
            "mobile": null,
            "addr:street": null,
            "cuisine": null,
            "name": "Tekbir Oto Lastik Servis",
            "name:en": null,
            "name:uk": null,
            "name:de": null,
            "name:tr": null,
            "name:ru": null,
            "name:ar": null
        }
    },
    {
        "lat": 41.0705401,
        "lon": 28.2763086,
        "tags": {
            "addr:city": "İstanbul",
            "addr:district": null,
            "description": "",
            "opening_hours": null,
            "phone": "+905427904210",
            "branch": null,
            "amenity": "tyres",
            "mobile": null,
            "addr:street": null,
            "cuisine": null,
            "name": "Tues Lastikçi",
            "name:en": null,
            "name:uk": null,
            "name:de": null,
            "name:tr": null,
            "name:ru": null,
            "name:ar": null
        }
    },
    {
        "lat": 40.9320825,
        "lon": 29.1362916,
        "tags": {
            "addr:city": "İstanbul",
            "addr:district": null,
            "description": "",
            "opening_hours": null,
            "phone": null,
            "branch": null,
            "amenity": "tyres",
            "mobile": null,
            "addr:street": null,
            "cuisine": null,
            "name": null,
            "name:en": null,
            "name:uk": null,
            "name:de": null,
            "name:tr": null,
            "name:ru": null,
            "name:ar": null
        }
    },
    {
        "lat": 41.0132763,
        "lon": 29.1996351,
        "tags": {
            "addr:city": "İstanbul",
            "addr:district": null,
            "description": "",
            "opening_hours": null,
            "phone": null,
            "branch": null,
            "amenity": "tyres",
            "mobile": null,
            "addr:street": null,
            "cuisine": null,
            "name": "Erdemir Oto Lastik",
            "name:en": null,
            "name:uk": null,
            "name:de": null,
            "name:tr": null,
            "name:ru": null,
            "name:ar": null
        }
    }
]