[
    {
        "lat": 41.0412583,
        "lon": 28.7863706,
        "tags": {
            "addr:city": "İstanbul",
            "addr:district": null,
            "description": "",
            "opening_hours": null,
            "phone": null,
            "branch": null,
            "amenity": "variety_store",
            "mobile": null,
            "addr:street": null,
            "cuisine": null,
            "name": null,
            "name:en": null,
            "name:uk": null,
            "name:de": null,
            "name:tr": "Atakent Züccaciye",
            "name:ru": null,
            "name:ar": null
        }
    },
    {
        "lat": 41.1068473,
        "lon": 28.860152,
        "tags": {
            "addr:city": "İstanbul",
            "addr:district": null,
            "description": "",
            "opening_hours": null,
            "phone": null,
            "branch": null,
            "amenity": "variety_store",
            "mobile": null,
            "addr:street": null,
            "cuisine": null,
            "name": "CURCUNA",
            "name:en": null,
            "name:uk": null,
            "name:de": null,
            "name:tr": null,
            "name:ru": null,
            "name:ar": null
        }
    },
    {
        "lat": 41.1078662,
        "lon": 28.8624848,
        "tags": {
            "addr:city": "İstanbul",
            "addr:district": null,
            "description": "",
            "opening_hours": null,
            "phone": null,
            "branch": null,
            "amenity": "variety_store",
            "mobile": null,
            "addr:street": null,
            "cuisine": null,
            "name": "Cebeci avm",
            "name:en": null,
            "name:uk": null,
            "name:de": null,
            "name:tr": null,
            "name:ru": null,
            "name:ar": null
        }
    },
    {
        "lat": 41.1085081,
        "lon": 28.8646901,
        "tags": {
            "addr:city": "İstanbul",
            "addr:district": null,
            "description": "",
            "opening_hours": null,
            "phone": null,
            "branch": null,
            "amenity": "variety_store",
            "mobile": null,
            "addr:street": null,
            "cuisine": null,
            "name": "Tahtakale",
            "name:en": null,
            "name:uk": null,
            "name:de": null,
            "name:tr": null,
            "name:ru": null,
            "name:ar": null
        }
    },
    {
        "lat": 40.9036804,
        "lon": 29.1696455,
        "tags": {
            "addr:city": "İstanbul",
            "addr:district": null,
            "description": "",
            "opening_hours": null,
            "phone": null,
            "branch": null,
            "amenity": "variety_store",
            "mobile": null,
            "addr:street": null,
            "cuisine": null,
            "name": "Tedi",
            "name:en": null,
            "name:uk": null,
            "name:de": null,
            "name:tr": null,
            "name:ru": null,
            "name:ar": null
        }
    },
    {
        "lat": 41.1329634,
        "lon": 28.8343587,
        "tags": {
            "addr:city": "İstanbul",
            "addr:district": null,
            "description": "",
            "opening_hours": null,
            "phone": null,
            "branch": null,
            "amenity": "variety_store",
            "mobile": null,
            "addr:street": null,
            "cuisine": null,
            "name": "Ebrar",
            "name:en": null,
            "name:uk": null,
            "name:de": null,
            "name:tr": null,
            "name:ru": null,
            "name:ar": null
        }
    },
    {
        "lat": 40.9661684,
        "lon": 29.2708103,
        "tags": {
            "addr:city": "Istanbul",
            "addr:district": "Sultanbeyli",
            "description": "",
            "opening_hours": "Mo-Fr 07:00-13:30; Mo-Fr 17:00-20:00",
            "phone": "05343366885",
            "branch": null,
            "amenity": "variety_store",
            "mobile": null,
            "addr:street": "Faith Bulvarı",
            "cuisine": null,
            "name": "Halk Avm",
            "name:en": null,
            "name:uk": null,
            "name:de": null,
            "name:tr": null,
            "name:ru": null,
            "name:ar": "متجر هدايا"
        }
    },
    {
        "lat": 40.936413,
        "lon": 29.1263218,
        "tags": {
            "addr:city": "İstanbul",
            "addr:district": null,
            "description": "",
            "opening_hours": "Mo-Su 09:00-21:00",
            "phone": null,
            "branch": null,
            "amenity": "variety_store",
            "mobile": null,
            "addr:street": null,
            "cuisine": null,
            "name": "Hakmar",
            "name:en": null,
            "name:uk": null,
            "name:de": null,
            "name:tr": null,
            "name:ru": null,
            "name:ar": null
        }
    },
    {
        "lat": 40.9646765,
        "lon": 29.2793114,
        "tags": {
            "addr:city": "Istanbul",
            "addr:district": "Sultanbeyli",
            "description": "",
            "opening_hours": "24/7",
            "phone": null,
            "branch": null,
            "amenity": "variety_store",
            "mobile": null,
            "addr:street": "Fatih Bulvarı Caddesi",
            "cuisine": null,
            "name": "Yeni Çarşı AVM",
            "name:en": null,
            "name:uk": null,
            "name:de": null,
            "name:tr": null,
            "name:ru": null,
            "name:ar": "محل تشارشي"
        }
    },
    {
        "lat": 40.9875113,
        "lon": 29.2642307,
        "tags": {
            "addr:city": "Istanbul",
            "addr:district": "Sultanbeyli",
            "description": "",
            "opening_hours": "Mo-Fr 07:00-13:30; Mo-Fr 17:00-20:00",
            "phone": "05356174764",
            "branch": null,
            "amenity": "variety_store",
            "mobile": null,
            "addr:street": "basra Caddesi",
            "cuisine": null,
            "name": "Branda",
            "name:en": null,
            "name:uk": null,
            "name:de": null,
            "name:tr": null,
            "name:ru": null,
            "name:ar": "ماركت برندا"
        }
    },
    {
        "lat": 40.9685925,
        "lon": 29.255387,
        "tags": {
            "addr:city": "Istanbul",
            "addr:district": "Sultanbeyli",
            "description": "",
            "opening_hours": "Mo-Fr 07:00-13:30; Mo-Fr 17:00-20:00",
            "phone": null,
            "branch": null,
            "amenity": "variety_store",
            "mobile": null,
            "addr:street": "Fatih Bulvarı Caddesi",
            "cuisine": null,
            "name": "Halk pazarı",
            "name:en": null,
            "name:uk": null,
            "name:de": null,
            "name:tr": null,
            "name:ru": null,
            "name:ar": "أدوات منزلية هالاك"
        }
    },
    {
        "lat": 40.9870011,
        "lon": 29.2639518,
        "tags": {
            "addr:city": "Istanbul",
            "addr:district": "Sultanbeyli",
            "description": "",
            "opening_hours": "Mo-Fr 07:00-13:30; Mo-Fr 17:00-20:00",
            "phone": null,
            "branch": null,
            "amenity": "variety_store",
            "mobile": null,
            "addr:street": "bosna Caddesi",
            "cuisine": null,
            "name": "Kılınç AVM",
            "name:en": null,
            "name:uk": null,
            "name:de": null,
            "name:tr": null,
            "name:ru": null,
            "name:ar": "أدوات منزلية كيلينج افم"
        }
    },
    {
        "lat": 40.9720939,
        "lon": 29.2480798,
        "tags": {
            "addr:city": "Istanbul",
            "addr:district": "Sultanbeyli",
            "description": "",
            "opening_hours": "Mo-Fr 07:00-13:30; Mo-Fr 17:00-20:00",
            "phone": null,
            "branch": null,
            "amenity": "variety_store",
            "mobile": null,
            "addr:street": "شارع الريحان reyhan sokak",
            "cuisine": null,
            "name": "Nazar AVM",
            "name:en": null,
            "name:uk": null,
            "name:de": null,
            "name:tr": null,
            "name:ru": null,
            "name:ar": "نازار متجر صيني"
        }
    },
    {
        "lat": 41.0090426,
        "lon": 28.9112513,
        "tags": {
            "addr:city": "Istanbul",
            "addr:district": "Zeytinburnu",
            "description": "",
            "opening_hours": null,
            "phone": null,
            "branch": null,
            "amenity": "variety_store",
            "mobile": null,
            "addr:street": "Yeni Çiftlik Caddesi",
            "cuisine": null,
            "name": "Özkan Alışveriş Merkezi",
            "name:en": null,
            "name:uk": null,
            "name:de": null,
            "name:tr": null,
            "name:ru": null,
            "name:ar": "مركز اوزكان التسوقي"
        }
    },
    {
        "lat": 40.9979945,
        "lon": 28.9033771,
        "tags": {
            "addr:city": "Istanbul",
            "addr:district": "Zeytinburnu",
            "description": "",
            "opening_hours": "Mo-Fr 09:00-17:00",
            "phone": null,
            "branch": null,
            "amenity": "variety_store",
            "mobile": null,
            "addr:street": null,
            "cuisine": null,
            "name": "Tahta Kale ucuzluk pazarı",
            "name:en": null,
            "name:uk": null,
            "name:de": null,
            "name:tr": null,
            "name:ru": null,
            "name:ar": "محل تهتا كالى لبيع الأشياء المتنوعة"
        }
    },
    {
        "lat": 41.0042132,
        "lon": 28.9047181,
        "tags": {
            "addr:city": "Istanbul",
            "addr:district": "Zeytinburnu",
            "description": "",
            "opening_hours": null,
            "phone": null,
            "branch": null,
            "amenity": "variety_store",
            "mobile": null,
            "addr:street": "Mevlana Cd",
            "cuisine": null,
            "name": "Mevlana Çarşım",
            "name:en": null,
            "name:uk": null,
            "name:de": null,
            "name:tr": null,
            "name:ru": null,
            "name:ar": "سوق مولانا ( كل شي من 3 إلى 5 )"
        }
    },
    {
        "lat": 41.0037709,
        "lon": 28.9038959,
        "tags": {
            "addr:city": "Istanbul",
            "addr:district": "Zeytinburnu",
            "description": "",
            "opening_hours": "Mo-Fr 09:00-17:00",
            "phone": null,
            "branch": null,
            "amenity": "variety_store",
            "mobile": null,
            "addr:street": null,
            "cuisine": null,
            "name": "Armanda Alışveriş Merkezi",
            "name:en": null,
            "name:uk": null,
            "name:de": null,
            "name:tr": null,
            "name:ru": null,
            "name:ar": "محل تسوق ارماندا"
        }
    },
    {
        "lat": 40.9996435,
        "lon": 28.9127665,
        "tags": {
            "addr:city": "Istanbul",
            "addr:district": "Zeytinburnu",
            "description": "",
            "opening_hours": null,
            "phone": null,
            "branch": null,
            "amenity": "variety_store",
            "mobile": null,
            "addr:street": null,
            "cuisine": null,
            "name": "ÖZÜN AVM",
            "name:en": null,
            "name:uk": null,
            "name:de": null,
            "name:tr": null,
            "name:ru": null,
            "name:ar": "محل احتياجات متنوعة"
        }
    },
    {
        "lat": 40.9993849,
        "lon": 28.9119367,
        "tags": {
            "addr:city": "Istanbul",
            "addr:district": "Zeytinburnu",
            "description": "",
            "opening_hours": null,
            "phone": null,
            "branch": null,
            "amenity": "variety_store",
            "mobile": null,
            "addr:street": null,
            "cuisine": null,
            "name": "KAMİT ÇARŞI",
            "name:en": null,
            "name:uk": null,
            "name:de": null,
            "name:tr": null,
            "name:ru": null,
            "name:ar": "سوبر ماركت"
        }
    },
    {
        "lat": 40.9987242,
        "lon": 28.910533,
        "tags": {
            "addr:city": "Istanbul",
            "addr:district": "Zeytinburnu",
            "description": "",
            "opening_hours": null,
            "phone": null,
            "branch": null,
            "amenity": "variety_store",
            "mobile": null,
            "addr:street": null,
            "cuisine": null,
            "name": "Ozkan AVM",
            "name:en": null,
            "name:uk": null,
            "name:de": null,
            "name:tr": null,
            "name:ru": null,
            "name:ar": "اوزكان"
        }
    },
    {
        "lat": 40.9996585,
        "lon": 28.9126473,
        "tags": {
            "addr:city": "Istanbul",
            "addr:district": "Zeytinburnu",
            "description": "",
            "opening_hours": null,
            "phone": null,
            "branch": null,
            "amenity": "variety_store",
            "mobile": null,
            "addr:street": null,
            "cuisine": null,
            "name": "ÖZ KAYALAR",
            "name:en": null,
            "name:uk": null,
            "name:de": null,
            "name:tr": null,
            "name:ru": null,
            "name:ar": "محل احتياجات متنوعة"
        }
    },
    {
        "lat": 40.9977958,
        "lon": 28.9116211,
        "tags": {
            "addr:city": "Istanbul",
            "addr:district": "Zeytinburnu",
            "description": "",
            "opening_hours": null,
            "phone": null,
            "branch": null,
            "amenity": "variety_store",
            "mobile": null,
            "addr:street": null,
            "cuisine": null,
            "name": "MEVLANA ÇARŞIM",
            "name:en": null,
            "name:uk": null,
            "name:de": null,
            "name:tr": null,
            "name:ru": null,
            "name:ar": "سوبر ماركت"
        }
    },
    {
        "lat": 40.9908423,
        "lon": 28.8998191,
        "tags": {
            "addr:city": "Istanbul",
            "addr:district": "Zeytinburnu",
            "description": "",
            "opening_hours": "Mo-Su 09:00-20:00",
            "phone": null,
            "branch": null,
            "amenity": "variety_store",
            "mobile": null,
            "addr:street": null,
            "cuisine": null,
            "name": "Yeşil Ucuzluk Pazarı",
            "name:en": null,
            "name:uk": null,
            "name:de": null,
            "name:tr": null,
            "name:ru": null,
            "name:ar": "يشيل تبة اوجوزلوك بزار"
        }
    },
    {
        "lat": 40.9902044,
        "lon": 28.9053025,
        "tags": {
            "addr:city": "Istanbul",
            "addr:district": "Zeytinburnu",
            "description": "",
            "opening_hours": null,
            "phone": null,
            "branch": null,
            "amenity": "variety_store",
            "mobile": null,
            "addr:street": "48 Sokak",
            "cuisine": null,
            "name": "Simarik",
            "name:en": null,
            "name:uk": null,
            "name:de": null,
            "name:tr": null,
            "name:ru": null,
            "name:ar": "شيمارك"
        }
    },
    {
        "lat": 40.9906073,
        "lon": 28.9068106,
        "tags": {
            "addr:city": "Istanbul",
            "addr:district": "Zeytinburnu",
            "description": "",
            "opening_hours": null,
            "phone": null,
            "branch": null,
            "amenity": "variety_store",
            "mobile": null,
            "addr:street": "44/1 Sokak",
            "cuisine": null,
            "name": "Hazimi carsi",
            "name:en": null,
            "name:uk": null,
            "name:de": null,
            "name:tr": null,
            "name:ru": null,
            "name:ar": "هازيمي جارشي"
        }
    },
    {
        "lat": 40.9941813,
        "lon": 28.9008453,
        "tags": {
            "addr:city": "Istanbul",
            "addr:district": "Zeytinburnu",
            "description": "",
            "opening_hours": "Mo-Su 09:00-21:00",
            "phone": null,
            "branch": null,
            "amenity": "variety_store",
            "mobile": null,
            "addr:street": null,
            "cuisine": null,
            "name": "Bin Bir Çeşit variety",
            "name:en": null,
            "name:uk": null,
            "name:de": null,
            "name:tr": null,
            "name:ru": null,
            "name:ar": "بين بير تشيشيت"
        }
    },
    {
        "lat": 40.9941512,
        "lon": 28.9005531,
        "tags": {
            "addr:city": "Istanbul",
            "addr:district": "Zeytinburnu",
            "description": "",
            "opening_hours": "Mo-Su 09:00-21:00",
            "phone": null,
            "branch": null,
            "amenity": "variety_store",
            "mobile": null,
            "addr:street": null,
            "cuisine": null,
            "name": "Taha AVM",
            "name:en": null,
            "name:uk": null,
            "name:de": null,
            "name:tr": null,
            "name:ru": null,
            "name:ar": "مركز تسوق تاها"
        }
    },
    {
        "lat": 40.9941111,
        "lon": 28.8996234,
        "tags": {
            "addr:city": "Istanbul",
            "addr:district": "Zeytinburnu",
            "description": "",
            "opening_hours": "Mo-Su 09:00-21:00",
            "phone": null,
            "branch": null,
            "amenity": "variety_store",
            "mobile": null,
            "addr:street": null,
            "cuisine": null,
            "name": "Çatalca Variety",
            "name:en": null,
            "name:uk": null,
            "name:de": null,
            "name:tr": null,
            "name:ru": null,
            "name:ar": "تشاتلاجا لبيع الاغراض المتنوعة"
        }
    },
    {
        "lat": 40.9950757,
        "lon": 28.8997604,
        "tags": {
            "addr:city": "Istanbul",
            "addr:district": "Zeytinburnu",
            "description": "",
            "opening_hours": null,
            "phone": null,
            "branch": null,
            "amenity": "variety_store",
            "mobile": null,
            "addr:street": "Ahmet yesevi sokak",
            "cuisine": null,
            "name": "Tahtakale ucuzluk",
            "name:en": null,
            "name:uk": null,
            "name:de": null,
            "name:tr": null,
            "name:ru": null,
            "name:ar": "محل احتياجات متنوعة"
        }
    },
    {
        "lat": 40.9955726,
        "lon": 28.8983071,
        "tags": {
            "addr:city": "Istanbul",
            "addr:district": "Zeytinburnu",
            "description": "",
            "opening_hours": null,
            "phone": null,
            "branch": null,
            "amenity": "variety_store",
            "mobile": null,
            "addr:street": "Ahmet yesevi sokak",
            "cuisine": null,
            "name": "Nokta züccaciye",
            "name:en": null,
            "name:uk": null,
            "name:de": null,
            "name:tr": null,
            "name:ru": null,
            "name:ar": "بائع زجاجيات"
        }
    },
    {
        "lat": 40.9880579,
        "lon": 28.904554,
        "tags": {
            "addr:city": "Istanbul",
            "addr:district": "Zeytinburnu",
            "description": "",
            "opening_hours": null,
            "phone": null,
            "branch": null,
            "amenity": "variety_store",
            "mobile": null,
            "addr:street": "50/1 Sokak",
            "cuisine": null,
            "name": "Bulwar",
            "name:en": null,
            "name:uk": null,
            "name:de": null,
            "name:tr": null,
            "name:ru": null,
            "name:ar": "بولوار"
        }
    },
    {
        "lat": 40.9941722,
        "lon": 28.8997054,
        "tags": {
            "addr:city": "Istanbul",
            "addr:district": "Zeytinburnu",
            "description": "",
            "opening_hours": null,
            "phone": null,
            "branch": null,
            "amenity": "variety_store",
            "mobile": null,
            "addr:street": "74. sok.",
            "cuisine": null,
            "name": "Şımarık",
            "name:en": null,
            "name:uk": null,
            "name:de": null,
            "name:tr": null,
            "name:ru": null,
            "name:ar": "شيمارك"
        }
    },
    {
        "lat": 40.9851311,
        "lon": 28.9088205,
        "tags": {
            "addr:city": "Istanbul",
            "addr:district": "Zeytinburnu",
            "description": "",
            "opening_hours": null,
            "phone": null,
            "branch": null,
            "amenity": "variety_store",
            "mobile": null,
            "addr:street": null,
            "cuisine": null,
            "name": "Derimod Depo",
            "name:en": null,
            "name:uk": null,
            "name:de": null,
            "name:tr": null,
            "name:ru": null,
            "name:ar": null
        }
    },
    {
        "lat": 40.9863577,
        "lon": 28.9042606,
        "tags": {
            "addr:city": "Istanbul",
            "addr:district": "Zeytinburnu",
            "description": "",
            "opening_hours": null,
            "phone": null,
            "branch": null,
            "amenity": "variety_store",
            "mobile": null,
            "addr:street": "58. Bulvar Caddesi",
            "cuisine": null,
            "name": "58 Takı",
            "name:en": null,
            "name:uk": null,
            "name:de": null,
            "name:tr": null,
            "name:ru": null,
            "name:ar": "تاكي ٥٨"
        }
    },
    {
        "lat": 40.9898265,
        "lon": 28.9054144,
        "tags": {
            "addr:city": "Istanbul",
            "addr:district": "Zeytinburnu",
            "description": "",
            "opening_hours": null,
            "phone": null,
            "branch": null,
            "amenity": "variety_store",
            "mobile": null,
            "addr:street": "48. sokak",
            "cuisine": null,
            "name": "ŞIMARIK",
            "name:en": null,
            "name:uk": null,
            "name:de": null,
            "name:tr": null,
            "name:ru": null,
            "name:ar": "شمارك"
        }
    },
    {
        "lat": 40.9957575,
        "lon": 28.9107579,
        "tags": {
            "addr:city": "Istanbul",
            "addr:district": "Zeytinburnu",
            "description": "",
            "opening_hours": null,
            "phone": null,
            "branch": null,
            "amenity": "variety_store",
            "mobile": null,
            "addr:street": null,
            "cuisine": null,
            "name": "Yağmur AVM",
            "name:en": null,
            "name:uk": null,
            "name:de": null,
            "name:tr": null,
            "name:ru": null,
            "name:ar": "مول ياغمور"
        }
    },
    {
        "lat": 40.9926661,
        "lon": 28.8969353,
        "tags": {
            "addr:city": "Istanbul",
            "addr:district": "Zeytinburnu",
            "description": "",
            "opening_hours": "Mo-Su 09:00-21:00",
            "phone": null,
            "branch": null,
            "amenity": "variety_store",
            "mobile": null,
            "addr:street": null,
            "cuisine": null,
            "name": "Variety Store",
            "name:en": null,
            "name:uk": null,
            "name:de": null,
            "name:tr": null,
            "name:ru": null,
            "name:ar": "محل بيع منوعات"
        }
    },
    {
        "lat": 41.0462822,
        "lon": 28.8462323,
        "tags": {
            "addr:city": "Istanbul",
            "addr:district": "Bağcılar",
            "description": "",
            "opening_hours": null,
            "phone": null,
            "branch": null,
            "amenity": "variety_store",
            "mobile": null,
            "addr:street": "Velioğlu caddesi",
            "cuisine": null,
            "name": "Karınca",
            "name:en": null,
            "name:uk": null,
            "name:de": null,
            "name:tr": null,
            "name:ru": null,
            "name:ar": "كارينجى"
        }
    },
    {
        "lat": 41.0465064,
        "lon": 28.8585805,
        "tags": {
            "addr:city": "Istanbul",
            "addr:district": null,
            "description": "",
            "opening_hours": null,
            "phone": null,
            "branch": null,
            "amenity": "variety_store",
            "mobile": null,
            "addr:street": "2004 Sokak",
            "cuisine": null,
            "name": "Medine Ucuzluk Pazar",
            "name:en": null,
            "name:uk": null,
            "name:de": null,
            "name:tr": null,
            "name:ru": null,
            "name:ar": "مدينة اوجوزلوك بازار"
        }
    },
    {
        "lat": 41.0515312,
        "lon": 28.8492839,
        "tags": {
            "addr:city": "Istanbul",
            "addr:district": "Zeytinburnu",
            "description": "",
            "opening_hours": null,
            "phone": null,
            "branch": null,
            "amenity": "variety_store",
            "mobile": null,
            "addr:street": null,
            "cuisine": null,
            "name": "OZAN ÇARŞI",
            "name:en": null,
            "name:uk": null,
            "name:de": null,
            "name:tr": null,
            "name:ru": null,
            "name:ar": "محل منزلية"
        }
    },
    {
        "lat": 41.0601621,
        "lon": 28.8527314,
        "tags": {
            "addr:city": "Istanbul",
            "addr:district": "Bağcılar",
            "description": "",
            "opening_hours": null,
            "phone": null,
            "branch": null,
            "amenity": "variety_store",
            "mobile": null,
            "addr:street": "Kışla caddesi",
            "cuisine": null,
            "name": "Belinay",
            "name:en": null,
            "name:uk": null,
            "name:de": null,
            "name:tr": null,
            "name:ru": null,
            "name:ar": "بيلين اي"
        }
    },
    {
        "lat": 41.0547905,
        "lon": 28.8463672,
        "tags": {
            "addr:city": "Istanbul",
            "addr:district": "Bağcılar",
            "description": "",
            "opening_hours": null,
            "phone": null,
            "branch": null,
            "amenity": "variety_store",
            "mobile": null,
            "addr:street": null,
            "cuisine": null,
            "name": "Bağcılar Salı pazarı",
            "name:en": null,
            "name:uk": null,
            "name:de": null,
            "name:tr": null,
            "name:ru": null,
            "name:ar": "بغجلار سالي بازار"
        }
    },
    {
        "lat": 41.0519148,
        "lon": 28.8493374,
        "tags": {
            "addr:city": "Istanbul",
            "addr:district": "Zeytinburnu",
            "description": "",
            "opening_hours": null,
            "phone": null,
            "branch": null,
            "amenity": "variety_store",
            "mobile": null,
            "addr:street": null,
            "cuisine": null,
            "name": "GÜNEŞ AVM",
            "name:en": null,
            "name:uk": null,
            "name:de": null,
            "name:tr": null,
            "name:ru": null,
            "name:ar": "محل ادوات منزلية"
        }
    },
    {
        "lat": 41.061189,
        "lon": 28.8539478,
        "tags": {
            "addr:city": "Istanbul",
            "addr:district": "Bağcılar",
            "description": "",
            "opening_hours": null,
            "phone": null,
            "branch": null,
            "amenity": "variety_store",
            "mobile": null,
            "addr:street": "Pazar Sokak",
            "cuisine": null,
            "name": "Huzur Çarşı",
            "name:en": null,
            "name:uk": null,
            "name:de": null,
            "name:tr": null,
            "name:ru": null,
            "name:ar": "هوزور جارشى"
        }
    },
    {
        "lat": 41.0497539,
        "lon": 28.8358115,
        "tags": {
            "addr:city": "Istanbul",
            "addr:district": "Bağcılar",
            "description": "",
            "opening_hours": null,
            "phone": null,
            "branch": null,
            "amenity": "variety_store",
            "mobile": null,
            "addr:street": "Buhara sokak",
            "cuisine": null,
            "name": "Tahtakale Ucuzluk Pazarı",
            "name:en": null,
            "name:uk": null,
            "name:de": null,
            "name:tr": null,
            "name:ru": null,
            "name:ar": "تاهتاكالى اوج اوزلوك بازارى"
        }
    },
    {
        "lat": 41.0343541,
        "lon": 28.8395703,
        "tags": {
            "addr:city": "Istanbul",
            "addr:district": "Bağcılar",
            "description": "",
            "opening_hours": null,
            "phone": null,
            "branch": null,
            "amenity": "variety_store",
            "mobile": null,
            "addr:street": "Zübeyde hanım caddesi",
            "cuisine": null,
            "name": "Tedi",
            "name:en": null,
            "name:uk": null,
            "name:de": null,
            "name:tr": null,
            "name:ru": null,
            "name:ar": "نيدي للادوات المنزلية"
        }
    },
    {
        "lat": 41.0255799,
        "lon": 28.8455863,
        "tags": {
            "addr:city": "Istanbul",
            "addr:district": "Bağcılar",
            "description": "",
            "opening_hours": null,
            "phone": null,
            "branch": null,
            "amenity": "variety_store",
            "mobile": null,
            "addr:street": "2. sokak",
            "cuisine": null,
            "name": "Handere ucuzluk pazarı",
            "name:en": null,
            "name:uk": null,
            "name:de": null,
            "name:tr": null,
            "name:ru": null,
            "name:ar": "اوجوزلوك بازاره"
        }
    },
    {
        "lat": 41.0315879,
        "lon": 28.8451462,
        "tags": {
            "addr:city": "Istanbul",
            "addr:district": "Bağcılar",
            "description": "",
            "opening_hours": null,
            "phone": null,
            "branch": null,
            "amenity": "variety_store",
            "mobile": null,
            "addr:street": "Hoca Ahmet Yesevi Caddesi",
            "cuisine": null,
            "name": "Ercan avm",
            "name:en": null,
            "name:uk": null,
            "name:de": null,
            "name:tr": null,
            "name:ru": null,
            "name:ar": "سوق ارجان للحاجيات المتعددة"
        }
    },
    {
        "lat": 41.031817,
        "lon": 28.8454305,
        "tags": {
            "addr:city": "Istanbul",
            "addr:district": "Bağcılar",
            "description": "",
            "opening_hours": null,
            "phone": null,
            "branch": null,
            "amenity": "variety_store",
            "mobile": null,
            "addr:street": "Hoca Ahmet Yesevi caddesi",
            "cuisine": null,
            "name": "Yüce kayalar avm",
            "name:en": null,
            "name:uk": null,
            "name:de": null,
            "name:tr": null,
            "name:ru": null,
            "name:ar": "يوجي كايالار"
        }
    },
    {
        "lat": 41.0274208,
        "lon": 28.8407709,
        "tags": {
            "addr:city": "Istanbul",
            "addr:district": "Bağcılar",
            "description": "",
            "opening_hours": null,
            "phone": null,
            "branch": null,
            "amenity": "variety_store",
            "mobile": null,
            "addr:street": "Pazaryolu 1. sokak",
            "cuisine": null,
            "name": "Yiğit züccaciye",
            "name:en": null,
            "name:uk": null,
            "name:de": null,
            "name:tr": null,
            "name:ru": null,
            "name:ar": "زجاجيات يغيت"
        }
    },
    {
        "lat": 41.0302467,
        "lon": 28.8393584,
        "tags": {
            "addr:city": "Istanbul",
            "addr:district": "Bağcılar",
            "description": "",
            "opening_hours": null,
            "phone": null,
            "branch": null,
            "amenity": "variety_store",
            "mobile": null,
            "addr:street": "Pazaryolu 1. sokak",
            "cuisine": null,
            "name": "Gelgör alışveriş mağazaları",
            "name:en": null,
            "name:uk": null,
            "name:de": null,
            "name:tr": null,
            "name:ru": null,
            "name:ar": "سوق كالكور للحاجيات المتعددة"
        }
    },
    {
        "lat": 41.0306351,
        "lon": 28.839206,
        "tags": {
            "addr:city": "Istanbul",
            "addr:district": "Bağcılar",
            "description": "",
            "opening_hours": null,
            "phone": null,
            "branch": null,
            "amenity": "variety_store",
            "mobile": null,
            "addr:street": "Nalan sokak",
            "cuisine": null,
            "name": "Kardelen ucuzluk pazarı",
            "name:en": null,
            "name:uk": null,
            "name:de": null,
            "name:tr": null,
            "name:ru": null,
            "name:ar": "سوق كارديلين"
        }
    },
    {
        "lat": 41.0280063,
        "lon": 28.8307619,
        "tags": {
            "addr:city": "Istanbul",
            "addr:district": "Bağcılar",
            "description": "",
            "opening_hours": null,
            "phone": null,
            "branch": null,
            "amenity": "variety_store",
            "mobile": null,
            "addr:street": "Menderes Caddesi",
            "cuisine": null,
            "name": "Emir Alışveriş Merkezi",
            "name:en": null,
            "name:uk": null,
            "name:de": null,
            "name:tr": null,
            "name:ru": null,
            "name:ar": "مركز تسوق أمير"
        }
    },
    {
        "lat": 41.0377255,
        "lon": 28.8413496,
        "tags": {
            "addr:city": "Istanbul",
            "addr:district": "Bağcılar",
            "description": "",
            "opening_hours": null,
            "phone": null,
            "branch": null,
            "amenity": "variety_store",
            "mobile": null,
            "addr:street": "Mevlana caddesi",
            "cuisine": null,
            "name": "Ucuzluk pazarı",
            "name:en": null,
            "name:uk": null,
            "name:de": null,
            "name:tr": null,
            "name:ru": null,
            "name:ar": "السوق الرخيص"
        }
    },
    {
        "lat": 41.0402116,
        "lon": 28.8440627,
        "tags": {
            "addr:city": "Istanbul",
            "addr:district": "Bağcılar",
            "description": "",
            "opening_hours": null,
            "phone": null,
            "branch": null,
            "amenity": "variety_store",
            "mobile": null,
            "addr:street": "ahmet kabakli",
            "cuisine": null,
            "name": "Gul carsi",
            "name:en": null,
            "name:uk": null,
            "name:de": null,
            "name:tr": null,
            "name:ru": null,
            "name:ar": "جول جارشي"
        }
    },
    {
        "lat": 41.0346587,
        "lon": 28.8400238,
        "tags": {
            "addr:city": "Istanbul",
            "addr:district": "Bağcılar",
            "description": "",
            "opening_hours": null,
            "phone": null,
            "branch": null,
            "amenity": "variety_store",
            "mobile": null,
            "addr:street": "Zübeyde hanım caddesi",
            "cuisine": null,
            "name": "Şahinler avm",
            "name:en": null,
            "name:uk": null,
            "name:de": null,
            "name:tr": null,
            "name:ru": null,
            "name:ar": "شاهينلر"
        }
    },
    {
        "lat": 41.0404013,
        "lon": 28.8440313,
        "tags": {
            "addr:city": "Istanbul",
            "addr:district": "Bağcılar",
            "description": "",
            "opening_hours": null,
            "phone": null,
            "branch": null,
            "amenity": "variety_store",
            "mobile": null,
            "addr:street": "ahmet kabakli",
            "cuisine": null,
            "name": "Ozkan",
            "name:en": null,
            "name:uk": null,
            "name:de": null,
            "name:tr": null,
            "name:ru": null,
            "name:ar": "اوزكان"
        }
    },
    {
        "lat": 41.0328475,
        "lon": 28.8635476,
        "tags": {
            "addr:city": "Istanbul",
            "addr:district": "Bağcılar",
            "description": "",
            "opening_hours": null,
            "phone": null,
            "branch": null,
            "amenity": "variety_store",
            "mobile": null,
            "addr:street": "Güngören caddesi",
            "cuisine": null,
            "name": "Binbir çeşit",
            "name:en": null,
            "name:uk": null,
            "name:de": null,
            "name:tr": null,
            "name:ru": null,
            "name:ar": "بين بير جيشيت"
        }
    },
    {
        "lat": 41.032441,
        "lon": 28.8490828,
        "tags": {
            "addr:city": "Istanbul",
            "addr:district": "Bağcılar",
            "description": "",
            "opening_hours": null,
            "phone": null,
            "branch": null,
            "amenity": "variety_store",
            "mobile": null,
            "addr:street": "Hoca Ahmet Yesevi Caddesi",
            "cuisine": null,
            "name": "Metropol alışveriş merkezi",
            "name:en": null,
            "name:uk": null,
            "name:de": null,
            "name:tr": null,
            "name:ru": null,
            "name:ar": "مركز ميتروبول للحاجيات المتعددة"
        }
    },
    {
        "lat": 41.0395488,
        "lon": 28.8642847,
        "tags": {
            "addr:city": "Istanbul",
            "addr:district": "Bağcılar",
            "description": "",
            "opening_hours": null,
            "phone": null,
            "branch": null,
            "amenity": "variety_store",
            "mobile": null,
            "addr:street": "fatih Caddesi",
            "cuisine": null,
            "name": "Fark Var",
            "name:en": null,
            "name:uk": null,
            "name:de": null,
            "name:tr": null,
            "name:ru": null,
            "name:ar": "هناك فرق"
        }
    },
    {
        "lat": 41.0365924,
        "lon": 28.8603684,
        "tags": {
            "addr:city": "Istanbul",
            "addr:district": "Bağcılar",
            "description": "",
            "opening_hours": null,
            "phone": null,
            "branch": null,
            "amenity": "variety_store",
            "mobile": null,
            "addr:street": "842 sokak",
            "cuisine": null,
            "name": "Binbir",
            "name:en": null,
            "name:uk": null,
            "name:de": null,
            "name:tr": null,
            "name:ru": null,
            "name:ar": "الف واحد"
        }
    },
    {
        "lat": 41.0258839,
        "lon": 28.8502981,
        "tags": {
            "addr:city": "Istanbul",
            "addr:district": "Bağcılar",
            "description": "",
            "opening_hours": null,
            "phone": null,
            "branch": null,
            "amenity": "variety_store",
            "mobile": null,
            "addr:street": "Şehit Yılmaz Kaan Caddesi",
            "cuisine": null,
            "name": "Nokta avm",
            "name:en": null,
            "name:uk": null,
            "name:de": null,
            "name:tr": null,
            "name:ru": null,
            "name:ar": "محل حاجيات مختلفة"
        }
    },
    {
        "lat": 41.0224055,
        "lon": 28.8578701,
        "tags": {
            "addr:city": "Istanbul",
            "addr:district": "Zeytinburnu",
            "description": "",
            "opening_hours": null,
            "phone": null,
            "branch": null,
            "amenity": "variety_store",
            "mobile": null,
            "addr:street": null,
            "cuisine": null,
            "name": "Milenum",
            "name:en": null,
            "name:uk": null,
            "name:de": null,
            "name:tr": null,
            "name:ru": null,
            "name:ar": "ميلينيوم"
        }
    },
    {
        "lat": 41.0308964,
        "lon": 28.8538403,
        "tags": {
            "addr:city": "Istanbul",
            "addr:district": "Bağcılar",
            "description": "",
            "opening_hours": null,
            "phone": null,
            "branch": null,
            "amenity": "variety_store",
            "mobile": null,
            "addr:street": "30/4 sok.",
            "cuisine": null,
            "name": "Deniz",
            "name:en": null,
            "name:uk": null,
            "name:de": null,
            "name:tr": null,
            "name:ru": null,
            "name:ar": "دنيز"
        }
    },
    {
        "lat": 41.0320549,
        "lon": 28.85358,
        "tags": {
            "addr:city": "Istanbul",
            "addr:district": "Bağcılar",
            "description": "",
            "opening_hours": null,
            "phone": null,
            "branch": null,
            "amenity": "variety_store",
            "mobile": null,
            "addr:street": "30/4 sok.",
            "cuisine": null,
            "name": "Ucuzluk kervanı",
            "name:en": null,
            "name:uk": null,
            "name:de": null,
            "name:tr": null,
            "name:ru": null,
            "name:ar": "اوجوزلوك كيرفانه"
        }
    },
    {
        "lat": 41.0243194,
        "lon": 28.8555936,
        "tags": {
            "addr:city": "Istanbul",
            "addr:district": "Bağcılar",
            "description": "",
            "opening_hours": null,
            "phone": null,
            "branch": null,
            "amenity": "variety_store",
            "mobile": null,
            "addr:street": "Hasan Hüseyin Aksoy Caddesi",
            "cuisine": null,
            "name": "Kumru AVM",
            "name:en": null,
            "name:uk": null,
            "name:de": null,
            "name:tr": null,
            "name:ru": null,
            "name:ar": "متجر كومرو"
        }
    },
    {
        "lat": 41.0317343,
        "lon": 28.8469965,
        "tags": {
            "addr:city": "Istanbul",
            "addr:district": "Bağcılar",
            "description": "",
            "opening_hours": null,
            "phone": null,
            "branch": null,
            "amenity": "variety_store",
            "mobile": null,
            "addr:street": "8. sokak",
            "cuisine": null,
            "name": "Orhan alışveriş merkezi",
            "name:en": null,
            "name:uk": null,
            "name:de": null,
            "name:tr": null,
            "name:ru": null,
            "name:ar": "مركز اورهان للتسوق"
        }
    },
    {
        "lat": 41.0242432,
        "lon": 28.8564044,
        "tags": {
            "addr:city": "Istanbul",
            "addr:district": "Bağcılar",
            "description": "",
            "opening_hours": null,
            "phone": null,
            "branch": null,
            "amenity": "variety_store",
            "mobile": null,
            "addr:street": "Hasan Hüseyin Aksoy Caddesi",
            "cuisine": null,
            "name": "Eren AVM",
            "name:en": null,
            "name:uk": null,
            "name:de": null,
            "name:tr": null,
            "name:ru": null,
            "name:ar": "متجر إيران"
        }
    },
    {
        "lat": 41.0233733,
        "lon": 28.8572707,
        "tags": {
            "addr:city": "Istanbul",
            "addr:district": "Bağcılar",
            "description": "",
            "opening_hours": null,
            "phone": null,
            "branch": null,
            "amenity": "variety_store",
            "mobile": null,
            "addr:street": "Bağcılar Caddesi",
            "cuisine": null,
            "name": "Şahin AVM",
            "name:en": null,
            "name:uk": null,
            "name:de": null,
            "name:tr": null,
            "name:ru": null,
            "name:ar": "متجر شاهين"
        }
    },
    {
        "lat": 41.0265162,
        "lon": 28.9746952,
        "tags": {
            "addr:city": "İstanbul",
            "addr:district": null,
            "description": "",
            "opening_hours": null,
            "phone": null,
            "branch": null,
            "amenity": "variety_store",
            "mobile": null,
            "addr:street": null,
            "cuisine": null,
            "name": "Silk-Art 81",
            "name:en": null,
            "name:uk": null,
            "name:de": null,
            "name:tr": null,
            "name:ru": null,
            "name:ar": null
        }
    },
    {
        "lat": 41.0265233,
        "lon": 28.9746881,
        "tags": {
            "addr:city": "İstanbul",
            "addr:district": null,
            "description": "",
            "opening_hours": null,
            "phone": null,
            "branch": null,
            "amenity": "variety_store",
            "mobile": null,
            "addr:street": null,
            "cuisine": null,
            "name": "Galata Butik",
            "name:en": null,
            "name:uk": null,
            "name:de": null,
            "name:tr": null,
            "name:ru": null,
            "name:ar": null
        }
    },
    {
        "lat": 41.0331744,
        "lon": 28.9766535,
        "tags": {
            "addr:city": "İstanbul",
            "addr:district": null,
            "description": "",
            "opening_hours": null,
            "phone": null,
            "branch": null,
            "amenity": "variety_store",
            "mobile": null,
            "addr:street": "Asmalı Mescit Mahallesi, İstiklal Cd. No:116, 34430 Beyoğlu/İstanbul, Turquie",
            "cuisine": null,
            "name": "Passage hazzopulo",
            "name:en": null,
            "name:uk": null,
            "name:de": null,
            "name:tr": null,
            "name:ru": null,
            "name:ar": null
        }
    },
    {
        "lat": 40.9164084,
        "lon": 29.2858796,
        "tags": {
            "addr:city": "İstanbul",
            "addr:district": null,
            "description": "",
            "opening_hours": null,
            "phone": null,
            "branch": null,
            "amenity": "variety_store",
            "mobile": null,
            "addr:street": null,
            "cuisine": null,
            "name": "Byy Moda Avm",
            "name:en": null,
            "name:uk": null,
            "name:de": null,
            "name:tr": null,
            "name:ru": null,
            "name:ar": null
        }
    },
    {
        "lat": 40.9134777,
        "lon": 29.2827467,
        "tags": {
            "addr:city": "İstanbul",
            "addr:district": null,
            "description": "",
            "opening_hours": null,
            "phone": null,
            "branch": null,
            "amenity": "variety_store",
            "mobile": null,
            "addr:street": null,
            "cuisine": null,
            "name": "Çarşım",
            "name:en": null,
            "name:uk": null,
            "name:de": null,
            "name:tr": null,
            "name:ru": null,
            "name:ar": null
        }
    },
    {
        "lat": 40.9146299,
        "lon": 29.2838405,
        "tags": {
            "addr:city": "İstanbul",
            "addr:district": null,
            "description": "",
            "opening_hours": null,
            "phone": null,
            "branch": null,
            "amenity": "variety_store",
            "mobile": null,
            "addr:street": null,
            "cuisine": null,
            "name": "Şımarık Mega",
            "name:en": null,
            "name:uk": null,
            "name:de": null,
            "name:tr": null,
            "name:ru": null,
            "name:ar": null
        }
    },
    {
        "lat": 40.9858739,
        "lon": 29.0253587,
        "tags": {
            "addr:city": "İstanbul",
            "addr:district": null,
            "description": "",
            "opening_hours": null,
            "phone": null,
            "branch": null,
            "amenity": "variety_store",
            "mobile": null,
            "addr:street": null,
            "cuisine": null,
            "name": "TEDi",
            "name:en": null,
            "name:uk": null,
            "name:de": null,
            "name:tr": null,
            "name:ru": null,
            "name:ar": null
        }
    },
    {
        "lat": 41.0312085,
        "lon": 28.9826995,
        "tags": {
            "addr:city": "İstanbul",
            "addr:district": null,
            "description": "",
            "opening_hours": null,
            "phone": null,
            "branch": null,
            "amenity": "variety_store",
            "mobile": null,
            "addr:street": null,
            "cuisine": null,
            "name": "Madame Coco",
            "name:en": null,
            "name:uk": null,
            "name:de": null,
            "name:tr": null,
            "name:ru": null,
            "name:ar": null
        }
    },
    {
        "lat": 41.0150765,
        "lon": 28.9675457,
        "tags": {
            "addr:city": "İstanbul",
            "addr:district": null,
            "description": "",
            "opening_hours": null,
            "phone": null,
            "branch": null,
            "amenity": "variety_store",
            "mobile": null,
            "addr:street": null,
            "cuisine": null,
            "name": null,
            "name:en": null,
            "name:uk": null,
            "name:de": null,
            "name:tr": null,
            "name:ru": null,
            "name:ar": null
        }
    },
    {
        "lat": 41.0161731,
        "lon": 28.9702586,
        "tags": {
            "addr:city": "İstanbul",
            "addr:district": null,
            "description": "",
            "opening_hours": null,
            "phone": null,
            "branch": null,
            "amenity": "variety_store",
            "mobile": null,
            "addr:street": null,
            "cuisine": null,
            "name": "Esmer",
            "name:en": null,
            "name:uk": null,
            "name:de": null,
            "name:tr": null,
            "name:ru": null,
            "name:ar": null
        }
    },
    {
        "lat": 41.019739,
        "lon": 29.0924146,
        "tags": {
            "addr:city": "İstanbul",
            "addr:district": null,
            "description": "",
            "opening_hours": null,
            "phone": null,
            "branch": null,
            "amenity": "variety_store",
            "mobile": null,
            "addr:street": null,
            "cuisine": null,
            "name": "Tedi",
            "name:en": null,
            "name:uk": null,
            "name:de": null,
            "name:tr": null,
            "name:ru": null,
            "name:ar": null
        }
    },
    {
        "lat": 40.9795117,
        "lon": 29.1058705,
        "tags": {
            "addr:city": "İstanbul",
            "addr:district": null,
            "description": "",
            "opening_hours": null,
            "phone": null,
            "branch": null,
            "amenity": "variety_store",
            "mobile": null,
            "addr:street": null,
            "cuisine": null,
            "name": "Aslan Çadır",
            "name:en": null,
            "name:uk": null,
            "name:de": null,
            "name:tr": null,
            "name:ru": null,
            "name:ar": null
        }
    },
    {
        "lat": 41.0525333,
        "lon": 28.9892594,
        "tags": {
            "addr:city": "İstanbul",
            "addr:district": null,
            "description": "",
            "opening_hours": null,
            "phone": null,
            "branch": null,
            "amenity": "variety_store",
            "mobile": null,
            "addr:street": null,
            "cuisine": null,
            "name": "Улица магазинов тканей",
            "name:en": null,
            "name:uk": null,
            "name:de": null,
            "name:tr": null,
            "name:ru": "Магазины тканей",
            "name:ar": null
        }
    },
    {
        "lat": 41.1099705,
        "lon": 28.8535369,
        "tags": {
            "addr:city": "İstanbul",
            "addr:district": null,
            "description": "",
            "opening_hours": null,
            "phone": null,
            "branch": null,
            "amenity": "variety_store",
            "mobile": null,
            "addr:street": null,
            "cuisine": null,
            "name": null,
            "name:en": null,
            "name:uk": null,
            "name:de": null,
            "name:tr": null,
            "name:ru": null,
            "name:ar": null
        }
    },
    {
        "lat": 40.9494291,
        "lon": 29.1056157,
        "tags": {
            "addr:city": "İstanbul",
            "addr:district": null,
            "description": "",
            "opening_hours": null,
            "phone": null,
            "branch": null,
            "amenity": "variety_store",
            "mobile": null,
            "addr:street": null,
            "cuisine": null,
            "name": "Yıldırımlar AVM",
            "name:en": null,
            "name:uk": null,
            "name:de": null,
            "name:tr": null,
            "name:ru": null,
            "name:ar": null
        }
    },
    {
        "lat": 40.996448,
        "lon": 28.7809079,
        "tags": {
            "addr:city": "İstanbul",
            "addr:district": null,
            "description": "",
            "opening_hours": null,
            "phone": null,
            "branch": null,
            "amenity": "variety_store",
            "mobile": null,
            "addr:street": null,
            "cuisine": null,
            "name": "02 AVM",
            "name:en": null,
            "name:uk": null,
            "name:de": null,
            "name:tr": null,
            "name:ru": null,
            "name:ar": null
        }
    },
    {
        "lat": 41.0568573,
        "lon": 29.0729096,
        "tags": {
            "addr:city": "İstanbul",
            "addr:district": null,
            "description": "",
            "opening_hours": null,
            "phone": null,
            "branch": null,
            "amenity": "variety_store",
            "mobile": null,
            "addr:street": "Sarıgül Sokağı",
            "cuisine": null,
            "name": "Tütüncü",
            "name:en": null,
            "name:uk": null,
            "name:de": null,
            "name:tr": null,
            "name:ru": null,
            "name:ar": null
        }
    },
    {
        "lat": 40.9895362,
        "lon": 29.032122,
        "tags": {
            "addr:city": "İstanbul",
            "addr:district": null,
            "description": "",
            "opening_hours": null,
            "phone": null,
            "branch": null,
            "amenity": "variety_store",
            "mobile": null,
            "addr:street": null,
            "cuisine": null,
            "name": "Es-Se Outlet",
            "name:en": null,
            "name:uk": null,
            "name:de": null,
            "name:tr": null,
            "name:ru": null,
            "name:ar": null
        }
    },
    {
        "lat": 41.0375127,
        "lon": 28.9088815,
        "tags": {
            "addr:city": "İstanbul",
            "addr:district": null,
            "description": "",
            "opening_hours": null,
            "phone": null,
            "branch": null,
            "amenity": "variety_store",
            "mobile": null,
            "addr:street": null,
            "cuisine": null,
            "name": "Karaca",
            "name:en": null,
            "name:uk": null,
            "name:de": null,
            "name:tr": null,
            "name:ru": null,
            "name:ar": null
        }
    },
    {
        "lat": 40.9798995,
        "lon": 28.7220899,
        "tags": {
            "addr:city": "İstanbul",
            "addr:district": null,
            "description": "",
            "opening_hours": null,
            "phone": null,
            "branch": null,
            "amenity": "variety_store",
            "mobile": null,
            "addr:street": null,
            "cuisine": null,
            "name": "Japon Çarşı",
            "name:en": null,
            "name:uk": null,
            "name:de": null,
            "name:tr": null,
            "name:ru": null,
            "name:ar": null
        }
    },
    {
        "lat": 41.0739273,
        "lon": 28.244012,
        "tags": {
            "addr:city": "İstanbul",
            "addr:district": null,
            "description": "",
            "opening_hours": null,
            "phone": null,
            "branch": null,
            "amenity": "variety_store",
            "mobile": null,
            "addr:street": null,
            "cuisine": null,
            "name": "Salı Pazarı",
            "name:en": null,
            "name:uk": null,
            "name:de": null,
            "name:tr": null,
            "name:ru": null,
            "name:ar": null
        }
    },
    {
        "lat": 41.1680511,
        "lon": 29.0564296,
        "tags": {
            "addr:city": "İstanbul",
            "addr:district": null,
            "description": "",
            "opening_hours": null,
            "phone": null,
            "branch": null,
            "amenity": "variety_store",
            "mobile": null,
            "addr:street": null,
            "cuisine": null,
            "name": "Sempati",
            "name:en": null,
            "name:uk": null,
            "name:de": null,
            "name:tr": null,
            "name:ru": null,
            "name:ar": null
        }
    },
    {
        "lat": 41.1684087,
        "lon": 29.056864,
        "tags": {
            "addr:city": "İstanbul",
            "addr:district": null,
            "description": "",
            "opening_hours": null,
            "phone": null,
            "branch": null,
            "amenity": "variety_store",
            "mobile": null,
            "addr:street": null,
            "cuisine": null,
            "name": "Beyaz",
            "name:en": null,
            "name:uk": null,
            "name:de": null,
            "name:tr": null,
            "name:ru": null,
            "name:ar": null
        }
    },
    {
        "lat": 41.0085118,
        "lon": 28.5373337,
        "tags": {
            "addr:city": "İstanbul",
            "addr:district": null,
            "description": "",
            "opening_hours": null,
            "phone": null,
            "branch": null,
            "amenity": "variety_store",
            "mobile": null,
            "addr:street": null,
            "cuisine": null,
            "name": "Mimar Park AVM",
            "name:en": null,
            "name:uk": null,
            "name:de": null,
            "name:tr": null,
            "name:ru": null,
            "name:ar": null
        }
    },
    {
        "lat": 40.9936112,
        "lon": 29.0307034,
        "tags": {
            "addr:city": "İstanbul",
            "addr:district": null,
            "description": "",
            "opening_hours": null,
            "phone": null,
            "branch": null,
            "amenity": "variety_store",
            "mobile": null,
            "addr:street": null,
            "cuisine": null,
            "name": null,
            "name:en": "Carsim avm",
            "name:uk": null,
            "name:de": null,
            "name:tr": null,
            "name:ru": null,
            "name:ar": null
        }
    },
    {
        "lat": 40.8774987,
        "lon": 29.1000337,
        "tags": {
            "addr:city": "İstanbul",
            "addr:district": null,
            "description": "",
            "opening_hours": null,
            "phone": null,
            "branch": null,
            "amenity": "variety_store",
            "mobile": null,
            "addr:street": null,
            "cuisine": null,
            "name": "namli",
            "name:en": null,
            "name:uk": null,
            "name:de": null,
            "name:tr": null,
            "name:ru": null,
            "name:ar": null
        }
    },
    {
        "lat": 40.8774729,
        "lon": 29.0989745,
        "tags": {
            "addr:city": "İstanbul",
            "addr:district": null,
            "description": "",
            "opening_hours": null,
            "phone": null,
            "branch": null,
            "amenity": "variety_store",
            "mobile": null,
            "addr:street": null,
            "cuisine": null,
            "name": null,
            "name:en": null,
            "name:uk": null,
            "name:de": null,
            "name:tr": null,
            "name:ru": null,
            "name:ar": null
        }
    },
    {
        "lat": 40.9707702,
        "lon": 29.0969949,
        "tags": {
            "addr:city": "İstanbul",
            "addr:district": "Kadıköy",
            "description": "",
            "opening_hours": null,
            "phone": null,
            "branch": null,
            "amenity": "variety_store",
            "mobile": null,
            "addr:street": "Cemil Akdoğan Sokağı",
            "cuisine": null,
            "name": "Tedi",
            "name:en": null,
            "name:uk": null,
            "name:de": null,
            "name:tr": null,
            "name:ru": null,
            "name:ar": null
        }
    },
    {
        "lat": 41.0362713,
        "lon": 28.9816841,
        "tags": {
            "addr:city": "İstanbul",
            "addr:district": null,
            "description": "",
            "opening_hours": null,
            "phone": null,
            "branch": null,
            "amenity": "variety_store",
            "mobile": null,
            "addr:street": null,
            "cuisine": null,
            "name": null,
            "name:en": null,
            "name:uk": null,
            "name:de": null,
            "name:tr": null,
            "name:ru": null,
            "name:ar": null
        }
    },
    {
        "lat": 41.0822838,
        "lon": 28.9145304,
        "tags": {
            "addr:city": "İstanbul",
            "addr:district": null,
            "description": "",
            "opening_hours": null,
            "phone": null,
            "branch": null,
            "amenity": "variety_store",
            "mobile": null,
            "addr:street": null,
            "cuisine": null,
            "name": "Çarşım AVM",
            "name:en": null,
            "name:uk": null,
            "name:de": null,
            "name:tr": null,
            "name:ru": null,
            "name:ar": null
        }
    },
    {
        "lat": 41.0839851,
        "lon": 28.9123913,
        "tags": {
            "addr:city": "İstanbul",
            "addr:district": null,
            "description": "",
            "opening_hours": null,
            "phone": null,
            "branch": null,
            "amenity": "variety_store",
            "mobile": null,
            "addr:street": null,
            "cuisine": null,
            "name": "Happy Center",
            "name:en": null,
            "name:uk": null,
            "name:de": null,
            "name:tr": null,
            "name:ru": null,
            "name:ar": null
        }
    },
    {
        "lat": 41.081795,
        "lon": 28.9187971,
        "tags": {
            "addr:city": "İstanbul",
            "addr:district": null,
            "description": "",
            "opening_hours": null,
            "phone": null,
            "branch": null,
            "amenity": "variety_store",
            "mobile": null,
            "addr:street": null,
            "cuisine": null,
            "name": "Afşar AVM",
            "name:en": null,
            "name:uk": null,
            "name:de": null,
            "name:tr": null,
            "name:ru": null,
            "name:ar": null
        }
    },
    {
        "lat": 41.0253517,
        "lon": 29.2265055,
        "tags": {
            "addr:city": "İstanbul",
            "addr:district": null,
            "description": "",
            "opening_hours": null,
            "phone": null,
            "branch": null,
            "amenity": "variety_store",
            "mobile": null,
            "addr:street": null,
            "cuisine": null,
            "name": "Mecho",
            "name:en": null,
            "name:uk": null,
            "name:de": null,
            "name:tr": null,
            "name:ru": null,
            "name:ar": null
        }
    },
    {
        "lat": 41.0040696,
        "lon": 28.6913188,
        "tags": {
            "addr:city": "İstanbul",
            "addr:district": null,
            "description": "",
            "opening_hours": null,
            "phone": null,
            "branch": null,
            "amenity": "variety_store",
            "mobile": null,
            "addr:street": null,
            "cuisine": null,
            "name": "Sepet Alışveriş Mağazaları",
            "name:en": null,
            "name:uk": null,
            "name:de": null,
            "name:tr": null,
            "name:ru": null,
            "name:ar": null
        }
    },
    {
        "lat": 41.0743116,
        "lon": 28.9933643,
        "tags": {
            "addr:city": "İstanbul",
            "addr:district": null,
            "description": "",
            "opening_hours": null,
            "phone": null,
            "branch": null,
            "amenity": "variety_store",
            "mobile": null,
            "addr:street": null,
            "cuisine": null,
            "name": "Market of discount",
            "name:en": null,
            "name:uk": null,
            "name:de": null,
            "name:tr": null,
            "name:ru": null,
            "name:ar": null
        }
    },
    {
        "lat": 40.9855706,
        "lon": 29.231067,
        "tags": {
            "addr:city": "İstanbul",
            "addr:district": null,
            "description": "",
            "opening_hours": null,
            "phone": null,
            "branch": null,
            "amenity": "variety_store",
            "mobile": null,
            "addr:street": null,
            "cuisine": null,
            "name": "Avrasya AVM",
            "name:en": null,
            "name:uk": null,
            "name:de": null,
            "name:tr": null,
            "name:ru": null,
            "name:ar": null
        }
    },
    {
        "lat": 40.9835215,
        "lon": 29.058415,
        "tags": {
            "addr:city": "İstanbul",
            "addr:district": "Kadıköy",
            "description": "",
            "opening_hours": "10:30 - 21:00",
            "phone": null,
            "branch": null,
            "amenity": "variety_store",
            "mobile": null,
            "addr:street": "Mustafa Mazhar Bey Caddesi",
            "cuisine": null,
            "name": "Tedi",
            "name:en": null,
            "name:uk": null,
            "name:de": null,
            "name:tr": null,
            "name:ru": null,
            "name:ar": null
        }
    },
    {
        "lat": 41.0367268,
        "lon": 28.8195324,
        "tags": {
            "addr:city": "İstanbul",
            "addr:district": null,
            "description": "",
            "opening_hours": null,
            "phone": null,
            "branch": null,
            "amenity": "variety_store",
            "mobile": null,
            "addr:street": null,
            "cuisine": null,
            "name": "Esenlik AVM",
            "name:en": null,
            "name:uk": null,
            "name:de": null,
            "name:tr": null,
            "name:ru": null,
            "name:ar": null
        }
    },
    {
        "lat": 40.91343,
        "lon": 29.2975446,
        "tags": {
            "addr:city": "İstanbul",
            "addr:district": "Pendik",
            "description": "",
            "opening_hours": "10:00 - 21:00",
            "phone": null,
            "branch": null,
            "amenity": "variety_store",
            "mobile": null,
            "addr:street": null,
            "cuisine": null,
            "name": "Tedi",
            "name:en": null,
            "name:uk": null,
            "name:de": null,
            "name:tr": null,
            "name:ru": null,
            "name:ar": null
        }
    },
    {
        "lat": 40.9064212,
        "lon": 29.3144239,
        "tags": {
            "addr:city": "İstanbul",
            "addr:district": null,
            "description": "",
            "opening_hours": null,
            "phone": null,
            "branch": null,
            "amenity": "variety_store",
            "mobile": null,
            "addr:street": null,
            "cuisine": null,
            "name": "techno-gate",
            "name:en": null,
            "name:uk": null,
            "name:de": null,
            "name:tr": null,
            "name:ru": null,
            "name:ar": null
        }
    },
    {
        "lat": 40.9069464,
        "lon": 29.314731,
        "tags": {
            "addr:city": "İstanbul",
            "addr:district": null,
            "description": "after security check",
            "opening_hours": null,
            "phone": null,
            "branch": null,
            "amenity": "variety_store",
            "mobile": null,
            "addr:street": null,
            "cuisine": null,
            "name": "D&R",
            "name:en": null,
            "name:uk": null,
            "name:de": null,
            "name:tr": null,
            "name:ru": null,
            "name:ar": null
        }
    },
    {
        "lat": 41.0139149,
        "lon": 28.7980491,
        "tags": {
            "addr:city": "İstanbul",
            "addr:district": null,
            "description": "",
            "opening_hours": null,
            "phone": null,
            "branch": null,
            "amenity": "variety_store",
            "mobile": null,
            "addr:street": null,
            "cuisine": null,
            "name": "Hep Bi Moda",
            "name:en": null,
            "name:uk": null,
            "name:de": null,
            "name:tr": null,
            "name:ru": null,
            "name:ar": null
        }
    },
    {
        "lat": 40.942293,
        "lon": 29.15099,
        "tags": {
            "addr:city": "İstanbul",
            "addr:district": "Maltepe",
            "description": "",
            "opening_hours": "10:00 - 21:00",
            "phone": null,
            "branch": null,
            "amenity": "variety_store",
            "mobile": null,
            "addr:street": "Nil Caddesi",
            "cuisine": null,
            "name": "Tedi",
            "name:en": null,
            "name:uk": null,
            "name:de": null,
            "name:tr": null,
            "name:ru": null,
            "name:ar": null
        }
    },
    {
        "lat": 40.9242834,
        "lon": 29.3049516,
        "tags": {
            "addr:city": "İstanbul",
            "addr:district": "Pendik",
            "description": "",
            "opening_hours": "10:00-21:00",
            "phone": null,
            "branch": null,
            "amenity": "variety_store",
            "mobile": null,
            "addr:street": null,
            "cuisine": null,
            "name": "Tedi",
            "name:en": null,
            "name:uk": null,
            "name:de": null,
            "name:tr": null,
            "name:ru": null,
            "name:ar": null
        }
    },
    {
        "lat": 40.9906175,
        "lon": 29.0599123,
        "tags": {
            "addr:city": "İstanbul",
            "addr:district": null,
            "description": "",
            "opening_hours": null,
            "phone": null,
            "branch": null,
            "amenity": "variety_store",
            "mobile": null,
            "addr:street": null,
            "cuisine": null,
            "name": "Tedi",
            "name:en": null,
            "name:uk": null,
            "name:de": null,
            "name:tr": null,
            "name:ru": null,
            "name:ar": null
        }
    },
    {
        "lat": 40.9759814,
        "lon": 29.1444039,
        "tags": {
            "addr:city": "İstanbul",
            "addr:district": "Ataşehir",
            "description": "",
            "opening_hours": null,
            "phone": null,
            "branch": null,
            "amenity": "variety_store",
            "mobile": null,
            "addr:street": "Narçiçeği Sokağı",
            "cuisine": null,
            "name": "Tedi",
            "name:en": null,
            "name:uk": null,
            "name:de": null,
            "name:tr": null,
            "name:ru": null,
            "name:ar": null
        }
    },
    {
        "lat": 40.9874169,
        "lon": 28.9039946,
        "tags": {
            "addr:city": "İstanbul",
            "addr:district": null,
            "description": "",
            "opening_hours": null,
            "phone": null,
            "branch": null,
            "amenity": "variety_store",
            "mobile": null,
            "addr:street": null,
            "cuisine": null,
            "name": "Yarım Elma Gönül Alma",
            "name:en": null,
            "name:uk": null,
            "name:de": null,
            "name:tr": null,
            "name:ru": null,
            "name:ar": null
        }
    },
    {
        "lat": 41.0438546,
        "lon": 28.9580447,
        "tags": {
            "addr:city": "İstanbul",
            "addr:district": null,
            "description": "",
            "opening_hours": null,
            "phone": null,
            "branch": null,
            "amenity": "variety_store",
            "mobile": null,
            "addr:street": null,
            "cuisine": null,
            "name": "Ucuzluk pazarı",
            "name:en": null,
            "name:uk": null,
            "name:de": null,
            "name:tr": null,
            "name:ru": null,
            "name:ar": null
        }
    },
    {
        "lat": 41.0435812,
        "lon": 28.9565195,
        "tags": {
            "addr:city": "İstanbul",
            "addr:district": null,
            "description": "",
            "opening_hours": null,
            "phone": null,
            "branch": null,
            "amenity": "variety_store",
            "mobile": null,
            "addr:street": null,
            "cuisine": null,
            "name": "Depomix",
            "name:en": null,
            "name:uk": null,
            "name:de": null,
            "name:tr": null,
            "name:ru": null,
            "name:ar": null
        }
    },
    {
        "lat": 40.9993602,
        "lon": 29.030999,
        "tags": {
            "addr:city": "İstanbul",
            "addr:district": null,
            "description": "",
            "opening_hours": null,
            "phone": null,
            "branch": null,
            "amenity": "variety_store",
            "mobile": null,
            "addr:street": "Fatih Sokak",
            "cuisine": null,
            "name": "Yoyos.kr",
            "name:en": null,
            "name:uk": null,
            "name:de": null,
            "name:tr": null,
            "name:ru": null,
            "name:ar": null
        }
    },
    {
        "lat": 41.0125386,
        "lon": 29.1973378,
        "tags": {
            "addr:city": "İstanbul",
            "addr:district": null,
            "description": "",
            "opening_hours": null,
            "phone": null,
            "branch": null,
            "amenity": "variety_store",
            "mobile": null,
            "addr:street": null,
            "cuisine": null,
            "name": "Eminönü AVM",
            "name:en": null,
            "name:uk": null,
            "name:de": null,
            "name:tr": null,
            "name:ru": null,
            "name:ar": null
        }
    }
]