[
    {
        "lat": 41.0776874,
        "lon": 29.0122885,
        "tags": {
            "addr:city": "İstanbul",
            "addr:district": null,
            "description": "",
            "opening_hours": null,
            "phone": null,
            "branch": null,
            "amenity": "watches",
            "mobile": null,
            "addr:street": null,
            "cuisine": null,
            "name": "Swatch",
            "name:en": null,
            "name:uk": null,
            "name:de": null,
            "name:tr": null,
            "name:ru": null,
            "name:ar": null
        }
    },
    {
        "lat": 41.0153947,
        "lon": 28.9744827,
        "tags": {
            "addr:city": "Istanbul",
            "addr:district": "Fatih",
            "description": "",
            "opening_hours": null,
            "phone": null,
            "branch": null,
            "amenity": "watches",
            "mobile": null,
            "addr:street": "Hamidiye caddesi",
            "cuisine": null,
            "name": "Casio",
            "name:en": null,
            "name:uk": null,
            "name:de": null,
            "name:tr": null,
            "name:ru": null,
            "name:ar": null
        }
    },
    {
        "lat": 41.0043118,
        "lon": 28.9308563,
        "tags": {
            "addr:city": "Istanbul",
            "addr:district": "Fatih",
            "description": "",
            "opening_hours": null,
            "phone": null,
            "branch": null,
            "amenity": "watches",
            "mobile": null,
            "addr:street": "Kuvayi Milliye Caddesi",
            "cuisine": null,
            "name": "Sara Saat ve Gümüş",
            "name:en": null,
            "name:uk": null,
            "name:de": null,
            "name:tr": null,
            "name:ru": null,
            "name:ar": "سارا ساعات في غوموش"
        }
    },
    {
        "lat": 41.0094142,
        "lon": 28.9665589,
        "tags": {
            "addr:city": "Istanbul",
            "addr:district": "Fatih",
            "description": "",
            "opening_hours": null,
            "phone": "05353207044",
            "branch": null,
            "amenity": "watches",
            "mobile": null,
            "addr:street": "Yeniçeriler Caddesi",
            "cuisine": null,
            "name": "Azim Collection",
            "name:en": null,
            "name:uk": null,
            "name:de": null,
            "name:tr": null,
            "name:ru": null,
            "name:ar": "عظيم كولكشن للساعات"
        }
    },
    {
        "lat": 41.016626,
        "lon": 28.9680564,
        "tags": {
            "addr:city": "Istanbul",
            "addr:district": "Fatih",
            "description": "",
            "opening_hours": null,
            "phone": null,
            "branch": null,
            "amenity": "watches",
            "mobile": null,
            "addr:street": "Tomruk Sokağı",
            "cuisine": null,
            "name": "BinBir Saat",
            "name:en": null,
            "name:uk": null,
            "name:de": null,
            "name:tr": null,
            "name:ru": null,
            "name:ar": "بين بير ساعات"
        }
    },
    {
        "lat": 41.0167475,
        "lon": 28.9683781,
        "tags": {
            "addr:city": "Istanbul",
            "addr:district": "Fatih",
            "description": "",
            "opening_hours": null,
            "phone": null,
            "branch": null,
            "amenity": "watches",
            "mobile": null,
            "addr:street": "Tahtakale Caddesi",
            "cuisine": null,
            "name": "Mete Saat",
            "name:en": null,
            "name:uk": null,
            "name:de": null,
            "name:tr": null,
            "name:ru": null,
            "name:ar": "ميتي ساعات"
        }
    },
    {
        "lat": 41.0166367,
        "lon": 28.9684915,
        "tags": {
            "addr:city": "Istanbul",
            "addr:district": "Fatih",
            "description": "",
            "opening_hours": null,
            "phone": null,
            "branch": null,
            "amenity": "watches",
            "mobile": null,
            "addr:street": "Tahtakale Caddesi",
            "cuisine": null,
            "name": "Evren Saat",
            "name:en": null,
            "name:uk": null,
            "name:de": null,
            "name:tr": null,
            "name:ru": null,
            "name:ar": "ايفران ساات"
        }
    },
    {
        "lat": 41.0165171,
        "lon": 28.9687422,
        "tags": {
            "addr:city": "Istanbul",
            "addr:district": "Fatih",
            "description": "",
            "opening_hours": null,
            "phone": null,
            "branch": null,
            "amenity": "watches",
            "mobile": null,
            "addr:street": "Tahtakale Caddesi",
            "cuisine": null,
            "name": "Ara Saat",
            "name:en": null,
            "name:uk": null,
            "name:de": null,
            "name:tr": null,
            "name:ru": null,
            "name:ar": "ارا ساعات"
        }
    },
    {
        "lat": 41.0164291,
        "lon": 28.9686912,
        "tags": {
            "addr:city": "Istanbul",
            "addr:district": "Fatih",
            "description": "",
            "opening_hours": null,
            "phone": null,
            "branch": null,
            "amenity": "watches",
            "mobile": null,
            "addr:street": "Tahtakale Caddesi",
            "cuisine": null,
            "name": "Jaga Saatçı",
            "name:en": null,
            "name:uk": null,
            "name:de": null,
            "name:tr": null,
            "name:ru": null,
            "name:ar": "جيغا ساعاتشي"
        }
    },
    {
        "lat": 41.0090474,
        "lon": 28.9694052,
        "tags": {
            "addr:city": "Istanbul",
            "addr:district": "Fatih",
            "description": "",
            "opening_hours": null,
            "phone": null,
            "branch": null,
            "amenity": "watches",
            "mobile": null,
            "addr:street": "Kürkçüler Pazarı Sokak",
            "cuisine": null,
            "name": "Kaviyy Butik",
            "name:en": null,
            "name:uk": null,
            "name:de": null,
            "name:tr": null,
            "name:ru": null,
            "name:ar": "كافي بوتيك"
        }
    },
    {
        "lat": 41.0093219,
        "lon": 28.9701394,
        "tags": {
            "addr:city": "Istanbul",
            "addr:district": "Fatih",
            "description": "",
            "opening_hours": null,
            "phone": null,
            "branch": null,
            "amenity": "watches",
            "mobile": null,
            "addr:street": "Atik Ali Paşa Sokak",
            "cuisine": null,
            "name": "Jack Pierre",
            "name:en": null,
            "name:uk": null,
            "name:de": null,
            "name:tr": null,
            "name:ru": null,
            "name:ar": "جاك بير"
        }
    },
    {
        "lat": 41.0088937,
        "lon": 28.9693711,
        "tags": {
            "addr:city": "Istanbul",
            "addr:district": "Fatih",
            "description": "",
            "opening_hours": null,
            "phone": null,
            "branch": null,
            "amenity": "watches",
            "mobile": null,
            "addr:street": "Kürkçüler Pazarı Sokak",
            "cuisine": null,
            "name": "Creo Saat",
            "name:en": null,
            "name:uk": null,
            "name:de": null,
            "name:tr": null,
            "name:ru": null,
            "name:ar": "جريو ساعات"
        }
    },
    {
        "lat": 41.0103697,
        "lon": 28.9740327,
        "tags": {
            "addr:city": "Istanbul",
            "addr:district": "Fatih",
            "description": "",
            "opening_hours": null,
            "phone": null,
            "branch": null,
            "amenity": "watches",
            "mobile": null,
            "addr:street": "Nuru Osmaniye Caddesi",
            "cuisine": null,
            "name": "KYG Saat",
            "name:en": null,
            "name:uk": null,
            "name:de": null,
            "name:tr": null,
            "name:ru": null,
            "name:ar": "كا ي جي ساعات"
        }
    },
    {
        "lat": 41.0182387,
        "lon": 29.1921843,
        "tags": {
            "addr:city": "İstanbul",
            "addr:district": null,
            "description": "",
            "opening_hours": null,
            "phone": null,
            "branch": null,
            "amenity": "watches",
            "mobile": null,
            "addr:street": null,
            "cuisine": null,
            "name": "Nisan Saat",
            "name:en": null,
            "name:uk": null,
            "name:de": null,
            "name:tr": null,
            "name:ru": null,
            "name:ar": null
        }
    },
    {
        "lat": 40.9863717,
        "lon": 28.9041814,
        "tags": {
            "addr:city": "Istanbul",
            "addr:district": "Zeytinburnu",
            "description": "",
            "opening_hours": null,
            "phone": null,
            "branch": null,
            "amenity": "watches",
            "mobile": null,
            "addr:street": "58 Blv caddesi",
            "cuisine": null,
            "name": "Zekisaat",
            "name:en": null,
            "name:uk": null,
            "name:de": null,
            "name:tr": null,
            "name:ru": null,
            "name:ar": "زكي ساات"
        }
    },
    {
        "lat": 40.9918883,
        "lon": 28.9036954,
        "tags": {
            "addr:city": "Istanbul",
            "addr:district": "Zeytinburnu",
            "description": "",
            "opening_hours": null,
            "phone": null,
            "branch": null,
            "amenity": "watches",
            "mobile": null,
            "addr:street": "58.Blv Cd",
            "cuisine": null,
            "name": "Kardeşler",
            "name:en": null,
            "name:uk": null,
            "name:de": null,
            "name:tr": null,
            "name:ru": null,
            "name:ar": "قاردشلار"
        }
    },
    {
        "lat": 40.9913847,
        "lon": 28.9039896,
        "tags": {
            "addr:city": "Istanbul",
            "addr:district": "Zeytinburnu",
            "description": "",
            "opening_hours": null,
            "phone": null,
            "branch": null,
            "amenity": "watches",
            "mobile": null,
            "addr:street": "58.Blv Cd",
            "cuisine": null,
            "name": "Yilmaz",
            "name:en": null,
            "name:uk": null,
            "name:de": null,
            "name:tr": null,
            "name:ru": null,
            "name:ar": "يلماز"
        }
    },
    {
        "lat": 41.054999,
        "lon": 28.8463876,
        "tags": {
            "addr:city": "Istanbul",
            "addr:district": "Bağcılar",
            "description": "",
            "opening_hours": null,
            "phone": null,
            "branch": null,
            "amenity": "watches",
            "mobile": null,
            "addr:street": null,
            "cuisine": null,
            "name": "On numara saat",
            "name:en": null,
            "name:uk": null,
            "name:de": null,
            "name:tr": null,
            "name:ru": null,
            "name:ar": "اون نومارا للساعات"
        }
    },
    {
        "lat": 41.0426309,
        "lon": 28.8438739,
        "tags": {
            "addr:city": "Istanbul",
            "addr:district": "Bağcılar",
            "description": "",
            "opening_hours": null,
            "phone": null,
            "branch": null,
            "amenity": "watches",
            "mobile": null,
            "addr:street": "Ahmet kabakli",
            "cuisine": null,
            "name": "Eroğllu",
            "name:en": null,
            "name:uk": null,
            "name:de": null,
            "name:tr": null,
            "name:ru": null,
            "name:ar": "ايرواغلو"
        }
    },
    {
        "lat": 41.0399112,
        "lon": 28.8626884,
        "tags": {
            "addr:city": "Istanbul",
            "addr:district": "Bağcılar",
            "description": "",
            "opening_hours": null,
            "phone": null,
            "branch": null,
            "amenity": "watches",
            "mobile": null,
            "addr:street": "fatih Caddesi",
            "cuisine": null,
            "name": "Teknik Saat Galerisi",
            "name:en": null,
            "name:uk": null,
            "name:de": null,
            "name:tr": null,
            "name:ru": null,
            "name:ar": "اقيلير تكنك ساعات"
        }
    },
    {
        "lat": 41.0342101,
        "lon": 28.8594583,
        "tags": {
            "addr:city": "Istanbul",
            "addr:district": "Bağcılar",
            "description": "",
            "opening_hours": null,
            "phone": null,
            "branch": null,
            "amenity": "watches",
            "mobile": null,
            "addr:street": "İstanbul cd",
            "cuisine": null,
            "name": "Şen saat",
            "name:en": null,
            "name:uk": null,
            "name:de": null,
            "name:tr": null,
            "name:ru": null,
            "name:ar": "ساعات شن"
        }
    },
    {
        "lat": 41.0342397,
        "lon": 28.8594365,
        "tags": {
            "addr:city": "Istanbul",
            "addr:district": "Bağcılar",
            "description": "",
            "opening_hours": null,
            "phone": null,
            "branch": null,
            "amenity": "watches",
            "mobile": null,
            "addr:street": "osmangazi Cd",
            "cuisine": null,
            "name": "Şen Saat",
            "name:en": null,
            "name:uk": null,
            "name:de": null,
            "name:tr": null,
            "name:ru": null,
            "name:ar": "شين ساعات"
        }
    },
    {
        "lat": 41.0319579,
        "lon": 28.8475678,
        "tags": {
            "addr:city": "Istanbul",
            "addr:district": "Bağcılar",
            "description": "",
            "opening_hours": null,
            "phone": null,
            "branch": null,
            "amenity": "watches",
            "mobile": null,
            "addr:street": "Hoca Ahmet Yesevi Caddesi",
            "cuisine": null,
            "name": "City saat shop",
            "name:en": null,
            "name:uk": null,
            "name:de": null,
            "name:tr": null,
            "name:ru": null,
            "name:ar": "محل بيع ساعات"
        }
    },
    {
        "lat": 41.021395,
        "lon": 28.8578147,
        "tags": {
            "addr:city": "Istanbul",
            "addr:district": "Bağcılar",
            "description": "",
            "opening_hours": null,
            "phone": null,
            "branch": null,
            "amenity": "watches",
            "mobile": null,
            "addr:street": "Bağcılar Caddesi",
            "cuisine": null,
            "name": "Oğ-Ba Saatçilik",
            "name:en": null,
            "name:uk": null,
            "name:de": null,
            "name:tr": null,
            "name:ru": null,
            "name:ar": "ساعاتي أوبا"
        }
    },
    {
        "lat": 41.0359943,
        "lon": 28.9839755,
        "tags": {
            "addr:city": "İstanbul",
            "addr:district": null,
            "description": "",
            "opening_hours": null,
            "phone": null,
            "branch": null,
            "amenity": "watches",
            "mobile": null,
            "addr:street": null,
            "cuisine": null,
            "name": "Swatch",
            "name:en": null,
            "name:uk": null,
            "name:de": null,
            "name:tr": null,
            "name:ru": null,
            "name:ar": null
        }
    },
    {
        "lat": 41.2615887,
        "lon": 28.7413875,
        "tags": {
            "addr:city": "İstanbul",
            "addr:district": null,
            "description": "",
            "opening_hours": null,
            "phone": null,
            "branch": null,
            "amenity": "watches",
            "mobile": null,
            "addr:street": null,
            "cuisine": null,
            "name": "Omega",
            "name:en": null,
            "name:uk": null,
            "name:de": null,
            "name:tr": null,
            "name:ru": null,
            "name:ar": null
        }
    },
    {
        "lat": 41.2614116,
        "lon": 28.7420262,
        "tags": {
            "addr:city": "İstanbul",
            "addr:district": null,
            "description": "",
            "opening_hours": null,
            "phone": null,
            "branch": null,
            "amenity": "watches",
            "mobile": null,
            "addr:street": null,
            "cuisine": null,
            "name": "Saat&Saat",
            "name:en": null,
            "name:uk": null,
            "name:de": null,
            "name:tr": null,
            "name:ru": null,
            "name:ar": null
        }
    },
    {
        "lat": 41.2616466,
        "lon": 28.7460311,
        "tags": {
            "addr:city": "İstanbul",
            "addr:district": null,
            "description": "",
            "opening_hours": null,
            "phone": null,
            "branch": null,
            "amenity": "watches",
            "mobile": null,
            "addr:street": null,
            "cuisine": null,
            "name": "Swatch",
            "name:en": null,
            "name:uk": null,
            "name:de": null,
            "name:tr": null,
            "name:ru": null,
            "name:ar": null
        }
    },
    {
        "lat": 41.134853,
        "lon": 29.0907355,
        "tags": {
            "addr:city": "İstanbul",
            "addr:district": null,
            "description": "",
            "opening_hours": null,
            "phone": null,
            "branch": null,
            "amenity": "watches",
            "mobile": null,
            "addr:street": null,
            "cuisine": null,
            "name": "Yavuz Saat ve Gümüş",
            "name:en": null,
            "name:uk": null,
            "name:de": null,
            "name:tr": null,
            "name:ru": null,
            "name:ar": null
        }
    },
    {
        "lat": 41.0213111,
        "lon": 28.5810757,
        "tags": {
            "addr:city": "İstanbul",
            "addr:district": null,
            "description": "",
            "opening_hours": null,
            "phone": null,
            "branch": null,
            "amenity": "watches",
            "mobile": null,
            "addr:street": null,
            "cuisine": null,
            "name": "Zirve Saat",
            "name:en": null,
            "name:uk": null,
            "name:de": null,
            "name:tr": null,
            "name:ru": null,
            "name:ar": null
        }
    },
    {
        "lat": 40.8890314,
        "lon": 29.1887785,
        "tags": {
            "addr:city": "İstanbul",
            "addr:district": null,
            "description": "",
            "opening_hours": null,
            "phone": null,
            "branch": null,
            "amenity": "watches",
            "mobile": null,
            "addr:street": null,
            "cuisine": null,
            "name": "Doğu Saat",
            "name:en": null,
            "name:uk": null,
            "name:de": null,
            "name:tr": null,
            "name:ru": null,
            "name:ar": null
        }
    },
    {
        "lat": 40.9643662,
        "lon": 29.0729004,
        "tags": {
            "addr:city": "İstanbul",
            "addr:district": "Kadıköy",
            "description": "",
            "opening_hours": null,
            "phone": null,
            "branch": null,
            "amenity": "watches",
            "mobile": null,
            "addr:street": "Bağdat Caddesi",
            "cuisine": null,
            "name": "Saatçi Arif",
            "name:en": null,
            "name:uk": null,
            "name:de": null,
            "name:tr": null,
            "name:ru": null,
            "name:ar": null
        }
    },
    {
        "lat": 41.0360505,
        "lon": 28.9841409,
        "tags": {
            "addr:city": "İstanbul",
            "addr:district": null,
            "description": "",
            "opening_hours": null,
            "phone": null,
            "branch": null,
            "amenity": "watches",
            "mobile": null,
            "addr:street": null,
            "cuisine": null,
            "name": "Swatch",
            "name:en": null,
            "name:uk": null,
            "name:de": null,
            "name:tr": null,
            "name:ru": null,
            "name:ar": null
        }
    },
    {
        "lat": 41.0211788,
        "lon": 28.5794341,
        "tags": {
            "addr:city": "İstanbul",
            "addr:district": null,
            "description": "",
            "opening_hours": null,
            "phone": null,
            "branch": null,
            "amenity": "watches",
            "mobile": null,
            "addr:street": null,
            "cuisine": null,
            "name": "Çağrı Saat",
            "name:en": null,
            "name:uk": null,
            "name:de": null,
            "name:tr": null,
            "name:ru": null,
            "name:ar": null
        }
    },
    {
        "lat": 40.9801717,
        "lon": 29.1128876,
        "tags": {
            "addr:city": "İstanbul",
            "addr:district": null,
            "description": "",
            "opening_hours": null,
            "phone": null,
            "branch": null,
            "amenity": "watches",
            "mobile": null,
            "addr:street": null,
            "cuisine": null,
            "name": "Buse Gümüş-Saat",
            "name:en": null,
            "name:uk": null,
            "name:de": null,
            "name:tr": null,
            "name:ru": null,
            "name:ar": null
        }
    },
    {
        "lat": 40.9790489,
        "lon": 29.1136465,
        "tags": {
            "addr:city": "İstanbul",
            "addr:district": null,
            "description": "",
            "opening_hours": null,
            "phone": null,
            "branch": null,
            "amenity": "watches",
            "mobile": null,
            "addr:street": null,
            "cuisine": null,
            "name": "Ak Saat & Gümüş",
            "name:en": null,
            "name:uk": null,
            "name:de": null,
            "name:tr": null,
            "name:ru": null,
            "name:ar": null
        }
    },
    {
        "lat": 40.9799963,
        "lon": 29.1136898,
        "tags": {
            "addr:city": "İstanbul",
            "addr:district": null,
            "description": "",
            "opening_hours": null,
            "phone": null,
            "branch": null,
            "amenity": "watches",
            "mobile": null,
            "addr:street": null,
            "cuisine": null,
            "name": "Asır Saatçilik",
            "name:en": null,
            "name:uk": null,
            "name:de": null,
            "name:tr": null,
            "name:ru": null,
            "name:ar": null
        }
    },
    {
        "lat": 40.9736569,
        "lon": 29.0487235,
        "tags": {
            "addr:city": "İstanbul",
            "addr:district": null,
            "description": "",
            "opening_hours": null,
            "phone": null,
            "branch": null,
            "amenity": "watches",
            "mobile": null,
            "addr:street": null,
            "cuisine": null,
            "name": "Meka Saat",
            "name:en": null,
            "name:uk": null,
            "name:de": null,
            "name:tr": null,
            "name:ru": null,
            "name:ar": null
        }
    },
    {
        "lat": 40.9788748,
        "lon": 29.077424,
        "tags": {
            "addr:city": "İstanbul",
            "addr:district": null,
            "description": "",
            "opening_hours": null,
            "phone": null,
            "branch": null,
            "amenity": "watches",
            "mobile": null,
            "addr:street": null,
            "cuisine": null,
            "name": "Evrim Saat & Elektronik",
            "name:en": null,
            "name:uk": null,
            "name:de": null,
            "name:tr": null,
            "name:ru": null,
            "name:ar": null
        }
    },
    {
        "lat": 41.0477215,
        "lon": 28.9326608,
        "tags": {
            "addr:city": "İstanbul",
            "addr:district": null,
            "description": "",
            "opening_hours": null,
            "phone": null,
            "branch": null,
            "amenity": "watches",
            "mobile": null,
            "addr:street": null,
            "cuisine": null,
            "name": "Başar Saat",
            "name:en": null,
            "name:uk": null,
            "name:de": null,
            "name:tr": null,
            "name:ru": null,
            "name:ar": null
        }
    },
    {
        "lat": 40.9819514,
        "lon": 29.1316538,
        "tags": {
            "addr:city": "İstanbul",
            "addr:district": null,
            "description": "",
            "opening_hours": null,
            "phone": null,
            "branch": null,
            "amenity": "watches",
            "mobile": null,
            "addr:street": null,
            "cuisine": null,
            "name": "Saat&Saat",
            "name:en": null,
            "name:uk": null,
            "name:de": null,
            "name:tr": null,
            "name:ru": null,
            "name:ar": null
        }
    },
    {
        "lat": 40.9898797,
        "lon": 29.0263206,
        "tags": {
            "addr:city": "İstanbul",
            "addr:district": null,
            "description": "",
            "opening_hours": null,
            "phone": null,
            "branch": null,
            "amenity": "watches",
            "mobile": null,
            "addr:street": null,
            "cuisine": null,
            "name": "Saat Kulesi",
            "name:en": null,
            "name:uk": null,
            "name:de": null,
            "name:tr": null,
            "name:ru": null,
            "name:ar": null
        }
    },
    {
        "lat": 40.985944,
        "lon": 29.0251676,
        "tags": {
            "addr:city": "İstanbul",
            "addr:district": null,
            "description": "",
            "opening_hours": null,
            "phone": null,
            "branch": null,
            "amenity": "watches",
            "mobile": null,
            "addr:street": null,
            "cuisine": null,
            "name": null,
            "name:en": null,
            "name:uk": null,
            "name:de": null,
            "name:tr": null,
            "name:ru": null,
            "name:ar": null
        }
    },
    {
        "lat": 41.0244052,
        "lon": 29.0160343,
        "tags": {
            "addr:city": "İstanbul",
            "addr:district": null,
            "description": "",
            "opening_hours": null,
            "phone": null,
            "branch": null,
            "amenity": "watches",
            "mobile": null,
            "addr:street": null,
            "cuisine": null,
            "name": "Öğretmen Pazarı Saat",
            "name:en": null,
            "name:uk": null,
            "name:de": null,
            "name:tr": null,
            "name:ru": null,
            "name:ar": null
        }
    },
    {
        "lat": 41.0048146,
        "lon": 28.6894538,
        "tags": {
            "addr:city": "İstanbul",
            "addr:district": null,
            "description": "",
            "opening_hours": null,
            "phone": null,
            "branch": null,
            "amenity": "watches",
            "mobile": null,
            "addr:street": null,
            "cuisine": null,
            "name": "Saat Deposu",
            "name:en": null,
            "name:uk": null,
            "name:de": null,
            "name:tr": null,
            "name:ru": null,
            "name:ar": null
        }
    },
    {
        "lat": 41.0255985,
        "lon": 29.0906177,
        "tags": {
            "addr:city": "İstanbul",
            "addr:district": null,
            "description": "",
            "opening_hours": null,
            "phone": null,
            "branch": null,
            "amenity": "watches",
            "mobile": null,
            "addr:street": null,
            "cuisine": null,
            "name": null,
            "name:en": null,
            "name:uk": null,
            "name:de": null,
            "name:tr": null,
            "name:ru": null,
            "name:ar": null
        }
    },
    {
        "lat": 41.0248773,
        "lon": 29.0893283,
        "tags": {
            "addr:city": "İstanbul",
            "addr:district": null,
            "description": "",
            "opening_hours": null,
            "phone": null,
            "branch": null,
            "amenity": "watches",
            "mobile": null,
            "addr:street": null,
            "cuisine": null,
            "name": "Saat Kulesi",
            "name:en": null,
            "name:uk": null,
            "name:de": null,
            "name:tr": "Saat Kulesi",
            "name:ru": null,
            "name:ar": null
        }
    }
]