[
    {
        "lat": 41.0116219,
        "lon": 28.9437037,
        "tags": {
            "addr:city": "Istanbul",
            "addr:district": "Fatih",
            "description": "",
            "opening_hours": null,
            "phone": "02125328503",
            "branch": null,
            "amenity": "water",
            "mobile": null,
            "addr:street": "Softa Sinan Sokak",
            "cuisine": null,
            "name": "Hamidiye Su",
            "name:en": null,
            "name:uk": null,
            "name:de": null,
            "name:tr": null,
            "name:ru": null,
            "name:ar": "الحميدية للمياه"
        }
    },
    {
        "lat": 40.9994082,
        "lon": 28.9272151,
        "tags": {
            "addr:city": "Istanbul",
            "addr:district": "Fatih",
            "description": "",
            "opening_hours": null,
            "phone": "02125301717",
            "branch": null,
            "amenity": "water",
            "mobile": null,
            "addr:street": "Yeni Kemancı Siteleri Sokak",
            "cuisine": null,
            "name": "İlker Bucan",
            "name:en": null,
            "name:uk": null,
            "name:de": null,
            "name:tr": null,
            "name:ru": null,
            "name:ar": "إلكر بوجان للماء"
        }
    },
    {
        "lat": 41.0004364,
        "lon": 28.9302807,
        "tags": {
            "addr:city": "Istanbul",
            "addr:district": "Fatih",
            "description": "",
            "opening_hours": null,
            "phone": null,
            "branch": null,
            "amenity": "water",
            "mobile": null,
            "addr:street": "Hacı Kadın Çeşmesi Caddesi",
            "cuisine": null,
            "name": "Elmacık Su",
            "name:en": null,
            "name:uk": null,
            "name:de": null,
            "name:tr": null,
            "name:ru": null,
            "name:ar": "إيلماجيك للماء"
        }
    },
    {
        "lat": 41.011735,
        "lon": 28.9286722,
        "tags": {
            "addr:city": "Istanbul",
            "addr:district": "Fatih",
            "description": "",
            "opening_hours": null,
            "phone": "02125886684",
            "branch": null,
            "amenity": "water",
            "mobile": null,
            "addr:street": "Mecit Bey Sokak",
            "cuisine": null,
            "name": "Kuvars Su",
            "name:en": null,
            "name:uk": null,
            "name:de": null,
            "name:tr": null,
            "name:ru": null,
            "name:ar": "كوفارس للماء"
        }
    },
    {
        "lat": 41.0094789,
        "lon": 28.9327348,
        "tags": {
            "addr:city": "Istanbul",
            "addr:district": "Fatih",
            "description": "",
            "opening_hours": null,
            "phone": "02125305061",
            "branch": null,
            "amenity": "water",
            "mobile": null,
            "addr:street": "Cevdetpaşa Caddesi",
            "cuisine": null,
            "name": "Hayat Su",
            "name:en": null,
            "name:uk": null,
            "name:de": null,
            "name:tr": null,
            "name:ru": null,
            "name:ar": "حياة سو"
        }
    },
    {
        "lat": 41.00961,
        "lon": 28.9326544,
        "tags": {
            "addr:city": "Istanbul",
            "addr:district": "Fatih",
            "description": "",
            "opening_hours": null,
            "phone": "05435442530",
            "branch": null,
            "amenity": "water",
            "mobile": null,
            "addr:street": "Cevdetpaşa Caddesi",
            "cuisine": null,
            "name": "Kemersu",
            "name:en": null,
            "name:uk": null,
            "name:de": null,
            "name:tr": null,
            "name:ru": null,
            "name:ar": "كيميرسو للماء"
        }
    },
    {
        "lat": 41.0094308,
        "lon": 28.9358326,
        "tags": {
            "addr:city": "Istanbul",
            "addr:district": "Fatih",
            "description": "",
            "opening_hours": null,
            "phone": "4440222",
            "branch": null,
            "amenity": "water",
            "mobile": null,
            "addr:street": "Cevdetpaşa Caddesi",
            "cuisine": null,
            "name": "Erikli Su",
            "name:en": null,
            "name:uk": null,
            "name:de": null,
            "name:tr": null,
            "name:ru": null,
            "name:ar": "إريكلي للماء"
        }
    },
    {
        "lat": 41.0029836,
        "lon": 28.9338216,
        "tags": {
            "addr:city": "Istanbul",
            "addr:district": "Fatih",
            "description": "",
            "opening_hours": null,
            "phone": null,
            "branch": null,
            "amenity": "water",
            "mobile": null,
            "addr:street": "Marmara Caddesi",
            "cuisine": null,
            "name": "Fatih su",
            "name:en": null,
            "name:uk": null,
            "name:de": null,
            "name:tr": null,
            "name:ru": null,
            "name:ar": "فاتح للماء"
        }
    },
    {
        "lat": 41.0605963,
        "lon": 28.9842059,
        "tags": {
            "addr:city": "İstanbul",
            "addr:district": null,
            "description": "",
            "opening_hours": null,
            "phone": null,
            "branch": null,
            "amenity": "water",
            "mobile": null,
            "addr:street": null,
            "cuisine": null,
            "name": "Damla Su",
            "name:en": null,
            "name:uk": null,
            "name:de": null,
            "name:tr": null,
            "name:ru": null,
            "name:ar": null
        }
    },
    {
        "lat": 41.00707,
        "lon": 28.9070903,
        "tags": {
            "addr:city": "Istanbul",
            "addr:district": "Zeytinburnu",
            "description": "",
            "opening_hours": null,
            "phone": "05392558443",
            "branch": null,
            "amenity": "water_point",
            "mobile": null,
            "addr:street": "G-22 sk",
            "cuisine": null,
            "name": "gökhan su",
            "name:en": null,
            "name:uk": null,
            "name:de": null,
            "name:tr": null,
            "name:ru": null,
            "name:ar": "غوكهان سو"
        }
    },
    {
        "lat": 40.9755517,
        "lon": 28.7203669,
        "tags": {
            "addr:city": "İstanbul",
            "addr:district": null,
            "description": "",
            "opening_hours": null,
            "phone": null,
            "branch": null,
            "amenity": "water",
            "mobile": null,
            "addr:street": null,
            "cuisine": null,
            "name": "Doğa Su",
            "name:en": null,
            "name:uk": null,
            "name:de": null,
            "name:tr": null,
            "name:ru": null,
            "name:ar": null
        }
    },
    {
        "lat": 40.9807404,
        "lon": 29.1123388,
        "tags": {
            "addr:city": "İstanbul",
            "addr:district": null,
            "description": "",
            "opening_hours": null,
            "phone": null,
            "branch": null,
            "amenity": "water",
            "mobile": null,
            "addr:street": null,
            "cuisine": null,
            "name": "Bay-Kan Su",
            "name:en": null,
            "name:uk": null,
            "name:de": null,
            "name:tr": null,
            "name:ru": null,
            "name:ar": null
        }
    },
    {
        "lat": 41.1142438,
        "lon": 28.9977863,
        "tags": {
            "addr:city": "İstanbul",
            "addr:district": null,
            "description": "",
            "opening_hours": null,
            "phone": null,
            "branch": null,
            "amenity": "water",
            "mobile": null,
            "addr:street": null,
            "cuisine": null,
            "name": "Saka Su",
            "name:en": null,
            "name:uk": null,
            "name:de": null,
            "name:tr": null,
            "name:ru": null,
            "name:ar": null
        }
    },
    {
        "lat": 41.0646944,
        "lon": 28.9145942,
        "tags": {
            "addr:city": "İstanbul",
            "addr:district": null,
            "description": "",
            "opening_hours": null,
            "phone": null,
            "branch": null,
            "amenity": "water",
            "mobile": null,
            "addr:street": null,
            "cuisine": null,
            "name": "Su Deposu",
            "name:en": null,
            "name:uk": null,
            "name:de": null,
            "name:tr": null,
            "name:ru": null,
            "name:ar": null
        }
    },
    {
        "lat": 41.0543916,
        "lon": 28.3687377,
        "tags": {
            "addr:city": "İstanbul",
            "addr:district": null,
            "description": "",
            "opening_hours": null,
            "phone": "+905389824173",
            "branch": null,
            "amenity": "water",
            "mobile": null,
            "addr:street": null,
            "cuisine": null,
            "name": "Eren Su",
            "name:en": null,
            "name:uk": null,
            "name:de": null,
            "name:tr": null,
            "name:ru": null,
            "name:ar": null
        }
    },
    {
        "lat": 40.9873764,
        "lon": 29.0317151,
        "tags": {
            "addr:city": "İstanbul",
            "addr:district": null,
            "description": "",
            "opening_hours": null,
            "phone": null,
            "branch": null,
            "amenity": "water",
            "mobile": null,
            "addr:street": null,
            "cuisine": null,
            "name": "Hamidiye Su",
            "name:en": null,
            "name:uk": null,
            "name:de": null,
            "name:tr": null,
            "name:ru": null,
            "name:ar": null
        }
    }
]