[
    {
        "lat": 41.0836951,
        "lon": 28.9830126,
        "tags": {
            "addr:city": "İstanbul",
            "addr:district": null,
            "description": "",
            "opening_hours": null,
            "phone": null,
            "branch": null,
            "amenity": "wholesale",
            "mobile": null,
            "addr:street": null,
            "cuisine": null,
            "name": "METRO",
            "name:en": null,
            "name:uk": null,
            "name:de": null,
            "name:tr": null,
            "name:ru": null,
            "name:ar": null
        }
    },
    {
        "lat": 40.9879199,
        "lon": 28.8946392,
        "tags": {
            "addr:city": "Istanbul",
            "addr:district": "Zeytinburnu",
            "description": "",
            "opening_hours": null,
            "phone": "05336218582",
            "branch": null,
            "amenity": "wholesale",
            "mobile": null,
            "addr:street": "26/1 sokak",
            "cuisine": null,
            "name": "Güneş Tekstil",
            "name:en": null,
            "name:uk": null,
            "name:de": null,
            "name:tr": null,
            "name:ru": null,
            "name:ar": "تقسيط للقماش"
        }
    },
    {
        "lat": 40.9879449,
        "lon": 28.8943964,
        "tags": {
            "addr:city": "Istanbul",
            "addr:district": "Zeytinburnu",
            "description": "",
            "opening_hours": null,
            "phone": null,
            "branch": null,
            "amenity": "wholesale",
            "mobile": null,
            "addr:street": "26/1 sokak",
            "cuisine": null,
            "name": "ATP Tekstil",
            "name:en": null,
            "name:uk": null,
            "name:de": null,
            "name:tr": null,
            "name:ru": null,
            "name:ar": null
        }
    },
    {
        "lat": 40.9887614,
        "lon": 28.8954119,
        "tags": {
            "addr:city": "Istanbul",
            "addr:district": "Zeytinburnu",
            "description": "",
            "opening_hours": null,
            "phone": "05459263736",
            "branch": null,
            "amenity": "wholesale",
            "mobile": null,
            "addr:street": "Şht. Er Yavuz Bahar Sokak",
            "cuisine": null,
            "name": "Yıldız Tekstil",
            "name:en": null,
            "name:uk": null,
            "name:de": null,
            "name:tr": null,
            "name:ru": null,
            "name:ar": "يبدز تقسيطلار"
        }
    },
    {
        "lat": 40.989003,
        "lon": 28.8948158,
        "tags": {
            "addr:city": "Istanbul",
            "addr:district": "Zeytinburnu",
            "description": "",
            "opening_hours": null,
            "phone": "05378194855",
            "branch": null,
            "amenity": "wholesale",
            "mobile": null,
            "addr:street": "28/3 sokak",
            "cuisine": null,
            "name": "Kardeş Tekstil",
            "name:en": null,
            "name:uk": null,
            "name:de": null,
            "name:tr": null,
            "name:ru": null,
            "name:ar": "قاردش تكستيل"
        }
    },
    {
        "lat": 40.9857637,
        "lon": 28.897289,
        "tags": {
            "addr:city": "Istanbul",
            "addr:district": "Zeytinburnu",
            "description": "",
            "opening_hours": null,
            "phone": null,
            "branch": null,
            "amenity": "wholesale",
            "mobile": null,
            "addr:street": "Şht. Piyade Er Yaşar Yeşilkır sokak",
            "cuisine": null,
            "name": "alçak tavan",
            "name:en": null,
            "name:uk": null,
            "name:de": null,
            "name:tr": null,
            "name:ru": null,
            "name:ar": "ألتشاك تافان"
        }
    },
    {
        "lat": 40.8669592,
        "lon": 29.2779046,
        "tags": {
            "addr:city": "İstanbul",
            "addr:district": null,
            "description": "",
            "opening_hours": null,
            "phone": null,
            "branch": null,
            "amenity": "wholesale",
            "mobile": null,
            "addr:street": null,
            "cuisine": null,
            "name": "METRO",
            "name:en": null,
            "name:uk": null,
            "name:de": null,
            "name:tr": null,
            "name:ru": null,
            "name:ar": null
        }
    },
    {
        "lat": 40.9053973,
        "lon": 29.2838151,
        "tags": {
            "addr:city": "İstanbul",
            "addr:district": null,
            "description": "",
            "opening_hours": null,
            "phone": null,
            "branch": null,
            "amenity": "wholesale",
            "mobile": null,
            "addr:street": null,
            "cuisine": null,
            "name": "İpek Ambalaj Toptan Temizlik Ürünleri",
            "name:en": null,
            "name:uk": null,
            "name:de": null,
            "name:tr": null,
            "name:ru": null,
            "name:ar": null
        }
    },
    {
        "lat": 40.897193,
        "lon": 29.2039265,
        "tags": {
            "addr:city": "İstanbul",
            "addr:district": null,
            "description": "",
            "opening_hours": null,
            "phone": null,
            "branch": null,
            "amenity": "wholesale",
            "mobile": null,
            "addr:street": null,
            "cuisine": null,
            "name": "Kapasite",
            "name:en": null,
            "name:uk": null,
            "name:de": null,
            "name:tr": null,
            "name:ru": null,
            "name:ar": null
        }
    },
    {
        "lat": 41.0461611,
        "lon": 28.9843456,
        "tags": {
            "addr:city": "İstanbul",
            "addr:district": null,
            "description": "",
            "opening_hours": null,
            "phone": null,
            "branch": null,
            "amenity": "wholesale",
            "mobile": null,
            "addr:street": null,
            "cuisine": null,
            "name": "Fervente Pole & Pole Fashion",
            "name:en": null,
            "name:uk": null,
            "name:de": null,
            "name:tr": null,
            "name:ru": null,
            "name:ar": null
        }
    },
    {
        "lat": 40.9780459,
        "lon": 29.2051339,
        "tags": {
            "addr:city": "İstanbul",
            "addr:district": null,
            "description": "",
            "opening_hours": null,
            "phone": null,
            "branch": null,
            "amenity": "wholesale",
            "mobile": null,
            "addr:street": null,
            "cuisine": null,
            "name": "Emi Lojistik",
            "name:en": null,
            "name:uk": null,
            "name:de": null,
            "name:tr": null,
            "name:ru": null,
            "name:ar": null
        }
    },
    {
        "lat": 41.0145662,
        "lon": 28.8889163,
        "tags": {
            "addr:city": "Mehmet Nesih Özmen Mahallesi",
            "addr:district": null,
            "description": "",
            "opening_hours": "Mo-Fr 09:00-18:00",
            "phone": "+905546011348",
            "branch": null,
            "amenity": "wholesale",
            "mobile": null,
            "addr:street": "Zeki Sokağı",
            "cuisine": null,
            "name": "Nero & Bianco - Depo",
            "name:en": null,
            "name:uk": null,
            "name:de": null,
            "name:tr": null,
            "name:ru": null,
            "name:ar": null
        }
    },
    {
        "lat": 41.0837723,
        "lon": 28.9222511,
        "tags": {
            "addr:city": "İstanbul",
            "addr:district": null,
            "description": "",
            "opening_hours": null,
            "phone": null,
            "branch": null,
            "amenity": "wholesale",
            "mobile": null,
            "addr:street": null,
            "cuisine": null,
            "name": "Gözenoğlu Gıda",
            "name:en": null,
            "name:uk": null,
            "name:de": null,
            "name:tr": null,
            "name:ru": null,
            "name:ar": null
        }
    },
    {
        "lat": 41.1037247,
        "lon": 28.8663659,
        "tags": {
            "addr:city": "İstanbul",
            "addr:district": null,
            "description": "",
            "opening_hours": null,
            "phone": null,
            "branch": null,
            "amenity": "wholesale",
            "mobile": null,
            "addr:street": null,
            "cuisine": null,
            "name": "Sultangazi Toptancısı",
            "name:en": null,
            "name:uk": null,
            "name:de": null,
            "name:tr": null,
            "name:ru": null,
            "name:ar": null
        }
    },
    {
        "lat": 41.0667991,
        "lon": 28.8331827,
        "tags": {
            "addr:city": "İstanbul",
            "addr:district": "Bağcılar",
            "description": "",
            "opening_hours": "Mo-Fr 09:00-18:00",
            "phone": "+90 212 659 5150",
            "branch": null,
            "amenity": "wholesale",
            "mobile": null,
            "addr:street": "İSTOÇ 2. Cadde",
            "cuisine": null,
            "name": "Promostar Promosyon Ürünleri",
            "name:en": null,
            "name:uk": null,
            "name:de": null,
            "name:tr": null,
            "name:ru": null,
            "name:ar": null
        }
    },
    {
        "lat": 41.0667555,
        "lon": 28.8330871,
        "tags": {
            "addr:city": "İstanbul",
            "addr:district": "Bağcılar",
            "description": "",
            "opening_hours": "Mo-Fr 09:00-18:00",
            "phone": "+90 212 659 5150",
            "branch": null,
            "amenity": "wholesale",
            "mobile": null,
            "addr:street": "İSTOÇ 2. Cadde",
            "cuisine": null,
            "name": "GreenStyle",
            "name:en": null,
            "name:uk": null,
            "name:de": null,
            "name:tr": null,
            "name:ru": null,
            "name:ar": null
        }
    },
    {
        "lat": 41.1365911,
        "lon": 28.8202028,
        "tags": {
            "addr:city": "İstanbul",
            "addr:district": null,
            "description": "",
            "opening_hours": null,
            "phone": null,
            "branch": null,
            "amenity": "wholesale",
            "mobile": null,
            "addr:street": null,
            "cuisine": null,
            "name": "Ambalaj Temizlik Malzemeleri Toptan Satış",
            "name:en": null,
            "name:uk": null,
            "name:de": null,
            "name:tr": null,
            "name:ru": null,
            "name:ar": null
        }
    },
    {
        "lat": 41.0191707,
        "lon": 28.9599051,
        "tags": {
            "addr:city": "Istanbul",
            "addr:district": "Fatih",
            "description": "",
            "opening_hours": "Mo-Sa 08:00-18:00",
            "phone": "+90 53",
            "branch": null,
            "amenity": "wholesale",
            "mobile": null,
            "addr:street": "Hacı Kadın Caddesi",
            "cuisine": null,
            "name": "JMK Güvenlik Teknolojileri",
            "name:en": null,
            "name:uk": null,
            "name:de": null,
            "name:tr": null,
            "name:ru": null,
            "name:ar": null
        }
    }
]